{"type":"Topology","objects":{"foo":{"type":"GeometryCollection","geometries":[{"type":"MultiPolygon","arcs":[[[0]]],"properties":{"postal_code":"98557","realtor_list_price":453435,"realtor_list_price_yoy":-0.0189,"realtor_list_price_base":0.6846,"realtor_active_listings":13.667,"realtor_active_listings_yoy":0.2424,"realtor_active_listings_base":0.3201,"realtor_new_listings":3.333,"realtor_new_listings_yoy":-0.4444,"realtor_new_listings_base":-0.599,"realtor_days_on_market":52.2,"realtor_days_on_market_yoy":0.5925,"realtor_days_on_market_base":0.2525,"zhvi":389354.342,"zhvi_yoy":0.0129,"zhvi_base":0.7668,"zori":"NA","zori_yoy":"NA","zori_base":"NA"}},{"type":"MultiPolygon","arcs":[[[1,2]],[[3,4]]],"properties":{"postal_code":"98520","realtor_list_price":308173.077,"realtor_list_price_yoy":-0.06,"realtor_list_price_base":0.7904,"realtor_active_listings":104.667,"realtor_active_listings_yoy":0.2077,"realtor_active_listings_base":0.7509,"realtor_new_listings":26,"realtor_new_listings_yoy":-0.1522,"realtor_new_listings_base":-0.3446,"realtor_days_on_market":67.59,"realtor_days_on_market_yoy":-0.0173,"realtor_days_on_market_base":0.4876,"zhvi":275708.725,"zhvi_yoy":-0.0319,"zhvi_base":0.7563,"zori":1392.083,"zori_yoy":0.056,"zori_base":"NA"}},{"type":"MultiPolygon","arcs":[[[5]],[[6,7,8,9,10,-2,11,12,13,14]]],"properties":{"postal_code":"98550","realtor_list_price":299683.333,"realtor_list_price_yoy":-0.0197,"realtor_list_price_base":1.0177,"realtor_active_listings":63.667,"realtor_active_listings_yoy":-0.1157,"realtor_active_listings_base":0.6388,"realtor_new_listings":12,"realtor_new_listings_yoy":-0.3793,"realtor_new_listings_base":-0.4854,"realtor_days_on_market":69.333,"realtor_days_on_market_yoy":-0.0022,"realtor_days_on_market_base":0.3115,"zhvi":244116.167,"zhvi_yoy":-0.0417,"zhvi_base":1.0072,"zori":1581.667,"zori_yoy":"NA","zori_base":"NA"}},{"type":"MultiPolygon","arcs":[[[15,16,17,18,19,-9,20]]],"properties":{"postal_code":"98552","realtor_list_price":"NA","realtor_list_price_yoy":"NA","realtor_list_price_base":"NA","realtor_active_listings":2.333,"realtor_active_listings_yoy":1.3333,"realtor_active_listings_base":"NA","realtor_new_listings":0,"realtor_new_listings_yoy":"NaN","realtor_new_listings_base":"NA","realtor_days_on_market":"NA","realtor_days_on_market_yoy":"NA","realtor_days_on_market_base":"NA","zhvi":"NA","zhvi_yoy":"NA","zhvi_base":"NA","zori":"NA","zori_yoy":"NA","zori_base":"NA"}},{"type":"MultiPolygon","arcs":[[[21,22,23,24]]],"properties":{"postal_code":"98571","realtor_list_price":999800,"realtor_list_price_yoy":-0.1337,"realtor_list_price_base":"NA","realtor_active_listings":70.667,"realtor_active_listings_yoy":0.191,"realtor_active_listings_base":4.979,"realtor_new_listings":6.667,"realtor_new_listings_yoy":-0.1667,"realtor_new_listings_base":0.7244,"realtor_days_on_market":95.2,"realtor_days_on_market_yoy":-0.0904,"realtor_days_on_market_base":"NA","zhvi":752080.656,"zhvi_yoy":-0.0197,"zhvi_base":0.6106,"zori":"NA","zori_yoy":"NA","zori_base":"NA"}},{"type":"MultiPolygon","arcs":[[[25,26,-10,-20]]],"properties":{"postal_code":"98575","realtor_list_price":"NA","realtor_list_price_yoy":"NA","realtor_list_price_base":"NA","realtor_active_listings":1.333,"realtor_active_listings_yoy":-0.3333,"realtor_active_listings_base":"NA","realtor_new_listings":0,"realtor_new_listings_yoy":"NaN","realtor_new_listings_base":"NA","realtor_days_on_market":"NA","realtor_days_on_market_yoy":"NA","realtor_days_on_market_base":"NA","zhvi":"NA","zhvi_yoy":"NA","zhvi_base":"NA","zori":"NA","zori_yoy":"NA","zori_base":"NA"}},{"type":"MultiPolygon","arcs":[[[27,-18,28]]],"properties":{"postal_code":"98566","realtor_list_price":"NA","realtor_list_price_yoy":"NA","realtor_list_price_base":"NA","realtor_active_listings":1,"realtor_active_listings_yoy":0,"realtor_active_listings_base":-0.0885,"realtor_new_listings":0,"realtor_new_listings_yoy":"NaN","realtor_new_listings_base":-1,"realtor_days_on_market":"NA","realtor_days_on_market_yoy":"NA","realtor_days_on_market_base":"NA","zhvi":"NA","zhvi_yoy":"NA","zhvi_base":"NA","zori":"NA","zori_yoy":"NA","zori_base":"NA"}},{"type":"MultiPolygon","arcs":[[[29]]],"properties":{"postal_code":"98583","realtor_list_price":"NA","realtor_list_price_yoy":"NA","realtor_list_price_base":"NA","realtor_active_listings":1,"realtor_active_listings_yoy":-0.5,"realtor_active_listings_base":"NA","realtor_new_listings":0,"realtor_new_listings_yoy":"NaN","realtor_new_listings_base":"NA","realtor_days_on_market":"NA","realtor_days_on_market_yoy":"NA","realtor_days_on_market_base":"NA","zhvi":"NA","zhvi_yoy":"NA","zhvi_base":"NA","zori":"NA","zori_yoy":"NA","zori_base":"NA"}},{"type":"MultiPolygon","arcs":[[[-16,30,31,32]]],"properties":{"postal_code":"98587","realtor_list_price":175000,"realtor_list_price_yoy":"NA","realtor_list_price_base":"NA","realtor_active_listings":1,"realtor_active_listings_yoy":-0.4,"realtor_active_listings_base":-0.2234,"realtor_new_listings":0.667,"realtor_new_listings_yoy":"Inf","realtor_new_listings_base":"NA","realtor_days_on_market":"NA","realtor_days_on_market_yoy":"NA","realtor_days_on_market_base":"NA","zhvi":"NA","zhvi_yoy":"NA","zhvi_base":"NA","zori":"NA","zori_yoy":"NA","zori_base":"NA"}},{"type":"MultiPolygon","arcs":[[[-26,-19,-28,33]]],"properties":{"postal_code":"98526","realtor_list_price":"NA","realtor_list_price_yoy":"NA","realtor_list_price_base":"NA","realtor_active_listings":1,"realtor_active_listings_yoy":0,"realtor_active_listings_base":"NA","realtor_new_listings":0,"realtor_new_listings_yoy":"NaN","realtor_new_listings_base":"NA","realtor_days_on_market":"NA","realtor_days_on_market_yoy":"NA","realtor_days_on_market_base":"NA","zhvi":"NA","zhvi_yoy":"NA","zhvi_base":"NA","zori":"NA","zori_yoy":"NA","zori_base":"NA"}},{"type":"MultiPolygon","arcs":[[[-23,34,-7,35,36]]],"properties":{"postal_code":"98535","realtor_list_price":"NA","realtor_list_price_yoy":"NA","realtor_list_price_base":"NA","realtor_active_listings":7.667,"realtor_active_listings_yoy":-0.3611,"realtor_active_listings_base":0.033,"realtor_new_listings":0,"realtor_new_listings_yoy":-1,"realtor_new_listings_base":-1,"realtor_days_on_market":"NA","realtor_days_on_market_yoy":"NA","realtor_days_on_market_base":"NA","zhvi":249369.223,"zhvi_yoy":-0.0145,"zhvi_base":0.5478,"zori":"NA","zori_yoy":"NA","zori_base":"NA"}},{"type":"MultiPolygon","arcs":[[[-32,37,-25,38]]],"properties":{"postal_code":"98562","realtor_list_price":687175,"realtor_list_price_yoy":"NA","realtor_list_price_base":"NA","realtor_active_listings":8.667,"realtor_active_listings_yoy":0.3,"realtor_active_listings_base":-0.0485,"realtor_new_listings":0.667,"realtor_new_listings_yoy":"Inf","realtor_new_listings_base":-0.5411,"realtor_days_on_market":40,"realtor_days_on_market_yoy":"NA","realtor_days_on_market_base":"NA","zhvi":"NA","zhvi_yoy":"NA","zhvi_base":"NA","zori":"NA","zori_yoy":"NA","zori_base":"NA"}},{"type":"MultiPolygon","arcs":[[[-13,39]],[[-36,-15,40]]],"properties":{"postal_code":"98569","realtor_list_price":399176.786,"realtor_list_price_yoy":-0.0019,"realtor_list_price_base":0.7257,"realtor_active_listings":288.667,"realtor_active_listings_yoy":0.0561,"realtor_active_listings_base":0.7675,"realtor_new_listings":46.667,"realtor_new_listings_yoy":-0.0411,"realtor_new_listings_base":-0.241,"realtor_days_on_market":89.643,"realtor_days_on_market_yoy":0.0325,"realtor_days_on_market_base":0.5326,"zhvi":340574.375,"zhvi_yoy":-0.0244,"zhvi_base":0.7154,"zori":1472.778,"zori_yoy":"NA","zori_base":"NA"}},{"type":"MultiPolygon","arcs":[[[-5,41]]],"properties":{"postal_code":"98595","realtor_list_price":371521.429,"realtor_list_price_yoy":-0.0966,"realtor_list_price_base":0.8267,"realtor_active_listings":71.667,"realtor_active_listings_yoy":0.5693,"realtor_active_listings_base":0.4212,"realtor_new_listings":4.667,"realtor_new_listings_yoy":-0.2222,"realtor_new_listings_base":-0.6962,"realtor_days_on_market":87.857,"realtor_days_on_market_yoy":0.0937,"realtor_days_on_market_base":0.2647,"zhvi":319499.886,"zhvi_yoy":0.0042,"zhvi_base":0.7784,"zori":"NA","zori_yoy":"NA","zori_base":"NA"}}]}},"arcs":[[[881379,272843],[1796,1715],[127,2721],[-401,350],[602,589],[73,243],[-174,145],[-739,323],[-112,303],[258,273],[655,216],[268,307],[2543,1230],[2182,3160],[4050,1809],[1182,3748],[2472,278],[-224,1779],[3408,1310],[-953,3995],[317,1714],[-942,-1629],[-4028,-5099],[-30,1538],[-1794,339],[-3675,-2032],[-1853,-2308],[-122,1139],[-2582,306],[1670,3909],[-1398,770],[-10,2618],[-788,-113],[-509,38469],[414,20043],[-535,18094],[129,16251],[-52,2978],[48176,1354],[-77,9719],[14545,159],[-31,2354],[1181,0],[37,-2353],[13271,-13],[-130,-9879],[11673,448],[7581,86],[9429,-306],[10058,104],[828,-22835],[111,-71764],[743,0],[-884,-160],[-16395,-2956],[-3119,-1295],[-72,-30],[-11557,-4799],[-26300,-10919],[-890,0],[-37980,-14902],[-19696,-848],[763,3257],[-2362,1784],[-128,2313]],[[407091,233522],[-78,13280],[-9,2432],[-4,1204],[34,4882],[754,4983],[5777,3152],[7126,9249],[-1388,530],[-2738,729],[-270,855],[505,-22],[1033,75864],[19000,373],[387,7639],[3222,968],[9066,5981],[1985,2880],[2723,2288],[1673,1667],[912,56102],[7356,181],[3020,908],[681,2103],[-5463,2221],[3897,2342],[-37,4446],[1320,1636],[2576,-1366],[1225,1902],[3087,3266],[1155,10163],[-828,2983],[-1488,931],[3475,1949],[-1600,2456],[1011,2784],[2078,1219],[-108,3731],[1502,560],[1519,-1282],[2661,3],[-715,2512],[1625,537],[-2029,4088],[1893,1315],[-385,3242],[-2837,-53],[-450,2165],[-2384,218],[-1795,2574],[-1300,4252],[630,2478],[143,6059],[1852,1653],[476,1362],[1522,3],[152,-1186],[-1587,-2693],[4350,443],[1523,1009],[1819,4773],[17367,-456],[830,2808],[1643,924],[565,2586],[1162,-219],[2365,-3128],[1941,722],[-253,4286],[-2653,2422],[2849,1978],[1409,-883],[620,-2108],[2043,-278],[1245,2059],[-271,1378],[2650,5210],[1830,672],[3171,2549],[-1881,4538],[2819,2800],[331,4389],[1074,5412],[1801,1991],[2881,-33],[-264,6600],[1174,1318],[1158,-1284],[-272,2856],[-1993,3761],[289,2583],[1763,477],[-414,2492],[1535,1128],[412,1725],[2450,1815],[23,1550],[-2470,1868],[229,2376],[-873,1070],[-2256,-1026],[-2296,1566],[325,8265],[1327,606],[439,5927],[-2121,4427],[1936,587],[-1089,4436],[-884,1010],[1350,3441],[-1164,751],[168,4133],[2534,1719],[-1496,3123],[-1869,371],[289,1662],[1308,-1139],[1617,476],[-601,4429],[165,2776],[-844,961],[-236,2893],[1030,204],[3,7111],[-1319,2179],[1525,5115],[-2131,3275],[-319,1997],[-2752,1415],[-2409,4957],[-2462,1782],[-2865,530],[-1432,2409],[-803,5456],[325,1893],[2478,4773],[-309,4224],[-1483,3148],[205,1710],[-1165,2558],[-2536,1623],[-2906,202],[-1278,3303]],[[510627,687657],[18466,62],[1816,-219],[15,-3590],[18311,36],[-14,419],[-781,60970],[9367,89],[2104,-1490],[9222,-983],[2666,2612],[11264,801],[12168,-419],[783,-2232],[2624,-1311],[1008,-4601],[-688,-1114],[-3285,-1445],[-1129,-2099],[-2866,-351],[-3327,396],[-2197,-515],[-635,-1466],[559,-2393],[1228,-602],[1707,2741],[2145,478],[-422,-2893],[2326,-5092],[2404,1182],[1928,-456],[20,-812],[-2581,-3231],[2391,-889],[1201,-4193],[-764,-1788],[1369,-2290],[-119,-4556],[1524,-1247],[822,-2283],[-2260,-2382],[-889,-1848],[-2383,-1848],[-519,-2658],[-1519,-2702],[-2280,-1170],[-3475,-5244],[385,-3201],[1047,-2724],[-896,-1666],[41,-3992],[803,-720],[1503,1758],[3101,-132],[1132,-1329],[70,-2380],[-1524,-2968],[-5527,958],[-2618,-2021],[-3241,107],[-1016,-984],[523,-1965],[4108,-3006],[4404,-2228],[688,-1963],[-2269,-2544],[-819,-4144],[1235,-3969],[-900,-3915],[-1405,-1236],[-3871,77],[-478,-961],[3036,-3826],[921,-1926],[1842,-916],[1463,1520],[-10,1441],[2146,866],[3266,-742],[2287,-2107],[1212,-2170],[368,-3589],[-2342,-140],[-3175,1088],[-2576,-1663],[-875,-2599],[775,-5991],[1741,-1948],[2276,-653],[347,-3529],[-848,-1127],[-2560,-840],[-986,-1026],[-494,-2341],[2100,-3592],[3944,-798],[4657,-4008],[3358,-2032],[-219,-1884],[-1632,-2037],[-319,-4303],[-1505,-1545],[-420,-4208],[800,-2456],[-1693,2990],[-4299,4126],[-2651,4247],[-486,3292],[-1128,2986],[-4056,4340],[917,5662],[-732,584],[-2960,-1445],[-2349,1293],[-3601,-830],[-2534,-3476],[-4364,-4491],[60,-2707],[-2198,-5908],[-274,-3293],[-1862,-6707],[1067,-2984],[1494,-1201],[1800,923],[731,-1261],[2075,338],[3600,2306],[1921,-862],[517,-4770],[1342,-770],[3904,368],[5428,-2094],[2255,-3878],[-428,-1939],[-3480,-5875],[-3355,-2890],[1675,-4400],[-92,-1170],[-2197,-3814],[3323,-4678],[3231,-1203],[821,-2030],[-1958,-16245],[-1404,-3662],[2254,-4124],[-702,-1569],[-2834,125],[-3171,-2122],[-3170,-4245],[-1951,-4092],[3228,-1170],[2133,-2278],[973,-2494],[-1494,-2645],[-2528,32],[-4723,-1198],[-2711,-1661],[-946,-2523],[-2867,-2671],[-3530,-1081],[-1403,-1723],[-30,-2185],[-2345,-2954],[-2896,-2215],[-1523,-2984],[-1522,-7509],[-3137,-2922],[-1797,-955],[-213,-2123],[-1403,-2853],[253,-4340],[-1590,-3013],[-427,-3735],[488,-5169],[-2008,-3907],[-2953,-3908],[-2982,-6924],[640,-1970],[-486,-2523],[-2617,-2555],[277,-2404],[-1610,-2408],[-2848,-9098],[-1670,-1050],[-2034,-2901],[-4097,-4725],[-4247,-2382],[651,-5066],[-10123,67],[-71,-19519],[-379,-37540],[123,-258],[-438,-30911],[-175,-7384],[332,-19687],[54162,439],[439,-18834],[2023,20],[2235,-7725],[-1578,-166],[-1291,-134],[62,-6194],[-972,-1160],[693,-1593],[3888,-876],[2965,-2706],[2340,-4671],[2594,-930],[1344,-3818],[-14674,-22],[-13,-1916],[-4173,599],[-4969,1585],[-4998,-1173],[-3310,-1549],[-3941,-1204],[-8591,-1432],[-4622,-3095],[-3459,-5072],[-1105,-573],[-2383,716],[-5640,4619],[-1804,20],[-1604,-1802],[902,-5452],[-1383,-2086],[-1524,40],[-6314,5228],[-1845,3647],[542,4356],[1162,2148],[-397,4196],[-2401,1869],[-6946,-939],[11,-1619],[-1423,-459],[-1184,-430],[-1378,-668],[-6145,-2197],[-4614,1015],[-1568,496],[-3991,5413],[-1057,1525],[-2672,886],[17,-1520],[-4705,-324],[-65,-4627],[2184,36],[3,-4136],[-7096,-836],[-54,-9543],[-1006,-3656],[992,-1217],[9652,-67],[40,-1873],[3489,4],[1417,4167],[1484,-3046],[8831,-437],[2095,1261],[-776,3935],[4244,-4113],[2987,-1460],[3749,-647],[4129,-3352],[6562,-4486],[2181,-3433],[3106,-683],[-3033,-2496],[-2402,-3787],[118,-28597],[1561,-78],[71,-25885],[-587,-1748],[-3148,-5295],[-2484,-1786],[2183,-2060],[640,-5170],[1035,-522],[87,-3349],[-2694,-4649],[667,-1446],[484,-5703],[-15273,-312],[-193,-19264],[-32004,-129],[-1044,-1688],[544,-4217],[-788,-3045],[-1909,-2185],[-243,-2461],[1121,-1909],[-1939,-3907],[5571,-2740],[1423,338],[1637,4338],[1999,1015],[2574,-432],[332,-2030],[-878,-2185],[-3393,-1230],[-1302,-1446],[-6874,-2983],[-2515,-2030],[-3664,-1353],[303,-3293],[-1514,-893],[-3270,433],[-2272,1599],[-394,1447],[1091,1384],[3513,123],[1333,1476],[-333,1848],[-2150,2030],[-5179,2893],[-2332,184],[455,3262],[-788,-122],[-6874,-4432],[-423,-1015],[1211,-5970],[-2967,-3970],[-2361,-770],[-1665,646],[-2182,4031],[-1181,1076],[-3118,-124],[-1786,-1261],[243,-3201],[1574,-2276],[365,-2061],[-999,-1355],[-2664,183],[-4997,2122],[-1546,1169],[-3481,-494],[-2030,2120],[-4662,675],[-909,-893],[971,-1908],[6086,-2610],[2393,-2707],[2696,-1476],[62,-2831],[-4479,-5325],[-1116,-6370],[-30,-2216],[-2359,-2247],[-241,-2985],[2271,-1137],[92,-1662],[-1362,-1170],[-211,-2185],[2241,-2123],[152,-1537],[-1442,-5154],[-3919,-110],[23,-886],[-18656,1267],[-8744,1395],[-9483,-536],[-16484,196],[-17533,161],[-28074,340],[395,1800],[-975,4888],[297,3198],[1972,10458],[259,7695],[-2959,4518],[-2006,1721],[-342,2458],[-872,1241],[-577,6158],[-2661,4134],[725,2422],[-713,1869],[-2965,1395],[-3025,344],[-1614,1107],[-2085,-1212],[-931,664],[1410,1729],[-1607,752],[319,1100],[-858,886],[-1904,-378],[-60,2533],[-1366,-370],[-772,2156],[-1091,449],[-1126,-1211],[-2624,759],[-1745,1378],[-6563,-1575],[-2115,-1893],[-1355,174],[-4156,5164],[-2816,901],[-5268,4361],[-11063,10199],[-5773,4802],[-3808,1445],[-2295,872],[-7475,279],[-4513,-404],[-2674,-238],[-2455,1801],[-1666,3644],[88,39],[1564,688],[4817,2185],[5425,7138],[2446,12991],[2833,15044],[2669,3661],[9187,6059],[20531,6943],[1137,2721],[2628,6292],[1027,3064],[2690,1304],[7607,1009],[1028,136],[3111,4323],[6757,5769],[5186,1510],[5147,-1752],[14397,-625],[355,-15],[18577,9929],[12895,3789],[6933,2038],[29434,9399],[3629,1365],[1098,414],[6795,2556],[8833,5591],[872,552],[7516,5290],[661,466],[10589,2621],[-2020,3657],[-302,548],[-2864,5186],[-678,461],[-6156,4180]],[[203360,96606],[2791,-1590],[2033,895],[89,-444],[-10301,-3978],[-2385,-94]],[[195587,91395],[11,189],[1687,975],[283,-960],[2726,4587],[3066,420]],[[377617,235432],[6700,1530],[11238,-2403],[4754,-3276],[4539,-2402],[1081,-3057],[-3026,-3495],[-3458,0],[-7564,4805],[-2594,1310],[-4563,604],[-4195,3132],[-4093,1032],[1181,2220]],[[147463,369064],[273,-2254],[2402,738],[1994,2885],[-736,1470],[3790,1895],[-575,1759],[1686,1312],[228,2045],[3313,1772],[758,1440],[1278,-655],[1956,762],[1490,-1115],[-123,-1432],[2163,-3735],[1636,-486],[2389,-2960],[3416,-958],[2205,511],[1746,-2032],[-3239,-8133],[782,-1732],[-1622,-3214],[16552,117],[6582,-533],[12566,489],[288,38707],[98,2549],[2033,1293],[2373,-2636],[2554,659],[314,-2778],[-817,-2570],[-2593,-945],[1227,-1907],[2987,1547],[1680,2951],[-912,4114],[-1416,2577],[-1665,1233],[-768,2068],[183,1831],[2381,2157],[208,1916],[-3494,2521],[-2666,4704],[-2688,1130],[-6851,-119],[-3667,1425],[1072,3087],[139,2665],[1592,1551],[-673,3242],[-5305,5389],[-2835,796],[-285,902],[2178,-290],[6164,-4266],[-442,614],[-6559,13541]],[[194208,446678],[7632,5180],[1905,3018],[7860,-220],[9639,-643],[9655,-49],[952,59926],[-1193,51152],[1626,-234],[2079,2104],[2701,1306],[2307,3020],[784,2104],[1633,1011],[-381,1669],[5500,4273],[-702,3206],[2767,-881],[2096,1930]],[[251068,584550],[988,-216],[2516,268],[4973,1155],[1802,-769],[6023,10639],[-4381,2563],[657,2009],[1021,-142],[-425,2770],[-1829,3170],[-212,2830],[1864,3137],[3054,3290],[5109,396],[3267,-1228],[2897,1695],[-456,2843],[3603,434],[-2288,3877],[260,3272],[1282,-37],[1175,-4230],[2637,-1520],[1803,-4496],[4081,-2347],[3648,-308],[1083,577],[4271,-375],[2080,-893],[3750,874],[2497,-553],[3070,-2702],[-241,-4364],[-3317,1351],[-1693,-201],[-2005,-2046],[-4130,-785],[-2101,-2407],[-2350,87],[-2130,-1522],[-520,-1913],[-3915,-3237],[-587,2547],[863,1655],[-4488,-299],[-476,-1314],[1372,-1396],[-3460,1236],[-883,-364],[-1422,-3138],[-1967,-964],[2031,-1296],[6966,1031],[2390,945],[7432,2112],[2296,-49],[1964,-1125],[5241,-717],[4282,-106],[-3158,-3937],[1749,-3],[2064,1854],[1355,74],[5675,-6711],[4665,-2221],[2510,3278],[2651,2305],[2913,1373],[1055,1735],[2863,2318],[4246,22],[2227,3405],[4372,2776],[4439,5972],[-387,5561],[3151,2525],[1582,2214],[3607,2251],[1809,471],[4864,-585],[3501,-940],[3217,-3642],[2095,-421],[126,996],[-1889,2283],[-4918,4204],[-461,1071],[801,4666],[1232,2842],[1634,1063],[1114,-333],[863,-3176],[1039,-835],[3304,-770],[909,657],[-203,4453],[1182,2901],[1604,-119],[1344,-5517],[2044,-312],[667,812],[-56,3633],[-890,4933],[1490,3440],[2078,663],[4200,-1680],[1083,385],[3706,2942],[335,2460],[1420,1322],[-2764,2834],[-749,2576],[1758,1256],[2786,-972],[1046,1884],[-2816,2516],[-104,1439],[1239,444],[1254,-1062],[3342,-545],[706,6272],[2822,871],[2391,-1401],[2255,3730],[-242,2008],[-1871,1854],[-88,1062],[2969,548],[1216,-1211],[-122,-4098],[1216,473],[2286,3073],[1047,4268],[-2611,2208],[-2367,162],[-375,1712],[2463,-723],[3422,-94],[2934,67],[1144,510],[2733,2659],[-2867,819],[-2844,-858],[-1188,850],[-46,2377],[771,341],[960,849],[1268,1551],[234,680],[-330,325],[-1876,-363],[-720,427],[-312,733],[432,17616],[306,3267],[-990,-489],[-485,30],[-462,214],[-198,494],[404,436],[960,392],[924,532],[0,226],[1062,1354],[580,1233],[696,902],[0,435],[-624,443],[-1251,427],[230,2667],[1520,-1645],[3747,2814],[658,5370]],[[424342,725681],[6179,-128]],[[430521,725553],[10973,-564],[5249,-475],[14606,-461],[23328,-2049],[11147,-284],[-243,-33389],[13844,-198],[1202,-476]],[[407091,233522],[-2068,1404],[-1418,963],[-2864,1945],[-952,193],[-686,138],[-13489,2727],[-821,-84],[-2125,-218],[-7482,-765],[-1994,-204],[-8041,4069],[-3630,-14],[-10498,-42],[-7123,-28],[-16000,-2861],[-6972,-1346],[-2172,2436],[-4767,7980],[-4248,7112],[-21975,-187],[-7510,-1892],[-18736,6679],[-1909,1441],[554,1796],[-1884,1627],[-2565,703],[-361,346],[-662,2182],[1571,3184],[3028,1535],[4183,4292],[2659,5179],[1373,693],[218,1396],[133,854],[-4857,5290],[-2917,1343],[-1717,-997],[-1288,607],[-949,1190],[-166,2058],[1176,1013],[33,4215],[-8498,20650],[-5048,595],[-6981,2486],[-4096,2267],[-2822,2643],[-120,155],[-2800,3618],[-2932,1571],[-832,1215],[-5131,2912],[-572,324],[-2974,-691],[-1618,-2349],[-21561,1182],[-15284,838],[-14256,-1333],[-17694,-8762],[-6843,-7873],[-2041,-11015],[1668,-6009],[1382,-4976]],[[138120,298922],[-8174,84],[-717,5706],[-820,33],[-3630,131],[-7192,138]],[[117587,305014],[-623,15114]],[[116964,320128],[21,958],[13538,-32],[-1542,11356],[-325,8689],[-1671,2229],[1408,224],[2028,-2091],[2855,1801],[-1869,1729],[2584,2797],[-3318,4934],[2892,3521],[30,1928],[5715,506],[2808,-1234],[2898,1054],[1957,-684],[376,7379],[-4013,-89],[1826,3998],[2301,-37]],[[213652,670823],[9815,12505],[21982,28540],[-1498,727],[-3741,-302],[-2801,2358],[-2287,2820],[-491,2644],[5054,4658],[-644,1227],[1254,1668],[-1032,3013],[1526,3160],[2021,2745],[249,3508],[1085,1085],[839,3278],[-940,1773],[406,3944],[-1086,199],[-497,4468],[1336,280],[962,2908],[-1966,1958],[199,2319],[-2862,400],[-1233,1581],[-616,2570],[-2694,-1196],[-211,4717],[-2341,1714],[-3025,765],[-2881,-2484],[-7077,4328],[-2051,-890],[-1742,1981],[1808,1510],[-2160,486],[-224,1512]],[[216088,779300],[1341,780],[793,2029]],[[218222,782109],[-72,-1538],[1549,-1477],[1453,687],[1234,2585],[5373,2768],[4369,-850],[2254,140],[690,-1440],[4412,2007],[1080,-820],[6254,1031],[1999,-1043],[1077,-4028],[5597,-2434],[2139,-1601],[3487,-1448],[3762,951],[10590,-5017],[2875,-1106],[4894,280],[2477,-367],[3392,382],[1977,2490],[7465,5360],[3808,912],[10308,60],[16452,-1382],[7303,-339],[1444,347],[12968,4795],[25,2647],[7306,-23],[407,659],[1001,1476],[737,567],[4359,2814],[1255,2303],[478,-3131],[3706,1825],[33,2956],[9328,-62],[136,19678],[10038,31],[-103,32457],[-3850,2708],[-4699,-33],[-1396,947],[41,-6569],[-8038,77],[-2704,3087],[-4233,408],[-830,-650],[-727,163],[-2968,2764],[-1961,1404]],[[358173,850517],[3645,4686],[1656,2147],[4603,6201],[16435,22149]],[[384512,885700],[-651,-10874],[758,-13185],[4813,-44],[25,-3740],[1946,2113],[2727,2],[3477,-1519],[2729,-2427],[6358,-3348],[2573,-908],[8320,-5320],[17,4223],[1593,-1446],[1316,400],[1624,-2091],[-1713,-3817],[1042,-3322],[2081,-183],[-1468,-1601],[-857,-3569],[-1957,-4832],[-1743,-3200],[-2356,-2617],[-2999,-2093],[-4283,-2125],[-2049,-4032],[-1958,-1847],[-1191,-4062],[-2232,-3293],[1134,-2861],[-275,-2123],[1011,-1938],[-364,-5169],[2814,2063],[2144,-4183],[-2631,521],[-1683,-1754],[-4802,151],[671,2738],[-3915,-2895],[-1527,-2339],[-6841,-1116],[-9722,-336],[-1867,-892],[-1566,-3678],[1437,-2985],[-2169,-509],[-2403,-5901],[-384,-1266],[-1409,-2830],[-398,-1231],[-215,-1816],[-478,-1564],[-872,-6742],[-2667,-4551],[-11128,-7713],[26722,-382],[-208,-4527],[248,-9002],[725,-1888],[-1594,-2391],[21446,-550],[7521,-71],[11850,-1275],[5283,-257]],[[251068,584550],[-90,26],[2929,175],[2811,989],[119,1868],[1377,1831],[-438,1469],[-2723,1198],[-2012,2047],[-81,1233],[1319,1144],[3434,404],[1871,5293],[-1161,6183],[1853,1202],[-270,1942],[-1507,1418],[-482,2180],[-2308,-842],[-4402,1007],[-1138,3075],[1737,893],[-806,1720],[1495,346],[536,1772],[2939,3514],[1320,2717],[-1582,1359],[-1194,-760],[-1648,1124],[-1031,2917],[-2931,1145],[-2268,-734],[-2543,2196],[1003,6059],[-829,1635],[-181,6215],[-1739,2523],[2475,3476],[-1282,2955],[94,5937],[-824,648],[-763,369],[-18775,669],[68,3076],[-3709,-125],[-2558,-1381],[-2998,694],[-523,1472]],[[96027,600254],[-365,-1262],[60,-4030],[6646,-11352],[2262,-4032],[549,-4153],[335,-1570],[-1772,-6305],[-1459,-1788],[-76,-2821],[-2297,-1819],[-615,-2998],[-490,59],[-1654,738],[-996,591],[-856,243],[-1501,155],[-687,-178],[-308,-378],[33,-3278],[-1025,-8791],[3358,1157],[965,1271],[2678,-177],[4610,2097],[2287,-689],[-520,-52347]],[[105189,498597],[-8047,-17]],[[97142,498580],[-2630,17156],[-4637,23100],[-4310,21469],[-6,29],[-2980,14841],[-242,906]],[[82337,576081],[1974,503],[2790,-905],[-2812,4803],[-2155,4093],[-2946,10035],[487,4777],[3420,1424],[2715,-396],[1316,-317],[8901,156]],[[384512,885700],[6052,8205],[946,-1323],[647,225],[4421,4995],[358,2698],[2394,1179],[-487,1768],[1074,288],[6115,4649],[1170,-259],[3976,4758],[544,2149],[1463,-1018],[2140,1374],[1581,2348],[3316,1995],[847,-1254],[2257,466],[1170,1817],[1631,6143],[-206,2002],[-1252,2753],[-2576,2643],[-3234,409],[-1793,4936],[-1729,1203],[-567,361],[1736,2644],[1265,518],[6253,4994],[1390,2894],[3121,-914],[1825,-2532],[1723,-1005],[2001,297],[3296,2362],[1310,1736],[838,2061],[-785,2050],[2738,376],[3996,-2185],[3707,-951],[2310,-1396],[942,487],[3271,4547],[-376,2717],[-1434,826],[368,2763],[2297,701],[2001,-554],[5890,4732],[2556,5204],[6097,3542],[51,1378]],[[473157,978502],[265,0],[208,-247],[58,-141],[119,36],[133,104],[98,166],[158,8],[47,75],[74851,-31],[-372,-24108],[524,-7158],[-1230,-28941],[-1422,-4082],[-2133,-2045],[603,-1631],[-1080,-3250],[-1912,-1515],[-4442,288],[-2830,-2696],[1449,-1159],[2044,451],[-889,-3007],[-1911,-953],[1456,-3174],[-1206,-939],[-2353,1234],[-564,-4217],[-3221,-1213],[-1449,1713],[-1284,-5058],[-2301,-1434],[-2691,64],[-786,-2776],[-2211,-2667],[-2595,-681],[-5062,-4403],[-2389,-61],[-3219,-1708],[-263,-1574],[-1837,-400],[185,-2850],[-4454,-742],[-1550,1175],[681,-3307],[-795,-1602],[1332,-2720],[-3756,-4774],[-4130,-292],[-1833,-4961],[232,-4335],[1136,-4616],[86,-3575],[-891,-2420],[-3642,2143],[-2524,-7036],[874,-849],[-370,-3035],[-3013,-973],[572,-2954],[-2469,-2738],[753,-6011],[-4105,791],[-1588,-2894],[-1008,-4297],[2606,-1456],[-2945,-2340],[-2991,-3520],[22,-1418],[2438,264],[337,-1765],[-4348,-367],[-1689,-1882],[-4186,-929],[-1689,-3382],[-4127,-2141],[58,-886],[-4119,-1653],[-1646,-2910],[-2042,-1197],[-1865,-4238],[-1798,-1698],[3429,-1987],[65,-864],[-3523,-4217],[-301,-1092],[-2577,-1404],[-1409,-3558],[2085,-3560],[-3406,-4386],[389,-2489],[-2508,-5346],[-3263,-2683],[-766,-35],[-4825,-19],[3087,-3274],[-3096,-2070],[419,-3661],[1321,-2193],[-1445,-2268],[859,-3264],[1724,-1520],[-995,-1539]],[[274379,855598],[3316,1307],[2683,-236],[2399,-5012],[1868,-1741],[3792,-780],[1324,-2510],[3682,-2250],[2197,208],[2549,3065],[1521,533],[2425,-2725],[2124,-1165],[5254,356],[3460,1331],[3021,-473],[1712,-1838],[-669,2924],[2315,-1521],[705,-1653],[-272,2591],[-3682,1594],[-2012,-1676],[-1411,1003],[-4306,-1972],[1058,2378],[2174,1404],[3152,-287],[1882,1078],[1784,3064],[-764,4098],[1365,4912],[1801,2142],[2138,1845],[2095,939],[1154,199],[2051,-392],[2484,-1816],[1628,-701],[3658,32],[2586,631],[1897,1433],[977,1182],[59,2089],[779,399],[1368,509],[1815,-4719],[2803,-1542],[1105,-4662],[1105,-1664],[680,-1880],[6965,-5112]],[[218222,782109],[-226,1091],[-1703,1248],[317,2643],[1322,702],[2342,2466],[2593,5198],[962,2931],[331,2636],[-639,1883],[558,2216],[2974,-355],[2372,1159],[4098,-319],[1535,1049],[838,2916],[-389,1860],[-1549,1249],[-543,1817],[529,1786],[4415,848],[3689,3529],[1306,-680],[1374,530],[427,1278],[2329,1661],[-1932,-864],[-1735,-2251],[-1557,347],[-925,-58],[111,2872],[-462,1574],[1535,2066],[1074,2399],[2528,2783],[2756,2266],[2910,420],[1926,3389],[2632,1689],[300,-2570],[713,545],[-704,2142],[1860,2865],[2131,419],[2747,-296],[2456,1614],[2472,3366],[-105,-1359],[1627,3573],[3790,4925],[747,291]],[[731850,283175],[2205,1231],[1480,607],[4927,66],[3511,11],[-23,-4267],[-7564,964],[-3070,-632],[-1466,2020]],[[213652,670823],[-877,2995],[110,3818],[-2837,2340],[-4802,125],[-616,1810],[-1760,1026],[-2045,110],[-2875,2643],[-2991,72],[-3173,-2290],[-865,-1498],[-968,405],[-1172,-2415],[-1943,390],[-1722,-753],[-2141,1704],[-1181,2466],[-2075,-607],[-2427,471],[-1482,1876],[-1290,-82],[-3015,1836],[291,3966],[1803,2637],[-105,2770],[-1358,3395],[-2568,1342],[-493,2193],[-1518,1240],[1238,1581],[-2041,4133],[-793,472],[-3109,-1545],[-600,-1551],[-1561,-658],[-1578,1475],[-3897,1302],[-4351,-3320],[-1000,-3537],[-1739,-2575],[850,-1108],[-214,-1920],[-1584,-58],[-346,-1979],[461,-2909],[-1416,370],[-170,-3360],[-1188,-598],[-1967,-3616],[549,-1264],[-2230,-3084],[461,-2216],[-470,-1492],[-1900,-2251],[197,-2806],[-1496,-966],[-2274,-2857],[-880,-2444],[453,-1847],[-1848,-1748],[-228,-2851],[-1341,-228],[58,-2171],[-2288,-1808],[-645,-1506],[395,-1735],[-1078,-1056],[-551,-3765],[-2719,-2828],[593,-2282],[-2403,-1439],[-2303,-4068],[556,-4867],[-1136,-1329],[-1867,-117],[-1254,-3471],[1135,-989],[-3297,-3868],[-4075,-190],[-605,-1537],[1285,-4622],[404,1189],[51,479],[2462,172],[-4422,-6335]],[[109841,611210],[-5973,82],[-15100,-319],[-3089,-30],[-12467,-686]],[[73212,610257],[-8,31],[-114,425],[-53,200],[-834,3125],[-998,3735],[-13294,49789],[-184,689],[-6039,8981],[-3135,3455],[-5197,5727],[-4817,4417],[-12494,1301],[-2922,-4221],[-3995,2814],[-579,408],[1219,2819],[-7522,25290],[-6291,19045],[-5351,10776],[-604,1216],[1748,-1156],[2699,368],[1520,915],[3368,-67],[4585,-1654],[3433,-2815],[3220,-3450],[3484,-2482],[2259,-489],[4747,381],[4607,-482],[1585,878],[1093,-1205],[-267,-4297],[284,-3958],[1187,-1604],[2772,-969],[2301,506],[3988,1835],[-329,1544],[2659,896],[1441,6528],[-1997,2147],[-1422,-851],[-714,2001],[1077,1596],[4360,-1777],[4768,941],[4056,3090],[9702,-3090],[6501,-2589],[4065,-1231],[5569,-2849],[2876,-36],[2884,1425],[-1497,-472],[3902,3477],[2832,864],[2488,3818],[-411,2785],[-2129,4903],[-2972,3986],[1716,2452],[7090,3464],[2613,508],[2862,2371],[7480,1048],[2422,884],[1454,2666],[-1622,938],[-2738,3553],[140,1846],[2101,1534],[2157,259],[2283,-104],[5784,-2638],[4948,1490],[1132,3876],[1220,958],[4846,1963],[2444,-134],[2870,-1427],[3553,-690],[5367,1127],[3775,2755],[2525,681],[2686,-1151],[1552,-3853],[2629,-1143],[4059,1036],[2634,2261],[2121,4026],[3200,3879],[6393,4130],[1695,2548],[1851,1293],[1857,104],[5684,-2088],[2578,-2149],[-543,-1587],[-2878,-917],[-2746,-2659],[-1055,-3618],[879,-3677],[1469,-2236],[5579,-2421],[6351,-3551],[3032,1248],[1497,2733],[2820,72]],[[274379,855598],[-904,527],[-2462,-2392],[-3590,-5373],[-3302,-4080],[-2572,-575],[625,1248],[-4166,-1371],[-2582,-3380],[-4939,-2989],[-7944,-6849],[-1166,3863],[316,2731],[1515,1751],[-228,2488],[1264,1292],[3579,1069],[-741,2193],[1654,2089],[215,1942],[1602,553],[450,3367],[-573,1093],[68,4444],[1199,791],[-1160,3684],[-84959,-319],[-8491,235],[296,2057],[2845,2407],[1337,207],[-1176,553],[-2924,-2260],[-917,-2496],[-1959,432],[-5443,4444],[-2456,558],[-1173,1818],[-817,108328],[2253,243],[3964,5144],[1436,242],[2237,-1257],[2628,-334],[725,921],[1025,-1484],[4122,498],[1298,-2354],[2090,-272],[919,2135],[1244,703],[2504,-406],[2023,1487],[978,2333],[2363,-671],[1029,2216],[2821,-331],[2810,5119],[2254,-1351],[2341,1404],[1575,83],[1612,2031],[1804,-163],[2068,1811],[810,1816],[1855,710],[19861,48],[12996,-48],[-111,-10601],[-103,-9789],[81474,-744],[143426,-321],[7435,-12],[10691,18]],[[105189,498597],[-90,-3917],[9747,-59],[-65,-25362],[-2746,4391],[76,3759],[-2722,987],[-2542,1788],[-622,-2188],[1193,-2437],[1586,-7468],[2246,-16617],[3563,-5706],[3548,-6907],[1345,2060],[3812,823],[1520,2333],[2302,810],[453,296],[264,856],[862,-605],[2506,693],[2795,-1598],[1720,-1003],[5269,3704],[6321,1104],[5947,4501],[563,1183],[2595,802],[1166,-689],[2024,1168],[3543,2366],[2438,2387],[1272,-81],[4098,2388],[7147,1828],[1798,1559],[5025,-144],[7692,-16053],[1370,-2871]],[[147463,369064],[-31,1979],[-1949,311],[-1590,1684],[-2081,-2510],[-2905,1139],[-1490,-1557],[-2474,1101],[-2737,-124],[-4292,-1541],[-409,-1418],[-680,-864],[73,-450],[-1161,-1661],[-116,-591],[1079,-407],[724,2001],[1028,-1861],[-1263,-2112],[-1707,1434],[-1228,-2378],[44,-621],[672,-1063],[64,-871],[-898,-1885],[673,1493],[116,1115],[-700,1048],[-182,725],[898,3706],[2461,3204],[242,1248],[672,636],[518,1949],[2710,2944],[3527,2688],[-664,2193],[1373,1483],[-744,1530],[2819,950],[1378,-1337],[1650,228],[1247,-2762],[3549,1047],[1431,-68],[-415,3272],[-2503,1198],[-401,1210],[-5394,1081],[198,2799],[921,2297],[1147,863],[-795,983],[1052,1106],[-749,5753],[1804,1321],[-1569,2815],[-1861,1921],[32,3724],[-6626,2160],[-4673,-299],[-8878,-6034],[522,-6713],[-2292,35],[558,-1924],[-1917,5890],[-3086,-778]],[[112185,403499],[-262,3188],[-217,1437],[-3164,21028],[-3064,20357],[-1136,7857],[583,3788],[391,2546],[-1332,4292],[-3863,11162],[-2399,15642],[-580,3784]],[[109841,611210],[-12594,-9757],[-1220,-1199]],[[82337,576081],[-1019,3817],[-2336,8749],[-5464,20465],[-306,1145]],[[138120,298922],[1150,-4142],[151,-213],[2580,-3636],[3173,-4334],[856,-1169],[1627,-5087],[-1266,-8832],[-815,-5682],[1267,-19231],[277,-4209],[796,-2768],[1450,-5041],[488,-40],[2816,-226],[940,-75],[-1577,-4681],[3916,-14328],[802,-7097],[7348,-1529],[6247,4282],[2579,-434],[3294,-3521],[-192,-9518],[-3389,-2295],[-9231,4096],[-6381,4059],[-7638,2212],[-3226,-1938],[-317,-396],[-1045,-1309],[-339,-425],[-280,-349],[-2088,-965],[-7558,-3492],[-260,-6611],[-5876,-3508],[-13869,-2967],[-829,5221],[237,12859],[23,1290],[3039,22644],[193,5032],[1636,42657],[33,865],[-41,988],[-1234,29935]],[[116964,320128],[-836,20269],[-1256,30440],[-1274,15485],[-1087,13218],[-326,3959]],[[195587,91395],[-22156,30],[2196,-9454],[375,-3140],[-6311,-473],[-3382,12416],[-115,421],[-4143,15213],[-689,2530],[-3387,12437],[-6098,20618],[-1422,10018],[-3508,2296],[8117,-540],[6636,730],[3219,7639],[2421,2511],[4688,-935],[4140,-4563],[2007,-2213],[3990,-4398],[5939,-3453],[2309,-8286],[-1136,-6808],[-757,-4544],[-2349,-5882],[2834,-4301],[2090,-3171],[351,-12699],[11914,-6788]]],"bbox":[-124.2998373,46.790916,-123.200041,47.533706],"transform":{"scale":[0.0000010997973997973939,7.427907427907422e-7],"translate":[-124.2998373,46.790916]}}
