{"type":"Topology","objects":{"foo":{"type":"GeometryCollection","geometries":[{"type":"MultiPolygon","arcs":[[[0,1,2,3]]],"properties":{"postal_code":"76437","realtor_list_price":221428.571,"realtor_list_price_yoy":-0.0965,"realtor_list_price_base":1.3097,"realtor_active_listings":25.667,"realtor_active_listings_yoy":-0.0128,"realtor_active_listings_base":0.2203,"realtor_new_listings":4.667,"realtor_new_listings_yoy":-0.2222,"realtor_new_listings_base":0.5925,"realtor_days_on_market":72.429,"realtor_days_on_market_yoy":-0.3087,"realtor_days_on_market_base":0.003,"zhvi":156328.045,"zhvi_yoy":0.0207,"zhvi_base":0.2832,"zori":"NA","zori_yoy":"NA","zori_base":"NA"}},{"type":"MultiPolygon","arcs":[[[4,5,6]]],"properties":{"postal_code":"79501","realtor_list_price":138980,"realtor_list_price_yoy":-0.58,"realtor_list_price_base":0.5144,"realtor_active_listings":10.667,"realtor_active_listings_yoy":-0.1579,"realtor_active_listings_base":-0.0659,"realtor_new_listings":3.333,"realtor_new_listings_yoy":-0.1667,"realtor_new_listings_base":0.2989,"realtor_days_on_market":62.4,"realtor_days_on_market_yoy":0.2316,"realtor_days_on_market_base":-0.1808,"zhvi":153925.579,"zhvi_yoy":0.0802,"zhvi_base":0.3158,"zori":"NA","zori_yoy":"NA","zori_base":"NA"}},{"type":"MultiPolygon","arcs":[[[7,8]]],"properties":{"postal_code":"79533","realtor_list_price":"NA","realtor_list_price_yoy":"NA","realtor_list_price_base":"NA","realtor_active_listings":1,"realtor_active_listings_yoy":0,"realtor_active_listings_base":"NA","realtor_new_listings":0,"realtor_new_listings_yoy":"NaN","realtor_new_listings_base":"NA","realtor_days_on_market":"NA","realtor_days_on_market_yoy":"NA","realtor_days_on_market_base":"NA","zhvi":"NA","zhvi_yoy":"NA","zhvi_base":"NA","zori":"NA","zori_yoy":"NA","zori_base":"NA"}},{"type":"MultiPolygon","arcs":[[[9,10,11,12,13,14,15,16]]],"properties":{"postal_code":"79562","realtor_list_price":544228.571,"realtor_list_price_yoy":0.1166,"realtor_list_price_base":1.0096,"realtor_active_listings":27.667,"realtor_active_listings_yoy":-0.2455,"realtor_active_listings_base":-0.3813,"realtor_new_listings":9.333,"realtor_new_listings_yoy":-0.2222,"realtor_new_listings_base":-0.4462,"realtor_days_on_market":64.571,"realtor_days_on_market_yoy":-0.0496,"realtor_days_on_market_base":0.0185,"zhvi":406423.971,"zhvi_yoy":0.0678,"zhvi_base":0.5672,"zori":"NA","zori_yoy":"NA","zori_base":"NA"}},{"type":"MultiPolygon","arcs":[[[-6,17,18,19,20,21,-17,22]]],"properties":{"postal_code":"79536","realtor_list_price":303731.25,"realtor_list_price_yoy":0.0566,"realtor_list_price_base":1.114,"realtor_active_listings":21.667,"realtor_active_listings_yoy":0.3542,"realtor_active_listings_base":0.7274,"realtor_new_listings":5.333,"realtor_new_listings_yoy":-0.1111,"realtor_new_listings_base":0.1186,"realtor_days_on_market":62.25,"realtor_days_on_market_yoy":0.0375,"realtor_days_on_market_base":0.1953,"zhvi":207935.068,"zhvi_yoy":0.073,"zhvi_base":0.6103,"zori":"NA","zori_yoy":"NA","zori_base":"NA"}},{"type":"MultiPolygon","arcs":[[[-2,23,-4,24]]],"properties":{"postal_code":"79504","realtor_list_price":286250,"realtor_list_price_yoy":0.1627,"realtor_list_price_base":1.7769,"realtor_active_listings":6,"realtor_active_listings_yoy":-0.3793,"realtor_active_listings_base":-0.3641,"realtor_new_listings":3.333,"realtor_new_listings_yoy":0,"realtor_new_listings_base":1.0784,"realtor_days_on_market":38,"realtor_days_on_market_yoy":-0.4207,"realtor_days_on_market_base":-0.2742,"zhvi":201341.557,"zhvi_yoy":0.0821,"zhvi_base":0.2342,"zori":"NA","zori_yoy":"NA","zori_base":"NA"}},{"type":"MultiPolygon","arcs":[[[-5,25,-18]]],"properties":{"postal_code":"79525","realtor_list_price":"NA","realtor_list_price_yoy":"NA","realtor_list_price_base":"NA","realtor_active_listings":18,"realtor_active_listings_yoy":0.5429,"realtor_active_listings_base":1.0809,"realtor_new_listings":0,"realtor_new_listings_yoy":-1,"realtor_new_listings_base":-1,"realtor_days_on_market":"NA","realtor_days_on_market_yoy":"NA","realtor_days_on_market_base":"NA","zhvi":261333.688,"zhvi_yoy":0.0603,"zhvi_base":0.5452,"zori":"NA","zori_yoy":"NA","zori_base":"NA"}},{"type":"MultiPolygon","arcs":[[[26,27,28,29,-20]],[[30,31,-10,-22]]],"properties":{"postal_code":"79603","realtor_list_price":213020,"realtor_list_price_yoy":0.2098,"realtor_list_price_base":1.1223,"realtor_active_listings":26.667,"realtor_active_listings_yoy":-0.5152,"realtor_active_listings_base":-0.3541,"realtor_new_listings":20,"realtor_new_listings_yoy":0,"realtor_new_listings_base":-0.018,"realtor_days_on_market":29.333,"realtor_days_on_market_yoy":-0.418,"realtor_days_on_market_base":-0.368,"zhvi":149604.839,"zhvi_yoy":0.0539,"zhvi_base":0.6728,"zori":1768.5,"zori_yoy":0.3477,"zori_base":"NA"}},{"type":"MultiPolygon","arcs":[[[-29,32,33,34,35]]],"properties":{"postal_code":"79605","realtor_list_price":245028.302,"realtor_list_price_yoy":0.2295,"realtor_list_price_base":0.7108,"realtor_active_listings":48,"realtor_active_listings_yoy":-0.3766,"realtor_active_listings_base":-0.4316,"realtor_new_listings":35.333,"realtor_new_listings_yoy":0.2326,"realtor_new_listings_base":-0.0568,"realtor_days_on_market":34.585,"realtor_days_on_market_yoy":-0.3598,"realtor_days_on_market_base":-0.3682,"zhvi":186123.826,"zhvi_yoy":0.1048,"zhvi_base":0.6139,"zori":1709.369,"zori_yoy":0.411,"zori_base":1.3263}},{"type":"MultiPolygon","arcs":[[[-32,36,37,-34,38,-13,39,-11]]],"properties":{"postal_code":"79606","realtor_list_price":464686.747,"realtor_list_price_yoy":0.1553,"realtor_list_price_base":0.8752,"realtor_active_listings":70.667,"realtor_active_listings_yoy":-0.455,"realtor_active_listings_base":-0.4886,"realtor_new_listings":55.333,"realtor_new_listings_yoy":0.1216,"realtor_new_listings_base":0.1315,"realtor_days_on_market":36.024,"realtor_days_on_market_yoy":-0.4167,"realtor_days_on_market_base":-0.4013,"zhvi":310354.093,"zhvi_yoy":0.0838,"zhvi_base":0.5167,"zori":2205.734,"zori_yoy":0.3418,"zori_base":1.1659}},{"type":"MultiPolygon","arcs":[[[-30,-36,40,-37,-31,-21]]],"properties":{"postal_code":"79563","realtor_list_price":153500,"realtor_list_price_yoy":"NA","realtor_list_price_base":"NA","realtor_active_listings":2.333,"realtor_active_listings_yoy":-0.3,"realtor_active_listings_base":0.2818,"realtor_new_listings":0.667,"realtor_new_listings_yoy":"Inf","realtor_new_listings_base":-0.1667,"realtor_days_on_market":35,"realtor_days_on_market_yoy":"NA","realtor_days_on_market_base":"NA","zhvi":138311.809,"zhvi_yoy":0.0533,"zhvi_base":0.3753,"zori":"NA","zori_yoy":"NA","zori_base":"NA"}},{"type":"MultiPolygon","arcs":[[[-40,-12]]],"properties":{"postal_code":"79508","realtor_list_price":644750,"realtor_list_price_yoy":0.1365,"realtor_list_price_base":"NA","realtor_active_listings":2.333,"realtor_active_listings_yoy":-0.7879,"realtor_active_listings_base":-0.74,"realtor_new_listings":0.667,"realtor_new_listings_yoy":-0.8,"realtor_new_listings_base":-0.3453,"realtor_days_on_market":83,"realtor_days_on_market_yoy":0.1308,"realtor_days_on_market_base":"NA","zhvi":265230.781,"zhvi_yoy":0.0764,"zhvi_base":0.5655,"zori":"NA","zori_yoy":"NA","zori_base":"NA"}},{"type":"MultiPolygon","arcs":[[[-15,41,42]]],"properties":{"postal_code":"79541","realtor_list_price":542833.333,"realtor_list_price_yoy":-0.0063,"realtor_list_price_base":"NA","realtor_active_listings":5,"realtor_active_listings_yoy":-0.375,"realtor_active_listings_base":0.2506,"realtor_new_listings":2,"realtor_new_listings_yoy":2,"realtor_new_listings_base":3.32,"realtor_days_on_market":92.333,"realtor_days_on_market_yoy":-0.2613,"realtor_days_on_market_base":"NA","zhvi":452485.553,"zhvi_yoy":0.0759,"zhvi_base":"NA","zori":"NA","zori_yoy":"NA","zori_base":"NA"}},{"type":"MultiPolygon","arcs":[[[-8,43]]],"properties":{"postal_code":"79521","realtor_list_price":192946.429,"realtor_list_price_yoy":0.0453,"realtor_list_price_base":1.1716,"realtor_active_listings":17.667,"realtor_active_listings_yoy":-0.1017,"realtor_active_listings_base":-0.4469,"realtor_new_listings":4.667,"realtor_new_listings_yoy":0.1667,"realtor_new_listings_base":-0.0586,"realtor_days_on_market":45.571,"realtor_days_on_market_yoy":-0.4231,"realtor_days_on_market_base":-0.5932,"zhvi":117890.37,"zhvi_yoy":0.1144,"zhvi_base":0.262,"zori":"NA","zori_yoy":"NA","zori_base":"NA"}},{"type":"MultiPolygon","arcs":[[[-39,-33,-28,44,-42,-14]]],"properties":{"postal_code":"79602","realtor_list_price":337179.36,"realtor_list_price_yoy":0.1788,"realtor_list_price_base":0.3868,"realtor_active_listings":95,"realtor_active_listings_yoy":-0.3523,"realtor_active_listings_base":-0.1779,"realtor_new_listings":57.333,"realtor_new_listings_yoy":-0.1313,"realtor_new_listings_base":0.1933,"realtor_days_on_market":40.047,"realtor_days_on_market_yoy":-0.1992,"realtor_days_on_market_base":-0.3051,"zhvi":272355.108,"zhvi_yoy":0.079,"zhvi_base":0.5274,"zori":2345.405,"zori_yoy":0.3167,"zori_base":"NA"}}]}},"arcs":[[[723265,169863],[941,0],[7,12649],[17634,84],[3324,1464],[1013,1028],[939,-680],[3900,-118],[228,2139],[2065,3021],[931,1667],[21,4512],[-618,2771],[6,4639],[737,5634],[-96,14987],[-519,1185],[-1746,1032],[-2767,113],[-1309,860],[-550,1140],[-821,5531],[-156,2371],[-524,1392],[-1585,2032],[783,-1],[17,7288],[11759,1990],[1580,797],[2737,2020],[-3866,-692],[-59,8775]],[[757271,259493],[14029,-107],[3305,345],[-18,17050],[-10007,15],[1143,1785],[415,33473]],[[766138,312054],[21,6131],[416,1185],[998,906],[5767,652],[1477,1065],[72,-1220],[17438,-9],[4716,39],[291,30652],[435,4040],[-176,12429],[13176,-37],[55762,-49],[12691,-17],[667,270],[21010,6],[-5,42999],[1641,2425],[-860,639],[-606,2209],[-821,310],[-1056,1336],[-2033,36],[-508,2519],[-646,1149],[-801,-132],[-899,1009],[-180,1685],[-1268,757],[-1505,1511],[-1195,2306],[-125,1330],[-22258,-43],[-505,-41],[-1314,-1105],[-308,-2471],[-1358,-361],[87,15893],[-127,647],[86,13000],[1425,90],[1583,-3239],[105,-1860],[2236,577],[2087,-292],[-745,2598],[80,1621],[6040,-418],[1538,1005],[1781,564],[665,-484],[2131,0],[665,563],[3795,-1685],[469,-446],[2717,2193],[5671,-17],[117,1959],[2581,544],[-707,2961],[-814,1101],[-887,2263],[-1448,2210],[-2406,115],[-1604,1028],[-2464,-486],[704,1338],[-1273,1803],[137,1261],[-2148,519],[-248,1814],[1874,2245],[2368,365],[2806,1148],[-1135,1376],[-2,2986],[470,408],[2053,621],[2387,-405],[1095,194],[3071,-1215],[8381,-35],[1670,4831],[21,11455],[5654,-54],[1443,385],[198,1597],[890,686],[15011,-57],[-141,-31529],[-7652,-221],[-458,-4256],[-2441,71],[312,1649],[-549,601],[-2406,-426],[-392,-873],[-1682,39],[-941,1861],[-1663,368],[-1526,-562],[-2641,213],[-450,-951],[-2135,-257],[70,-36867],[16358,-9],[931,491],[408,22973],[24053,10],[-1062,3805],[-129,4025],[14009,-55],[2024,-872],[16529,43],[63,-5923],[3031,-21],[776,-8534],[-652,-2088],[133,-1456],[-585,-170],[1724,-18267],[6143,590],[2080,-1265],[2920,-3568],[630,-1203],[937,-3232],[-617,-802],[-2480,-1767],[-1251,542],[-1212,-485],[-1895,-20],[-685,1590],[332,2308],[-1530,1533],[-1519,-1860],[-3697,-188],[-819,-2813],[-827,-1823],[-1632,-605],[522,-6320],[-223,-968],[-1816,-1097],[-6254,-833],[236,-3133],[-813,-384],[-651,-2472],[-163,-3446],[146,-2664],[523,-492],[-172,-3213],[1038,-2689],[118,-1800],[1018,-1470],[1503,59],[2405,-1046],[21,-3064],[449,-814],[1935,-1590],[2597,467],[2283,-645],[739,-2250],[-867,-3037],[-23894,-134],[140,-4447],[3410,-17170],[61,-1548],[-2085,-8374],[-733,-2275],[-4133,-7475],[-1044,-1829],[10330,-174],[1155,-409],[-399,-1596],[-1531,-945],[-140,-5582],[398,-1104],[-2770,169],[143,-1350],[-739,-1807],[1074,-2065],[1057,-1222],[424,-1714],[702,-633],[1413,-6483],[-6122,9],[-1984,1169],[-5105,231],[-993,-13928],[15299,-115],[-207,-3200],[830,-389],[433,-1376],[271,-2077],[859,-542],[158,-2541],[2477,894],[7472,-1975],[1151,233],[2575,-890],[174,-7219],[-2999,7],[2,-135],[-12847,130],[-794,-69],[-2097,-839],[-6589,-3085],[28,-8225],[458,-6096],[24,-1722],[543,56],[1845,949],[3379,305],[6513,1],[-123,-11840],[-376,-200],[-1545,62],[-4504,-522],[-4629,19],[-1714,1174],[138,-37995],[106,-296],[844,-1361],[-1411,-1829],[-819,414],[-1843,-1064],[229,-592],[-2708,-413],[-3325,3143],[-949,219],[-1537,-3077],[-418,99],[-136,940],[-930,66],[-361,-209],[-655,102],[-280,-307],[294,-340],[-360,-260],[-209,-740],[-77,-159],[-51,-540],[-136,-438],[51,-572],[94,-404],[-454,50],[-389,22],[-472,-445],[257,-238],[-495,-600],[-136,-711],[234,-140],[-164,-387],[-496,-218],[-19,-368],[384,-833],[243,-125],[280,162],[404,-321],[24,-1847],[-16433,-56],[-81,-13824],[-812,-950],[7,-2343],[473,-1797],[-38,-6274],[-18976,48],[-106,-25047],[-136,-6118],[-11631,67],[-7399,649],[233,-1769],[-97,-4256],[2491,-451],[1012,-642],[2784,-4626],[0,-1244],[5791,-150],[6757,82],[-64,-6252],[-262,-8854],[-15697,-87],[-537,-7122],[-1981,1079],[-136,1885],[1942,1267],[-261,1075],[-1757,106],[-1121,1321],[-2448,-1438],[-1117,1502],[878,1332],[-796,2145],[-677,-340],[-1097,-2365],[-985,-666],[-1808,524],[-24,848],[-2589,2052],[-944,-1760],[662,-1145],[1961,-1708],[-928,-2323],[-732,-777],[-1569,936],[-375,-1494],[-593,-55],[-3839,416],[463,1253],[-3115,1970],[-53,-852],[-3835,67],[-480,-1055],[-3700,31],[-550,1075],[-3905,40],[93,3941],[-7888,9],[-664,1253],[-5346,-199],[-270,-6685],[-9358,41],[-10,-8111],[16206,140],[-800,-12607],[-10817,-27],[-2618,-1260],[-1971,-167],[-1795,-971],[-1511,-1825],[-2524,-1027],[-14295,-256],[333,-999],[22,-8409],[292,-1166],[2409,-1900],[-3096,-169],[-19494,91],[-4585,69],[-1110,-778],[-10744,68],[-37,6171],[3245,157],[1349,2403],[396,2344],[959,1900],[-172,1335],[-910,372],[2005,2406],[-69,2585],[-2063,105],[-52,5437],[-9332,149],[100,4819],[841,1717],[627,2906],[1023,1036],[-11,6866],[-2454,3523],[-11,7935]],[[773858,113905],[966,1409],[554,6237],[-734,2738],[-1845,1819],[-287,951],[1541,1293],[2939,3933],[2548,1778],[-30037,-913],[249,4592],[-10726,-278],[-75,4164],[951,2285],[2408,1357],[1142,1438],[145,1222],[119,10211],[-7236,-472],[-540,138],[-5669,-1901],[-3856,827],[-139,7331],[-389,1202],[-1716,2036],[-906,2561]],[[359927,506274],[-12229,-2458],[-1617,6186],[-12166,-2531],[-4023,17471],[-12169,-3053],[-611,954],[-2605,11179],[13,9036],[-884,9],[-1354,878],[-1677,144],[-2481,-1029],[-6083,50],[-52,-11217],[231,-1057],[-2546,-86],[-16338,67],[26,12428],[-6186,67],[-12432,65],[-7,-8494],[18115,-11412],[791,171],[360,-1600],[1548,-6717],[-16076,-3616],[-10971,-2553],[-1377,-211],[-410,-182],[2030,-6407],[234,-2119],[854,-2612],[1109,-176],[3078,-10725],[-1630,-1471],[-4100,-1858],[-20502,-8321],[1095,-5577],[-2822,-2484],[-1216,-786],[-1113,-121],[-1116,2295],[-158,1810],[-587,466],[-1427,-814],[-1014,130],[-882,1472],[522,1251],[1004,847],[2737,520],[1694,-289],[803,1410],[-791,2923],[-1902,-129],[-981,-731],[-948,363],[-2591,-441],[-2746,-1223],[-2113,-912],[-1178,-1043],[-3144,928],[-1259,917],[-957,-1037],[136,-1653],[-404,-944],[-2314,1070],[-108,1099],[977,1447],[-282,814],[-1939,870],[-1224,-217],[-1802,702],[-3240,-647],[-1347,1074],[-1098,178],[-2915,-772],[-1502,219],[-629,562],[-549,2565],[65,2062],[-756,1339],[-1258,317],[-1413,-327],[-1882,-1079],[-2845,-1201],[-821,-42],[-417,-1141],[-1705,-64],[-1192,535],[-507,1335],[74,1601],[690,1364],[2277,-861],[2714,289],[1154,2461],[-399,741],[-2366,-163],[-1498,209],[-357,916],[-1657,675],[-1911,1726],[-1573,-186],[-1732,287],[-1062,577],[-1625,1857],[-1675,352],[-935,-605],[-773,-1782]],[[175075,492378],[-902,-1062],[-79,-2806],[-2028,297],[-1028,739],[-61,968],[723,-13],[962,1020],[59,1674],[-652,531],[-1896,-331],[-1610,-1332],[-1019,222],[-1094,-750],[-793,-1251],[-304,-1927],[-2764,-569],[-583,968],[815,2834],[-822,1274],[-2775,390],[91,-1796],[-1182,-2141],[-1173,-604],[-1836,-110],[-1314,-513],[-1535,877],[-1224,1979],[-1572,1746],[-299,1540],[-1179,471],[-1278,-2470],[-29,-1063],[-878,-761],[-3008,3063],[-935,-679],[610,-3095],[-789,-1231],[417,-1124],[-526,-643],[-1098,71],[-1963,1271],[-1530,-55],[-1595,3216],[-481,5803],[-812,1974],[-723,893],[-1747,415],[-822,-1960],[-925,-1270],[362,-981],[-790,-2071],[-1432,-978],[-1591,1300],[-620,2764],[1086,3374],[-160,1037],[-700,61],[-5488,-847],[-677,-608],[-2338,-24],[-1361,796],[-2404,182],[-530,-401],[910,-1112],[-775,-866],[-1399,349],[-1685,1979],[89,814],[-812,963],[-4170,390]],[[105404,503179],[-8199,31217],[-398,1768],[251,1461],[2419,5527],[305,1292],[73,9530],[459,2451],[677,245],[-4220,16966],[21063,5219],[555,73],[406,15],[803,403],[18594,4601],[34604,8676],[-506,-1256],[2950,-11529],[1341,-559],[-1479,-4112],[-4,-7808],[8916,132],[6009,1153],[11215,-31],[-81,12351],[-6919,42],[186,8429],[-4825,186],[923,37509],[-21241,773],[-1802,6972],[8350,5370],[-8884,289],[-924,11],[831,-3239],[425,-1664],[-5994,-1678],[-372,-297],[-2439,1922],[1492,754],[-226,1182],[1801,494],[364,4058],[649,1601],[-1402,-14],[-293,921],[1741,1113],[1171,-1027],[871,614],[-642,3087],[253,1804],[691,401],[-1243,2237],[2527,308],[531,853],[-965,656],[-1774,-225],[-1605,1209],[2422,885],[598,1378],[-928,1247],[-109,1242],[1525,-167],[112,870],[1459,1546],[107,2727],[5223,-152],[18541,-640],[12589,-389],[25167,-752],[251,-4367],[1418,-165],[1793,-1459],[-399,-1286],[-1363,-835],[-437,-4398],[12104,-299],[-47,-1376],[9866,19],[103,-6826],[-35,-21595],[-285,-1438],[648,-464],[7,-1426],[24926,-123],[37434,-169],[12470,-65],[12490,-77],[-41,-24622],[24947,-69],[-72,-11769],[-43,-13017],[4890,-32],[38875,-245],[-337,-20908],[-237,-102],[-25919,205],[-4,1324],[-4319,-100],[1751,-1699],[671,-4113],[111,-5545],[-13782,-3181],[565,-2996],[2298,-8976],[-2319,82],[-2242,600],[-1080,813],[-2021,-271],[-618,1550],[-1934,1020],[-3708,465],[2980,-12799],[1452,-6402]],[[437329,747523],[7100,19052],[1690,793],[636,1292],[576,3255],[2086,1448],[2261,451],[1471,1905],[4732,-3798],[40038,-430],[260,4212],[6907,460],[-12,4696],[3262,537],[36,11560],[331,696],[12298,178],[299,12027],[12159,16],[209,-2876],[2479,-251],[2494,-1222],[1005,253]],[[539646,801777],[1,-5464],[1627,-656],[2285,1564],[1871,-325],[1658,1199],[1317,-543],[1905,544],[1218,-2618],[532,-6070],[-491,-3704],[-1080,-814],[-1826,-2405],[2710,-1222],[-216,-2073],[-844,-922],[39,-1147],[1140,-1939],[2494,-3374],[1826,-969],[3908,-562],[3123,755],[-1982,1066],[-233,1268],[2127,-341],[1181,-1880],[1269,457],[3430,-2171],[-50,-1654],[696,-1009],[2491,-457],[675,-1604],[1636,313],[1097,2353],[3627,1863],[567,1311],[1591,174],[2297,-413],[893,-701],[-51,-933],[1388,-975],[6,-661],[-1322,-759],[1136,-1455],[-692,-851],[150,-1647],[-1288,-2207],[760,-1200],[-1479,-95],[-578,-1820],[-1400,-250],[-165,-1685],[-1086,-754],[407,-1356],[-695,-1286],[466,-2530],[-400,-1031],[-1355,-213],[-334,-911],[294,-2715],[-275,-2133],[-19353,19],[3,-28795],[-1218,853],[-706,-213],[-1138,1415],[1157,3277],[-1275,-679],[-589,2831],[39,1978],[-4509,197],[-1888,1044],[-1534,287],[-2843,-411],[-1978,-1094],[-336,-1205],[1480,-1235],[326,-1288],[-942,-524],[-1746,-59],[-1747,3064],[-59,1182],[-1826,2268],[-2239,4827],[1785,2289],[196,1144],[1118,1861],[-1374,1781],[-433,1706],[-1572,2486],[1230,1051],[-2372,2],[-605,1021],[645,5178],[-1589,-1],[-1629,-1339],[-1238,1629],[-2434,-156],[-825,872],[-2394,-777],[-1197,135],[-2651,1143],[-3401,-1317],[-1119,-1435],[-2964,583],[-1787,-232],[-1747,312],[-5300,40],[-983,-4168],[-685,-1438],[-239,-1490],[2144,-2154],[520,-1707],[-236,-3842],[1089,-1338],[463,-1436],[-15,-2697],[2806,-277],[2201,-1751],[727,-1042],[1543,-740],[4709,464],[1322,1445],[332,1669],[1772,-892],[668,-1202],[-274,-1649],[-1117,-2425],[-1452,-1279],[2198,369],[1669,-1201],[1119,-1513],[1667,-4519],[-477,-336],[-1493,2240],[-2163,532],[-3191,-1678],[-2527,-129],[-1203,1734],[-1865,-494],[514,-1285],[-982,-1318],[-276,-2075],[-726,-542],[-2,-4306],[234,-2927],[1745,-1552],[-471,-930],[-2865,-620],[451,-2365],[784,-835],[3138,76],[-139,-1120],[-5197,-1166],[-2492,-2326],[-2099,-1337],[-2237,-2501],[-236,-1434],[-2309,-382],[-647,1357],[-693,-1579],[948,-818],[-358,-678],[596,-2358],[583,-659],[-135,-1744],[-1638,-1517],[602,-2155],[-1455,-2059],[226,-279],[745,-271],[667,1024],[3001,-99],[1763,-3366],[3117,-486],[2195,-1243],[14299,-80],[881,2075],[2882,1359],[156,3421],[1254,1186],[1491,-891],[452,-873],[530,-3985],[2452,-2345],[8177,-114],[177,-1842],[-36,-8746],[-4904,4012],[-4724,-544],[-1766,639],[-3078,503],[-1393,1531],[-4471,1006],[-2373,-1048],[-2596,292],[-2078,564],[-3194,-2481],[-1911,-2538],[-2616,-2036],[-1423,1260],[-848,-852],[-2246,-620],[-1495,1443],[-3269,-3912],[-1521,-3095],[255,-3924],[694,-1737],[-973,254],[-1830,-563],[-3823,-517],[-1899,-1784],[-92,-952],[-1346,94],[-78,-1730],[-907,-283],[-1327,1306],[-2878,508],[-966,1461],[-1465,-2155],[-2319,2097],[-1498,474],[3204,-4819],[308,-4983],[-468,-1139],[-1292,-509],[-972,-1055],[-3283,-1003],[-56,-1604],[8851,-32],[52,-10821],[4893,-59],[-443,-1818],[1158,-4015],[1155,-650],[1560,-2432],[162,-3347],[2094,499],[2714,-852],[998,-1433],[1451,320],[2106,-934],[2115,468],[1336,-447],[-319,-2222],[1272,-136],[2483,2461],[3911,-176],[1270,774],[2523,270],[1368,1259],[1269,3703],[1662,1724],[3189,-3180],[1314,-1784],[1685,-930],[2293,-658],[1763,234],[2034,3103],[410,3353],[1410,-988],[3920,-948],[1862,1262],[1568,-270],[686,1668],[4290,1514],[1979,-39],[-1782,-3510],[548,-1943],[922,-1201],[-38,-1138],[926,-907],[2303,-256],[3819,-2080],[1261,1125],[1321,-1934],[186,-584],[4055,1144],[2477,314],[1700,573],[4887,641],[1359,-364],[685,-2850],[1411,-1940],[1136,-2172],[-137,-814],[1253,-621],[-157,-662],[1329,-1112],[1083,-6207],[488,-381],[2819,-210],[1594,7062],[-292,2346],[206,2024],[1670,1359],[3280,1868],[2869,-3492],[2917,-4888],[744,-3258],[1430,-1],[-276,-3568],[-1814,-433],[-1875,638],[-1818,-174],[-3856,380],[-2119,-1360],[-2974,-481],[-548,-1823],[-2195,-2035],[-2566,-1551],[-1234,-1125],[-3506,272],[-1919,-737],[-724,-776],[-6581,1494],[-3173,-854],[-1978,-2831],[-293,-1610],[-1233,-2249],[255,-1688],[-686,-329],[-2408,425],[-686,-1066],[-646,524],[-4800,743],[-2290,69],[-1058,621],[-2075,387],[-1410,-350],[-2116,1182],[-1841,155],[-1586,-873],[-1037,-1513],[-880,-2204],[1390,-2091],[2,-3510],[470,-853],[-1349,-2482],[1058,-4267],[1078,-1317],[-371,-2695],[4013,-444],[3270,233],[3779,-328],[1058,-485],[3975,-4246],[1077,-621],[-158,3976],[-705,2075],[1531,2459],[1912,1040],[2708,-31],[1049,962],[1981,690],[1900,-1764],[1937,-3742],[-723,-3065],[-725,-8455],[-1284,-1838],[-177,-1609],[925,420],[1728,-506],[2118,296],[2339,1629],[527,1952],[-903,2133],[239,670],[1802,-272],[1316,-1433],[2656,-1259],[949,-106],[2154,-1725],[-847,-3955],[53,-1207],[2067,93],[2513,-635],[4723,-1813],[2901,-279],[-1934,-82],[-11392,850],[-909,-1188],[-192,-367],[-7458,-10267],[-2739,176],[-2367,678],[-2055,59],[-1918,640],[-2308,281],[-4522,1618],[-2564,1415],[-2389,2597],[-3386,1182],[-587,-1164],[-1526,-1008],[-666,-58],[-2191,1103],[-3152,1046],[-3640,-369],[-1838,-2948],[-1781,-1068],[-2642,580],[-2231,872],[-3230,-271],[-2565,467],[-1839,912],[-8484,-912],[-50,-2817],[558,-9444],[986,-10340],[-535,-2120],[-1879,-348],[-1721,408],[-1468,-854],[-1760,583],[-2230,1397],[-861,330],[-2700,-659],[-2681,40],[-9582,1710],[1952,3527],[-117,2618],[-900,1661],[3831,1065],[690,1609],[-616,1943],[817,566],[-456,1659],[-5286,-103],[185,2462],[-710,6842],[-18,1920],[-731,3577],[437,1581],[3445,795],[1194,873],[-587,3820],[1155,582],[5579,-563],[509,1726],[235,2500],[1,3007],[-1976,3664],[-39,3432],[-1957,680],[-2232,272],[-1567,2560],[1978,1008],[-195,1105],[1292,-388],[1233,1629],[-959,311],[79,3878],[-509,911],[960,698],[492,1312],[-5095,2542],[1729,6612],[-570,2769],[-666,795],[-156,1591],[-901,697],[-1983,20],[-3928,485],[-1071,-153],[-624,1045],[-2383,1067],[-1351,1299],[-534,-2124],[-2834,-6523],[-5267,2598],[-4134,1413],[-3524,427],[-3923,-945],[-1641,-870],[-5881,-5177],[-1543,-914],[-2818,-990],[13,-4973],[-185,-24803],[-3,-23707],[18,-12819],[-4,-1695],[-4,-1621],[-1057,158],[-5534,-10795],[-5489,-586],[-1198,12810],[3426,369],[-380,3749],[-623,4065],[256,632],[8738,789],[-230,3584],[256,2770],[36,721],[-1768,2061],[-29,1103],[762,1660],[-1091,10876],[-2224,-962],[-1448,222],[-932,-1053],[-3031,971],[3,-1331],[661,-2080],[-2106,-5626],[-1944,-1529],[-3013,-3456],[-230,-3919],[-2331,-235],[-2414,1403],[-550,3835],[-265,-1187],[-1797,-2389],[-1785,70],[-2479,-3693],[-981,-464],[-1027,-2880],[-416,931],[-2493,2475],[-4668,1499],[-1875,-1230],[-409,373],[2187,1529],[1160,-632],[3884,-914],[1066,1206],[-46,931],[-1733,1075],[366,1940],[898,620],[968,1483],[1118,648],[3147,157],[-112,2987],[179,746],[2655,2195],[362,1475],[-1883,2561],[-65,1405],[-1743,805],[-366,913],[1471,1759],[1513,357],[1996,-5],[466,522],[2128,-430],[1588,1037],[3430,1577],[5006,3338],[1161,1881],[-1985,3910],[-450,1922],[-616,790],[-290,1663],[-1418,1508],[367,2225],[889,1075],[52,987],[2591,2158],[2718,1114],[813,1248],[-1117,2706],[203,70],[-2420,1214],[-1240,1188],[-1753,518],[-2829,131],[-1189,792],[-882,2276],[71,898],[1068,2913],[1322,2671],[1077,1629],[1606,965],[4165,4965],[3201,2313],[667,2043],[191,2514],[-1030,2150],[-1459,1427],[-598,1610],[469,1871],[-443,1292],[-1488,-1670],[-2800,301],[-2114,-2139],[-4866,-222],[-866,-236],[-1768,-2239],[-2272,179],[-958,1531],[151,1015],[-1425,-824],[-10,764],[-2999,587],[302,1401],[-922,-98],[-1487,-3011],[-160,-1670],[-1199,-1568],[-2347,-433],[-130,1653],[-866,-131],[-699,-1361],[-100,2703],[-14757,105],[54,5270],[1460,104],[42,6763],[-951,12],[18030,47005],[5351,-48],[205,10516],[24933,-271],[97,12390],[81,12417],[-7721,281],[130,26837],[139,0],[8300,22159],[758,2381],[1241,3003]],[[173552,191861],[70,-19273],[776,-7072],[8564,-48],[456,-1767],[11948,2876],[9804,2929],[746,623],[1752,2038],[629,507],[821,306],[2463,97],[1492,513],[1610,1465]],[[214683,175055],[1741,1916],[1233,1679],[944,-6398],[-1383,-532],[-2418,-235],[-2899,-724],[-385,-600],[2005,-8704],[948,-2222],[52523,40285],[1294,-1066],[-143,529],[2389,-2056]],[[270532,196927],[3878,-3640],[1885,-2761],[1069,-3034],[77,-684],[132,-646],[0,-5128],[-9712,71],[1081,-5736],[2793,-12398],[-1374,70],[-2143,-2718],[1388,-993],[-3987,-2584],[-1813,-2861],[-2364,-3007],[-2578,-5464],[-2420,-2983],[387,-956],[3752,-14599],[209,-478],[761,-2589],[11786,2977],[-788,2909],[-1488,5616],[430,1525],[215,2474],[2022,2533],[870,2560],[-104,2600],[617,1423],[1075,1362],[551,4150],[1912,4175],[1077,358],[513,-339],[4812,318],[1064,-27],[-16,-2025],[-265,-1149],[198,-6923],[16343,98],[-24,3523],[-1743,-84],[-24,17814],[3752,-142],[73,-1674],[2283,28],[-26,10619]],[[306668,178508],[-23,9689],[-1282,-23],[-557,787],[-19,1983],[6853,2269],[2309,26],[-16,3378],[-260,1159],[39,4826],[502,407],[4419,-43],[628,2958],[12194,-151],[-28,-1670],[5533,-70]],[[336960,204033],[186,22],[-3737,-10530],[819,-1098],[194,-1844],[2159,-1182],[466,-685],[1045,-3086],[-5355,-30],[-568,-1467],[-433,-5680],[-21,-5228],[18392,-168],[-20,-11945],[6571,-34],[3240,-1991],[1113,-3383],[860,-1059],[1543,-815],[106,-816],[1190,-971],[-444,-1552],[189,-1547],[-1298,-1054],[-176,-1398],[557,-1563],[-708,-815],[-2506,-1328],[-526,-989],[98,-2017],[2881,-736],[1656,-737],[3682,-621],[661,2774],[779,1454],[2181,1997],[2203,4116],[1149,871],[2587,-1851],[908,-1165],[-532,-1653],[-1564,-2605],[-4050,-3665],[-389,-1009],[-116,-2618],[-642,-989],[-565,-2269],[348,-2177],[-701,-2597],[-1692,-1648],[-2004,-1029],[-641,-1841],[-190,-4875],[1435,-3795],[1417,-2692],[250,-2111],[-585,-1085],[268,-2653]],[[368630,104571],[-30854,258],[-12873,106],[-44,-12812],[-8806,74],[-4695,7677],[220,931],[-1556,3047],[-551,16],[-2332,-11611],[-10288,102],[-132,-250],[-1046,-598],[-3191,-58],[-1363,-211],[-972,-601],[-799,-407],[-818,-290],[-466,0],[-798,292],[-954,58],[-1498,1067],[-4101,-136],[-1226,-477],[-1623,-1189],[-1148,-3163],[-2767,-110],[-950,-681],[-212,706],[-1070,-2079],[-494,-1437],[-1290,-2452],[-379,-5803],[-7075,-12],[-2161,801],[-2873,-29],[-729,3136],[-1149,1086],[-136,910],[-1227,620],[-974,3160],[-2160,-79],[-1889,1338],[-2718,-523],[1091,3839],[52,2288],[-1237,621],[-271,1844],[2356,4826],[-2372,797],[525,1357],[-193,1261],[-1907,1009],[-1400,1805],[-2609,-1085],[-838,-1591],[-1908,-212],[-3016,408],[-916,-1802],[117,-1629],[-1266,-892],[77,-1280],[-1421,-2386],[-1148,1921],[-271,2405],[-1361,1610],[-312,1824],[-816,1298],[322,-1224],[-32092,-8159],[457,-1855],[-4127,-54],[2,1710],[-23256,-570],[-2532,24],[194,2037],[-1149,2501],[-857,212],[-20,1629],[-3853,251],[-2870,-565],[-2638,333],[-3386,-543],[-1985,-579],[-2422,376]],[[147207,98708],[5441,11308],[-1496,-1954],[-854,1040],[390,1250],[80,2693],[-1087,2695],[-2490,1144],[-408,918],[-1211,546],[-157,1820],[-1246,1726],[234,795],[-1791,2346],[-3308,-49],[-1894,792],[-2958,-295],[-1616,370],[-1920,-885],[10212,7793],[771,572],[367,226],[257,20326],[-1354,1440],[-2279,-773],[-1499,78],[-682,524],[-1067,4441],[-1481,-754],[-2746,-37],[-975,-561],[-3407,584],[-1598,-212],[-3389,-890],[-1285,699],[-2434,332],[-1110,562],[-1597,117],[-1072,-1007],[-234,-989],[-2045,137],[-927,-285]],[[111342,157291],[630,919],[1441,20],[487,1086],[1772,1066],[2026,704],[349,-692],[3292,594],[1636,859],[1462,182],[429,971],[3603,-156],[487,1105],[2026,1745],[1091,77],[-2259,3587],[-2551,1029],[-1364,1590],[-1936,392],[8171,-25],[1268,-613],[898,-1511],[49,-2590],[964,-1940],[1163,-565],[3827,-600],[17889,11397],[-1970,3469],[-1088,428],[-333,1544],[486,1548],[1330,605],[2163,-662],[2278,233],[831,2099],[2314,349],[1411,4448],[914,1607],[2436,310],[4588,-39]],[[175075,492378],[250,-1379],[8677,-34411],[-180,-1127],[30746,6712],[4990,-18983],[1048,-5103],[-21723,-4805],[2494,-11613],[-362,-805],[-14,-315],[621,-2834],[176,-381],[7128,1861],[15056,3940],[241,-1389],[3057,-12204],[1693,-6747],[4758,-18857],[27165,7162],[1429,1232],[1129,1573],[994,752],[813,-2957],[1828,577],[852,-3040]],[[267941,389237],[2075,-7293],[2153,-8865]],[[272169,373079],[-749,0],[-18328,-3],[557,-374],[19,-814],[-1464,-1980],[76,-1299],[-2545,-176],[-684,-2269],[-1776,-2618],[-821,-1998],[-1251,-1667],[39,-891],[-1738,-544],[77,-679],[-1230,-950],[-215,-1322],[-1037,-1000],[5598,-22088],[3797,-33],[7422,1745],[959,-4124],[1812,419],[770,-3177],[1175,-5274],[-2639,-320],[-8105,180],[-2293,-284],[39,-144],[110,-620]],[[249744,320775],[-1174,38],[-2953,-349],[-1366,-713],[-4899,-476],[1314,-7280],[-66,-16],[-2846,-929],[309,-1233],[-18526,-4737],[-744,1131],[-4545,-1150],[870,-3248],[-25140,-6542],[1356,-5791],[-6116,-1725],[4454,-16600],[-11500,-3019],[2384,-8898]],[[180556,259238],[-12038,6275],[-10370,-2794],[8099,-31931],[7743,-29856],[-455,-4357],[17,-4714]],[[111342,157291],[-5151,-1844],[-420,244],[-820,413],[-1680,487],[-954,59],[-1402,312],[-1773,641],[-1266,58],[-4674,-697],[-765,579],[-2252,1866],[-2377,-175],[-1441,-736],[-4050,1978],[-1091,1358],[-1461,-1473],[-3058,156],[-409,1939],[-1538,833],[-623,-970],[-2572,427],[273,1377],[-818,504],[-1032,-504],[-2045,-20],[-1110,467],[-1851,-970],[-915,-2152],[-2356,-331],[-1753,292],[-1656,-1533],[-1402,562],[-2026,2676],[-1289,3022],[-1711,2205],[-1976,1849],[173,28105],[221,41736],[-47077,-5982],[-543,-88],[-2672,-245],[716,13481],[2033,4124],[1011,3158],[-953,1676],[1271,-69],[1811,-658],[5302,-2528],[1486,-375],[8347,-169],[10294,315],[16529,497],[2499,-568],[229,22335],[29459,6635],[-2749,12261],[11961,2681],[-307,1379],[-27634,9974],[-1531,7169],[12029,2696],[1857,-8424],[1506,-1901],[1997,-734],[1142,34],[5814,1298],[1079,48],[794,2672],[-7102,31910],[13344,-2011],[8048,-1769],[745,527],[4286,-855],[-52,192],[-8231,35830],[-12595,137],[-4275,19327],[-1348,521],[1115,269],[-2627,11986],[12021,2689],[-7035,31227],[-427,1228],[-1203,1762],[-3504,2422],[-1689,1650],[-943,1992],[-1522,5750],[-798,1859],[-1103,1423],[-678,834],[-10604,-2661],[-2566,-3440],[-4774,-1104],[148,17832],[187,2399],[-124,991],[-117,933],[-4,2340],[9203,2281],[3572,879],[-1051,4918],[1906,2011],[3540,-1705],[460,-1158],[1277,145],[-115,5929],[346,1265],[928,375],[1110,-1216],[-670,-2071],[2493,-994],[2343,-9],[1872,1323],[-1475,2512],[2581,1747],[206,1479],[5004,2618],[2666,336],[1587,1288],[69,2957],[1009,735],[1409,-926],[972,890],[4295,1625],[1968,376],[1386,-2200],[625,-2480],[1328,410],[-920,1721],[93,1647],[2822,-442]],[[757271,259493],[-77,15613],[795,1590],[-6732,375],[-1970,1455],[-663,1881],[-1171,97],[-3242,-653],[-1651,-1570],[-3047,-1074],[-226,-1691],[67,-23784],[-6748,96],[196,-6349],[-9738,-788],[-21243,3692],[-16101,4087],[-2413,-276],[-2888,-1435],[-1092,-277],[-767,-34],[-8581,890],[-5004,1347],[-76,-462],[7229,-2032],[1629,-264],[-1695,-526],[-941,-2406],[767,-461],[-580,-3207],[-866,-1647],[697,-591],[-296,-1085],[-2194,-791],[1171,-341],[1839,234],[-29,-1829],[866,-1575],[-1427,-3467],[-1000,-594],[-178,-1458],[9290,-702],[2842,-202],[9606,-869],[1296,-3944],[310,-1803],[-332,-1939],[-994,-655],[4306,-31],[753,-300],[-168,-5632],[993,-1263],[681,-1938],[-198,-3354],[1503,-2850],[1601,-4033],[741,-252],[2182,990],[2242,-270],[1968,-639],[2223,162],[1753,-2448],[604,756],[1053,-1299],[1636,-487],[1091,695],[2535,-2010],[1657,-1686],[93,-4220],[-1472,-1837],[-289,-6763],[1283,-1307],[-688,-758],[318,-2259],[2203,-3704],[138,-2036],[614,-1433]],[[773858,113905],[-12162,219],[-124,-3500],[-26314,875],[-11,-4263],[-1564,-29],[-1599,-755],[-1222,2089],[-4419,2531],[-3746,2970],[-2109,3086],[-2820,-185],[-4747,41],[-517,1188],[-7560,-88],[-74,6516],[-1986,543],[-646,5629],[-1462,2622],[-662,406],[-3281,-445],[-2607,3124],[-622,4635],[273,737],[-1161,1840],[-20328,69],[145,-3005],[860,-2763],[2062,-101],[187,-1234],[922,-991],[-1290,-238],[-1253,-1790],[-1158,-352],[-545,-1047],[-1,-2618],[-916,-2714],[760,-1979],[-526,-2210],[1323,-1242],[-390,-3937],[447,-873],[-39,-2793],[1341,-3142],[134,-3007],[-1424,-3375],[-312,-2055],[-1130,-1223],[-178,-4074],[-645,-4306],[1731,-621],[680,-738],[-643,-1881],[135,-1611],[835,-582],[-79,-2425],[-1188,-852],[-1033,-1881],[525,-1009],[-4947,3681],[-1417,-1210],[-1401,893],[-1420,-20],[-1831,-4362],[351,-2115],[-1052,-2656],[-3951,-872],[-2531,1630],[-507,3220],[-1246,-174],[-955,-2347],[-428,-1996],[-1052,-602],[-6,-3458],[821,-1752],[1652,-732],[3845,142],[58,-23300],[-4301,183],[-1001,579],[-2739,-26],[-2020,1448],[-8066,-8],[741,-4189],[-1284,-2366],[390,-4709],[-388,-1901],[1324,-2792],[-172,-1912],[-711,-804],[6598,-45],[3415,-1759],[2659,-13],[822,-2129],[-1548,-4567],[22,-3132],[662,-2174],[1670,-641],[2431,407],[876,-737],[5580,-2079],[2428,-447],[370,-1942],[1458,-425],[2119,872],[1594,-232],[991,-1455],[177,-1357],[2021,-1671],[1794,-3357],[3994,178],[3863,-1123],[-8,-717],[-25971,-19],[-31201,2],[-37461,30],[-12134,19],[-24834,-47],[165,11410],[308,14411],[-9699,59],[-1476,514],[-1105,2028],[592,19728],[-629,1592],[-2006,934],[-6390,76],[-1498,408],[-2702,1865],[-1005,420],[2619,176],[903,1610],[672,2374],[2192,2916],[-871,1326],[-154,1469],[1314,3386],[-282,1897],[-730,675],[751,4149],[344,471],[2288,952],[1423,-971],[2097,68],[1049,2457],[1005,485],[1494,-1158],[1232,604],[1065,-694],[2242,180],[4258,750],[771,1597],[-64,11204],[-12909,159],[-15,11000],[2693,2860],[-10,9221],[6735,76],[143,24352],[7,4128],[5300,58],[38,6970],[-4157,8647],[448,34795],[2742,912],[-1195,2472],[-488,2132],[-1721,2429],[-630,3377],[-1042,1085],[-2678,1718],[-661,1329],[108,13594],[-8514,29],[211,24529],[4725,-47],[25,3499],[-127,10883],[86,11883],[30,473],[-4,1240],[2996,-484],[43,3606],[-946,174],[39,1491],[3258,-15],[7120,-1092],[13,848],[-6275,681],[-147,5797],[9,145],[1365,-26],[-105,4997],[-1112,0],[144,13511],[6250,-76],[3,184],[0,6025],[-5749,98],[872,1525],[-958,2806],[1289,1224],[-530,2816],[1002,9],[482,1458],[1837,-550],[1839,995],[1997,612],[538,2462],[1448,569],[604,1700],[834,878],[408,-675],[2632,80],[680,3080],[-1032,2081],[141,805],[3973,47],[1340,991],[1377,289],[202,-3347],[862,-754],[2048,2830],[-1204,2327],[1982,-224],[2009,661],[1828,1182],[1237,1871],[1856,1089],[-838,3077],[1654,1479],[1731,2414],[383,1388],[1162,1373],[193,1080],[-933,2844],[2006,320],[1204,3443],[1358,1657],[3816,3219],[1584,265],[400,5143],[1973,2599],[-4066,-126],[-4390,3],[-23715,-20],[-12197,-28],[-4013,43501],[4098,754],[5999,-310],[533,195],[2046,1318],[626,2423],[1192,1514],[1153,2287],[3400,1610],[1330,2366],[1661,1862],[1426,523],[3031,-562],[4377,-4306],[3734,-640],[1583,426],[6195,328],[1291,601],[1993,-524],[2287,1085],[2941,-1018],[1201,-2057],[1389,-1490],[2205,-4611],[840,-232],[-352,-912],[-2,-2695],[977,-2173],[155,-1882],[1190,-3336],[356,-6633],[-83,-1987],[-747,-1697],[253,-1532],[-1796,-5454],[-163,-1938],[1219,-1071],[1498,-335],[3339,-2807],[3256,317],[919,-310],[-413,4965],[388,3568],[1308,1184],[1896,-252],[1133,-1299],[1192,-18],[1211,834],[3556,1049],[2185,-646],[772,1024],[1802,-1439],[-1347,-1531],[-1383,-838],[330,-1492],[-886,-1052],[677,-4939],[-2682,-1380],[-2538,-945],[747,-1229],[3818,-885],[1280,1229],[951,105],[2186,-1689],[116,928],[2534,118],[1095,-4884],[1310,-989],[464,1],[2091,-1824],[2854,-1355],[430,-854],[-2433,230],[-589,-369],[-47,-2209],[542,-969],[-163,-1882],[-531,-601],[-871,-2776],[4102,-1064],[2239,-3782],[-1093,-3472],[-1250,-1086],[-1131,-3200],[1406,-989],[761,-1919],[411,-2502],[683,-1125],[-253,-2385],[2424,-1309],[975,182],[-42,-2776],[844,-3366],[1660,-2677],[1176,-1375],[343,-2353],[1250,-502],[2919,216],[988,964],[4630,-2442],[1891,-1690],[1927,-741],[3288,901],[2182,715],[1731,-214],[6069,519],[1392,-2553],[224,-1273],[874,-749],[547,33],[3695,-2159],[1405,-17],[416,1416],[35673,210],[2465,477],[9546,184],[16,-1516],[35228,-20]],[[359927,506274],[1344,-5811],[11670,2929],[938,-1407],[1081,-4628],[-2578,-682],[23,-12588],[-6896,-1437],[2725,-11673],[-7859,0],[6743,-25072],[-9138,-2519],[-1156,-673],[-3249,-2535],[-5284,-2506],[-2879,-1210],[-5119,-1145],[-1968,1507],[2167,-6457],[-2243,-2385],[-2645,992],[-834,2118],[752,1326],[-646,2616],[-1465,-766],[248,-1881],[-437,-1331],[-741,-544],[-1107,801],[-1905,-1246],[-797,432],[3464,4625],[-1131,470],[-1121,-194],[-3350,-1288],[-408,438],[-2350,429],[-1520,-469],[-995,400],[-694,1001],[1525,1265],[-890,2453],[-2131,-567],[-1022,1303],[-2482,-54],[-338,-1220],[-1173,-977],[-896,145],[-1440,-1584],[-1009,-22],[-3514,3287],[-615,-978],[-1505,1262],[-300,1457],[276,1605],[-2683,239],[-408,-66],[-1286,447],[-1444,-695],[2243,-8566],[937,-1259],[3163,-1803],[1168,-2950],[-6777,-4369],[3411,-5604],[-23632,-5534],[2827,-12384],[97,-977],[-567,-529],[1127,-1493],[-736,-1345],[-1795,-871],[-1403,666],[1422,-4109],[-1078,-918],[-441,-1279],[-4286,-509],[-1180,-1472],[-479,2058],[-1547,204],[-1341,-1168],[-1365,912],[-1059,-675]],[[272169,373079],[10411,9],[2121,-9192],[3331,794],[-819,-2464],[-1910,-1690],[-150,-1597],[-1403,-1767],[350,-691],[-3148,-4161],[428,-1833],[12131,2835],[3704,-15704],[3898,-111],[1387,658],[1951,-933],[546,-717],[4352,2893],[733,-958],[1499,341],[-247,-970],[307,-1335],[8296,3032],[4759,2053],[3093,640],[2977,1181],[4738,2619],[4257,1318],[-1899,3338],[-854,2554],[982,982],[820,1766],[1581,815],[-431,989],[-1640,-391],[271,2327],[1816,1031],[1895,-599],[2557,1464],[1451,-1885],[-160,-113],[-41,-12203],[8,-4044],[-2400,-20],[-12,-4808],[2427,-22],[-10,-1228],[55,-3459],[-165,-2977],[-953,-832],[-221,-2515],[-832,7],[-192,-3323],[1165,16],[278,-1757],[-5,-231],[-199,-2397],[-98,-1],[-145,-1466],[101,-4],[-73,-872],[-187,-2183],[-348,49],[-37,-360],[-330,65],[-96,-1008],[712,-50],[-106,-1236]],[[344446,312748],[-3063,251]],[[341383,312999],[-4966,420],[-3672,191],[-4335,497],[-3549,279],[-7219,654],[-5235,442],[-34,-384],[-7769,660],[-5289,454],[-2941,255],[-2342,-46],[-12021,1052],[-5498,-642],[1169,-5034],[137,-407],[-9606,-1684]],[[268213,309706],[-1372,7448],[-289,1777],[-4664,181],[755,1408],[-2584,623],[-6623,158],[-2408,-100],[-1284,-426]],[[180556,259238],[11841,-5992],[-2058,7861],[33248,8812]],[[223587,269919],[2436,-9260],[1025,-4367],[2683,-10547],[672,-1379],[1086,-4097],[-13242,-3347],[3357,-12759],[375,-782],[4032,-15200],[1775,-6550],[-2722,-4367],[-617,-6649],[-1014,-1524],[-1127,-2968],[-9944,-2572],[2321,-8496]],[[341383,312999],[-408,-252],[-16,-1988],[-991,-1427],[-23,-2118],[-111,-3143],[119,-1685],[425,-1383],[-437,-8],[874,-989],[-865,-2029],[17,-2530],[1082,-1217],[-1088,13],[-121,-1668],[28,-810],[-12,-3972],[1,-3771],[0,-2917],[392,-9],[46,-3195],[396,-24],[15,-4443],[-3004,2],[-30,-1521],[1677,2],[-5,-2339],[-302,-2808],[-293,-243],[-1058,1231],[-44,-217]],[[337647,267541],[-1906,1921],[-3135,2575],[-4012,3204],[-2150,1269],[-1453,952],[-3497,3326],[-806,776],[-4172,4087],[-1323,1776],[-870,1553],[-1801,4477],[-1665,-2115],[2265,-393],[-1152,-1818],[2224,-186],[-1940,-524],[-3618,95],[1802,2292],[-4612,131],[-6314,50],[-1281,-736],[12,-2106],[-2116,-258]],[[296127,287889],[45,3130],[77,4982],[-77,2350],[-231,2493],[-50,6602],[-3229,81],[-9875,119],[-1114,-463],[-2390,-1162],[-9709,-2297],[-338,-55]],[[269236,303669],[-45,617],[-978,5420]],[[223587,269919],[-849,3230],[14633,3645],[8395,2121],[7819,2013]],[[253585,280928],[755,-1727],[4005,-4170],[2535,-2546],[667,-796],[502,-844],[377,-1010],[178,-676],[2794,586],[776,-1389],[672,-62],[490,-2541],[-76,1398],[755,204],[-310,1186],[-388,1487],[1735,343],[-221,1056],[4649,1212],[899,-3437],[7125,138],[563,-7],[-12,2614],[-450,9],[-44,6643],[0,310],[6877,102],[-19,6314],[4739,-131],[88,-2],[2843,64],[38,2633]],[[337647,267541],[2410,-2772],[1718,-2122],[193,-350],[1079,-1509],[902,-580],[390,-57],[20,-249],[21,-717],[-14,-2685],[-84,-8738],[-177,-12694],[-22,-5127],[-154,-9],[-2,-843],[-30,-4914],[-242,-1417],[-779,-3],[-656,-2164],[-1429,-77],[-236,-3996],[-2898,-30],[26,-3827],[2342,-71],[-3065,-8557]],[[306668,178508],[-9149,-258],[-5747,258],[0,2571],[-2639,94],[-26,468],[-234,620],[917,1260],[1191,4227],[1256,-385],[-492,412],[-1099,257],[-2314,-5273],[-154,-203],[-931,-800],[-1781,-640],[-1322,43],[17,2769],[-759,7436],[-811,2699],[-2353,1058],[-4376,43],[-452,89],[-2065,494],[-860,321],[-1543,875],[-410,-16]],[[269236,303669],[-1526,-377],[-3624,-859],[-497,2969],[-425,-101],[-929,4726],[-305,1222],[-6212,-1234],[-648,-129],[1357,-6839],[825,175],[355,-1948],[740,161],[686,-3352],[-21,-1506],[-3036,-916],[-104,-1400],[-2190,-2999],[-174,-630],[-67,-8478],[144,-1226]],[[368630,104571],[602,0],[-311,13751],[7325,-120],[-34,-1191],[3440,-60],[41,7955],[12164,49],[20035,194],[2420,-75],[543,112],[9751,87]],[[424606,125273],[-282,-59731],[4428,-17],[840,-199],[-123,-10239],[3527,-186],[9574,-57],[1097,-326],[3194,-1815],[1361,-139],[7926,1207],[376,-6474],[-319,-5518],[-19,-3246],[-6353,99],[-204,-10134],[1402,-353],[481,-1330],[-454,-24177],[-117,-1918],[-15264,206],[-11565,73],[-45647,568],[-2851,5216],[-7588,8655],[7874,-112],[204,32618],[-1218,329],[1306,1298],[177,3900],[-188,1194],[100,12583],[-25975,-336],[-89,12887],[-12607,-174],[-562,-12962],[-25936,102],[-149,-14227],[-12161,52],[-1263,1033],[-71,-14038],[-30330,522],[-1251,-1279],[-9680,-11534],[-27,-817],[6486,-142],[5565,-760],[1239,566],[13825,-151],[-242,-13012],[-26509,36],[267,-1080],[-34,-3547],[420,-1901],[-93,-5279],[-13664,48],[99,11968],[-633,209],[-6193,88],[-358,1496],[-1383,-24],[-1576,1186],[-1218,-46],[5102,6526],[7164,7161],[-800,1243],[56,6553],[-30478,-8103],[-3069,11600],[-1388,145],[-26725,362],[-253,6738],[-6299,132],[105,-5278],[-914,-1337],[-248,-3529],[22,-6558],[-171,-4238],[246,-1636],[-7499,115],[12,-4433],[-12435,11],[0,-19804],[-3164,97],[-21260,34],[-12752,20],[155,19687],[-489,12072],[42,10104],[-87,1666],[13747,24146],[3280,5316],[1416,3202],[9622,16716],[2091,3846]],[[437329,747523],[-17227,74],[505,5574],[571,1253],[1136,804],[1300,194],[4892,79],[859,366],[1028,1281],[184,801],[88,11075],[-321,1724],[-876,2342],[-236,2924],[-2988,-1471],[-4543,24],[-1153,971],[-192,1165],[-1821,-329],[-4525,197],[-1080,641],[-934,1375],[-20333,-7440],[-1100,-2966],[-256,-2578],[185,-2094],[-3212,1373],[-2663,-728],[-1377,111],[-471,-2734],[333,-873],[-1354,271],[-393,-717],[-255,-3083],[-687,-2812],[-3258,-2793],[-1413,-407],[-981,-2210],[-2905,38],[-1276,-1494],[-372,-2579],[-1296,-2017],[-23828,135],[40,8019],[12,2915],[12,1879],[13,996],[3668,145],[199,610],[532,43358],[-1202,46],[107,7188],[-10457,94],[-14675,-5],[784,1595],[5191,15927],[-319,21],[1661,5210],[-33480,-15],[34,2137],[-12407,95],[-6369,42],[247,14262],[-3163,52],[-399,-6],[192,12589],[212,12173],[-295,632],[463,34046],[82,11954],[-6544,71],[218,10488],[-554,2660],[6131,-55],[66,14462],[16262,-82],[5598,-35],[113,18554],[-159,816],[207,420],[69,14654],[92,19097],[12984,-43],[-124,-26648],[6458,-8],[58,-1610],[7474,4],[115,20288],[24350,-259],[805,610],[6537,17],[-440,-16369],[12356,-270],[418,1395],[34282,-495],[232,6042],[482,656],[2150,-326],[1432,1009],[624,-498],[3191,2153],[-501,1146],[898,851],[1351,-587],[1518,586],[321,-879],[1116,2279],[911,-1336],[24,-1089],[969,-368],[1564,824],[696,1250],[2358,949],[1113,977],[1512,101],[-4,656],[4270,-538],[-102,1016],[1350,-769],[1649,-208],[-170,-1103],[2916,1951],[1866,-22],[2496,1612],[642,1582],[1446,-82],[-37,-2823],[7572,-144],[-385,-25916],[12494,-187],[3982,3],[279,8812],[8370,-145],[16,-6996],[23481,-503],[83,-379],[-155,-10470],[8563,40489],[6115,-922],[393,-1843],[-672,-3624],[-828,-1920],[332,-4654],[-119,-2753],[609,-3025],[2579,-1553],[-946,-969],[-586,-1861],[1181,-4130],[9575,113],[3205,164],[8391,-215],[1596,-3160],[-354,-1182],[2265,-2908],[-11662,-16997],[13053,-144],[26,-10419],[37406,74],[25437,-2113],[1669,-9],[-395,-3126],[364,-2482],[724,-979],[-282,-1022],[255,-2966],[1947,-2174],[1669,-3549],[-1668,-7012],[-776,-2740],[4811,-505],[2124,447],[-1473,-4558],[316,-2405],[-3326,-4460],[-790,-4866],[-492,-892],[-395,-3724],[-593,-2049],[-550,-77],[-38582,-164],[-58,2613],[-914,2464],[-1789,3116],[-5007,3960],[-8280,1104],[-491,-5390],[-1121,-2211],[354,-4043],[-1534,-233],[-1847,-1381],[-6524,-6],[59,-26575],[35,-15601],[-1812,175],[-2036,1278],[-2208,901],[-5099,-128],[-1483,239],[-7744,73],[-2627,-940],[-2774,-308],[-4812,535],[-3106,1088],[-3025,2222],[-2799,1011],[-3467,-473],[-1774,-491],[-2489,-2637],[-1479,-749],[-3114,318],[-102,1256],[-1954,705],[-1050,1704],[-1495,3461],[-1908,3009],[-234,-2038],[-4795,-9346],[2194,-3223],[-1174,-8297],[-304,-18177],[-968,685],[-2456,698],[-2417,1144],[-452,-989],[20,-8784],[1002,272],[2319,-815],[667,-2831],[2289,-2556],[-31,-10203],[1453,-582],[2513,-90],[29,-1944],[1655,1348],[2736,377],[4420,1646],[982,814],[2515,1124],[1669,1823],[-278,3505],[791,2932],[-2238,4925],[2290,1967],[3145,866],[1808,93],[3302,995],[1472,120],[4462,1345],[10162,2108],[19866,4873],[31,-14908]],[[344446,312748],[3086,-269],[7222,-630],[2730,-450],[519,1253],[4611,-534],[2215,-168],[-176,-1395],[5625,-766],[10783,-1514],[5500,-1197],[-49,-1636],[-678,-1761],[166,27],[1328,4],[60,3249],[-477,135],[274,14],[6446,-2102],[9377,-2746],[15193,-4547],[3516,-933],[3585,-29],[-91,-1457],[3290,-1010],[2397,-995],[9348,-5813],[4612,-2164],[3566,-1036],[7038,-1216],[-45,-23300],[-12359,-36],[-117,-24724],[-17,-12312],[-12424,-38],[-18,-12344],[501,-21],[8787,22],[29,-6150],[6510,412],[-264,-6563],[10906,59],[-56,-6297],[8032,298],[-141,-2917],[-3196,100],[-170,-4441],[594,-6939],[-120,-1990],[722,-2497],[-182,-977],[1984,-1684],[4156,19],[-672,-829],[-272,-886],[-151,-12625],[-10,-1103],[-2348,46],[-894,-678],[-155,-7745],[1589,-19],[24,-2938],[-1868,-480],[-20644,149],[-107,-6218],[-28,-5003],[-5,-1003],[-18403,139],[-24,-6276]]],"bbox":[-100.218635,32.080094,-98.834043,33.261634],"transform":{"scale":[0.0000013845933845933965,0.0000011815411815411798],"translate":[-100.218635,32.080094]}}
