{"type":"Topology","objects":{"foo":{"type":"GeometryCollection","geometries":[{"type":"MultiPolygon","arcs":[[[0,1,2,3,4]]],"properties":{"postal_code":"68415","realtor_list_price":"NA","realtor_list_price_yoy":"NA","realtor_list_price_base":"NA","realtor_active_listings":"NA","realtor_active_listings_yoy":"NA","realtor_active_listings_base":"NA","realtor_new_listings":"NA","realtor_new_listings_yoy":"NA","realtor_new_listings_base":"NA","realtor_days_on_market":"NA","realtor_days_on_market_yoy":"NA","realtor_days_on_market_base":"NA","zhvi":238477.237,"zhvi_yoy":-0.013,"zhvi_base":0.7683,"zori":"NA","zori_yoy":"NA","zori_base":"NA"}},{"type":"MultiPolygon","arcs":[[[-5,5]]],"properties":{"postal_code":"68342","realtor_list_price":"NA","realtor_list_price_yoy":"NA","realtor_list_price_base":"NA","realtor_active_listings":2.667,"realtor_active_listings_yoy":-0.1111,"realtor_active_listings_base":"NA","realtor_new_listings":0,"realtor_new_listings_yoy":"NaN","realtor_new_listings_base":"NA","realtor_days_on_market":"NA","realtor_days_on_market_yoy":"NA","realtor_days_on_market_base":"NA","zhvi":232584.616,"zhvi_yoy":0.0353,"zhvi_base":0.7712,"zori":"NA","zori_yoy":"NA","zori_base":"NA"}},{"type":"MultiPolygon","arcs":[[[6,7]]],"properties":{"postal_code":"68328","realtor_list_price":"NA","realtor_list_price_yoy":"NA","realtor_list_price_base":"NA","realtor_active_listings":2,"realtor_active_listings_yoy":1,"realtor_active_listings_base":0.2906,"realtor_new_listings":0,"realtor_new_listings_yoy":"NaN","realtor_new_listings_base":-1,"realtor_days_on_market":"NA","realtor_days_on_market_yoy":"NA","realtor_days_on_market_base":"NA","zhvi":226259.675,"zhvi_yoy":-0.0103,"zhvi_base":"NA","zori":"NA","zori_yoy":"NA","zori_base":"NA"}},{"type":"MultiPolygon","arcs":[[[8,9,10]]],"properties":{"postal_code":"68332","realtor_list_price":"NA","realtor_list_price_yoy":"NA","realtor_list_price_base":"NA","realtor_active_listings":0.667,"realtor_active_listings_yoy":-0.6667,"realtor_active_listings_base":"NA","realtor_new_listings":0,"realtor_new_listings_yoy":"NaN","realtor_new_listings_base":"NA","realtor_days_on_market":"NA","realtor_days_on_market_yoy":"NA","realtor_days_on_market_base":"NA","zhvi":"NA","zhvi_yoy":"NA","zhvi_base":"NA","zori":"NA","zori_yoy":"NA","zori_base":"NA"}},{"type":"MultiPolygon","arcs":[[[-7,11,12,13,14]]],"properties":{"postal_code":"68422","realtor_list_price":"NA","realtor_list_price_yoy":"NA","realtor_list_price_base":"NA","realtor_active_listings":1,"realtor_active_listings_yoy":-0.25,"realtor_active_listings_base":-0.3818,"realtor_new_listings":0,"realtor_new_listings_yoy":-1,"realtor_new_listings_base":-1,"realtor_days_on_market":"NA","realtor_days_on_market_yoy":"NA","realtor_days_on_market_base":"NA","zhvi":347179.127,"zhvi_yoy":0.0205,"zhvi_base":0.7465,"zori":"NA","zori_yoy":"NA","zori_base":"NA"}},{"type":"MultiPolygon","arcs":[[[15,16,17,18]]],"properties":{"postal_code":"68358","realtor_list_price":729250,"realtor_list_price_yoy":0.0785,"realtor_list_price_base":"NA","realtor_active_listings":5.667,"realtor_active_listings_yoy":0.4167,"realtor_active_listings_base":-0.3327,"realtor_new_listings":2,"realtor_new_listings_yoy":2,"realtor_new_listings_base":0.1508,"realtor_days_on_market":28.667,"realtor_days_on_market_yoy":-0.3175,"realtor_days_on_market_base":"NA","zhvi":482100.928,"zhvi_yoy":0.07,"zhvi_base":0.7655,"zori":"NA","zori_yoy":"NA","zori_base":"NA"}},{"type":"MultiPolygon","arcs":[[[-14,19,-11,20]]],"properties":{"postal_code":"68357","realtor_list_price":"NA","realtor_list_price_yoy":"NA","realtor_list_price_base":"NA","realtor_active_listings":"NA","realtor_active_listings_yoy":"NA","realtor_active_listings_base":"NA","realtor_new_listings":"NA","realtor_new_listings_yoy":"NA","realtor_new_listings_base":"NA","realtor_days_on_market":"NA","realtor_days_on_market_yoy":"NA","realtor_days_on_market_base":"NA","zhvi":314473.189,"zhvi_yoy":0.0037,"zhvi_base":0.7464,"zori":"NA","zori_yoy":"NA","zori_base":"NA"}},{"type":"MultiPolygon","arcs":[[[21,22,23,-2]]],"properties":{"postal_code":"68318","realtor_list_price":362500,"realtor_list_price_yoy":"NA","realtor_list_price_base":"NA","realtor_active_listings":2.667,"realtor_active_listings_yoy":0.6,"realtor_active_listings_base":"NA","realtor_new_listings":0.667,"realtor_new_listings_yoy":"Inf","realtor_new_listings_base":"NA","realtor_days_on_market":53,"realtor_days_on_market_yoy":"NA","realtor_days_on_market_base":"NA","zhvi":141695.134,"zhvi_yoy":-0.1313,"zhvi_base":"NA","zori":"NA","zori_yoy":"NA","zori_base":"NA"}},{"type":"MultiPolygon","arcs":[[[-23,24,25]]],"properties":{"postal_code":"68381","realtor_list_price":"NA","realtor_list_price_yoy":"NA","realtor_list_price_base":"NA","realtor_active_listings":1,"realtor_active_listings_yoy":"NA","realtor_active_listings_base":"NA","realtor_new_listings":0,"realtor_new_listings_yoy":"NA","realtor_new_listings_base":"NA","realtor_days_on_market":"NA","realtor_days_on_market_yoy":"NA","realtor_days_on_market_base":"NA","zhvi":"NA","zhvi_yoy":"NA","zhvi_base":"NA","zori":"NA","zori_yoy":"NA","zori_base":"NA"}},{"type":"MultiPolygon","arcs":[[[-19,26],[27]]],"properties":{"postal_code":"68404","realtor_list_price":587900,"realtor_list_price_yoy":"NA","realtor_list_price_base":"NA","realtor_active_listings":6.333,"realtor_active_listings_yoy":5.3333,"realtor_active_listings_base":1.4241,"realtor_new_listings":2,"realtor_new_listings_yoy":2,"realtor_new_listings_base":15.5,"realtor_days_on_market":34.667,"realtor_days_on_market_yoy":"NA","realtor_days_on_market_base":"NA","zhvi":547757.092,"zhvi_yoy":0.0939,"zhvi_base":0.8285,"zori":"NA","zori_yoy":"NA","zori_base":"NA"}},{"type":"MultiPolygon","arcs":[[[-17,28,-9,-20,-13,29]]],"properties":{"postal_code":"68301","realtor_list_price":349000,"realtor_list_price_yoy":-0.4503,"realtor_list_price_base":"NA","realtor_active_listings":1.667,"realtor_active_listings_yoy":-0.6429,"realtor_active_listings_base":0.1708,"realtor_new_listings":1.333,"realtor_new_listings_yoy":0,"realtor_new_listings_base":0.1019,"realtor_days_on_market":26,"realtor_days_on_market_yoy":-0.5517,"realtor_days_on_market_base":"NA","zhvi":395793.758,"zhvi_yoy":0.0317,"zhvi_base":0.7794,"zori":"NA","zori_yoy":"NA","zori_base":"NA"}},{"type":"MultiPolygon","arcs":[[[-26,30,-3,-24],[31]]],"properties":{"postal_code":"68466","realtor_list_price":"NA","realtor_list_price_yoy":"NA","realtor_list_price_base":"NA","realtor_active_listings":3.667,"realtor_active_listings_yoy":0.375,"realtor_active_listings_base":0.0374,"realtor_new_listings":0,"realtor_new_listings_yoy":"NaN","realtor_new_listings_base":-1,"realtor_days_on_market":"NA","realtor_days_on_market_yoy":"NA","realtor_days_on_market_base":"NA","zhvi":105336.077,"zhvi_yoy":-0.1089,"zhvi_base":0.2267,"zori":"NA","zori_yoy":"NA","zori_base":"NA"}}]}},"arcs":[[[243307,225352],[81182,163],[-16,-20273],[27130,-46],[26637,-156]],[[378240,205040],[-116,-20456],[-18,-20444]],[[378106,164140],[741,-20581],[26370,600],[-146,-10346],[1393,-10872],[27061,-112],[-96,-30014],[115,-30113],[26699,-589],[-406,-61510]],[[459837,603],[-108240,124],[-3696,4],[-97494,111],[-1784,-3],[-4579,26],[-3161,-26],[-27517,44],[-23539,38],[-450,0]],[[189377,921],[441,41017],[-650,41299],[28177,32],[-93,20576],[19174,5],[7986,-589],[20028,120],[5939,819],[221,14020],[-701,5679],[27056,-152],[464,60900],[-53922,-172],[-190,40877]],[[189377,921],[-2933,-2],[-3971,-2],[-13538,-6],[-72277,-32],[-16879,-8],[1399,3682],[-28,37160],[13442,26],[27623,-336],[13115,545],[-252,61527],[-10556,-408],[-70448,-302],[-123,20262],[-26930,-77],[-12959,27],[-14038,108],[124,10021],[-148,30352],[27084,336],[-61,20411],[51,20414],[50,20417],[26870,13],[13394,59],[13639,-3],[34,10007],[13475,219],[-70,10206],[13629,14],[55,10251],[55,8971],[670,1233],[207,1],[3079,15],[23180,36],[-121,-20444],[27151,7],[27040,87],[60,-20388],[53836,32]],[[385028,612274],[-13618,15]],[[371410,612289],[-13641,-3],[-6876,-12],[-10142,11],[-10219,-3],[-179,-10065],[-27322,55],[175,10016],[-13817,43],[-13505,-24],[-34342,61],[211,10053],[-20340,123],[167,10208],[27145,-76],[335,20299],[-27245,46],[1148,61200],[26947,-10],[-198,20359],[54349,-295],[27228,-173],[112,-19976],[26974,-345],[3413,11],[22,-537],[1046,-7718],[-914,-1729],[9514,38],[4,-5199],[190,-5081],[13654,94],[-188,-20346],[-22,-10193],[-13674,10],[-121,-10052],[-13306,18],[-93,-20505],[13633,24],[13453,5],[49,-10167],[-9,-5058],[2,-5122]],[[837889,489460],[100,40703],[-29,20387]],[[837960,550550],[54064,5],[956,-26],[12639,80],[6793,18],[6807,37],[27117,-57],[155,-20354],[-92,-10164],[-38,-13967],[11611,6080],[2010,846],[-20,-3168],[13714,-36],[-45,-5133],[-3,-14237],[-835,-1263],[-178,-850],[-113,-18637],[20478,76],[6545,52],[73,-20385],[36,-5198],[104,-15200],[261,-40835],[-54259,-142],[135,-20318],[-54245,-195],[-326,20466],[-27085,-206],[-104,20409],[-13896,-140],[-12166,-40]],[[838053,408068],[43,15810],[2280,3621],[3241,8767],[1754,3231],[2563,2696],[8284,6773],[-5665,-50],[-126,9728],[-12435,84],[-48,10283],[496,2504],[-528,7721],[-23,10224]],[[385028,612274],[13623,4],[13507,15],[20561,7],[60467,-108],[-439,-20090],[27467,-370],[27924,-56],[-180,-20291],[67423,-188]],[[615381,571197],[13577,-73],[-73,-20338],[54318,39],[-105,-20397],[-110,-20380]],[[682988,510048],[-54435,57],[-57,-20350],[-6402,55],[-111,-20296],[-27277,165]],[[594706,469679],[-13646,7],[-8934,-17],[-4562,-985],[-16,1016],[-51,20187],[6651,-29],[113,20376],[-26987,38],[-167,-15141],[-13542,457],[-317,-5618],[-13398,-12],[-5407,-9],[-40713,44],[-1492,10266],[27,10198],[-88084,-52],[298,20345],[-27450,131],[-20571,53],[-6808,16],[81,20379],[13684,-43],[137,20347],[13790,-48],[13593,-62],[2,10071],[778,-2],[-737,10287],[359,15326],[73,5084]],[[546091,816086],[108378,389],[377,-20297],[400,-20388],[27030,336],[-132,20231],[20365,-456],[187,20326],[27003,-180],[-26,-20300],[27264,-116]],[[756937,795631],[-410,-20291],[-27218,145],[-288,-10251],[27254,-193],[-212,-30305],[-27343,175],[591,-20450],[-27327,-790],[-19267,1026],[125,-20564],[-6981,-146],[-3394,-230],[-3422,-2021],[364,-18357],[-13813,-257],[107,-10148],[-13709,67],[-170,10124],[-27078,7],[-11429,0],[-2095,4],[285,-20339],[-26967,112]],[[574540,652949],[-302,30623],[-180,10122],[-144,10882],[-11345,-48],[-2304,-819],[-111,10379],[13660,-21],[20,10164],[141,5028],[111,5305],[-13584,99],[-20280,-99],[-19187,-153],[-13573,-316],[-17893,7],[-374,1],[-349,1]],[[488846,734104],[-1308,17793],[-224,2582],[613,-1],[5283,-6],[-387,20341],[27277,423],[26425,87],[-433,20367],[-56,29],[55,20367]],[[682988,510048],[73499,-136],[76,-20352],[27153,-37],[54173,-63]],[[838053,408068],[-8,-9849],[-20,-10503],[-54135,171],[-130,-10163],[-27107,11],[-29,-5025],[-13614,-47],[76,5005],[-13496,56],[277,10253],[-14629,142],[-4753,-5814],[-11111,-8614],[-4776,-2251],[-18459,-3565],[83,9972],[-263,5224],[-13486,7],[-51,-5104],[-13575,-41],[70,10207],[-13570,-17],[-13593,-39],[-1,20350],[113,20389],[-54000,211],[-202,20300],[27178,-59],[-136,20404]],[[378240,205040],[2,4906],[13557,178],[62,5107],[20313,0],[64,10228],[6807,-4],[13494,-68],[27197,-80],[-49,10223],[27146,-28],[0,10239],[-6,20471],[27081,-116],[12,-20388],[42130,-137],[-1821,1346],[338,19108],[13311,-25],[649,368],[948,-324],[52669,185],[-206,-11164],[-582,-3552],[358,-6022],[54246,-225],[26554,-85],[75,20337],[27037,-115],[54336,75],[118,-20486]],[[784080,244992],[-25211,-155],[-2004,81],[41,-19511],[-27044,149],[-136,-31302],[-1060,-2583],[1066,-2114],[-2,-4820]],[[729730,184737],[-53662,-831],[-81371,635],[27,10141],[-17292,56],[-5154,-2173],[-3712,-395],[-3055,2594],[-2053,43],[-103,-1405],[3421,-4444],[559,-1287],[-14,-3258],[-18611,128],[-7552,-24],[-933,24],[-353,9],[36,2766],[-1175,1866],[-1570,1608],[-7180,3565],[-4834,485],[-11282,-55],[-66,-30618],[-27122,-70],[159,30625],[-46531,-5],[-3764,-270],[-4244,273],[84,-30652],[-13094,-399],[-16134,577],[-10767,22],[-13652,-38],[-630,-90]],[[784080,244992],[692,-64],[53320,134],[26783,125],[-378,-25390],[-13187,-94],[-85,-15115],[-13262,-298],[96,-19205],[447,-559],[3038,-666],[23181,209],[-67,-71422],[-320,-10103],[414,-20468],[54054,-388],[487,-61089],[-54301,124],[-217,-20615],[-675,1],[-25996,54],[-103,2],[-2,0],[-5478,94],[-3451,-97],[-45051,50],[-27156,30],[-9701,11],[-3827,-57],[-13175,-196],[-16714,102]],[[713446,102],[65,10160],[2887,52],[138,5207],[13399,-36],[-13,5040],[-167,25386],[13498,34],[-152,15379],[13719,103],[-213,20618],[-3371,-23],[67,10317],[3450,-13],[-64,5128],[-13,5061],[13,10333],[61,10117],[-48,10095],[-263,7862],[244,2258],[-6,20948],[145,20479],[-27092,130]],[[488846,734104],[-49515,37],[-387,40774],[-13485,-12],[-13602,-13],[-3333,1],[-48,9958],[3262,-73],[-3,310],[-13488,0],[116,-10189],[-6829,4],[-66,15286],[13474,-18],[-36,5090],[-6745,11],[-13437,21],[-192,10225],[-191,10176],[-467,20378],[-686,10170],[-704,10418],[9487,41],[1631,3417],[3547,499],[-127,1193],[-798,5100],[-13605,-42],[226,10256],[-13640,-140],[49,950],[4145,4532],[-1429,1141],[367,2498],[-1438,-187],[-136,3148],[-5932,3749],[-1436,323],[-3006,3046],[376,1207],[-2823,1515],[-471,3260],[-1693,811],[-1023,2644],[-1719,1084],[-2022,-193],[307,1627],[-2128,2186],[2469,1424],[-30,2995],[-4349,2944],[-19105,185],[244,-20414],[-24430,149],[-2795,-1501],[55,42294],[26908,-214],[444,20500],[-27064,208],[-22,20762],[274,-1],[4298,-13],[152,10176],[-1721,6],[82,10176],[15431,-179],[27143,89],[13565,-32],[-71,-20383],[1694,-4],[1,2145],[2697,7],[-4,-2161],[5384,-14],[38014,-98],[3430,-9],[6969,-18],[32,5091],[3410,-5],[-29,-5096],[18518,-49],[-1063,-1231],[-657,-1446],[-341,-17740],[-6741,-33],[-6783,-34],[-583,-8872],[1877,-1315],[-1006,-460],[1888,-1375],[2403,-455],[816,-1266],[275,-2637],[-750,-1779],[601,-2155],[7542,-41],[-622,-30593],[-54,-3747],[-19,-1381],[13566,96],[-232,-15349],[-704,-10193],[218,1],[1787,-1761],[298,-1122],[-2125,-7047],[-503,-10437],[844,5],[6393,15],[6756,15],[13533,35],[11193,30],[-310,3143],[2705,1],[250,17222],[252,-2],[26861,-308],[-78,-10350],[-5020,-3163],[-10163,-5482],[-1359,-1177],[-3895,-3657],[-1549,-2470],[-235,-2553],[1705,-12217],[20905,336],[471,-20375],[26957,127]],[[430392,877987],[1097,-1700],[5515,776],[3522,149],[759,3210],[-1136,472],[258,176],[-166,-2],[159,402],[292,849],[-3439,-19],[-6788,-16],[-73,-4297]],[[756937,795631],[-280,20243],[-127,20283],[6666,-35],[13939,-72],[6528,-35],[-516,20532],[27557,-304],[11,20321],[3320,18],[3462,19],[20402,109],[13699,-88],[13693,-18],[-22,-20355],[-424,-15580],[-78,-3175],[250,-6804],[-9198,24],[-4054,25],[-341,-5086],[162,-10141],[13459,-36],[104,-15225],[-34,-5168],[103,-20401],[-13573,51],[-13580,35],[36,-10397],[-19,-9992],[13593,-28],[13516,-27],[13598,-1],[13596,1],[20,-10860],[-15,-9468],[-27020,-218],[-13755,-53],[-2230,-7],[-11270,295],[113,-10357],[-145,-91306],[554,-2288],[-564,-18382],[-64,-40791],[-49,-20339]],[[615381,571197],[235,20331],[-13447,21],[-177,20635],[-27219,123],[-233,40642]],[[713446,102],[-10346,62],[-118,2],[-8418,78],[-10077,93],[-8457,-103],[-5868,-72],[-1342,-4],[-7185,-22],[-13965,-43],[-6841,-21],[-5101,-16],[-7830,-14],[-5895,133],[-11373,257],[-16020,18],[-7147,8],[-33123,38],[-4034,4],[-9404,11],[-27015,31],[-4996,6],[-1657,1],[-36513,42],[-10884,12]],[[673360,66668],[2667,-1552],[-1,-1568],[13064,7],[53,4711],[-8,254],[-19,3170],[-2557,44],[-211,-20],[-4327,30],[-5975,40],[-1387,34],[-874,20],[-425,-5170]]],"bbox":[-97.048579,40.000851,-96.350648,40.71223],"transform":{"scale":[6.97931697931695e-7,7.113797113797122e-7],"translate":[-97.048579,40.000851]}}
