{"type":"Topology","objects":{"foo":{"type":"GeometryCollection","geometries":[{"type":"MultiPolygon","arcs":[[[0,1,2]]],"properties":{"postal_code":"05352","realtor_list_price":1049000,"realtor_list_price_yoy":"NA","realtor_list_price_base":"NA","realtor_active_listings":4,"realtor_active_listings_yoy":1.4,"realtor_active_listings_base":-0.2396,"realtor_new_listings":1.333,"realtor_new_listings_yoy":"Inf","realtor_new_listings_base":1.1818,"realtor_days_on_market":22,"realtor_days_on_market_yoy":"NA","realtor_days_on_market_base":"NA","zhvi":341490.784,"zhvi_yoy":0.0266,"zhvi_base":"NA","zori":"NA","zori_yoy":"NA","zori_base":"NA"}},{"type":"MultiPolygon","arcs":[[[3,4,5]]],"properties":{"postal_code":"05152","realtor_list_price":887500,"realtor_list_price_yoy":0.6674,"realtor_list_price_base":1.7811,"realtor_active_listings":7,"realtor_active_listings_yoy":-0.087,"realtor_active_listings_base":-0.7868,"realtor_new_listings":1.333,"realtor_new_listings_yoy":-0.6667,"realtor_new_listings_base":-0.637,"realtor_days_on_market":46,"realtor_days_on_market_yoy":0.2159,"realtor_days_on_market_base":-0.5159,"zhvi":502846.52,"zhvi_yoy":-0.0137,"zhvi_base":"NA","zori":"NA","zori_yoy":"NA","zori_base":"NA"}},{"type":"MultiPolygon","arcs":[[[6,7,8]]],"properties":{"postal_code":"05768","realtor_list_price":279500,"realtor_list_price_yoy":"NA","realtor_list_price_base":"NA","realtor_active_listings":0.333,"realtor_active_listings_yoy":-0.5,"realtor_active_listings_base":-0.9741,"realtor_new_listings":1.333,"realtor_new_listings_yoy":"Inf","realtor_new_listings_base":0.49,"realtor_days_on_market":2,"realtor_days_on_market_yoy":"NA","realtor_days_on_market_base":"NA","zhvi":"NA","zhvi_yoy":"NA","zhvi_base":"NA","zori":"NA","zori_yoy":"NA","zori_base":"NA"}},{"type":"MultiPolygon","arcs":[[[9,10,11]]],"properties":{"postal_code":"05260","realtor_list_price":"NA","realtor_list_price_yoy":"NA","realtor_list_price_base":"NA","realtor_active_listings":1,"realtor_active_listings_yoy":0,"realtor_active_listings_base":"NA","realtor_new_listings":0,"realtor_new_listings_yoy":"NaN","realtor_new_listings_base":"NA","realtor_days_on_market":"NA","realtor_days_on_market_yoy":"NA","realtor_days_on_market_base":"NA","zhvi":"NA","zhvi_yoy":"NA","zhvi_base":"NA","zori":"NA","zori_yoy":"NA","zori_base":"NA"}},{"type":"MultiPolygon","arcs":[[[12,13,14,15,16,17]]],"properties":{"postal_code":"05250","realtor_list_price":524125,"realtor_list_price_yoy":0.1634,"realtor_list_price_base":1.1025,"realtor_active_listings":13,"realtor_active_listings_yoy":-0.025,"realtor_active_listings_base":-0.7624,"realtor_new_listings":5.333,"realtor_new_listings_yoy":0.1429,"realtor_new_listings_base":-0.3347,"realtor_days_on_market":69.75,"realtor_days_on_market_yoy":0.4318,"realtor_days_on_market_base":-0.2787,"zhvi":377889.587,"zhvi_yoy":-0.0131,"zhvi_base":0.5365,"zori":"NA","zori_yoy":"NA","zori_base":"NA"}},{"type":"MultiPolygon","arcs":[[[18,-9,19,20]]],"properties":{"postal_code":"05775","realtor_list_price":"NA","realtor_list_price_yoy":"NA","realtor_list_price_base":"NA","realtor_active_listings":2,"realtor_active_listings_yoy":1,"realtor_active_listings_base":-0.6227,"realtor_new_listings":0,"realtor_new_listings_yoy":"NaN","realtor_new_listings_base":-1,"realtor_days_on_market":"NA","realtor_days_on_market_yoy":"NA","realtor_days_on_market_base":"NA","zhvi":288571.377,"zhvi_yoy":0.0203,"zhvi_base":0.4253,"zori":"NA","zori_yoy":"NA","zori_base":"NA"}},{"type":"MultiPolygon","arcs":[[[21,22,23,24,25]]],"properties":{"postal_code":"05251","realtor_list_price":1200000,"realtor_list_price_yoy":-0.2291,"realtor_list_price_base":0.853,"realtor_active_listings":22.333,"realtor_active_listings_yoy":1.0303,"realtor_active_listings_base":-0.6343,"realtor_new_listings":4.667,"realtor_new_listings_yoy":0,"realtor_new_listings_base":-0.2886,"realtor_days_on_market":91.571,"realtor_days_on_market_yoy":0.5945,"realtor_days_on_market_base":0.1402,"zhvi":806233.709,"zhvi_yoy":0.0285,"zhvi_base":0.6467,"zori":"NA","zori_yoy":"NA","zori_base":"NA"}},{"type":"MultiPolygon","arcs":[[[26,27,28,29,-15]]],"properties":{"postal_code":"05252","realtor_list_price":"NA","realtor_list_price_yoy":"NA","realtor_list_price_base":"NA","realtor_active_listings":"NA","realtor_active_listings_yoy":"NA","realtor_active_listings_base":"NA","realtor_new_listings":"NA","realtor_new_listings_yoy":"NA","realtor_new_listings_base":"NA","realtor_days_on_market":"NA","realtor_days_on_market_yoy":"NA","realtor_days_on_market_base":"NA","zhvi":337934.956,"zhvi_yoy":-0.0032,"zhvi_base":"NA","zori":"NA","zori_yoy":"NA","zori_base":"NA"}},{"type":"MultiPolygon","arcs":[[[30]]],"properties":{"postal_code":"05254","realtor_list_price":1108750,"realtor_list_price_yoy":-0.2349,"realtor_list_price_base":"NA","realtor_active_listings":6.667,"realtor_active_listings_yoy":-0.2593,"realtor_active_listings_base":-0.7464,"realtor_new_listings":0.667,"realtor_new_listings_yoy":-0.6667,"realtor_new_listings_base":-0.8256,"realtor_days_on_market":40,"realtor_days_on_market_yoy":-0.1724,"realtor_days_on_market_base":"NA","zhvi":"NA","zhvi_yoy":"NA","zhvi_base":"NA","zori":"NA","zori_yoy":"NA","zori_base":"NA"}},{"type":"MultiPolygon","arcs":[[[-17,31,32,33]]],"properties":{"postal_code":"05257","realtor_list_price":336462.5,"realtor_list_price_yoy":-0.2199,"realtor_list_price_base":"NA","realtor_active_listings":6.333,"realtor_active_listings_yoy":0.1176,"realtor_active_listings_base":-0.3882,"realtor_new_listings":1.333,"realtor_new_listings_yoy":-0.3333,"realtor_new_listings_base":3.6047,"realtor_days_on_market":114,"realtor_days_on_market_yoy":2,"realtor_days_on_market_base":"NA","zhvi":306727.28,"zhvi_yoy":0.0147,"zhvi_base":0.494,"zori":"NA","zori_yoy":"NA","zori_base":"NA"}},{"type":"MultiPolygon","arcs":[[[-11,34,-3,35]]],"properties":{"postal_code":"05261","realtor_list_price":410333.333,"realtor_list_price_yoy":0.0524,"realtor_list_price_base":"NA","realtor_active_listings":11,"realtor_active_listings_yoy":0.8333,"realtor_active_listings_base":-0.3616,"realtor_new_listings":2,"realtor_new_listings_yoy":0.5,"realtor_new_listings_base":-0.5376,"realtor_days_on_market":92.667,"realtor_days_on_market_yoy":1.8081,"realtor_days_on_market_base":"NA","zhvi":281217.957,"zhvi_yoy":-0.0042,"zhvi_base":0.4544,"zori":"NA","zori_yoy":"NA","zori_base":"NA"}},{"type":"MultiPolygon","arcs":[[[-16,-30,36,37,-32]]],"properties":{"postal_code":"05262","realtor_list_price":499285.714,"realtor_list_price_yoy":0.0004,"realtor_list_price_base":0.7751,"realtor_active_listings":12.333,"realtor_active_listings_yoy":0.2759,"realtor_active_listings_base":-0.5894,"realtor_new_listings":4.667,"realtor_new_listings_yoy":0.1667,"realtor_new_listings_base":0.016,"realtor_days_on_market":72.714,"realtor_days_on_market_yoy":0.7808,"realtor_days_on_market_base":-0.3045,"zhvi":349476.955,"zhvi_yoy":-0.0009,"zhvi_base":0.6171,"zori":"NA","zori_yoy":"NA","zori_base":"NA"}},{"type":"MultiPolygon","arcs":[[[38,-5,39,40,41,-28,42]]],"properties":{"postal_code":"05340","realtor_list_price":991178.571,"realtor_list_price_yoy":0.2191,"realtor_list_price_base":1.4652,"realtor_active_listings":23,"realtor_active_listings_yoy":-0.2159,"realtor_active_listings_base":-0.7598,"realtor_new_listings":4.667,"realtor_new_listings_yoy":-0.4615,"realtor_new_listings_base":-0.7051,"realtor_days_on_market":72,"realtor_days_on_market_yoy":0.0636,"realtor_days_on_market_base":-0.3568,"zhvi":666821.299,"zhvi_yoy":0.0032,"zhvi_base":0.6119,"zori":"NA","zori_yoy":"NA","zori_base":"NA"}},{"type":"MultiPolygon","arcs":[[[-41,43]]],"properties":{"postal_code":"05343","realtor_list_price":986350,"realtor_list_price_yoy":0.1887,"realtor_list_price_base":2.0349,"realtor_active_listings":17.333,"realtor_active_listings_yoy":0.2381,"realtor_active_listings_base":-0.5043,"realtor_new_listings":3.333,"realtor_new_listings_yoy":-0.2857,"realtor_new_listings_base":-0.2815,"realtor_days_on_market":61.6,"realtor_days_on_market_yoy":-0.12,"realtor_days_on_market_base":-0.2781,"zhvi":382853.809,"zhvi_yoy":-0.0421,"zhvi_base":0.4925,"zori":"NA","zori_yoy":"NA","zori_base":"NA"}},{"type":"MultiPolygon","arcs":[[[44,-22,45,-7,-19]]],"properties":{"postal_code":"05761","realtor_list_price":"NA","realtor_list_price_yoy":"NA","realtor_list_price_base":"NA","realtor_active_listings":4.667,"realtor_active_listings_yoy":-0.125,"realtor_active_listings_base":-0.7035,"realtor_new_listings":0,"realtor_new_listings_yoy":"NaN","realtor_new_listings_base":-1,"realtor_days_on_market":"NA","realtor_days_on_market_yoy":"NA","realtor_days_on_market_base":"NA","zhvi":406910.021,"zhvi_yoy":0.0541,"zhvi_base":0.254,"zori":"NA","zori_yoy":"NA","zori_base":"NA"}},{"type":"MultiPolygon","arcs":[[[-25,46,-43,-27,-14],[-31]]],"properties":{"postal_code":"05255","realtor_list_price":788750,"realtor_list_price_yoy":-0.1482,"realtor_list_price_base":0.9648,"realtor_active_listings":24,"realtor_active_listings_yoy":-0.1818,"realtor_active_listings_base":-0.6403,"realtor_new_listings":6.667,"realtor_new_listings_yoy":0.6667,"realtor_new_listings_base":-0.3723,"realtor_days_on_market":69.3,"realtor_days_on_market_yoy":0.0117,"realtor_days_on_market_base":-0.196,"zhvi":587134.65,"zhvi_yoy":0.0175,"zhvi_base":0.7093,"zori":"NA","zori_yoy":"NA","zori_base":"NA"}},{"type":"MultiPolygon","arcs":[[[-20,-8,-46,-26,-13,47]]],"properties":{"postal_code":"05776","realtor_list_price":"NA","realtor_list_price_yoy":"NA","realtor_list_price_base":"NA","realtor_active_listings":2,"realtor_active_listings_yoy":0.2,"realtor_active_listings_base":-0.7528,"realtor_new_listings":0,"realtor_new_listings_yoy":"NaN","realtor_new_listings_base":-1,"realtor_days_on_market":"NA","realtor_days_on_market_yoy":"NA","realtor_days_on_market_base":"NA","zhvi":356044.83,"zhvi_yoy":0.0394,"zhvi_base":"NA","zori":"NA","zori_yoy":"NA","zori_base":"NA"}},{"type":"MultiPolygon","arcs":[[[-33,-38,48,-1,-35,-10,49]]],"properties":{"postal_code":"05201","realtor_list_price":261407.143,"realtor_list_price_yoy":-0.1203,"realtor_list_price_base":0.4478,"realtor_active_listings":28.667,"realtor_active_listings_yoy":0.2464,"realtor_active_listings_base":-0.714,"realtor_new_listings":9.333,"realtor_new_listings_yoy":-0.125,"realtor_new_listings_base":-0.5364,"realtor_days_on_market":50.286,"realtor_days_on_market_yoy":-0.2173,"realtor_days_on_market_base":-0.4365,"zhvi":259182.905,"zhvi_yoy":-0.0033,"zhvi_base":0.4413,"zori":1275,"zori_yoy":"NA","zori_base":"NA"}},{"type":"MultiPolygon","arcs":[[[50,-6,-39,-47,-24]]],"properties":{"postal_code":"05253","realtor_list_price":875000,"realtor_list_price_yoy":"NA","realtor_list_price_base":"NA","realtor_active_listings":7.667,"realtor_active_listings_yoy":2.8333,"realtor_active_listings_base":-0.0677,"realtor_new_listings":0.667,"realtor_new_listings_yoy":"Inf","realtor_new_listings_base":2.25,"realtor_days_on_market":71,"realtor_days_on_market_yoy":"NA","realtor_days_on_market_base":"NA","zhvi":491310.059,"zhvi_yoy":0.0534,"zhvi_base":0.5001,"zori":"NA","zori_yoy":"NA","zori_base":"NA"}}]}},"arcs":[[[260530,78113],[4220,62102],[21879,-402],[8444,105],[180233,-4788]],[[475306,135130],[-655,-15032],[-1399,1142],[-5110,-291],[-4251,714],[-1643,-3673],[4395,-1138],[2020,919],[1714,-496],[4236,1959],[-5398,-119234],[-7336,135],[-193,3],[-33051,565],[-10766,185],[-53377,913],[-18063,309],[-90624,1550]],[[255805,3660],[4725,74453]],[[542438,817321],[1477,18582],[34650,-1068],[83434,-2211],[153,-2431],[1875,-1407],[7159,-2634],[-208,-1597],[5007,-7226],[4202,-1979],[4244,-4786],[4178,106],[4520,-1192],[2233,-1749],[4677,1072],[3016,-760],[3465,-3223],[5237,-1806],[2107,132],[2576,-1801],[5582,-1369],[5291,-3630],[7529,-1860],[2717,-5564],[21,-4309],[-3421,-38658],[8578,-346],[8072,-9774],[9412,-226],[-180,-2690],[-3029,-44455],[-18105,568]],[[738907,689030],[-8902,299],[-191563,6194]],[[538442,695523],[2590,60636],[1406,61162]],[[92001,850154],[75208,-2406],[-562,-10195],[-5186,-8974],[-1234,-8473]],[[160227,820106],[-7257,-1070],[-7893,-2068],[-6709,-3286],[-6555,-1316],[-1845,-1085],[-8466,-6830],[-7608,-6975],[-8312,-5865],[-5580,152],[-6605,-551],[-403,2235],[893,4072],[-2396,5429],[-2141,8079]],[[89350,811027],[-1894,7224],[-478,4680],[-1585,4547],[-1499,-6],[746,5598],[-2374,439],[-3340,3146],[3658,8884],[1277,4864],[8140,-249]],[[21454,143034],[31513,-83],[18656,-482],[1534,3435],[4218,-119],[-1358,-4586],[-3334,-6893],[-2607,-1237],[4030,-8387],[-274,-10357],[3037,-990],[7032,153],[25325,-6591]],[[109226,106897],[-3899,-4413],[-7151,-2777],[-4808,-3845],[-981,-1340],[-1295,-3005],[-7736,-2675],[-6141,4868],[-2287,67],[-4892,-3747],[641,-5758],[3481,-7172],[-5287,-5814],[-1668,-900],[-5622,1319],[-2511,3460],[-4808,2926],[-691,-2278],[-1506,-581],[-3746,2943],[-2264,-1601],[-4337,1511],[-3541,-3058],[-1022,717],[-5456,-2561],[-4233,2259],[-2720,9],[-2104,4097],[7782,1292],[7062,2774],[5197,-1395],[1670,1162],[959,606],[-2541,2170],[-1382,9414],[-5961,-2992],[-1943,-248],[-2664,3182],[-1336,907],[-6078,2389],[-6641,2076],[-6935,2236]],[[9831,103121],[2565,4977],[-5708,9316],[2886,20713],[1856,1278],[9715,-2292],[309,5921]],[[54379,706314],[16960,308],[2909,799],[66059,-2907],[140767,-2975]],[[281074,701539],[-5838,-32051],[-4946,-68726],[-463,-14528],[2225,-532],[2779,-2832],[2454,0],[8281,1903],[2514,-510],[1036,-2871],[3186,-2215],[-1985,-963],[1461,-1500],[3564,-941],[3894,-4688],[4844,-3001],[898,-1274],[-452,-4150],[17194,-388],[25446,-521],[1365,-32],[13963,-324]],[[362494,561395],[-8995,-6117],[-3600,-4128],[-6584,-10616],[-5254,-7303],[-8194,-9523],[-4253,-4361],[-6667,-5661],[-8505,-6128],[-9047,-6661],[-3348,-3059],[-4690,-5442],[-3914,-6615],[-3691,-11303],[-5936,4146],[-3737,141],[-1799,1569],[-1014,4640],[1076,4991],[-2347,1569],[-681,-407],[-7971,-5632],[-295,-11889],[-672,817],[-2878,1658],[-9229,1202],[-248,-5335],[-2712,-1809],[-1253,-4414],[-4075,-2122],[6777,-889],[10732,1295],[2540,-592],[-1489,-14618],[-1274,-26019]],[[259267,422780],[-8,-137],[-76850,2480],[-42059,1666]],[[140350,426789],[-69026,1600],[-35294,1609]],[[36030,429998],[439,7730],[6158,76052],[101,1247],[989,12211],[879,14767],[1434,24088],[4174,70097],[1751,29421],[2424,40703]],[[111937,980283],[-19501,2390],[272,-1361],[5395,-1062],[3791,-3184],[1641,739],[4440,-1756],[4267,-491],[5583,-2956],[-3300,-4411],[5321,-1268],[1427,-4156],[5786,-4065],[9264,-4220],[4179,-1029],[8419,-834],[1789,-1952],[-2740,-5580],[1668,-2457],[3849,-902],[5537,288],[739,-1805],[3236,634],[4927,-536],[1346,-1682],[9574,-4568],[-540,-4303],[-2285,-2348],[109,-2053],[-1517,-4865],[2003,-622],[275,-5309],[-3184,-1722],[2235,-4709],[-508,-3929],[2727,-2890],[4834,-2138],[4976,-142],[-224,-3115],[-2307,-2860],[-5399,-1298],[-6932,-233],[-2855,-1328],[-471,-2407],[-2674,-2042],[188,-2907],[-2556,-1331],[-5901,-1495],[-6228,-3992],[-11511,-1113],[-3343,-853],[-4421,-4121],[-5907,-787],[-10300,-4331],[-5559,-1102],[-4642,-2471],[-4477,-940],[-3001,-2467],[-2063,-361],[-2783,-5930],[-2604,-1391]],[[89350,811027],[-11854,82],[-6965,-1609],[-9649,-3669]],[[60882,805831],[1893,45675],[2317,55888],[21,523],[20,480],[106,2551],[317,9523],[117,3509],[273,10082],[158,1057],[1958,40113],[125,2574],[363,7429],[279,5721],[8615,-143],[34062,-1016],[1794,-6958],[-1363,-2556]],[[209654,801857],[4020,3026],[9951,1896],[13410,-1176],[9164,-1223],[11044,-3408],[7657,-4231],[5613,-3918],[9880,-2756],[5909,-552],[38,1308],[3191,-1278],[374,53072]],[[289905,842617],[212218,-4938],[4675,-269],[3183,-61]],[[509981,837349],[-2755,-9510],[-9648,-21887],[-3216,876],[-2226,3940],[-6102,1318],[-3522,-180],[-3953,-1958],[-2442,1054],[-3667,3],[-1948,-5177],[24,-4331],[1178,-4058],[-1065,-3736],[721,-5358],[-1279,-5170],[-1316,-2501],[-952,-4778],[37,-3334],[-1877,-4172],[-1361,-3917],[-879,-6309],[1256,-8056],[1427,-5161],[-326,-6460],[-2919,-4718],[-6846,-10496],[-1184,-2880],[-5324,-5069],[-335,-3431],[-1981,-925],[-7904,-6037],[-2308,-794],[-4483,168],[-1589,-1510],[-641,-3735]],[[430576,699060],[-31057,637],[-2100,2025],[-202,101],[-3767,-1988],[-7978,236],[-104398,1468]],[[281074,701539],[2435,15704],[2050,9759],[-5507,-771],[-4385,952],[-4046,2483],[-15369,337],[467,8025],[-10325,9233],[-17920,3187],[-1681,1525],[-5447,1705],[-6995,-1967],[-8195,-3252],[284,8835],[-1473,1292],[4244,2600],[-4745,477],[-2318,2037],[2373,6110],[-1291,16123],[264,6864],[5304,4891],[856,4169]],[[362494,561395],[125959,-3849]],[[488453,557546],[13184,603],[4660,-78]],[[506297,558071],[-314,-3016],[-2359,-8399],[-288,-7005],[-923,-9981],[1383,-1489],[-980,-5734],[-2502,-103064],[-4346,175],[-189,-3294]],[[495779,416264],[-235567,6486],[-945,30]],[[345432,617402],[12680,14739],[13754,-413],[5550,1522],[4684,-1858],[5952,5070],[-2189,2271],[-3119,167],[-3412,1578],[-1208,1915],[914,8231],[499,3427],[17518,-286],[-441,-6870],[-8475,104],[-301,-1678],[-436,-5247],[4802,-146],[-1016,-810],[7166,-3629],[5539,-1029],[4344,-1314],[-3109,-7043],[145,-5687],[2829,-2145],[336,-1765],[-1990,-1226],[-2666,-8138],[-2373,-1110],[-584,-2579],[1648,-763],[-7574,-5633],[-7874,145],[-638,116],[-591,710],[-746,252],[-490,723],[-1518,519],[-592,979],[-867,-449],[-3552,-2667],[-9386,329],[-5643,-5759],[-6650,1735],[2864,-15],[6894,2346],[3281,6059],[748,11071],[805,120],[-4956,668],[-7213,-701],[-7237,1185],[-2795,1133],[661,1733],[-3972,113]],[[140350,426789],[-905,-730],[-1633,-10626],[-6019,122],[-1112,-1588],[-339,-10751],[-11516,489],[648,-7255],[-3650,205],[-160,2286],[-6326,147],[398,-9381],[-15684,384],[-224,-4447],[-11652,-299],[-522,-7251],[10473,465],[-215,-10718],[-9743,-545],[-987,3072],[-3338,236],[-1111,-1512],[-31,-9196],[-3566,8],[-1819,2593],[336,-4694],[-3142,-28],[-928,-7941],[1502,-1849],[-2717,15],[377,-4073],[6309,-9695],[82,-5197],[-960,-15258],[18350,-444],[-1345,-15048],[-3478,-6708],[10725,-314],[3695,723],[15656,7195],[12471,5137],[298,-1587],[-4826,-3758],[-528,-1954],[-3355,-7039],[-991,-5025]],[[118848,284955],[-22973,498],[500,-1892],[15477,-2962],[4406,-3784],[4880,738],[6869,521],[-806,-937],[-4569,-2415],[-2481,-544],[-2693,805],[4079,-8399],[-4489,-114],[1,-2812],[-8762,-1169],[-222,-2899],[4907,-3217],[933,-3318],[-971,-3059],[-70,-155],[992,-6417],[-13256,1566],[-13211,438],[-11632,-987],[-8971,-2060],[-18112,-5658],[-5547,-2060],[-6287,-3004],[-11104,-6539]],[[25736,225120],[353,6757],[212,5889],[1775,49281],[318,8826],[126,3149],[171,1737],[179,3159],[1458,25675],[4593,80882],[1109,19523]],[[109226,106897],[12874,-2828],[6636,-1445],[4098,4484],[839,1296],[389,-2945],[2985,-1726],[4023,904],[2830,1713],[665,1668],[2900,2285],[-848,2590],[8476,754],[1057,-2760],[2157,-823],[3829,386],[6572,-2012],[-1122,-11540],[4246,-1434],[278,-1708],[5316,-2564],[-138,-989],[6837,-2723],[1400,451],[2365,840],[7155,585],[4360,-944],[29790,-4995],[9429,-2101],[21906,-3203]],[[255805,3660],[-36443,624],[-85345,1460],[-967,16],[-88270,1510],[-19754,118],[-25026,82980],[2825,3232],[5114,5850],[1892,3671]],[[495779,416264],[-4141,-75356],[-1275,-14959],[-2912,-45327]],[[487451,280622],[-174729,3869],[-19393,-89],[-43574,-2463],[2625,42189],[-7651,1362],[-3898,-1062],[-2598,3203],[-5508,-205],[-6746,1062],[-4981,8],[-2227,-1205],[-298,-1875],[-3570,-2774],[-901,-3521],[-4584,-3549],[-746,-2052],[-3991,-2087],[-1261,-4087],[908,-2158],[-6826,874],[-1640,754],[-4184,-5150],[-5216,-10608],[-2561,-3794],[-4690,-3622],[-10430,225],[-6102,1945],[-5385,937],[-4782,-804],[-4156,-1625],[-507,-6],[-8440,195],[-20561,446]],[[498418,697459],[6778,-781],[33246,-1155]],[[738907,689030],[-4598,-57987],[-2445,-29543]],[[731864,601500],[-167,-1969],[-4086,-45990],[-34882,718],[-14164,291]],[[678565,554550],[-9327,400],[-774,959],[-894,587],[-1372,184],[-1001,-10],[-1081,-318],[-1178,-864],[-559,-204],[-30186,1478],[-125572,4332],[-324,-3023]],[[488453,557546],[7798,104656],[189,2941],[1536,3176],[1899,1999],[866,675],[5034,1248],[310,32],[-9186,437],[1519,24749]],[[731864,601500],[5766,-983],[5991,2270],[233,-2313],[5245,-662],[31619,1581],[2107,7162],[5173,4056],[5616,1125],[6133,3127],[41876,-9662],[930,-764],[802,-1412],[1046,-564],[1812,355],[2272,-58],[742,678],[8482,-1968],[-2101,-3168],[1256,-1699],[3919,-2407],[-117,-2216],[-2516,-4925],[-4997,-7835],[-3900,-2184],[1175,-3568],[-1628,-4105],[4372,-1582],[9177,-1272],[6598,3392],[5866,1544],[3780,374],[1677,1343],[3128,-620],[4571,320],[6310,-1349],[2382,-2467],[3462,-1626],[5758,213],[1112,4358],[-3969,4774],[-821,3289],[1352,2926],[4877,2630],[7639,-2314],[1809,4293],[54004,-11938],[5998,-10702],[3035,-3435],[4664,1227],[2794,2583],[2260,-1404],[7372,2247],[1992,-3770],[-1866,-2034],[-2261,-5922],[796,-4455],[-19380,-48689],[-3522,-8843],[-13920,-35206],[-149173,3153],[-89306,1628],[4085,59438],[-11043,-2556],[-2463,47],[-7366,4621],[-8054,7719],[-4980,4610],[-133,3544],[-12398,5983],[1544,2756],[4184,-672],[486,1772],[-4026,-19],[-2638,3280]],[[111937,980283],[3250,-4413],[2279,-1546],[2375,-25],[5480,-5620],[3885,-687],[5854,-3293],[4196,2470],[3600,5291],[3227,3494],[-1120,-7595],[2552,-5552],[1925,-8754],[7549,693],[7770,1284],[8803,2721],[2759,2295],[11090,2614],[-220,15140],[22866,-1176],[-5483,-4544],[-4189,-1796],[1680,-4656],[19558,-346],[284,-958],[23094,-138],[3969,-632],[95,4795],[-5715,108],[-782,1182],[608,5965],[-2024,5981],[1022,3177],[50954,-1596],[573,8856],[4260,2264],[-102,-1358],[27904,35],[-316,-4161],[10346,-54],[743,10251],[40000,-690],[-583,-6156],[10723,-1272],[647,-2889],[6077,25],[317,-5176],[409,-849],[732,-3040],[806,-1407],[-5876,-17454],[-7626,-7206],[-6807,-6993],[-1640,-3249],[-5166,-5016],[-26241,-8124],[-1942,1371],[-6120,-203],[-2787,-1205],[1941,-1675],[-7384,1179],[3713,-2917],[3805,-10343],[-3893,5161],[-2957,2212],[-7857,1637],[-4458,-1879],[-8493,-2025],[-15318,-5259],[-653,-73940]],[[209654,801857],[-5190,-1635],[-6914,-184],[-7180,420],[-6065,-2878],[-6194,-4698],[-3217,-1816],[-3803,-4101],[-5841,-3897],[-10081,-2967],[-5952,-2181],[-7376,-819],[-4972,196],[7201,4933],[4419,3629],[2328,2927],[2148,3821],[-1773,3037],[-377,2782],[1328,1807],[7095,13763],[989,6110]],[[430576,699060],[9089,-184],[27027,-599],[9615,7138],[2964,3753],[1771,5090],[1413,337],[-2287,-13081],[-1554,-3570],[19804,-485]],[[54379,706314],[1152,19349],[86,978],[3748,42597],[1218,29398],[299,7195]],[[487451,280622],[-1569,-23131],[-37,-4532],[-5092,-77700],[-2509,-38047],[-714,-2127],[-2224,45]],[[21454,143034],[10,204],[4272,81882]],[[509981,837349],[3148,9287],[3538,13811],[-440,8800],[3724,-222],[2535,-5830],[2187,154],[-943,-2378],[-4372,-5473],[3557,-1912],[1711,-9125],[1789,-2250],[2068,-4912],[737,-7375],[-4337,-12598],[17555,-5]]],"bbox":[-73.290944,42.7410423,-72.710617,43.414704],"transform":{"scale":[5.803275803275773e-7,6.736623736623775e-7],"translate":[-73.290944,42.7410423]}}
