{"type":"Topology","objects":{"foo":{"type":"GeometryCollection","geometries":[{"type":"MultiPolygon","arcs":[[[0,1,2]]],"properties":{"postal_code":"79036","realtor_list_price":174180,"realtor_list_price_yoy":-0.1746,"realtor_list_price_base":0.8221,"realtor_active_listings":18.667,"realtor_active_listings_yoy":-0.2,"realtor_active_listings_base":-0.1244,"realtor_new_listings":6.667,"realtor_new_listings_yoy":0.4286,"realtor_new_listings_base":0.4074,"realtor_days_on_market":40.4,"realtor_days_on_market_yoy":-0.2749,"realtor_days_on_market_base":-0.456,"zhvi":161129.576,"zhvi_yoy":0.0521,"zhvi_base":0.2805,"zori":"NA","zori_yoy":"NA","zori_base":"NA"}},{"type":"MultiPolygon","arcs":[[[3,-2,4]]],"properties":{"postal_code":"79007","realtor_list_price":177571.429,"realtor_list_price_yoy":0.327,"realtor_list_price_base":0.793,"realtor_active_listings":56,"realtor_active_listings_yoy":-0.0059,"realtor_active_listings_base":-0.2065,"realtor_new_listings":14,"realtor_new_listings_yoy":-0.25,"realtor_new_listings_base":-0.1723,"realtor_days_on_market":70.619,"realtor_days_on_market_yoy":-0.0494,"realtor_days_on_market_base":0.0047,"zhvi":109690.767,"zhvi_yoy":0.0273,"zhvi_base":0.17,"zori":"NA","zori_yoy":"NA","zori_base":"NA"}},{"type":"MultiPolygon","arcs":[[[-5,-1,5]]],"properties":{"postal_code":"79078","realtor_list_price":"NA","realtor_list_price_yoy":"NA","realtor_list_price_base":"NA","realtor_active_listings":2,"realtor_active_listings_yoy":1,"realtor_active_listings_base":"NA","realtor_new_listings":0,"realtor_new_listings_yoy":"NaN","realtor_new_listings_base":"NA","realtor_days_on_market":"NA","realtor_days_on_market_yoy":"NA","realtor_days_on_market_base":"NA","zhvi":"NA","zhvi_yoy":"NA","zhvi_base":"NA","zori":"NA","zori_yoy":"NA","zori_base":"NA"}},{"type":"MultiPolygon","arcs":[[[6]]],"properties":{"postal_code":"79062","realtor_list_price":450000,"realtor_list_price_yoy":"NA","realtor_list_price_base":"NA","realtor_active_listings":1,"realtor_active_listings_yoy":0,"realtor_active_listings_base":"NA","realtor_new_listings":1.333,"realtor_new_listings_yoy":"Inf","realtor_new_listings_base":"NA","realtor_days_on_market":1,"realtor_days_on_market_yoy":"NA","realtor_days_on_market_base":"NA","zhvi":"NA","zhvi_yoy":"NA","zhvi_base":"NA","zori":"NA","zori_yoy":"NA","zori_base":"NA"}}]}},"arcs":[[[141072,304764],[3279,704],[3866,7100],[3207,3470],[6562,2298],[5421,746],[15175,689],[7835,877],[5679,2034],[8404,7127],[4488,5986],[2027,5808],[3165,3548],[4414,2006],[10526,2718],[19765,4396],[6533,2910],[10869,6555],[23420,8133],[7340,1230],[25745,7626],[11516,-8871],[1626,-2456],[3919,-1474],[-6802,-2683],[-1112,-2722],[1921,-6801],[-593,-4497],[4362,-2645],[-4583,-226],[2512,-4536],[-4067,0],[-3473,-2570],[-298,-2495],[-1254,3290],[3694,3475],[-1773,5405],[-3252,2457],[2366,907],[-4733,4646],[-5176,-566],[-2514,-3778],[-2809,338],[1109,4611],[4509,3023],[3476,4801],[-3325,982],[-6362,-1473],[-7764,415],[-7469,-3024],[6952,-4572],[-2661,-1853],[-3698,1663],[-8430,1058],[-1553,-3099],[-4954,-945],[-9611,-379],[-6757,-2271],[179,-3094],[6728,2268],[6504,567],[14199,-3552],[6734,-2649],[-1666,-4465],[846,-5130],[4768,-790],[10549,-3621],[8201,-1400],[6341,350],[5200,2102],[22324,18488],[959,-882],[-3275,-7606],[1257,-3162],[-7385,-3686],[-16911,-6029],[-14076,-2080],[-11627,2014],[-6504,3468],[-4499,-4297],[-5782,-3195],[1384,-1592],[-2456,-2873],[9113,-2452],[11664,122],[4588,-9904],[-195,-8187],[865,-13162],[-2106,-2966],[-50,-8423],[23521,1339],[12249,1998],[10418,-3174],[9903,1282],[1848,-1170],[269,-977],[-5777,-4209],[-991,-2697],[3979,-8066],[2069,1701],[-71,5555],[7018,-1097],[1036,-1437],[5466,-2154],[3030,-190],[15741,1321],[4747,817],[50,-4313],[19736,3679],[3698,1209],[13893,1999],[3089,1399]],[[442523,270857],[3787,1737],[659,-5556],[11999,11],[6011,-5817],[1885,-4553],[-1584,-6830],[8161,35],[156,-5834],[-1476,-1360],[-134,-11188],[2796,-2394],[15430,28]],[[490213,229136],[-9756,-30068],[16178,198],[6621,1996],[3953,-2658],[6559,-7482],[17781,-3892],[34205,-8668],[33163,-7743],[1848,-1436],[15330,-5104],[5787,125],[11999,-2458],[46111,-11186],[4335,-626],[6352,1798],[4522,2274],[-1294,-4072],[2085,-5522],[9664,-9150],[-7793,-4514],[-12589,-208],[-30386,659],[-8492,-265],[-959,-17688],[-1405,-2835],[-2213,-2078],[-19310,342],[-7561,-743],[180,-5287],[-5137,-4687],[-10157,-1586],[-9574,-4504],[-14755,5422],[-12389,3089],[-8531,-3380],[-5532,-4272],[-3365,-1384],[-38021,-12184],[-4016,-1954],[-6270,-6891],[-5492,-11172],[-6412,-6843],[-6488,-4952],[-7516,-7938],[-4272,-5368],[-662,-1815],[-516,-11159],[-7999,-10463],[-7012,-8086],[-216,-2708],[-2839,-10],[12468,15304],[4997,7556],[-593,1229],[677,9853],[1402,2497],[14345,17756],[-3379,-791],[-3168,-2949],[-16328,-2376],[-25674,232],[9764,30853],[-4818,3669],[-7244,1058],[-12827,205],[-1146,1788],[-14827,6089],[-7671,5292],[-1110,-4458],[-2733,-2079],[-1486,-14287],[-4652,-5063],[-16157,3819],[3252,8731],[-3763,3477],[-6642,-1851],[-2361,4384],[-7158,1021],[-7305,-1321],[-21992,17206],[-2773,-5646],[382,-7188],[3034,-6040],[862,-8413],[-1547,-9802],[-5901,-8460],[-7395,-6385],[-6067,-9990],[-4335,-3731],[-3120,-6595],[-4485,-5246],[-5877,-9288],[1526,-2160],[-7796,-5228],[-4620,1400],[-18811,453],[-7155,2719],[-3540,-1248],[-5162,-38],[4498,1929],[293,3665],[-6196,641],[-32157,1194],[11298,3923],[8847,4954],[3244,2910],[5313,7700],[1392,9346],[6715,2533],[10770,1664],[10697,871],[5163,-378],[7893,2303],[5092,4498],[3096,6123],[-369,6917],[-1845,5367],[957,4610],[-1181,1625],[4723,7522],[-445,11678],[1844,2040],[812,6350],[1774,4610],[7677,908],[5017,-944],[14719,323],[-2604,3869],[-2126,5664],[-1463,10192],[-2527,3611],[-6547,2262],[-15380,3651],[-2511,6341],[-4407,3810],[-5508,2640],[293,10167],[-1257,2758],[-4330,-27],[-1357,-6930],[-25677,-20818],[-29637,-25779],[-4212,-2416],[-5750,2997],[1078,-4782],[-7601,-3025],[-17193,-2461],[-25458,-665],[-5487,-3224],[-8154,-2719],[-6817,-2215],[-4454,-3547],[-12107,-11844],[-4230,-3080],[-16634,-9085],[-6383,-192],[619,13229],[-23990,6225],[-24525,-935],[-9593,1513],[74,-1777],[-20579,-781],[-6576,2900],[3985,2191],[-1030,6653],[-5833,983],[-2801,5366],[1020,1688],[3038,-441],[791,3293],[11749,-116],[66324,616],[4554,541],[11846,3007],[-1159,5359],[4646,7878],[2854,2840],[11042,-1265],[7485,141],[3489,1692],[480,4109],[13047,-2058],[140,24307],[8541,1501],[12616,-705],[5703,-3874],[5616,-5966],[14603,1541],[-1039,4762],[-1773,1889],[883,2003],[-1848,1813],[-79,4800],[-5176,6764],[-8275,5741],[2064,3478],[4680,-2063],[4174,859],[11905,4008],[4382,4899],[4362,8792],[1544,12268],[-279,2157],[-51633,327],[-3544,755],[-7474,-91],[-6,3681],[-6986,-210],[-68588,0],[-2768,4156],[-3101,1589],[814,1765],[9601,-1163],[1275,2552],[-6130,2921],[1779,8842],[11380,1547],[3990,1473],[-7978,1779],[-959,2229],[12489,2380],[-1478,1472],[5394,1663],[-2211,3440],[7537,3360],[520,1853],[5692,1435],[5318,-266],[3692,-2723],[2810,491],[2809,3551],[9316,-1960],[-2074,2144],[1131,3102],[-1771,1777],[1584,2162],[4904,1806],[-142,2304],[7015,-727],[5028,-3588],[-113,31118]],[[468144,344469],[97842,23481],[52,-26473],[-24264,-25552],[5962,-313],[4878,1890],[5687,6237],[5397,304],[3402,-1171],[6286,-4724],[-1774,-1513],[2886,-3930],[-222,-2495],[2957,-1699],[-4580,-3667],[-3769,-1211],[-1626,-4836],[-3990,-2458],[-6280,-77],[-1631,-2632],[1634,-2206],[1774,644],[5911,0],[7537,3931],[6101,1397],[996,-5175],[5139,-157],[53973,85],[-11,673],[-1605,3927],[-92,6937],[-1955,2579],[-7517,4735],[-2798,3583],[-5124,9460],[180,4751],[4638,-1483],[10043,-147],[5814,248],[1110,2457],[3845,2153],[15303,4914],[8507,1323],[6581,-908],[2809,794],[1552,2531],[-1033,4308],[-2514,2647],[-4288,831],[2810,2721],[-664,2155],[5473,1813],[2662,5365],[2664,606],[3476,3590],[846,2781],[-1810,3512],[-1879,4477],[-5632,12173],[-282,3514],[1623,19989],[16024,-7669],[3033,-604],[3626,792],[13907,-946],[7693,-1967],[9100,-946],[6435,2228],[6881,906],[6433,-3591],[9909,-3443],[5419,1196],[1902,-3919],[66,-7105],[5089,-4675],[7777,-662],[-2814,-2339],[4288,-2268],[1989,-5973],[-3774,-2720],[-669,-3558],[-4066,-1818],[-2372,-3105],[9914,516],[16474,-7283],[12386,279],[820,7188],[-7045,7197],[1010,6724],[-1882,2414],[1336,2576],[28681,-1921],[-61,-2665],[4386,-3768],[39,-2490],[-2859,-859],[1821,-7465],[-4377,-3709],[-9335,-9526],[-6897,-5978],[-15035,-6813],[-5046,-2987],[-8710,-938],[-3874,-1638],[-620,-400],[551,-274],[1083,676],[14192,127],[24,-11908],[58766,4],[5152,-2629],[10539,-806],[3940,-2665],[1117,3482],[-321,2618],[33556,-4],[16814,2],[3826,0],[667,-7873],[965,-2343],[60972,-59200],[-57140,17687],[-13309,5264],[1463,15766],[-4380,-3751],[1109,-3024],[253,-8379],[-10992,4495],[116,-13246],[-128509,-17758],[-28297,-135],[4104,845],[-1521,890],[-29880,-106],[-8177,32],[-232,-1751],[-6386,17],[-46651,-38],[-28734,-1765],[-4654,71],[-836,-12286],[-132272,-295],[-14861,-30]],[[442523,270857],[-5368,1262],[-3766,4027],[7690,11414],[7021,-1098],[5621,4194],[2590,3476],[4438,2265],[6057,4908],[-3,2003],[7732,11521],[9182,7876],[5097,2760],[-9016,5233],[-3437,7917],[-8217,5854]],[[141072,304764],[-16,12941],[-113,32582],[3629,-4761],[9395,-5817],[11314,1023],[3992,-1018],[5100,2268],[5173,795],[1921,3137],[-1628,1323],[-7986,-494],[-6285,679],[2287,4120],[15230,1742],[369,1587],[4583,2381],[-5104,2984],[-3034,340],[-4517,5441],[2145,832],[-300,3552],[-5252,1737],[-4657,-456],[-4736,1133],[-5323,-644],[1547,4686],[2292,984],[-2443,1890],[3624,-1021],[-2214,-2645],[2591,-1927],[5619,1588],[5768,-224],[9322,-3853],[4367,-5667],[2885,-2003],[3700,-1435],[9393,-1585],[1995,1739],[-448,4536],[-5698,3400],[7097,4196],[1181,3551],[-3115,9147],[6359,2645],[6878,-110],[4512,2041],[-445,1662],[-7474,2644],[-2032,9191],[-6051,155],[5010,-6375],[-8420,-1268],[-3629,-6447],[256,-6962],[-6797,3047],[1178,6539],[-9988,867],[-598,6613],[3183,-793],[301,-4612],[7690,-298],[1694,7557],[-1789,1642],[8259,104],[8357,2455],[-7031,4302],[-570,5918],[3039,3933],[-1639,2246],[-4902,1234],[-3626,2790],[1879,658],[8436,-640],[2959,-1925],[-142,-5064],[9690,379],[6512,-1511],[14648,268],[30315,-91],[-8281,7964],[-2780,9928],[7808,2754],[10321,978],[11234,-304],[5624,1322],[6881,341],[812,-1625],[5550,-1927],[6364,-416],[796,-6523],[4517,-2609],[-4277,-5788],[8075,-3862],[12386,109],[98,-3762],[12995,-4238],[5724,-1277],[21926,-2059],[9511,555],[7896,-10823],[11087,-9678],[12718,-7561],[11024,3890],[2369,2570],[7451,1917],[377,-6754],[-6057,491],[-1257,-907],[2288,-4120],[14563,-7525],[1104,-3741],[-1481,-1663],[-7028,-4193],[-3679,-1389],[22163,-11497],[8578,-4431]],[[139446,993940],[4219,3186],[-1041,1625],[8096,1248],[3645,-2266],[5574,-338],[7129,2194],[7286,-4646],[2159,-3438],[1707,1209],[6686,871],[3790,-680],[4683,1855],[6096,-4913],[9959,-1471],[2153,1172],[6317,-3324],[-667,-1248],[5498,-831],[3344,1513],[15306,-3587],[5869,1323],[2897,1890],[8022,1059],[5647,-490],[6615,-1965],[3937,1436],[7356,-1587],[-446,-1701],[4902,-1473],[7506,227],[-1413,1814],[4459,-1096],[8839,983],[4014,-1511],[445,-1853],[14266,-1587],[2005,1549],[3787,-1285],[15902,1851],[1112,-2381],[5126,-264],[-667,1437],[4902,-871],[3642,945],[2749,2721],[13372,-3025],[10926,2039],[8394,-455],[4235,-1399],[9437,1585],[1260,-2191],[7211,4759],[8319,-2345],[2306,2155],[9361,979],[-374,-3552],[3268,-2987],[4306,-1019],[6462,1282],[3861,-2456],[9537,-1256],[2947,-2266],[12036,-1811],[4675,1438],[10175,1100],[-377,3362],[3189,1588],[-1413,2002],[-3344,-266],[-2382,2757],[5768,2941],[21608,-69],[3964,-7],[90428,-193],[-362,-42969],[187608,-103],[353,-5031],[-45813,-40],[-1410,-464],[55,-22850],[23041,-752],[-189,-8913],[1865,-2064],[269,-13011],[-25508,53],[-234757,458],[-258,-71781],[-84804,-17],[-7732,-574],[-1511,-3547],[-234,-43764],[94049,-63],[-248,-71835],[47245,-1080],[-427,-37190],[-1334,-226],[-146872,175],[-264,-10929],[-54452,-396],[-261,-9586],[-6523,-9],[-192,2191],[-48454,-8],[443,4461],[6006,2130],[6817,491],[296,1020],[374,10393],[-23793,303],[298,11980],[1263,1663],[-18111,369],[3,21972],[47049,0],[3867,4224],[453,3219],[3125,2952],[902,4790],[-3484,76],[-5782,4157],[-5711,5819],[-27237,-397],[19,38112],[-32924,8],[-4365,2132],[-9028,1375],[-9533,-2143],[-7373,-961],[-19175,979],[-20841,-119],[-2967,605],[-533,11866],[-5410,-4460],[-13124,-1856],[-896,4724],[1185,1473],[-1639,4762],[-5265,905],[2148,2495],[-19,13605],[-21541,-380],[-3,32804],[-622,63906],[6710,329],[36154,-707],[44399,84],[7052,1739],[738,4043],[-3268,5252],[1558,2494],[3341,-151],[-1339,3288],[-4975,1851],[-2675,4006],[76916,489],[206,29228],[-165044,133],[-92,52801]]],"bbox":[-101.676414,35.485458,-101.296963,36.09105],"transform":{"scale":[3.7945137945136835e-7,6.05592605592607e-7],"translate":[-101.676414,35.485458]}}
