{"type":"Topology","objects":{"foo":{"type":"GeometryCollection","geometries":[{"type":"MultiPolygon","arcs":[[[0,1,2,3,4,5,6]]],"properties":{"postal_code":"84307","realtor_list_price":"NA","realtor_list_price_yoy":"NA","realtor_list_price_base":"NA","realtor_active_listings":2,"realtor_active_listings_yoy":-0.25,"realtor_active_listings_base":-0.0685,"realtor_new_listings":0,"realtor_new_listings_yoy":-1,"realtor_new_listings_base":-1,"realtor_days_on_market":"NA","realtor_days_on_market_yoy":"NA","realtor_days_on_market_base":"NA","zhvi":441447.455,"zhvi_yoy":0.0122,"zhvi_base":"NA","zori":"NA","zori_yoy":"NA","zori_base":"NA"}},{"type":"MultiPolygon","arcs":[[[7,8,9,10,11,12]]],"properties":{"postal_code":"83252","realtor_list_price":316494.444,"realtor_list_price_yoy":-0.2059,"realtor_list_price_base":0.8103,"realtor_active_listings":21.333,"realtor_active_listings_yoy":-0.0448,"realtor_active_listings_base":-0.1564,"realtor_new_listings":6,"realtor_new_listings_yoy":0.8,"realtor_new_listings_base":-0.2682,"realtor_days_on_market":90.444,"realtor_days_on_market_yoy":0.1249,"realtor_days_on_market_base":0.3356,"zhvi":352191.904,"zhvi_yoy":0.0278,"zhvi_base":1.2981,"zori":"NA","zori_yoy":"NA","zori_base":"NA"}},{"type":"MultiPolygon","arcs":[[[13,14,15,16,17,18,19,20,-6,21]]],"properties":{"postal_code":"84302","realtor_list_price":478901.781,"realtor_list_price_yoy":0.0361,"realtor_list_price_base":0.6997,"realtor_active_listings":107.667,"realtor_active_listings_yoy":0.1919,"realtor_active_listings_base":1.3394,"realtor_new_listings":42.667,"realtor_new_listings_yoy":0.8286,"realtor_new_listings_base":0.3811,"realtor_days_on_market":50.562,"realtor_days_on_market_yoy":-0.2275,"realtor_days_on_market_base":0.3743,"zhvi":431242.433,"zhvi_yoy":0.0153,"zhvi_base":0.8128,"zori":1618.889,"zori_yoy":"NA","zori_base":"NA"}},{"type":"MultiPolygon","arcs":[[[22]]],"properties":{"postal_code":"84334","realtor_list_price":"NA","realtor_list_price_yoy":"NA","realtor_list_price_base":"NA","realtor_active_listings":1,"realtor_active_listings_yoy":-0.5,"realtor_active_listings_base":-0.4213,"realtor_new_listings":0,"realtor_new_listings_yoy":"NaN","realtor_new_listings_base":-1,"realtor_days_on_market":"NA","realtor_days_on_market_yoy":"NA","realtor_days_on_market_base":"NA","zhvi":"NA","zhvi_yoy":"NA","zhvi_base":"NA","zori":"NA","zori_yoy":"NA","zori_base":"NA"}},{"type":"MultiPolygon","arcs":[[[23,-18]]],"properties":{"postal_code":"84324","realtor_list_price":"NA","realtor_list_price_yoy":"NA","realtor_list_price_base":"NA","realtor_active_listings":3,"realtor_active_listings_yoy":-0.5909,"realtor_active_listings_base":1.7391,"realtor_new_listings":0,"realtor_new_listings_yoy":-1,"realtor_new_listings_base":-1,"realtor_days_on_market":"NA","realtor_days_on_market_yoy":"NA","realtor_days_on_market_base":"NA","zhvi":673487.053,"zhvi_yoy":0.0378,"zhvi_base":"NA","zori":"NA","zori_yoy":"NA","zori_base":"NA"}},{"type":"MultiPolygon","arcs":[[[24,25]]],"properties":{"postal_code":"84311","realtor_list_price":"NA","realtor_list_price_yoy":"NA","realtor_list_price_base":"NA","realtor_active_listings":1.667,"realtor_active_listings_yoy":-0.4444,"realtor_active_listings_base":-0.5891,"realtor_new_listings":0,"realtor_new_listings_yoy":-1,"realtor_new_listings_base":-1,"realtor_days_on_market":"NA","realtor_days_on_market_yoy":"NA","realtor_days_on_market_base":"NA","zhvi":472004.491,"zhvi_yoy":0.0084,"zhvi_base":"NA","zori":"NA","zori_yoy":"NA","zori_base":"NA"}},{"type":"MultiPolygon","arcs":[[[26,27,28,29,-4]]],"properties":{"postal_code":"84337","realtor_list_price":454953.571,"realtor_list_price_yoy":-0.0111,"realtor_list_price_base":0.5253,"realtor_active_listings":83.333,"realtor_active_listings_yoy":-0.0876,"realtor_active_listings_base":1.0537,"realtor_new_listings":23.333,"realtor_new_listings_yoy":-0.1667,"realtor_new_listings_base":0.0541,"realtor_days_on_market":57.2,"realtor_days_on_market_yoy":-0.0962,"realtor_days_on_market_base":0.2341,"zhvi":435914.266,"zhvi_yoy":0.0102,"zhvi_base":0.9321,"zori":1361.667,"zori_yoy":"NA","zori_base":"NA"}},{"type":"MultiPolygon","arcs":[[[-25,30,-16,31,32]]],"properties":{"postal_code":"84306","realtor_list_price":"NA","realtor_list_price_yoy":"NA","realtor_list_price_base":"NA","realtor_active_listings":0.667,"realtor_active_listings_yoy":-0.75,"realtor_active_listings_base":-0.7396,"realtor_new_listings":0,"realtor_new_listings_yoy":"NaN","realtor_new_listings_base":-1,"realtor_days_on_market":"NA","realtor_days_on_market_yoy":"NA","realtor_days_on_market_base":"NA","zhvi":608338.811,"zhvi_yoy":0.0322,"zhvi_base":"NA","zori":"NA","zori_yoy":"NA","zori_base":"NA"}},{"type":"MultiPolygon","arcs":[[[33]]],"properties":{"postal_code":"84329","realtor_list_price":"NA","realtor_list_price_yoy":"NA","realtor_list_price_base":"NA","realtor_active_listings":1,"realtor_active_listings_yoy":0,"realtor_active_listings_base":"NA","realtor_new_listings":0,"realtor_new_listings_yoy":"NaN","realtor_new_listings_base":"NA","realtor_days_on_market":"NA","realtor_days_on_market_yoy":"NA","realtor_days_on_market_base":"NA","zhvi":"NA","zhvi_yoy":"NA","zhvi_base":"NA","zori":"NA","zori_yoy":"NA","zori_base":"NA"}},{"type":"MultiPolygon","arcs":[[[-8,34]]],"properties":{"postal_code":"83243","realtor_list_price":"NA","realtor_list_price_yoy":"NA","realtor_list_price_base":"NA","realtor_active_listings":1,"realtor_active_listings_yoy":0,"realtor_active_listings_base":"NA","realtor_new_listings":0,"realtor_new_listings_yoy":"NaN","realtor_new_listings_base":"NA","realtor_days_on_market":"NA","realtor_days_on_market_yoy":"NA","realtor_days_on_market_base":"NA","zhvi":"NA","zhvi_yoy":"NA","zhvi_base":"NA","zori":"NA","zori_yoy":"NA","zori_base":"NA"}},{"type":"MultiPolygon","arcs":[[[-32,-15,35,-28,36]]],"properties":{"postal_code":"84309","realtor_list_price":"NA","realtor_list_price_yoy":"NA","realtor_list_price_base":"NA","realtor_active_listings":"NA","realtor_active_listings_yoy":"NA","realtor_active_listings_base":"NA","realtor_new_listings":"NA","realtor_new_listings_yoy":"NA","realtor_new_listings_base":"NA","realtor_days_on_market":"NA","realtor_days_on_market_yoy":"NA","realtor_days_on_market_base":"NA","zhvi":590197.207,"zhvi_yoy":0.0355,"zhvi_base":"NA","zori":"NA","zori_yoy":"NA","zori_base":"NA"}},{"type":"MultiPolygon","arcs":[[[-30,-22,-5]]],"properties":{"postal_code":"84301","realtor_list_price":"NA","realtor_list_price_yoy":"NA","realtor_list_price_base":"NA","realtor_active_listings":"NA","realtor_active_listings_yoy":"NA","realtor_active_listings_base":"NA","realtor_new_listings":"NA","realtor_new_listings_yoy":"NA","realtor_new_listings_base":"NA","realtor_days_on_market":"NA","realtor_days_on_market_yoy":"NA","realtor_days_on_market_base":"NA","zhvi":468851.182,"zhvi_yoy":0.0172,"zhvi_base":"NA","zori":"NA","zori_yoy":"NA","zori_base":"NA"}},{"type":"MultiPolygon","arcs":[[[37,-10,38]]],"properties":{"postal_code":"84330","realtor_list_price":583750,"realtor_list_price_yoy":0.2024,"realtor_list_price_base":"NA","realtor_active_listings":3.667,"realtor_active_listings_yoy":0.2222,"realtor_active_listings_base":0.7623,"realtor_new_listings":0.667,"realtor_new_listings_yoy":0,"realtor_new_listings_base":"NA","realtor_days_on_market":27,"realtor_days_on_market_yoy":-0.4808,"realtor_days_on_market_base":"NA","zhvi":419337.423,"zhvi_yoy":0.0245,"zhvi_base":"NA","zori":"NA","zori_yoy":"NA","zori_base":"NA"}},{"type":"MultiPolygon","arcs":[[[-20,39]]],"properties":{"postal_code":"84340","realtor_list_price":636666,"realtor_list_price_yoy":0.0975,"realtor_list_price_base":0.7524,"realtor_active_listings":20,"realtor_active_listings_yoy":0.0714,"realtor_active_listings_base":0.8443,"realtor_new_listings":4,"realtor_new_listings_yoy":1,"realtor_new_listings_base":-0.0863,"realtor_days_on_market":76.667,"realtor_days_on_market_yoy":0.1558,"realtor_days_on_market_base":0.469,"zhvi":586050.77,"zhvi_yoy":0.0335,"zhvi_base":0.8787,"zori":"NA","zori_yoy":"NA","zori_base":"NA"}},{"type":"MultiPolygon","arcs":[[[-11,-38,40,-2,41]]],"properties":{"postal_code":"84331","realtor_list_price":487425,"realtor_list_price_yoy":0.0193,"realtor_list_price_base":"NA","realtor_active_listings":5,"realtor_active_listings_yoy":0.3636,"realtor_active_listings_base":"NA","realtor_new_listings":0.667,"realtor_new_listings_yoy":0,"realtor_new_listings_base":"NA","realtor_days_on_market":120,"realtor_days_on_market_yoy":0.6,"realtor_days_on_market_base":"NA","zhvi":"NA","zhvi_yoy":"NA","zhvi_base":"NA","zori":"NA","zori_yoy":"NA","zori_base":"NA"}},{"type":"MultiPolygon","arcs":[[[-12,-42,-1,42]]],"properties":{"postal_code":"84336","realtor_list_price":"NA","realtor_list_price_yoy":"NA","realtor_list_price_base":"NA","realtor_active_listings":1,"realtor_active_listings_yoy":0,"realtor_active_listings_base":-0.1133,"realtor_new_listings":0,"realtor_new_listings_yoy":"NaN","realtor_new_listings_base":"NA","realtor_days_on_market":"NA","realtor_days_on_market_yoy":"NA","realtor_days_on_market_base":"NA","zhvi":"NA","zhvi_yoy":"NA","zhvi_base":"NA","zori":"NA","zori_yoy":"NA","zori_base":"NA"}},{"type":"MultiPolygon","arcs":[[[-36,-14,-29]]],"properties":{"postal_code":"84314","realtor_list_price":604450,"realtor_list_price_yoy":"NA","realtor_list_price_base":"NA","realtor_active_listings":3.333,"realtor_active_listings_yoy":0.1111,"realtor_active_listings_base":-0.4048,"realtor_new_listings":0.667,"realtor_new_listings_yoy":"Inf","realtor_new_listings_base":0.25,"realtor_days_on_market":100,"realtor_days_on_market_yoy":"NA","realtor_days_on_market_base":"NA","zhvi":515774.417,"zhvi_yoy":0.0214,"zhvi_base":"NA","zori":"NA","zori_yoy":"NA","zori_base":"NA"}}]}},"arcs":[[[525270,400009],[585,-219],[8235,-709],[1450,-224],[6514,-1372],[3683,-462],[1506,-673],[1044,-349],[2637,108],[4120,-2609],[1652,-1966],[3585,-1882],[1184,-806],[12005,-7687],[1314,-1091],[11103,-12964],[13763,-28153],[4967,-4162],[1098,-289],[3414,-173],[4651,-410],[15626,677],[3697,933],[4605,-81],[1501,-1325],[308,-2799],[334,-312],[9848,190],[-255,15456],[-48,584],[-749,781],[-1701,1085],[-178,477],[-511,5246],[-451,1151],[-2548,3649],[-1698,5139],[-748,4159],[-2041,1473],[-1704,276],[-2646,2219],[-4067,4418],[-1651,988],[-2835,3348],[-638,2636],[-205,3782],[152,1133],[1054,2300],[2139,5162],[4001,9972],[1904,5895],[433,1883],[781,8584],[1265,4103],[797,3640],[606,4255],[762,3554],[172,1692],[-195,3025],[2119,4228],[-169,3374],[330,33339],[-126,1870],[-13894,223],[290,26045],[1593,2153],[1923,2198],[1781,2493],[224,891],[48,4173],[328,1117],[1836,4480],[383,1801],[637,1254],[1770,-830],[1235,-207],[1306,64],[11332,2074]],[[651842,534005],[1785,249],[2393,-144],[2071,-596],[25526,-10067],[1136,-560],[2077,-1497],[6418,-6010],[-555,1030],[-66,6344],[15489,269]],[[708116,523023],[763,-29894],[572,-1595],[-880,-635],[1342,-2171],[6485,-10504],[-226,-3],[-38021,-591],[-12,-5198],[149,-1865],[787,-26281],[-514,-11017],[107,-22444],[985,-11695],[23365,250],[477,72],[11016,232]],[[714511,399684],[299,-5902],[-2996,-7384],[-1339,623],[-3157,-26],[-379,-931],[81,-8915],[-226,-1691],[-859,-9469],[-537,-1925],[-1082,-2905],[-150,-2353],[1466,-5275],[1586,-6010],[358,-725],[10121,-16464],[1022,-1224],[1755,-907],[7419,-1821],[2637,-1089],[2025,-1509],[6105,-5612],[2012,-1518],[1150,-470],[2179,-676],[9372,-1508],[11976,-1957],[1558,-555],[1352,-11],[46536,342],[30815,258],[-53,11334],[2464,0],[5946,-11221],[169,3],[338,-639],[487,506],[111,89],[6294,351]],[[861366,312498],[247,-753],[-972,-941],[-569,-1512],[2147,-1073],[526,-1309],[1358,-698],[142,-1305],[967,-634],[1606,730],[1273,-1074],[1451,392],[668,-1613],[398,-1795],[1084,-531],[1135,-936],[817,-1440]],[[873644,298006],[1351,-391],[2185,-2776],[717,-135],[1005,-2056],[567,-566],[1342,-385],[1694,24],[1515,1129],[1796,2527],[1679,336],[2396,-1173],[149,-932],[-1894,113],[-1575,-1077],[-2019,-862],[-153,-1253],[327,-1950],[-762,-1358],[4567,-96],[562,-913],[871,-3654],[-467,-2760],[-1095,-736],[-2019,910],[-2731,2346],[-906,363],[-1176,1158],[-1583,-977],[-1330,-1659],[-880,-2038],[-28,-994],[1229,-2092],[2623,-2677],[946,-543],[747,-1375],[387,-3155],[1195,-780],[2442,-573],[2764,497],[1329,2254],[742,-75],[731,-1870],[-756,-1955],[-1755,-2117],[-977,-147],[-834,-405],[-1515,-2170],[-506,-55],[-380,2886],[-692,1018],[-1285,-90],[-967,-1406],[-2184,-5305],[74,-802],[914,-541],[984,1748],[3366,291],[-19,-1537],[-905,-1722],[502,-2513],[681,-2199],[-928,-1756],[-1839,-1273],[-1277,725],[-636,-152],[-1037,-1893],[-1235,-3383]],[[879678,243029],[-468,1210],[-2483,2567],[-873,-2220],[-964,-643],[-17,-942],[808,-1579],[-916,-1556],[2367,-1470],[61,-821],[-1555,-2326],[-1310,-2],[-238,1729],[-1335,1231],[-1153,-887],[-73,-1943],[-1654,-1506],[-884,-2223],[-1080,339],[-1500,2470],[-506,-141],[40,-1826],[1209,-3078],[21,-1225],[-598,-1621],[-2904,55],[-247,-563],[831,-2132],[-61,-2968],[1278,-1030],[-1716,-4304],[-1246,-906],[-893,198],[-692,1974],[-683,91],[-1668,-1641],[-1242,-989],[-2442,-1397],[-1687,-2155],[799,-1951],[-332,-1001],[-1608,-1965],[-1142,-468],[-1400,294],[-314,664],[478,2066],[-394,447],[-2039,-785],[-1104,-80],[-3775,-1517],[-2180,-397],[-2319,-1481],[-851,3],[-1173,1569],[-936,217],[-726,-792],[-1497,-463],[-3017,262],[-1913,-2089],[-1830,-1017],[-1090,363],[-1477,3334],[-2000,5879],[-1374,2999],[-774,511],[-1214,-843],[-985,661],[-2664,-105],[-1132,-259],[-1980,-1340],[-647,-145],[-1290,913],[-1087,134],[-976,-404],[-1634,549],[-1170,-1463],[-1973,864],[-3925,-962],[-42,519],[-1012,640],[-1785,327],[-2815,-458],[-2363,207],[-1367,713],[-1545,-150],[-2669,385],[-2538,869],[-3399,724],[-1603,-105],[-2137,-1253],[-652,-1422],[-14609,-3061],[-3798,14831],[-885,2605],[-1784,8171],[320,-22793],[-1845,-1514],[-2569,-1552],[-2642,-1873],[-2303,-2321],[-735,-457],[-2464,-224],[-28,844],[3223,2781],[1527,1779],[1306,737],[1711,1397],[-531,122],[-2858,-1671],[-227,-566],[-2237,-2117],[-1552,-820],[1046,1033],[-1293,-453],[1165,1124],[-2375,-1325],[-900,-873],[-2391,-1160],[-1275,-1321],[-1440,-645],[-2215,-2657],[-1808,293],[-585,-424],[-1073,737],[-2674,-174],[-1466,-880],[-1076,167],[-3716,-1422],[-997,-1014],[-1240,-2232],[-482,-2360],[284,-2246],[6652,-3889],[-69,-183],[-2993,1380],[-1817,-1267],[-1478,-4518],[-418,-1969],[-515,-4923],[-386,-1002],[-64,-1846],[370,-1127],[96,-2215],[626,-2091],[1430,-2744],[225,-1441],[1846,-7033],[578,-826],[1462,247],[1059,-652],[1526,-2374],[1334,-124],[544,-615],[-144,-1512],[1605,-1003],[562,-1425],[65,-1563],[481,-1513],[-708,-1530],[-1268,-720],[-771,-2197],[-918,-4677],[-433,-3217],[125,-3591],[-530,-633],[-48,-1513],[-788,-2232],[-819,-616],[-1235,687],[-1718,-458],[-1284,-2286],[-1043,-632],[-722,-2532],[401,-1019],[-321,-1812],[1106,-2848],[418,-2602],[1059,-951],[1475,-1968],[1317,0],[1363,-509],[177,-792],[-851,-651],[1540,-2988],[1171,263],[1236,1194],[1717,1038],[866,-89],[2134,-1373],[96,-1740],[-771,-1213],[-1316,-545],[-1845,-105],[-1508,370],[-642,-299],[368,-1459],[835,-914],[1043,421],[4299,-598],[-642,-914],[-1764,35],[-1284,-562],[-1236,71],[-177,-1424],[418,-792],[479,-3427],[-657,-1337],[-33,-2321],[577,-1671],[1090,70],[16,-931],[738,-510],[-1427,-122],[1458,-1039],[32,-1038],[-593,-685],[993,-1723],[995,-335],[-338,-2163],[995,458],[320,-916],[-1139,-439],[930,-1916],[1169,-3095],[223,-2884],[4028,-2045],[-853,-416],[76,-3614],[-627,-345],[1747,-4142],[348,-1679],[1597,-2075],[-396,-1114],[1144,-985],[9216,-5],[653,-171],[-15885,-20151],[-702,-1178],[-1538,-4352],[-1672,-1947],[-5524,-7987],[-668,-617],[383,-158],[53,-715],[-583,-1456],[-1598,102],[-2316,-1012],[-1938,-1142],[-4219,-6010],[362,-1585],[731,-769],[-1759,-429],[-869,-1848],[725,-1444],[-941,1001],[-717,-432],[-801,843],[-4433,1406],[-1880,397],[-6345,707],[-4257,905],[-3042,1245],[-981,754],[-4133,1621],[-10789,1085],[40,1786],[556,-770],[1046,218],[-478,2095],[618,1338],[1014,838],[1775,828],[-341,1498],[1299,593],[662,220],[736,-1122],[53,571],[-924,2238],[-614,415],[-518,3614],[-1093,465],[848,1114],[-1085,3248],[-303,1633],[-1319,2400],[158,3338],[-4257,-134],[-708,-761],[-709,990],[3646,2647],[1386,-509],[138,-1027],[1004,439],[-318,1447],[-571,-273],[-749,3040],[-1018,1336],[-704,-1517],[947,-1418],[-284,-794],[-1688,-1106],[-525,615],[-775,547],[-718,1820],[-856,1094],[-1468,568],[-735,1663],[86,876],[994,-1945],[208,1883],[1640,965],[-54,535],[-1920,2603],[-1795,1474],[-1247,191],[-131,1996],[-856,1275],[1775,972],[-1326,2961],[1560,3362],[-39,1946],[430,6622],[392,2469],[614,1875],[1026,-112],[987,1371],[425,2141],[1444,513],[654,1250],[1420,863],[1268,2622],[1063,4695],[224,1693],[-86,2242],[511,2535],[-469,1883],[-1218,1468],[302,914],[-1277,2767],[-728,464],[-1630,3],[-616,1124],[-1509,1373],[-1429,-564],[-1558,2028],[-1661,732],[-1114,1182],[-1944,1276],[-2331,956],[-1779,118],[-1490,1049],[-444,772],[627,1258],[-1625,3461],[-181,2607],[356,911],[-11,2347],[-524,2359],[675,2823],[-1230,1639],[549,852],[-347,2654],[-1343,1262],[708,2459],[-1115,2888],[-741,1198],[500,2683],[-805,900],[-1722,1061],[377,2161],[1779,436],[1435,2803],[-180,2357],[-1144,1051],[-268,1756],[-1994,417],[-216,515],[-2594,275],[387,1176],[-967,1798],[-171,1944],[700,803],[-458,1351],[-888,286],[-4738,-988],[-1764,1907],[-1525,743],[-711,2617],[-942,-677],[-2280,1112],[-585,884],[322,1716],[573,848],[-88,1067],[-3119,727],[-658,603],[-1260,3548],[-1341,1515],[-885,506],[-381,-300],[940,-1767],[185,-2235],[-471,-2057],[-1886,-816],[-4035,-997],[-1953,-1319],[-1865,-862],[-1488,-317],[-521,-1168],[-891,-690],[-1083,-43],[-1,-1107],[-1982,-745],[-1769,293],[-1599,1660],[-1804,1007],[-793,-549],[-1701,1275],[-1092,226],[-943,-809],[-1018,1093],[-1924,87],[154,-1285],[-1376,-354],[-1170,521],[-395,1427],[-1144,961],[-366,-730],[-1793,2353],[-1169,3101],[-1765,2045],[-1984,858],[-1777,1208],[-658,1401],[-567,2391],[-1716,2046],[-1754,4697],[-1706,1902],[-2645,1342],[-3320,1044],[-769,1344],[184,718],[-837,594],[-2854,1113],[-1981,460],[-2314,1128],[-2186,1698],[-2407,1163],[-4382,2494],[-662,733],[-306,881],[152,2904],[-844,2871],[-189,1853],[-4255,6664],[-1302,1091],[-1141,1753],[-852,2363],[-1171,1718],[-255,1706],[185,1486],[-114,3026],[-2026,2569],[-3196,2290],[-2679,1123],[-1349,-816],[-490,956],[106,4290],[-1951,2663],[-1186,1004],[-823,-660],[-1541,4070],[-645,3044],[-115,2020],[-1920,1540],[-2533,260],[-117,2092],[497,3609],[488,1959],[-534,688],[-1611,893],[-1191,226],[-889,-1831],[-913,-9],[-491,847],[-478,2578],[-1580,1721],[-1363,919],[-728,1867],[132,818],[1357,2666],[1098,198],[920,1626],[972,-71],[1481,638],[1001,1061],[78,1197],[-541,1217],[214,3189],[1266,2191],[427,2564],[626,855],[656,298],[4057,665],[282,429],[-1303,355],[-1270,-527],[-441,416],[944,385],[960,1411],[2346,1780],[789,1243],[1384,1331],[-576,1014],[-76,2160],[-844,1873],[-1063,982],[-870,2430],[-175,1693],[-629,915],[-1061,449],[-781,3036],[-2873,1092],[-2550,581],[-1130,967],[-2549,-37],[-2423,-613],[-4925,1497],[-579,354],[1306,1077],[2596,-109],[3204,845],[3309,1076],[1929,-117],[1938,268],[1358,668],[2410,274],[2613,-194],[1737,460],[1634,826],[973,893],[743,1084],[147,1672],[-1040,1543],[-4301,817],[-1278,858],[-2129,611],[-1407,-344],[-1493,-1280],[848,1413],[1819,1257],[3881,-487],[4316,-144],[1564,165],[4487,1908],[1812,1244],[955,941],[41,3202],[806,1610],[-799,1115],[-723,169],[-1024,2757],[21,996],[-2157,2656],[-1295,706],[-3257,814],[-1345,1329],[-227,1339],[-709,1065],[-1554,683],[-574,1047],[104,1654],[-442,1037],[-2342,949],[-1236,888],[-402,1765],[117,1173],[-771,843],[-1010,-710],[-3059,986],[-633,678],[-2077,3885],[-1421,-66],[-4879,839],[-2273,750],[-1546,-622],[-2114,572],[-2657,1730],[-1301,1588],[1338,2112],[218,1133],[-1051,1043],[-1560,708],[-1683,308],[-3036,77],[-4672,-1650],[-2775,-234],[-818,567],[-253,2935],[-2945,4351],[70,176],[2038,-125],[3240,-770],[961,43],[563,599],[663,2129],[514,2540],[878,1531],[2156,2319],[2816,1620],[2718,1196],[5098,848],[3312,-40],[1407,-184],[7141,-288],[912,339],[3526,2491]],[[551553,697698],[77,170],[49,10761],[12833,102],[112,5572],[2496,2392],[123,3098],[20334,-92],[1008,389],[694,-387],[2696,-5],[-2140,-361],[-699,-1336],[470,-2974],[358,-862],[-147,-2656],[-813,-581],[-113,-1178],[-962,-1906],[-277,-1741],[731,-1003],[-812,-1214],[-439,-1935],[129,-651],[-683,-3325],[342,-668],[-228,-1654],[-1170,-580],[-715,-1037],[-1608,228],[-1382,-1214],[-16,-1477],[-520,-2252],[211,-1953],[-309,-1671],[-1072,-792],[-163,-1266],[-893,-580],[-1267,-2323],[-747,70],[-1137,-1283],[-650,-2129],[-16,-1267],[-698,-1390],[-1705,-1355],[-260,-809],[991,-1108],[-520,-1513],[385,-2211],[1435,-2092],[-60,-7928],[2683,16],[13258,98],[1434,809],[559,1362],[105,26249],[21110,-153],[168,1082],[-11,32366],[-10341,74],[-59,16765],[-5138,22],[-268,24906],[177,537],[1905,2416],[420,1788],[1158,1176],[1620,-191],[2993,-1807],[527,-1186],[1265,180],[2671,-537],[1453,-868],[1396,-1308],[5349,-67],[1785,628],[162,479],[2497,1657],[8345,-68],[154,3249],[-14,16901],[-185,2144],[1590,469],[2408,2309],[2152,755],[1152,884],[1731,1820],[586,1186],[1355,880],[1050,-260],[719,-863],[2959,74],[1285,-243],[1596,2358],[-88,1623],[962,1914],[1978,1171],[1323,458],[1329,2072],[2499,-2494],[-512,-391],[600,-978],[2566,1925],[257,2576],[-326,872],[492,650],[-626,1537],[-1065,779],[-897,1851],[-517,2984],[-539,2046],[-1609,3469],[-1439,3521],[-2431,3666],[-1237,613],[-1926,94],[-1142,826],[769,2487],[2017,719],[1465,176],[3959,-1248],[1045,271],[574,656],[267,2246],[-608,3683],[68,2289],[1263,1779],[622,2554],[-338,2043],[74,2258],[622,2492],[977,1807],[1951,2715],[747,1935],[360,2973],[-529,1570],[-3014,2006],[-613,1210],[995,1850],[300,2644],[567,1561],[1498,2637],[-418,2178],[-1142,3593],[-10,1208],[599,1859],[1324,2354]],[[663610,883098],[1297,3542],[-837,1922],[-3434,4030],[-1015,2074],[396,1455],[1605,1546],[805,1273],[-234,1982],[-607,1140],[175,2091],[1469,2558],[1619,2149],[1068,6798],[2538,3343],[423,1752],[-1299,2419],[-389,1386],[250,591],[3009,3061],[554,1976],[-1052,2876],[6594,-25],[-154,66894],[41428,55],[18688,13],[25,-2675],[-28,-8424],[2248,-4],[24,-5496],[5158,-100],[1,-5509],[2624,-22],[17,-5501],[10305,-44],[19,-6325],[-610,-645],[-483,-2638],[162,-1569],[1032,-2325],[1495,-1326],[5303,1647],[2648,-108],[1520,892],[1222,-243],[290,-819],[1497,63],[606,1395],[1278,735],[2015,373],[494,1958],[1448,1074],[1059,-149],[789,-45],[2425,-1498],[1574,-501],[151,-3298],[1326,-2576],[-618,-2507],[530,-556],[-442,-1026],[74,-2953],[702,-1083],[-176,-1447],[600,-832],[195,-2247],[1075,-2058],[-115,-1131],[-1402,-2520],[276,-1017],[-379,-955],[188,-1722],[660,-1123],[-621,-3978],[272,-737],[-504,-1310],[771,-1429],[103,-2672],[302,-524],[445,-3831],[-211,-1233],[-1527,-517],[205,-2951],[-88,-3418],[-3545,-2838],[-1208,-2271],[-1008,-297],[-360,-2223],[-965,-1000],[-1272,-2380],[-404,-1377],[436,-842],[193,-2071],[-411,-956],[-817,124],[-1064,-928],[-563,-1703],[-2188,-4397],[-2803,-2544],[148,-1196],[-2690,-3495],[-77,-1408],[-892,-1490],[455,-3260],[816,-1391],[-181,-2847],[364,-1684],[-389,-1542],[782,-2195],[56,-2160],[1095,180],[1679,-619],[571,179],[2539,-546],[360,-574],[4084,3571],[1333,-144],[1427,-1300],[223,-952],[1526,-934],[2177,-2638],[1649,-972],[304,-643],[6003,-198],[1658,844],[589,741],[-209,1912],[1799,3915],[1133,1029],[2076,913],[-700,1558],[2229,2939],[334,2009],[2013,3798],[-15,6612],[18034,56],[18268,34],[288,-1461],[-315,-850],[1021,-1308],[1046,-3912],[487,-910],[-9,-1902],[2933,-3437],[698,-1907],[1048,-1914],[-45,-1692],[357,-1387],[614,-140],[1664,-2649],[876,-2113],[820,-279],[14,-1134],[816,-1070],[1307,-296],[672,-2044],[1420,-2179],[370,-2450],[-462,-1032],[222,-1462],[-179,-2018],[1022,-241],[1719,-1662],[-78,-1906],[1935,25],[2153,-1067],[2174,31],[1792,504],[1578,1489],[1824,-1917],[2086,-1252],[970,-1527],[83,-1246],[709,-576],[471,-1574],[229,-450],[2342,-1891],[1303,-802],[888,-3797],[696,-1428],[344,-1491],[642,-973],[364,-1386],[1038,-425],[1189,395],[1830,-855],[2018,139],[1876,1204],[1086,-2004],[-314,-2093],[283,-986],[1258,-167],[161,-2086],[1740,-2602],[1218,-3665],[546,-211],[1887,-4628],[1603,-713],[2158,-1803],[525,-1030],[567,-2362],[1742,-15],[227,-34663],[139,-18115],[-20633,203],[34,-40778],[-126,-91647],[-23489,-399],[-2820,911],[-1589,513]],[[854111,612353],[-5801,1875],[-6814,-238],[-6595,-8]],[[834901,613982],[-11764,-13],[-8287,-9],[-2574,-1],[-12493,-6],[-52422,-80],[-441,-1],[-40133,-213],[-34350,-4],[-1563,0],[-16820,-88]],[[654054,613567],[-25902,-135],[-30895,-161],[-20787,-75],[-11857,-44],[-34709,-239],[-15737,-152]],[[514167,612761],[-7,2141],[3426,8180],[-574,8877],[-706,5711],[609,5209],[2125,913],[-1364,1810],[-983,2209],[940,1419],[4332,-1499],[631,34],[3609,2881],[437,158],[10799,2203],[12388,4616],[4339,44],[206,6552],[7435,-56],[96,5564],[30,9911],[212,17972],[-10594,88]],[[877374,334876],[1411,-1775],[623,-432],[7182,-286],[3728,-6603],[4123,-8816],[799,-1732],[682,-1707],[985,-3583],[169,46],[-39,140],[3488,1849],[2045,1575],[-1987,4959],[-4612,13624],[6931,-135],[-374,1605],[16,2689],[-312,286],[504,5567],[-176,14667],[-664,2132]],[[901896,358946],[-676,2460],[-542,4068],[-3451,15526],[-285,2046],[-4,27],[-553,3776],[-197,5898],[-99,1452],[-759,9346],[-63,6040],[540,5333]],[[895807,414918],[23869,30]],[[919676,414948],[-2114,-3036],[-929,-2798],[628,-1591],[-68,-1474],[-650,-514],[-456,-2185],[204,-2079],[-441,-4672],[175,-1739],[1048,-3298],[195,-1227],[-1269,-1389],[-2510,-1789],[-914,-1831],[274,-908],[-379,-1982],[1417,-2780],[-57,-1477],[952,-1231],[-99,-753],[632,-2873],[747,-1126],[3181,-1750],[1287,-1369],[3026,-736],[541,-2374],[696,-1386],[632,-2540],[-127,-1253],[1281,-2561],[2486,-3189],[925,-760],[297,-801],[1220,-3261],[280,-2410],[1377,-5441],[-688,-2366],[135,-829],[-916,-1619],[903,-2265],[415,-1071],[-119,-1297],[1477,-1386],[1232,-436],[1134,-1174],[714,-1743],[-1291,-1635],[-332,-3059],[796,-2574],[138,-3160],[-110,-1319],[1309,-1412],[-6,-2294],[-424,-2729],[-1617,-3763],[-94,-1018],[715,-1529],[12,-4060],[-189,-470],[727,-912],[1473,-4484],[444,-3029],[690,-1010],[511,-2808],[252,-3089],[1864,-2509],[703,-1979],[-381,-2049],[166,-728],[-978,-1142],[-129,-2660],[1386,-1017],[651,-951],[779,-3281],[-189,-870],[1158,-1380],[534,-2796],[704,-1221],[482,-1806],[873,-1377],[346,-1954],[1091,-1399],[2132,809],[503,3449],[749,1741],[1544,1282],[1996,458]],[[956439,262445],[167,-3656],[-174,-8540],[-145,-2757],[-1,-11150],[-32,-9633],[-25,-7051]],[[956229,219658],[-17901,-123],[-379,-267],[-204,-347],[-125,-156],[-342,-500],[-154,-207],[-280,-294],[-786,-1040],[382,4],[-6674,-14198],[-1254,-18],[-1067,-1372],[-678,-542],[-621,-815],[-428,-826],[-589,-899],[-2292,-2319],[-134,-646],[384,-1273]],[[923087,193820],[246,-915],[-105,-2807],[315,-1302],[-347,-3777],[427,-3198],[-3041,52],[-4148,35],[-43,3634],[13,330],[-728,756],[-3200,-293],[-2054,-320],[-424,480]],[[909998,186495],[805,14376],[411,7384],[-2017,1916],[-2618,116],[-506,-304],[-63,6313],[2530,204],[-674,1364],[1594,479],[794,1683],[930,-171],[-492,1804],[954,388],[248,-1949],[-66,-2641],[4457,380],[620,51],[1791,4272],[18,44],[3548,8377],[-5959,-58],[-2994,156],[-643,-363],[-3014,-114],[-1507,5879],[-713,2777],[3658,11],[-22,2804],[5189,40],[-10,1567],[-432,2457],[-77,87],[-914,1480],[-3788,-15],[-6781,-84],[-380,-1029],[-965,-356],[-1190,-1253],[891,-1959],[-493,-2311],[819,-588],[-1000,-2517],[-750,714],[-516,-651],[-1398,-83],[-124,-1160],[5514,31],[-186,-11181],[-5493,-38],[-407,-569],[-290,-1513],[-450,-422],[515,-774],[-354,-1478],[-563,790],[209,1267],[-837,-69],[354,1249],[837,335],[56,1177],[-2287,-16],[-153,5576],[-13256,-82],[-23,3898],[891,363],[306,1307],[538,2803],[-1098,3871],[-252,237],[-1592,-800],[-1450,1055]],[[873644,298006],[161,9220],[4520,156],[905,1381],[274,1574],[-813,2113],[-2448,448],[-34,3966],[1160,-192],[2083,-1404],[1069,485],[36,4186],[133,3685],[-566,397],[-2973,-1033],[18,1929],[503,334],[2157,-134],[867,339],[735,1426],[-900,1781],[-1675,1042],[-1359,317],[-4830,2546],[-355,975],[338,1449],[1100,849],[2295,-941],[1329,-24]],[[855407,449713],[-352,3430],[5769,112],[590,2212],[1923,3387],[77,-5544],[-653,-17],[100,-5570],[-1976,-68],[-6037,-134],[559,2192]],[[956439,262445],[2180,-721],[1411,288],[1185,2363],[3196,2899],[4012,1990],[2136,-65],[2520,-1377],[569,-2102],[1164,-1320],[-447,-1876],[805,-2156],[1334,-700],[1317,-2012],[857,-743],[734,602],[785,-105],[1910,1096],[1951,-376],[-137,-826],[878,-1774],[147,-1674],[673,-1066],[-300,-1462],[376,-2186],[-77,-1850],[1006,-1426],[-115,-3147],[1220,-518],[1276,-1803],[722,-406],[-962,-1203],[2,-1511],[-697,-1701],[-89,-1643],[822,-2045],[864,-1199],[-517,-1305],[371,-2001],[549,-1332],[493,370],[1902,29],[1117,-638],[1421,309],[1888,-805],[-1554,-1286],[1716,-580],[166,-1577],[-2918,-381],[-553,-1225],[-1753,-2046],[2601,-910],[790,259],[1784,-2339],[1425,-2752],[246,-2030],[1158,-1813],[-11,-860],[-1123,-158],[-1428,-1945],[-2634,-643],[-944,648],[-4434,1310],[-963,-911],[-2631,-886],[372,-1505],[-1283,-515],[-1004,-2035],[383,-1630],[-270,-1510],[2038,-801],[1907,-1708],[-1047,-908],[-206,-3353],[1279,-1907],[1260,-4593],[-1982,2049],[-686,145],[-1432,-886],[-2055,399],[211,929],[-896,2460],[-795,-349],[-1889,1308],[-1360,338],[-355,772],[-1191,-416],[-1671,597],[-972,1499],[-360,2580],[-783,1168],[85,1761],[-436,1203],[-1602,127],[-1118,1795],[-810,-1322],[1132,318],[-482,-2627],[840,180],[616,-929],[-593,-67],[-605,-2263],[362,-2860],[-445,-1717],[-1055,-2015],[792,-753],[1069,-109],[42,-1390],[-1348,-77],[-888,-2422],[278,-2754],[913,-1056],[576,-1608],[-1985,-2268],[-1099,-493],[-478,-2125],[-2496,195],[-477,2008],[-1861,1560],[-395,-112],[-242,-2125],[-1410,-2582],[-1208,-143],[-2263,2418],[-52,1327],[120,3640],[-199,22569],[-93,17054]],[[908736,485053],[277,-296],[-491,-726],[-463,-3689],[-2502,-3354],[-809,-676],[-3393,122],[-2740,-482],[-814,-521],[-638,-1332],[119,-1720],[675,-794],[1784,-904],[415,-2390],[1001,-3403],[-76,-686],[-490,-599],[-2539,-1259],[-1545,-390],[-2758,-1598],[-2412,-757],[-1142,-1662],[-608,-2332],[-581,-969],[-24,-1067],[-533,-1021],[-845,-637],[-994,223],[-1255,-1044],[-1182,-419],[-395,-1051],[-929,900],[-1043,-172]],[[881806,450348],[-519,984],[-1005,-572],[-924,930],[674,1547],[1715,1590],[432,1138],[1449,-738],[581,-1526],[763,769],[412,1602],[-267,1698],[250,1188],[-3006,436],[-1094,-217],[-496,-1537],[-2018,-3243],[-118,-703],[-174,-68],[-4850,-88],[-269,15806],[-569,948],[-5836,-128],[788,2300],[672,-71],[-691,992],[611,2301],[-846,866],[32,1305],[-1347,77],[-610,1010],[-1184,174],[-41,2064],[-478,752],[711,30],[315,1806],[-1468,326],[-473,529],[-108,1769],[657,1140],[-547,1453],[-849,-292],[-147,1977],[528,3074],[49,1347],[10365,305],[19,-997],[4965,-1097],[1373,-1806],[1461,-1084],[1993,-748],[635,-2341],[10364,155],[208,-16883],[2241,4],[57,-3013],[1639,978],[137,1395],[-1210,1536],[-619,2829],[406,1383],[1675,2486],[809,57],[983,1237],[1429,398],[1974,-293],[1335,-785],[1173,1189],[1016,1812],[291,1270],[1183,2353],[323,-380]],[[714511,399684],[1211,151],[16238,408],[-1251,11110],[-1025,59366],[4933,963],[1308,21],[12640,-523],[1642,-250],[5671,-1596],[2040,-1044],[4832,-3280],[1946,-1046],[3441,-651],[2121,-593],[16370,-7107],[712,-394],[2246,-1776],[3465,-4120],[2105,-3151],[803,-1556],[1367,-3595],[5389,-18863],[1609,-7473],[1237,-3119],[2994,-4865],[833,-1143],[2632,-2569],[1074,-970],[-21,277],[-41,10213],[6193,449],[3970,191],[5120,-147],[164,-5479],[5077,120],[156,-5737],[903,30],[1581,2184],[584,-2009],[1109,653],[2130,1570],[243,968],[361,3451],[3220,81],[-8,-1013],[7249,288],[-279,-5614],[338,24],[744,16],[45,-2383],[1866,53],[352,-451],[-31,1422],[-23,1447],[2508,68],[912,27],[1292,38],[442,18],[961,29],[1746,49],[96,2],[100,3],[78,2],[1486,42],[608,-9],[-12,398],[337,-390],[5701,174],[237,-42],[-22,1374]],[[870566,404406],[3298,1285],[7662,1399],[523,-329],[596,-1133],[133,-2028],[-439,-870],[-1321,-786],[-1062,-1781],[2024,-3190],[-318,-1048],[477,-546],[1567,193],[-1323,-1448],[-1621,101],[-1386,859],[-1270,-1568],[-79,-993],[36,-282],[389,-2071],[1381,-1177],[-1669,-1809],[-2825,-173],[-122,-539],[674,-1353],[1706,-611],[1311,217],[1592,-623],[1555,383],[2300,-862],[568,-354],[333,-1289],[-1587,-2471],[-1813,-1465],[-2914,-1150],[-290,-1539],[763,-1578],[983,-323],[2363,1071],[1614,-285],[712,-1401],[-269,-1068],[-1478,-769],[185,-1183],[2571,737],[2245,-1116]],[[888341,369440],[486,-753],[-135,-585],[-854,-1042],[-3186,-2145],[-1046,481],[236,2707],[-466,791],[-840,443],[-2005,-730],[-984,-1205],[473,-2718],[-282,-714],[-1930,-1285],[-3018,289],[-1020,-1260],[-572,-852],[923,-993],[1863,-729],[1176,265],[1675,964],[1580,2951],[1006,435],[1435,57],[762,-440],[512,-1547],[3,-1046],[-588,-1394],[-418,-607],[-1218,-1595],[-3673,-1788],[-1041,-1105],[-138,-728],[-36,-366],[199,-978],[3295,-1350],[833,-545],[1071,-2309],[-188,-1281],[-2733,-1769],[-1107,-603],[-1302,1],[-2155,-1547],[-473,-1676],[1144,-3328],[1445,-1251],[1874,-31],[2568,1192],[1115,-2028],[-123,-702],[-1031,-648],[-4079,533]],[[877374,334876],[-1006,1045],[-3829,520],[-574,-1953],[-142,-821],[1014,-6971],[1,-1914],[-4322,-140],[52,-11821],[-7202,-323]],[[908736,485053],[435,501],[312,149],[1506,1734],[3828,8090],[327,-174],[502,-2778],[-157,-1014],[1342,-3129],[143,-308],[2418,-5528],[374,-1769],[1461,-811],[263,-2386],[848,-156],[2567,-3070],[-1365,-3254],[760,-1999],[-521,-2196],[405,-1190],[1217,-1202],[1876,-357],[574,-683],[967,107],[1465,-889],[1995,-2219],[1150,-2427],[1032,-1248],[881,-1745],[-496,-1461],[17,-1905],[-469,-1949],[-668,-1172],[-19,-940],[-707,-1986],[-803,-1337],[-1489,130],[-1355,-600],[-1039,-963],[-2359,-1835],[26,-2861],[-813,-707],[-2810,-3807],[236,-4549],[709,-1062],[-492,-2263],[94,-441],[-720,-4270],[-359,-803],[-554,-604],[-1595,-4769]],[[895807,414918],[-1170,31],[-6851,-302],[-4316,12],[-114,1762],[1494,6755],[-2154,-102],[-673,2636],[-6937,-197],[13,-514]],[[875099,424999],[-325,946],[880,2011],[1249,675],[-916,2325],[718,903],[1271,236],[1952,1855],[367,764],[2201,423],[777,1105],[-762,2144],[-2031,-739],[-1385,4799],[-3479,-109],[1143,1896],[117,2822],[-109,1025],[1074,-83],[2639,-832],[-476,1668],[1354,473],[448,1042]],[[24,604834],[6354,119],[46447,1024],[14632,278],[-632,-2475],[-2408,-1708],[-2919,-2669],[-548,-3028],[330,-2566],[-1014,-6064],[1415,15],[-375,-1167],[-1000,-1153],[758,-882],[-124,-1257],[899,-333],[-41,-3222],[-1469,-2236],[-613,-4034],[89,-2640],[334,-1831],[937,-2213],[553,-3417],[-530,-2098],[1611,-4145],[791,-614],[2551,-929],[1521,-1442],[2834,-1955],[1299,-494],[4249,-118],[1807,726],[3509,3870],[396,1031],[3230,3398],[4531,2709],[337,420],[268,-1070],[1445,-1272],[1219,-417],[-3,-956],[1005,-600],[114,-3165],[546,-594],[566,-2079],[440,-4599],[7825,-242],[134,2830],[2676,3080],[28,1477],[985,1064],[5089,-2587],[323,-3049],[-101,-1118],[1352,-2585],[447,-2316],[61,-4130],[2014,-2999],[-178,-1770],[800,-2253],[2107,-2640],[1344,-4072],[689,-1189],[23252,1],[0,1190],[10293,171],[174131,2032],[-68,-2090],[182,-6839],[-550,-1636],[788,-643],[3014,1866],[2544,329],[2215,-674],[2319,-1651],[13,-21618],[124,-348],[-2706,-5136],[-1495,-2189],[-1952,-1932],[1207,-1062],[1146,-1482],[3729,-4115],[707,900],[4496,3484],[2498,1345],[2575,-207],[3999,-978],[5009,-1837],[2034,2534],[13,1780],[-465,4155],[12,1501],[-395,2579],[4,6428],[6397,-464],[-1049,-4079],[-166,-1761],[586,-1038],[1435,-956],[1499,-1647],[2594,-3211],[602,-400],[363,-1411],[1174,-1296],[1554,-2484],[24,-1077],[683,-3183],[898,-1462],[-56,-1684],[581,-3103],[1399,-1127],[1617,70],[2392,-2294],[3211,-5118],[1974,-1487],[1688,-2325],[1594,-1587],[-7522,-7476],[-920,531],[279,-963],[-2434,-2835],[-1025,-286],[-416,20],[-5185,2483],[-2911,212],[-1307,-454],[-2942,470],[-2176,-702],[-1570,-2927],[-1464,-1971],[-37,-6219],[-10034,-4829],[-848,-1117],[-1250,6229],[-1132,4556],[-531,143],[-1756,-933],[375,-758],[-84,-2015],[-573,-407],[-6562,-360],[-2321,-3184],[-1102,-2070],[-2369,-3012],[-673,-1801],[-1960,1113],[-3520,-647],[-2886,267],[-1922,-1074],[-370,-932],[-6577,-4718],[-2238,333],[-1095,665],[-236,-2223],[464,-1920],[-1391,-2040],[-1369,-4416],[286,-1204],[-387,-1723],[-1947,-5824],[117,-1434],[-1648,-3080],[-119,-1255],[-4998,-1805],[-4803,-1932],[-5165,-931],[-3771,-374],[-952,-2752],[-16,-3995],[-638,-2560],[-1037,-1539],[429,-435],[-445,-3543],[-689,-1616],[-50,-3133],[-2320,472],[-598,-512],[-148,-1595],[-1029,-1179],[-619,-1428],[-1908,-1502],[-1223,-1389],[-707,-366],[-1166,-1378],[-969,-2556],[-641,-953],[-824,-2698],[-1250,-2547],[-1623,-2568],[839,-641],[-161,-1100],[399,-1360],[-9619,-3366],[-734,5562],[-1009,2320],[-771,3102],[44,5755],[-139,1222],[-823,2768],[1069,3241],[-149,5583],[-3066,3555],[-2467,3385],[-3757,4271],[-240,420],[-110,530],[-1415,15393],[-1513,-108],[-7132,224],[-9355,-312],[428,-4563],[-484,-5562],[-811,403],[-4192,127],[-3008,2315],[-6063,-426],[-859,615],[-1809,2131],[-4213,1764],[-1788,-639],[-2341,-189],[-2680,1336],[-1069,188],[-3951,-1425],[-3060,544],[-1089,-519],[-1671,-130],[-4779,-1176],[-1437,-119],[-3894,-1266],[-1946,-1195],[-2885,-147],[-1364,965],[-771,94],[-3273,-1959],[-4424,-1481],[-1274,-810],[219,-1694],[-5214,-1390],[-1357,418],[-4048,836],[-1071,-520],[-1225,-1177],[-373,-931],[-2106,-2131],[-2613,-6092],[-479,-698],[-2946,-2515],[-1926,-1061],[-2082,-1961],[-2240,-3220],[-1942,-2324],[-3935,-5470],[3015,-1794],[739,-676],[-4416,-24866],[-258,-2405],[-279,-6575],[-964,-4666],[-1100,-6419],[21141,9152],[1890,-250],[57,-3087],[-1817,-3888],[-87,-1126],[702,-1464],[-518,-2997],[726,-2804],[948,-767],[363,-913],[-40,-2318],[-2933,-2591],[-949,-591],[-1508,-3982],[-121,-1632],[-643,-1586],[1941,-1061],[955,-140],[2438,-1945],[1554,-1600],[749,-3028],[954,869],[1436,526],[1358,-983],[935,-1328],[352,-2214],[1087,-2313],[-2055,-1966],[-1315,1050],[-2714,1525],[-2540,981],[-3093,868],[-3467,645],[-3462,364],[-3658,185],[-5349,2822],[-744,724],[-280,430],[-1787,7626],[-68,1061],[-1351,5696],[-766,4648],[-238,3581],[-3498,1983],[-17423,-2840],[-256,17496],[-2576,-3640],[-4944,-8150],[-2591,-2530],[-1433,-1786],[-850,-3102],[-1099,-213],[-7544,1590],[-4551,1560],[-4461,846],[-1624,686],[-2254,261],[-894,389],[-1438,926],[-1769,2576],[-4963,2289],[-3327,1180],[-1863,1443],[-2472,855],[-3044,3554],[-799,-1257],[-1488,-951],[-1538,-218],[-745,241],[-1824,1375],[-1647,651],[-1984,1851],[-1007,1819],[-1252,1707],[-2724,2915],[-30,751],[-1289,2682],[-291,1209],[-1717,733],[-4711,-75],[-864,-383],[-1160,278],[-429,-776],[-2106,299],[110,90084],[1631,576],[1348,-261],[525,-679],[234,-1904],[467,52],[-556,1608],[311,767],[1332,-132],[-1058,1547],[460,1227],[2390,2119],[1105,87],[-242,1529],[642,1553],[787,755],[-868,493],[1191,1298],[2220,-221],[1754,1875],[-237,1821],[-508,841],[-17,2798],[-1412,796],[88,1583],[-278,2332],[24,2973],[-347,956],[516,344],[159,1321],[48313,325],[59,16624],[-12555,13],[-2085,1277],[-4162,3196],[-2304,2623],[-1679,1046],[-968,264],[-889,-1471],[5,-1302],[-2160,-1527],[-1195,1303],[-2700,-57],[-1970,494],[-1098,766],[-1980,681],[-513,883],[-1288,345],[-4637,3187],[-1275,136],[-3439,1469],[-1458,1037],[-1133,1346],[-1049,754],[-828,1308],[-3268,2908],[-2616,348],[-852,528],[-1940,-518],[-2247,2689],[-1491,1319],[-795,1649],[-621,4959],[-481,880],[8,1676],[-524,1458],[160,3123],[1143,1961],[356,2287],[64,1954],[528,2703],[-718,1862],[-816,4072],[66,1703],[2166,4124],[-201,1472],[699,6154],[-332,4277],[89,1520],[-3051,327],[-307,1749],[314,884],[699,5011],[678,2766],[2825,6108],[336,3364],[-267,756],[-40,4394],[-1203,1209],[-2773,-93],[-1332,206],[-2026,1003],[-2183,1737],[-2082,684],[-3968,163],[-89,3411],[-5057,95],[24,22086]],[[551553,697698],[-4088,43],[-3122,3206],[-707,290],[-1148,1888],[-1830,4403],[-224,5014],[-495,1127],[-672,3588],[820,1762],[-170,3094],[-717,2134],[195,2206],[1011,2407],[-6,2543],[-499,1012],[-2337,1285],[-1386,3438],[-153,4395],[-979,1358],[-2341,819],[-1015,1472],[1137,2816],[1607,2253],[2193,2138],[2363,1770],[1109,1964],[2169,1488],[288,2837],[-434,2486],[512,2187],[1392,1247],[934,1960],[-81,1572],[1269,2364],[1360,1938],[-2672,457],[-1267,1140],[-1990,2995],[-37,1084],[-4345,1868],[-1179,1362],[-3517,1465],[-1641,236],[-2889,2183],[-1773,1709],[-1999,1557],[-1389,3841],[-983,4033],[-477,1224],[-129,2165],[-805,830],[-575,3672],[652,2442],[-353,1159],[-11716,-34],[-4,9653],[-878,1511],[-6817,32],[-50,18094],[1007,1245],[-1089,2056],[-657,3119],[673,1073],[339,2005],[1107,1334],[62,879],[1443,2127],[24,1525],[1153,1440],[106,1557],[-1734,5391],[-1104,1304],[-147,1389],[29972,72],[2,612],[35332,33],[26763,-19],[-5,22277],[2205,310],[2223,-1838],[1340,-257],[1849,1377],[2746,533],[15545,1],[61,-13662],[942,1761],[1413,703],[10458,43],[633,117],[1468,1049],[589,1650],[5209,-37],[148,2819],[7187,-6],[2031,1552],[954,-311],[3038,-322],[1146,589],[3084,-121],[4196,-1239],[1223,88]],[[901896,358946],[-10517,-86],[-909,10895],[-1029,328],[-549,-365],[-551,-278]],[[870566,404406],[-886,1221],[1130,2505],[1240,1062],[1496,3638],[-289,564],[-2215,1309],[-61,790],[2063,1032],[1510,1466],[1794,1004],[36,672],[-1328,1916],[407,2128],[-364,1286]],[[810600,526282],[3844,1297],[8762,1758],[1511,1357],[6255,29],[-54,5596],[18071,384],[606,474],[-832,26624],[-423,3269],[-556,2919],[-2342,9186],[-592,3702],[-342,3902],[-535,1640],[-820,1438],[-1631,2196],[-1373,2195],[-1344,2825],[-981,2959],[-540,2558],[-435,3709],[-588,2949],[-1360,4734]],[[854111,612353],[-2024,-2230],[1496,-2125],[1766,-556],[1040,-979],[2134,-4929],[-164,-1166],[176,-2662],[814,-1716],[4,-1679],[491,-922],[263,-2715],[1500,-1779],[1826,-1009],[938,-2848],[2151,568],[636,-379],[49,-800],[1717,-2915],[84,-1111],[949,-2688],[1115,-2113],[817,-915],[-288,-931],[682,-2094],[502,-294],[1323,-3727],[-71,-2032],[320,-1657],[-165,-1279],[953,-2829],[262,-2029],[1124,-1650],[2609,-5046],[1915,-1878],[1406,-655],[851,-2600],[967,-1484],[2387,-746],[2664,-1961],[1320,-259],[685,-770],[2277,-1087],[1543,-1921],[-33338,-742],[18384,-20478],[22,-1306],[1140,136],[1495,-1815],[286,-15074],[-10318,-211],[-311,16688],[-752,106],[-3767,-64],[30,-1473],[-6155,-139],[355,-4186],[-5031,-114],[-118,5630],[2586,51],[-56,3444],[-1187,1962],[-3395,5602],[-3266,-40],[282,-14825],[148,-809],[-537,-1353],[-668,-102],[-690,727],[-287,-5325],[-405,-3047],[-674,-3386],[-1449,-5570],[-8420,-196],[-421,4812],[-1154,-703],[-863,16],[-2450,-592],[-1437,190],[-2164,-406],[-2823,-1829],[-1961,-440],[-470,-485],[-2039,-901],[-11866,281],[-97,21484],[-676,11516],[-38,1492]],[[923087,193820],[1941,1303],[1289,36],[696,-183],[1995,-827],[-16,-2771],[-2540,8],[11,-9528],[0,-1653],[-32,-29704],[-5,-3913],[-862,11],[116,-4426],[156,-7620],[1266,-838],[1559,-1386],[214,-1757],[723,-978],[-485,-2975],[153,-4501],[-468,-2455],[-2760,-3735],[-218,-1660],[1159,-3015],[-436,-1728],[-69,-1881],[642,-1111],[-936,-2210],[-892,-1177],[-346,-326],[-712,-84],[-2350,16],[-195,2],[-1561,8],[-3931,23],[-2241,13],[-7882,47],[-5024,25],[-10184,55],[-2935,19],[250,1288],[-434,3062],[3525,41],[1078,424],[545,617],[10937,17158],[8584,6769],[-6980,-21],[-726,34966],[-321,-54],[-586,-343],[-30430,-28085],[-3335,-3293],[-411,-1715],[-46586,6],[-12238,-1881],[-5170,-1882],[-16894,-11856],[-5344,-1882],[-3964,-189],[-4826,2260],[-3623,5834],[-8246,16965],[9666,4868],[1215,1181],[4694,2796],[1546,2326],[1206,1145],[1049,2051],[1372,1238],[2764,-538],[693,690],[1644,-457],[852,983],[706,1920],[31,1984],[486,1985],[1778,2334],[2454,1780],[365,-342],[673,4098],[19063,-6929],[23226,-799],[17041,5714],[721,53],[38128,83],[8233,14721],[1816,4300],[512,77],[-15,2366],[1510,-9],[5,-1798],[3119,-11],[-281,-4176],[807,-1643],[187,3371]],[[810600,526282],[-882,-512],[-3359,-1283],[-1158,-157],[-2150,-1264],[-2127,-366],[-2111,284],[-2437,-363],[-2334,-1435],[-1332,58],[-1489,-450],[-1029,-996],[-1953,-795],[-1397,584],[-1327,-22],[-3916,-1574],[-512,-545],[-2550,-760],[-2559,100],[-819,-315],[-2297,-2092],[-2777,-1643],[-1287,-1913],[-1231,-2518],[-2458,-76],[-109,2807],[-5008,-178],[-146,2654],[-9569,-545],[-745,-573],[-271,22929],[-25,6318],[-1627,383],[-1057,-267],[-2111,-1509],[-970,-308],[-1108,518],[-3649,280],[-847,688],[-407,-863],[-893,-490],[41,-941],[-2414,-743],[-666,89],[-1025,1503],[-722,3274],[-1288,2083],[-1429,588],[-3677,-301],[-1182,-392],[-1138,583],[-2345,145],[-12941,-311],[335,-22627]],[[651842,534005],[-66,478],[967,1640],[35,3986],[-1103,6674],[672,2106],[168,2954],[-457,3719],[-48,5779],[73,2731],[-682,2259],[376,1857],[883,5859],[254,2421],[590,1965],[512,4638],[1542,2811],[-331,13274],[25,2016],[5166,3],[-21,1804],[-1917,1206],[-2159,1864],[-340,552],[86,1615],[-1809,4041],[-204,1310]],[[525270,400009],[1022,1294],[1617,1389],[1306,777],[1960,345],[1754,-101],[1461,986],[5867,2520],[4418,1525],[1315,679],[-1573,2520],[-1001,976],[-1033,1882],[-432,1407],[-1530,2117],[-719,182],[-3792,5],[-29,10796],[138,849],[-227,9035],[1501,1554],[2281,128],[545,794],[315,2020],[617,588],[884,1752],[1222,-229],[1555,349],[1287,829],[-396,25190],[-710,290],[-5,1501],[765,1714],[615,2163],[-710,2271],[-664,39450],[764,10592],[-297,440],[-15933,33],[-15023,-25245],[82,-892],[-33,-6639],[453,-12481],[-3040,136],[-6792,576],[-1656,814],[-8399,-13737],[-421,-817],[-2632,-6538],[-1992,-3366],[-5329,-139],[-711,229],[-29732,-712],[-1958,-1766],[-1970,-276],[-1593,456],[-1422,-408],[-1723,1208],[-1477,414],[-1538,69],[-2272,-914],[-1307,-28],[-1639,-1257],[-2423,-1127],[-1541,-24],[-2001,619],[-1882,126],[-330,1128],[2071,13658],[521,5806],[-13,2266],[-654,1286],[-557,2067],[-351,3071],[-750,2503],[-3009,2871],[7386,9382],[933,1046],[4072,5129],[2232,3601],[1335,2735],[3219,4159],[1543,3737],[3023,5042],[2492,3562],[726,1350],[3932,6137],[-3274,2438],[-1918,255],[87,12998],[-3767,-1842],[-4742,-2100],[-2506,-879],[-2329,-1207],[-2505,-1012],[-4412,-2782],[190,2893],[-231,2408],[-863,2023],[-331,1786],[-1200,3482],[-878,-12],[580,762],[-617,2283],[-222,2743],[-1845,294],[557,5531],[-883,3373],[665,1135],[-173,1548],[-1690,4582],[-371,2609],[-1341,655],[-1005,1492],[-985,1996],[-40336,-529],[-2062,176],[-45235,4941],[-3413,548],[-857,283],[-1113,623],[-145,1323],[152,659],[-90,15701],[33452,466],[27287,339],[21978,245],[10915,121],[14916,166],[36460,410],[25800,253],[523,5],[14666,141]]],"bbox":[-113.776772,41.20296,-111.886399,42.503055],"transform":{"scale":[0.0000018903748903748872,0.0000013000963000963061],"translate":[-113.776772,41.20296]}}
