{"type":"Topology","objects":{"foo":{"type":"GeometryCollection","geometries":[{"type":"MultiPolygon","arcs":[[[0,1]]],"properties":{"postal_code":"61433","realtor_list_price":"NA","realtor_list_price_yoy":"NA","realtor_list_price_base":"NA","realtor_active_listings":1,"realtor_active_listings_yoy":-0.25,"realtor_active_listings_base":"NA","realtor_new_listings":0,"realtor_new_listings_yoy":"NaN","realtor_new_listings_base":"NA","realtor_days_on_market":"NA","realtor_days_on_market_yoy":"NA","realtor_days_on_market_base":"NA","zhvi":"NA","zhvi_yoy":"NA","zhvi_base":"NA","zori":"NA","zori_yoy":"NA","zori_base":"NA"}},{"type":"MultiPolygon","arcs":[[[2,3,4]]],"properties":{"postal_code":"61482","realtor_list_price":"NA","realtor_list_price_yoy":"NA","realtor_list_price_base":"NA","realtor_active_listings":3.667,"realtor_active_listings_yoy":2.6667,"realtor_active_listings_base":1.2631,"realtor_new_listings":0,"realtor_new_listings_yoy":"NaN","realtor_new_listings_base":-1,"realtor_days_on_market":"NA","realtor_days_on_market_yoy":"NA","realtor_days_on_market_base":"NA","zhvi":"NA","zhvi_yoy":"NA","zhvi_base":"NA","zori":"NA","zori_yoy":"NA","zori_base":"NA"}},{"type":"MultiPolygon","arcs":[[[5]]],"properties":{"postal_code":"61524","realtor_list_price":69900,"realtor_list_price_yoy":"NA","realtor_list_price_base":"NA","realtor_active_listings":0.667,"realtor_active_listings_yoy":-0.3333,"realtor_active_listings_base":-0.5483,"realtor_new_listings":1.333,"realtor_new_listings_yoy":"Inf","realtor_new_listings_base":-0.1176,"realtor_days_on_market":10,"realtor_days_on_market_yoy":"NA","realtor_days_on_market_base":"NA","zhvi":"NA","zhvi_yoy":"NA","zhvi_base":"NA","zori":"NA","zori_yoy":"NA","zori_base":"NA"}},{"type":"MultiPolygon","arcs":[[[6]]],"properties":{"postal_code":"61563","realtor_list_price":48900,"realtor_list_price_yoy":"NA","realtor_list_price_base":"NA","realtor_active_listings":1,"realtor_active_listings_yoy":-0.4,"realtor_active_listings_base":-0.4774,"realtor_new_listings":0.667,"realtor_new_listings_yoy":"Inf","realtor_new_listings_base":"NA","realtor_days_on_market":24,"realtor_days_on_market_yoy":"NA","realtor_days_on_market_base":"NA","zhvi":69578.785,"zhvi_yoy":0.0573,"zhvi_base":0.7548,"zori":"NA","zori_yoy":"NA","zori_base":"NA"}},{"type":"MultiPolygon","arcs":[[[7,8,9,-4]]],"properties":{"postal_code":"61441","realtor_list_price":"NA","realtor_list_price_yoy":"NA","realtor_list_price_base":"NA","realtor_active_listings":2.667,"realtor_active_listings_yoy":0.6,"realtor_active_listings_base":0.1003,"realtor_new_listings":0,"realtor_new_listings_yoy":"NaN","realtor_new_listings_base":-1,"realtor_days_on_market":"NA","realtor_days_on_market_yoy":"NA","realtor_days_on_market_base":"NA","zhvi":"NA","zhvi_yoy":"NA","zhvi_base":"NA","zori":"NA","zori_yoy":"NA","zori_base":"NA"}},{"type":"MultiPolygon","arcs":[[[10,11,12,13]]],"properties":{"postal_code":"61415","realtor_list_price":"NA","realtor_list_price_yoy":"NA","realtor_list_price_base":"NA","realtor_active_listings":5.667,"realtor_active_listings_yoy":-0.4138,"realtor_active_listings_base":-0.333,"realtor_new_listings":0,"realtor_new_listings_yoy":-1,"realtor_new_listings_base":-1,"realtor_days_on_market":"NA","realtor_days_on_market_yoy":"NA","realtor_days_on_market_base":"NA","zhvi":130051.584,"zhvi_yoy":0.0471,"zhvi_base":0.3894,"zori":"NA","zori_yoy":"NA","zori_base":"NA"}},{"type":"MultiPolygon","arcs":[[[14,15,16,-8,-3,17,-13]]],"properties":{"postal_code":"61477","realtor_list_price":39900,"realtor_list_price_yoy":"NA","realtor_list_price_base":"NA","realtor_active_listings":0.667,"realtor_active_listings_yoy":-0.3333,"realtor_active_listings_base":"NA","realtor_new_listings":1.333,"realtor_new_listings_yoy":"Inf","realtor_new_listings_base":"NA","realtor_days_on_market":4,"realtor_days_on_market_yoy":"NA","realtor_days_on_market_base":"NA","zhvi":"NA","zhvi_yoy":"NA","zhvi_base":"NA","zori":"NA","zori_yoy":"NA","zori_base":"NA"}},{"type":"MultiPolygon","arcs":[[[18]]],"properties":{"postal_code":"61569","realtor_list_price":490000,"realtor_list_price_yoy":"NA","realtor_list_price_base":"NA","realtor_active_listings":3,"realtor_active_listings_yoy":2,"realtor_active_listings_base":-0.6419,"realtor_new_listings":1.333,"realtor_new_listings_yoy":"Inf","realtor_new_listings_base":-0.402,"realtor_days_on_market":10,"realtor_days_on_market_yoy":"NA","realtor_days_on_market_base":"NA","zhvi":280052.586,"zhvi_yoy":0.1241,"zhvi_base":0.7294,"zori":"NA","zori_yoy":"NA","zori_base":"NA"}},{"type":"MultiPolygon","arcs":[[[19,20,21]]],"properties":{"postal_code":"61519","realtor_list_price":194900,"realtor_list_price_yoy":"NA","realtor_list_price_base":"NA","realtor_active_listings":0.667,"realtor_active_listings_yoy":-0.3333,"realtor_active_listings_base":"NA","realtor_new_listings":1.333,"realtor_new_listings_yoy":"Inf","realtor_new_listings_base":"NA","realtor_days_on_market":3,"realtor_days_on_market_yoy":"NA","realtor_days_on_market_base":"NA","zhvi":"NA","zhvi_yoy":"NA","zhvi_base":"NA","zori":"NA","zori_yoy":"NA","zori_base":"NA"}},{"type":"MultiPolygon","arcs":[[[22,23,24,-11]]],"properties":{"postal_code":"61544","realtor_list_price":"NA","realtor_list_price_yoy":"NA","realtor_list_price_base":"NA","realtor_active_listings":1.667,"realtor_active_listings_yoy":-0.4444,"realtor_active_listings_base":-0.4031,"realtor_new_listings":0,"realtor_new_listings_yoy":"NaN","realtor_new_listings_base":-1,"realtor_days_on_market":"NA","realtor_days_on_market_yoy":"NA","realtor_days_on_market_base":"NA","zhvi":102217.83,"zhvi_yoy":0.0927,"zhvi_base":0.5557,"zori":"NA","zori_yoy":"NA","zori_base":"NA"}},{"type":"MultiPolygon","arcs":[[[25,26,-2,27,-22,28,-16]]],"properties":{"postal_code":"61427","realtor_list_price":210490,"realtor_list_price_yoy":0.1084,"realtor_list_price_base":"NA","realtor_active_listings":9.667,"realtor_active_listings_yoy":0.9333,"realtor_active_listings_base":-0.2152,"realtor_new_listings":3.333,"realtor_new_listings_yoy":1.5,"realtor_new_listings_base":0.5493,"realtor_days_on_market":90,"realtor_days_on_market_yoy":0.8,"realtor_days_on_market_base":"NA","zhvi":127958.107,"zhvi_yoy":0.0571,"zhvi_base":0.5575,"zori":"NA","zori_yoy":"NA","zori_base":"NA"}},{"type":"MultiPolygon","arcs":[[[-25,29,30,-26,-15,-12]]],"properties":{"postal_code":"61431","realtor_list_price":"NA","realtor_list_price_yoy":"NA","realtor_list_price_base":"NA","realtor_active_listings":1,"realtor_active_listings_yoy":0.5,"realtor_active_listings_base":-0.6572,"realtor_new_listings":0,"realtor_new_listings_yoy":-1,"realtor_new_listings_base":"NA","realtor_days_on_market":"NA","realtor_days_on_market_yoy":"NA","realtor_days_on_market_base":"NA","zhvi":"NA","zhvi_yoy":"NA","zhvi_base":"NA","zori":"NA","zori_yoy":"NA","zori_base":"NA"}},{"type":"MultiPolygon","arcs":[[[-24,31,32,-30]]],"properties":{"postal_code":"61432","realtor_list_price":"NA","realtor_list_price_yoy":"NA","realtor_list_price_base":"NA","realtor_active_listings":1,"realtor_active_listings_yoy":0.5,"realtor_active_listings_base":-0.7441,"realtor_new_listings":0,"realtor_new_listings_yoy":-1,"realtor_new_listings_base":"NA","realtor_days_on_market":"NA","realtor_days_on_market_yoy":"NA","realtor_days_on_market_base":"NA","zhvi":"NA","zhvi_yoy":"NA","zhvi_base":"NA","zori":"NA","zori_yoy":"NA","zori_base":"NA"}},{"type":"MultiPolygon","arcs":[[[-33,33,34,35,-20,-28,-1,-27,-31],[-7],[-6]]],"properties":{"postal_code":"61520","realtor_list_price":91500,"realtor_list_price_yoy":-0.1581,"realtor_list_price_base":0.1152,"realtor_active_listings":62,"realtor_active_listings_yoy":0.5372,"realtor_active_listings_base":-0.3343,"realtor_new_listings":21.333,"realtor_new_listings_yoy":-0.0588,"realtor_new_listings_base":-0.2139,"realtor_days_on_market":55.625,"realtor_days_on_market_yoy":0.0876,"realtor_days_on_market_base":-0.1816,"zhvi":109869.884,"zhvi_yoy":0.0278,"zhvi_base":0.2895,"zori":"NA","zori_yoy":"NA","zori_base":"NA"}},{"type":"MultiPolygon","arcs":[[[-29,-21,-36,36,-9,-17]]],"properties":{"postal_code":"61542","realtor_list_price":88700,"realtor_list_price_yoy":-0.2163,"realtor_list_price_base":"NA","realtor_active_listings":12.333,"realtor_active_listings_yoy":0.4231,"realtor_active_listings_base":-0.3975,"realtor_new_listings":0.667,"realtor_new_listings_yoy":-0.875,"realtor_new_listings_base":-0.7533,"realtor_days_on_market":88,"realtor_days_on_market_yoy":1.0585,"realtor_days_on_market_base":"NA","zhvi":114892.912,"zhvi_yoy":0.0871,"zhvi_base":0.5177,"zori":"NA","zori_yoy":"NA","zori_base":"NA"}}]}},"arcs":[[[545324,599779],[6750,40],[661,15276],[6078,76],[9343,-66],[2871,-16],[-205,-15298],[-442,-30823],[-859,-49],[-11585,-113]],[[557936,568806],[232,14961],[-10178,704],[-2662,11105],[-4,4203]],[[307735,417564],[-4095,-7703],[-114,-7834],[1768,-13309],[2118,-4806],[2274,-1488],[2195,-3362],[1467,-8001],[1006,-6029],[3802,-3555],[2741,-1248],[2155,-187],[-10,-1837],[1993,-4684],[1947,-6656],[614,-7723],[1092,-6528],[3468,-6018],[2700,-2854],[293,-21027],[5128,-3070],[2548,-2642],[1077,-2893],[1522,-809],[570,-4127],[1090,-1736],[-87,-9947]],[[346997,277491],[260,-2211],[-692,-31334],[-8705,-1093],[-12329,-357],[-1365,-1570],[818,-1903],[-1359,-1366],[-15579,-10599],[-228,-40845],[-204,-14925],[-37852,408],[-686,-46319],[-357,-15003],[23485,-88]],[[292204,110286],[-7521,-12879],[-8487,-6193],[-3014,-5908],[-4887,-2637],[-980,-3035],[-7662,135],[2347,2181],[1568,10811],[-585,3221],[-5237,7067],[-623,7585],[-12660,272],[-33356,-417],[1400,-3435],[-273,-2789],[-2972,-3074],[-978,-4517],[-2619,-1923],[-2229,1057],[-1642,-2402],[-3402,-193],[-1720,-4278],[-156,-5191],[-1603,-8024],[1056,-3146],[-2600,714],[546,37439],[-12225,611],[-238,46943],[-13222,1011],[-9051,130],[-3344,-586],[-289,-30626],[-12526,96],[-12553,465],[54,7753],[12571,-651],[289,23274],[-12228,685],[429,30294],[12481,-603],[204,30798],[38185,-1620],[12597,135],[950,153366],[63547,-580],[433,46234],[6091,-706],[6947,399],[-68,-7942],[6276,-87],[283,8143],[5327,-13],[13,7458],[6453,-183],[-24,-7436],[16458,75]],[[729918,456350],[98,6486],[2977,-2],[4544,-2],[-27,-2089],[5163,-27],[-149,-14287],[-5388,55],[5,1055],[-7220,-63],[-3,8874]],[[705364,460848],[6713,-157],[-172,3307],[691,4337],[3941,-2784],[2390,1248],[-1175,5142],[5918,-71],[55,-9082],[1974,0],[3,2021],[3199,0],[-5213,-4295],[-6198,-5686],[8,-6907],[-9261,-229],[-3067,-2527],[194,15683]],[[346997,277491],[4933,-3556],[979,-1729],[589,-3074],[5521,-528],[7905,8698],[3131,0],[3407,-2883],[4383,-1492],[12920,9082],[3288,2929],[4542,1057],[7713,4078],[1684,5335],[2272,528],[2074,-1587],[4465,4659],[1997,-962],[-158,-2547],[-2860,-4371],[8810,-918],[7045,-3705],[351,-3843],[1920,3986],[2270,-674],[-314,-3699],[1369,-2836],[3013,-387],[2060,-2271],[1343,-3064],[-2506,-1345],[-1839,2116],[-2584,-1536],[509,-1538],[4343,-2068],[-1371,-4566],[-3132,916],[-470,-1441],[2386,-2307],[2622,-629],[312,-4709],[-3993,580],[-1096,-2498],[3674,-7018],[4343,-2118],[3532,-858]],[[448379,244698],[2240,-1439],[-19442,-22768],[7559,-3130],[9385,205],[-443,-12870],[436,-12097],[2660,-1876],[-7798,-4205],[25528,374],[8219,-5089],[79,-1778],[3442,-1727],[394,-7401],[4224,387],[3638,-2738],[511,-6294],[4382,-4996],[2844,-585],[3764,-2057],[-584,-2979],[2580,-482],[3291,3215],[2960,-3301],[2981,-5251],[2537,-2013],[283,-3059],[5657,-416],[2785,-1309],[10629,-7475],[-684,-9069],[-313,-14263],[-12088,185],[-24519,1441],[-694,-45079],[17611,-8396],[-2205,-6785],[742,-4421],[4057,-1703]],[[515027,43454],[-20511,-22723],[-102,-20731],[-17691,1034],[-1531,0],[97,15049],[-2015,1335],[-1798,4091],[-2294,9548],[-28192,-128],[49,15677],[-2868,-82],[-5775,-4704],[-597,-1219],[-113,-8094],[-575,-956],[-5381,208],[-788,-526],[-410,-6890],[-6335,152],[-334,-8021],[-327,-15598],[-50712,72],[-19887,73],[2188,10738],[-309,4730],[-5025,67],[-1007,1992],[120,13581],[537,30472],[-12255,444],[-124,7457],[-4592,853],[113,6741],[-20415,952],[674,30975],[-14638,263]],[[352317,922550],[-171,-23083],[3075,2762],[-1847,4421],[7392,384],[4836,-721],[3656,-2689],[1692,1777],[-1612,3075],[2870,3412],[1927,-2979],[4051,2931],[2594,-1778],[3264,1681],[3932,-1492],[0,-2786],[-2731,-7138],[37,-7983],[3460,-2444],[2731,746],[551,3171],[2516,288],[237,7783],[3893,-1008],[-510,2641],[2792,-48],[-77,-16407],[63,-10465],[412,-32424],[-97,-20925],[0,-20418],[-522,-9399]],[[400731,793435],[-4677,-1730],[-6246,4663],[1060,-5381],[-2422,-5419],[2617,-6210],[0,-2595],[-2506,-2395],[-11,3351],[-22042,34],[-2937,506],[110,4833],[-5668,105],[-7067,3142],[-72,-14997],[-24689,-425],[-479,-14776],[12721,-599],[-260,-14965],[-12670,78],[180,-30383],[14458,78],[-1610,-3893],[-1688,-1154],[-5143,-675],[-1215,-9418],[-5116,-7890],[-2458,-2538],[-1100,-2116],[2008,-14751],[2434,-5121],[3496,-7420],[7262,-1870],[7967,1202],[5117,-1193]],[[350085,653513],[-51,-13222],[-12417,570],[-340,5375],[-2792,65],[-3478,-2231],[-2511,1325],[-563,3154],[-2715,78],[-521,-30994],[-25382,204],[-201,-45762],[6304,-1218],[-62,-14779],[-95,-16211]],[[305261,539867],[-18722,712],[480,12329],[-149,1349],[-314,1872],[-944,3152],[-950,-1276],[1372,2320],[-54,26695],[-33218,248],[-3464,2221],[-4373,-2497],[-8200,1925],[-2942,3751],[-1452,-1345],[-5456,385],[-2195,3893],[-2474,-2498],[-2981,1009],[-2236,2788],[-1573,19],[-3897,-5798],[-2320,-1552],[-3266,-4321],[-8989,-2393],[498,66817],[594,61664],[358,29392],[5,423],[-12689,655],[-24884,967],[-112071,4282],[255,29986],[399,32330],[-1960,2034],[-2868,1345],[-39,865],[-3184,-1008],[-864,672],[-356,2703],[2840,2044],[2444,2669],[3273,77],[748,568],[123,17537],[10883,-431],[145,15361],[5220,6491],[6170,14124],[-3302,-1700],[-786,-2401],[-2242,-1009],[-3615,5430],[-1219,6249],[-4639,2259],[-3460,-624],[-2762,2792],[-1956,860],[-4915,-3219],[-3382,2834],[-5150,-4518],[-4364,721],[-6566,-9323],[-1531,2402],[-4162,-1488],[-5588,538],[183,12221],[216,17823],[-1628,2814],[-2990,-145],[-2320,-1684],[-845,-2891],[-4961,-2412],[173,2874],[-161,25483],[37552,-862],[247,17846],[2683,-1200],[6137,-433],[1572,1875],[2163,-769],[-245,-17554],[31567,-456],[5246,5095],[645,2858],[32,7214],[24659,-418],[555,15444],[50090,-1120],[39,-30620],[37130,-784],[-126,-16488],[2655,-2629],[6018,-1345],[5388,-3942],[4089,-721],[1375,-1971],[-315,-11916],[-3540,-5430],[-708,-2931],[2085,46],[1140,-2498],[3970,-3509],[3027,-1971],[13967,38590],[861,3126],[1954,13068],[14593,-254],[56232,-748],[12421,-233],[24842,-105],[2305,-13]],[[350085,653513],[10153,-2312],[1924,-1874],[2826,-721],[10558,1250],[8439,-1346],[4278,-242],[2472,-3125],[-1021,-3458],[-2905,-2547],[942,-2835],[3807,-193],[-1153,-3787],[29373,152],[-193,-24245],[6701,-239],[740,-3768],[3610,-212],[1314,-3831],[2133,-1303],[4823,-5631],[2116,-3581],[-3337,-5091],[-2863,244],[-1410,3458],[-3100,-285],[-3534,-5861],[-2788,-9849],[-1531,-3265],[-356,-5766]],[[422103,563250],[-2200,-7688],[-2228,-309],[-212,4],[2635,-4692],[-2040,-1826],[508,-6535],[-1571,-3459],[-2274,193],[-3295,-1439],[-4198,-6054],[-3215,1108],[-3316,-3709],[-157,-19820],[1241,-2939],[1114,-6315],[5938,-6356],[5332,-3978],[2264,-5999],[5195,-3387],[2806,-4352],[1015,-4423],[-451,-55463],[-757,-29662],[-12002,170],[-459,-7728],[-12021,52],[-103,-7880],[5867,-60]],[[405519,370704],[388,-614],[-299,-14617],[6247,-766],[67,-7349],[5924,-168],[-198,-5154],[803,-1656],[5526,-2748],[-87,-5081],[1241,-1461],[-1246,-2065],[826,-4453],[3440,-324],[2636,-3670],[2271,-1337],[1043,-2135],[-77,-3648],[-3808,-1899],[-86,-3068],[5284,80],[2723,-261],[5042,-5404],[3457,-1841],[11525,-1322],[1583,-1050],[1067,-4837],[-123,-18506],[1509,-2228],[4324,-649],[216,-6340],[1823,-1420],[-17310,-20715],[-2871,700]],[[307735,417564],[1465,2871],[4465,4854],[1214,2309],[-510,3171],[-10116,8403],[-1294,3410],[1722,4663],[1921,819],[11169,1927],[3065,-1895],[988,590],[6006,-5558],[355,3951],[3592,5394],[3021,6291],[920,4127],[-3212,2538],[-1712,3606],[-2535,2408],[-1711,6344],[-2496,3753],[-3469,2889],[-4254,1637],[-7186,151],[-2456,2787],[-810,4160],[24316,-218],[12,19993],[-420,2629],[-836,19],[-3181,418],[-11287,218],[-1583,969],[-1581,21105],[-1443,1444],[-4613,126]],[[859678,736400],[-188,4158],[-4126,10072],[-4639,4244],[-355,7903],[2866,8239],[274,2553],[-2200,5398],[84,3224],[-2468,6],[108,15291],[892,61366],[24630,-275],[332,30611],[224,19275],[12403,-298],[56,9708],[63,10027],[-13029,-82],[91,6331],[165,14503],[256,30689],[25362,-714],[-227,-17691],[2476,-4316],[5944,-985],[1880,3603],[2066,1684],[-166,16299],[13053,-372],[70,-13885],[9844,-202],[2676,-1250],[-180,-13875],[11943,-124],[36248,-281],[13596,-177],[-71,-29189],[263,-1515],[105,-517],[-39,-28340],[-24498,156],[-80,-12744],[754,-5426],[-62,-9418],[1081,-2172],[3067,-2041],[1094,-2353],[-39,-4694],[2625,-1020],[2997,1318],[11823,-124],[1014,324],[-3222,-3854],[-2300,-4390],[-1921,-6690],[-3427,-5522],[252,-2923],[-1882,-3266],[296,-5093],[-2278,-32],[-3327,-3484],[-1631,-54],[-2720,-3780],[-1688,-5962],[275,-2950],[1597,-2173],[-2255,-3687],[-4402,-4218],[815,-1666],[-1866,-2858],[1067,-2023],[-1908,-3329],[1108,-2530],[-1447,-3099],[-1204,-10761],[-5940,122],[545,-3635],[-509,-26962],[-12969,95],[-1960,15],[4,962],[-19317,280],[1429,-1318],[225,-12938],[-31592,-474],[327,15009],[-38233,286]],[[644512,420764],[6933,4569],[7171,-240],[784,433],[4851,6693],[2113,4166],[6297,-290],[-124,3220],[2230,626],[-1029,3793],[6413,-2867],[-128,-8581],[-347,-8603],[-1558,-1343],[-1454,654],[-1657,-349],[-4714,-5629],[9598,63],[-425,-45779],[-25828,-168]],[[653638,371132],[-9108,-17],[-19055,-113]],[[625475,371002],[-194,7237],[19202,16226],[-323,7583],[352,18716]],[[352317,922550],[8036,-290],[2174,345],[41,14732],[1024,1607],[-86,14627],[7597,-283],[3865,-1234],[87,16543],[21,31402],[12814,-290],[37144,-801],[9296,198],[18330,-35110],[12046,481],[1849,2210],[2675,-142],[4601,3563],[1771,-138],[1378,-3072],[1296,437],[275,1395],[-2756,6159],[-2498,8901],[14516,-200],[-314,-23034],[5376,-3946],[7062,1784],[-77,-21370],[25031,-158],[332,-15152],[24603,-242],[14,15287],[25010,-181],[212,-15264],[24817,164]],[[599879,921478],[-424,-74549],[-5573,-2725],[-5198,1542],[-1774,-2305],[-8780,-3116],[-1180,624],[-4331,-1868],[-1223,-1683],[-4882,-1185],[893,4593],[5210,9817],[1876,4724],[441,3431],[187,23970],[-17282,1294],[-3534,-2856],[-4176,-1435],[-503,-4873],[-36172,328],[-13112,-374],[90,-45476],[63,-977],[3516,-9130],[6411,-7109],[1136,-2807],[304,-2566],[2133,-7949],[-2246,-2252],[-182,-8279],[-10906,-4989],[160,-10521],[-2983,-1057],[-9666,-2095]],[[488172,769625],[-6521,-1082],[-5828,1290],[-6818,-4955],[-3811,-338],[-629,1826],[-7933,-2986],[-5036,2539],[-3417,3607],[-2121,-624],[-6951,3947],[-1138,2019],[-4595,2933],[-7640,1078],[182,20353],[-12299,210],[46,-13240],[-373,-9846],[-3134,546],[-2044,-2980],[-2514,-334],[-5121,1862],[254,17985]],[[422103,563250],[5531,910],[2395,5043],[5335,1101],[2942,-1156],[1685,-2691],[2432,-1347],[3648,622],[2118,1727],[4591,1294],[5572,-1576],[3351,1232],[999,-13822],[37191,-601],[93,45992]],[[499986,599978],[20967,-65],[24371,-134]],[[557936,568806],[-107,-6985],[1069,-8069],[869,-5936],[1314,-3269],[1764,-171],[3609,3314],[1256,3892],[274,-4854],[3725,2641],[4825,1729],[3804,-2693],[4407,5291],[9563,31],[50811,265],[-503,-91187],[-3,-30656],[-101,-11385]],[[625475,371002],[-8892,-153],[-387,27],[-21372,-34],[-17539,-111],[2137,-2818],[-530,-2425],[2617,977],[1827,-6526],[-1106,-8204],[-12655,-1218],[-3365,4543],[-11871,6799],[-4959,257],[-745,-824],[-2625,1154],[-6815,-5041],[-9010,1057],[-7245,6774],[0,4709],[672,925],[-14275,-32],[-10962,135],[-4155,56],[-814,-80],[-19564,-82],[35,-7739],[-4872,-35],[-1624,4076],[-3218,3696],[-58644,-161]],[[488172,769625],[-3084,-7781],[188,-8130],[2766,-4389],[168,-7016],[12459,2656],[93,-8620],[-46,-11441],[-147,-18420],[-1889,-504],[-10165,264],[-768,-26799],[-5389,14],[-314,-3669],[-5787,118],[-69,-7770],[535,-3438],[2617,-3018]],[[479340,661682],[-3772,-1865],[-1177,-2257],[-3254,-1969],[-10012,-2309],[-371,-38084],[38337,-174],[952,-2131],[-57,-12915]],[[599879,921478],[25167,-531],[24703,155],[-107,-15455],[-144,-15587],[-809,-92072],[-752,-60393]],[[647937,737595],[-22592,751],[-22787,-211],[-625,91],[-1082,407],[-752,524],[-967,1099],[-763,-914],[-257,-627],[-95,-561],[-198,-15484],[-624,-45936],[-44108,-44],[-732,2036],[-13028,244],[-5652,-4463],[-11876,176],[44,4663],[-3249,296],[-6084,-3700],[-8440,-1204],[-787,769],[-2588,1212],[-4045,-590],[-4593,-2887],[-5656,-7265],[-7061,-4295]],[[647937,737595],[35817,-275],[1002,45789],[12399,-27],[-917,-45852],[25007,-61],[234,15581],[5702,-23],[1197,-2123],[5743,-5873],[-2046,17],[87,-7585],[765,-5],[-66,-7638],[6666,27],[1118,-2172],[-1091,-6159],[-147,-13507],[20440,221],[14444,-124],[1197,-57],[-246,15314],[6054,-67],[4360,1441],[5067,-863],[1807,5917],[-2400,956],[-1493,6755],[7273,160],[63768,-962]],[[859678,736400],[89,-416],[3492,-6168],[201,-3452],[2654,-2391],[3459,-935],[2225,-5575],[-463,-8189],[-1166,-2061],[14819,-21],[-888,-57590],[1640,38],[5980,3118],[36247,-704],[51,7849],[1214,-221],[3249,-2105],[1796,-5371],[1395,-8155],[3201,1042],[7033,-902],[355,-1823],[2566,-93],[-149,-28460],[86,-11418],[122,-21471],[-83,-28222],[-371,-52173],[-3465,-2908],[-3849,-4646],[-5420,-8678],[-2832,-11269],[59,-4796],[-1207,-11088],[-1569,-9847],[-1537,-14837],[241,-9466],[-661,-3303],[-1488,-3337],[-6904,-7418],[-5770,-9302],[-7135,-15560],[-1444,-6995],[-358,-6033],[-12285,4],[-24853,-1101],[-16899,-42],[-2477,-6398],[-1046,-8819],[-20547,-1007]],[[826986,353685],[-3999,1448],[-2900,-1133],[-2177,1358],[-23979,239],[-2300,778],[-600,2519],[151,12139],[-18358,101],[1161,10639],[1542,4554],[-9673,65],[-22697,-14940],[-1496,-278],[-328,-30523],[-23362,46],[-566,14489],[-28845,-14411],[-12031,-265],[-2121,458],[-11064,6834],[-5402,4280],[-2621,3312],[-724,2454],[-959,13284]],[[826986,353685],[-11279,-26161],[-1555,-3007],[-2976,-2605],[-36879,-18424],[-8329,-5302],[-132,-18838],[-684,-20269],[1809,-2933],[5947,-374],[526,-4308],[-2277,-3181],[-1776,-904],[1879,-6587],[-103,-3047],[5409,-149],[2553,2208],[506,-662],[727,1908],[55,204],[9,1082],[780,-12],[610,38],[940,-1352],[-1806,-2420],[-4061,-2927],[-1447,1586],[-5479,294],[-2547,-6484],[-8375,-5615],[-5753,-3072],[-782,624],[-10956,-3309],[1764,-1578],[-4982,-1925],[-6444,-5810],[-6689,-10538],[-3902,-11563],[-1187,-5886],[-1887,-5940],[-1670,-4090],[-2591,-10027],[-1501,-9878],[1200,-7064],[2374,-8387],[277,-5709],[-909,-6676],[-3529,-13568],[-3028,-5320],[-12514,-12704],[-2728,-5151],[-2163,-8957],[-116,-2829],[563,-4751],[222,-4971],[567,-5024],[-550,-6189],[-530,-10655],[-1455,-3615],[-108517,26657],[-10728,311],[-1847,513],[-169,-34598],[-12327,4516],[1,5581],[-2516,2898],[-7400,-30],[-2365,2938],[93,12416],[-10631,78],[-2240,359],[-861,-1702],[-15598,-17365]]],"bbox":[-90.597241,40.274924,-89.833056,40.750824],"transform":{"scale":[7.641857641857619e-7,4.759004759004788e-7],"translate":[-90.597241,40.274924]}}
