{"type":"Topology","objects":{"foo":{"type":"GeometryCollection","geometries":[{"type":"MultiPolygon","arcs":[[[0,1,2]]],"properties":{"postal_code":"88120","realtor_list_price":195000,"realtor_list_price_yoy":"NA","realtor_list_price_base":"NA","realtor_active_listings":1,"realtor_active_listings_yoy":0,"realtor_active_listings_base":-0.4857,"realtor_new_listings":0.667,"realtor_new_listings_yoy":"Inf","realtor_new_listings_base":"NA","realtor_days_on_market":358,"realtor_days_on_market_yoy":"NA","realtor_days_on_market_base":"NA","zhvi":"NA","zhvi_yoy":"NA","zhvi_base":"NA","zori":"NA","zori_yoy":"NA","zori_base":"NA"}},{"type":"MultiPolygon","arcs":[[[-2,3,4,5]]],"properties":{"postal_code":"88124","realtor_list_price":"NA","realtor_list_price_yoy":"NA","realtor_list_price_base":"NA","realtor_active_listings":3.333,"realtor_active_listings_yoy":-0.2857,"realtor_active_listings_base":0.2363,"realtor_new_listings":0,"realtor_new_listings_yoy":-1,"realtor_new_listings_base":-1,"realtor_days_on_market":"NA","realtor_days_on_market_yoy":"NA","realtor_days_on_market_base":"NA","zhvi":"NA","zhvi_yoy":"NA","zhvi_base":"NA","zori":"NA","zori_yoy":"NA","zori_base":"NA"}},{"type":"MultiPolygon","arcs":[[[-1,6,7,8,-4],[9]]],"properties":{"postal_code":"88101","realtor_list_price":237447.059,"realtor_list_price_yoy":0.0026,"realtor_list_price_base":0.3468,"realtor_active_listings":202.667,"realtor_active_listings_yoy":-0.1705,"realtor_active_listings_base":-0.4026,"realtor_new_listings":56.667,"realtor_new_listings_yoy":-0.1146,"realtor_new_listings_base":-0.1064,"realtor_days_on_market":62.282,"realtor_days_on_market_yoy":-0.0372,"realtor_days_on_market_base":-0.2198,"zhvi":164898.516,"zhvi_yoy":0.01,"zhvi_base":0.182,"zori":1270.788,"zori_yoy":0.0513,"zori_base":"NA"}},{"type":"MultiPolygon","arcs":[[[-5,-9,10,11,12,13],[14]]],"properties":{"postal_code":"88130","realtor_list_price":213318.182,"realtor_list_price_yoy":-0.016,"realtor_list_price_base":0.402,"realtor_active_listings":46,"realtor_active_listings_yoy":-0.4128,"realtor_active_listings_base":-0.5672,"realtor_new_listings":14.667,"realtor_new_listings_yoy":-0.3125,"realtor_new_listings_base":-0.2249,"realtor_days_on_market":71.636,"realtor_days_on_market_yoy":-0.059,"realtor_days_on_market_base":-0.2362,"zhvi":148463.575,"zhvi_yoy":0.0147,"zhvi_base":0.1384,"zori":1014.306,"zori_yoy":0.0583,"zori_base":"NA"}},{"type":"MultiPolygon","arcs":[[[-13,15]]],"properties":{"postal_code":"88126","realtor_list_price":"NA","realtor_list_price_yoy":"NA","realtor_list_price_base":"NA","realtor_active_listings":1,"realtor_active_listings_yoy":0,"realtor_active_listings_base":"NA","realtor_new_listings":0,"realtor_new_listings_yoy":"NaN","realtor_new_listings_base":"NA","realtor_days_on_market":"NA","realtor_days_on_market_yoy":"NA","realtor_days_on_market_base":"NA","zhvi":"NA","zhvi_yoy":"NA","zhvi_base":"NA","zori":"NA","zori_yoy":"NA","zori_base":"NA"}},{"type":"MultiPolygon","arcs":[[[16,-11,-8]]],"properties":{"postal_code":"88135","realtor_list_price":375000,"realtor_list_price_yoy":"NA","realtor_list_price_base":"NA","realtor_active_listings":2,"realtor_active_listings_yoy":2,"realtor_active_listings_base":-0.1641,"realtor_new_listings":0.667,"realtor_new_listings_yoy":"Inf","realtor_new_listings_base":"NA","realtor_days_on_market":27,"realtor_days_on_market_yoy":"NA","realtor_days_on_market_base":"NA","zhvi":"NA","zhvi_yoy":"NA","zhvi_base":"NA","zori":"NA","zori_yoy":"NA","zori_base":"NA"}}]}},"arcs":[[[810335,703891],[-51,-10343],[-19165,13],[-92,-10390],[-5478,2018],[-690,1419],[-3151,-718],[-5813,-18],[-8236,2539],[-7740,198],[-19676,-419],[-1350,-1257],[848,-1476],[-2303,-2366],[-2635,-999],[-2388,-1404],[-4061,-1616],[-844,-1206],[654,-1074],[-3572,-2139],[104,-503],[-2992,-708],[-2425,-1439],[-4619,-1303],[-1499,-260],[-9513,108],[3615,-2615],[3207,-2683],[1380,-1740],[651,-2012],[-17610,1010],[-4134,47],[-5238,-358],[-5144,780],[-4957,-130],[-6731,619],[-5993,227],[-5875,2052],[-3125,-2028],[-601,-849],[-2861,1841],[-2279,-607],[-1148,-973],[-2393,910],[-1689,152],[-1607,-450],[-1835,289],[-992,988],[-2951,-661],[-1343,-821],[-1042,926],[-5942,-82],[-404,1101],[-3221,259],[-2240,-127],[-3581,693],[-3261,256],[-1811,-886],[-1300,370],[-3055,-250],[334,484],[-2094,900],[-2951,-245],[-1108,1141],[-5352,517],[-1929,1306],[-1916,-1043],[-6402,619],[-3208,-864],[-2291,1224],[-1989,433],[-1433,1005]],[[577799,671273],[30,22556],[-13696,36],[1498,2229],[2828,2017],[-728,2427],[163,3662],[-9101,2],[-363,20584],[-19452,178],[4,20614],[-18681,102],[-229,370],[-32,9898]],[[520040,755948],[18943,-11],[-4,30863],[-8873,60],[-5674,38],[-2465,16],[85,3889],[31,1366],[40,1810],[-956,232],[88,626],[-486,207],[-1501,-407],[-616,213],[16,1171],[-475,362],[-1522,-5],[-397,798],[-2386,-2],[-5563,-8],[-2989,-3104],[-3419,183],[-2820,-215],[-2714,1114],[-3389,566],[-6748,3423],[-3224,781],[-2579,1018],[-2873,767],[-2976,3549],[-2322,1976],[-2331,261],[-2208,-521],[-3593,603],[4,213],[-22096,-180],[-176,-20619],[-19013,1],[-5549,1],[-7734,0],[-1475,0],[-38177,1],[-24535,-11],[42,841],[4231,-5],[-326,2284],[-1991,3081],[-1848,1455],[4717,1208],[2606,2448],[3497,1013],[-969,1480],[950,794],[-2338,1849],[-1447,1861],[-151,2987],[442,1556],[-2521,3082],[-2795,-126],[-806,1368],[924,271],[-337,1607],[2422,335],[328,3214],[825,715],[2054,312],[-213,845],[4430,-475],[5286,27],[984,2095],[2303,518],[235,593],[-2230,883],[109,536],[3077,360],[1390,1764],[3834,212],[-582,1493],[632,1326],[-1533,2294],[2119,305],[1378,-362],[1713,2084],[4025,3410],[2702,187],[3555,1882],[3976,1204],[3423,60],[588,1715],[-392,2577],[2798,1247],[-1576,1986],[441,1806],[1479,951],[3749,961],[2901,24],[1061,481],[-1592,2232],[360,1771],[-2961,781],[-1812,990],[293,1935],[-935,355],[-6187,586],[-1790,1082],[1184,1259],[3617,1013],[5553,1006],[2490,927],[2386,2044],[213,524],[-3631,2357],[-142,1951],[1982,2134],[3455,1451],[316,567],[-1489,707],[-2424,278],[-1488,828],[-8,876],[994,426],[2683,-586],[3706,841],[4561,328],[2722,961],[1422,2087],[125,2068],[-1003,1923],[-2755,1959],[-1534,242],[1135,1701],[2668,778],[890,3694],[-685,520],[-2727,512],[-3803,31],[-642,610],[619,1173],[2809,950],[3316,-1110],[1437,414],[-1231,3151],[213,2236],[2086,2138],[966,2377],[-287,2465],[4726,-898],[22064,38],[1449,-366],[522,-575],[89,-12797],[18042,584],[1856,-552],[630,919],[2140,422],[-4241,2133],[-1487,224],[-481,2593],[-1095,495],[-2545,-350],[-1207,2117],[-1047,864],[-59,1383],[-1746,450],[75,2154],[1062,1349],[-906,1356],[-3811,1303],[-817,2083],[-2757,1451],[-2005,587],[-2168,-188],[-744,473],[-139,1975],[-3717,242],[-1120,1818],[-1187,723],[2780,1427],[-7292,2811],[66,1380],[-1525,907],[-16,875],[1807,1400],[-1813,841],[3672,508],[-1637,1908],[2161,1109],[458,1068],[-2109,2017],[148,903],[2022,660],[-392,688],[-4071,1044],[-930,1177],[1535,1525],[-1755,1747],[-85,1278],[1907,844],[2457,243],[812,1950],[-1261,614],[-274,-762],[-2257,71],[-1188,390],[-5156,3394],[604,578],[3859,1423],[4021,1168],[3779,470],[4301,104],[2723,403],[752,559],[-323,1623],[1646,1355],[1513,293],[4139,-141],[4796,699],[880,954],[-1719,1060],[-584,1033],[3264,1499],[2819,719],[779,611],[11675,404],[1064,1669],[-2464,1889],[-72,1086],[1211,520],[1895,-814],[3241,1055],[1661,-505],[3676,351],[384,508],[-1932,1560],[-457,1701],[1803,1810],[4995,-1546],[1839,1152],[-566,1427],[4039,2542],[1933,654],[2270,-165],[1259,-162],[817,1079],[-975,1419],[974,313],[3078,-336],[-142,2572],[-1847,1255],[3837,2010],[803,1068],[1483,1035],[1661,83],[4496,1088],[3114,1705],[5219,-3640],[3215,-1439],[-347,-1149],[-2923,-1255],[-75,-525],[1102,-156],[4688,1571],[1728,-443],[-180,-647],[-2940,-1097],[-137,-1293],[1258,-69],[1712,1133],[4395,-157],[2412,-742],[855,-741],[-2017,-1466],[663,-905],[1775,-493],[637,-754],[-655,-3687],[-5478,-3690],[-2644,-1482],[-3259,-2428],[-2767,-342],[-1168,-1189],[-25,-2277],[1630,-1513],[3695,-708],[3446,152],[4678,-1530],[2093,-395],[1324,-1559],[-1753,-1653],[-2251,12],[-1046,-432],[-43,-375],[2479,-1189],[3716,-1217],[4404,-797],[282,-472],[-1533,-1046],[2074,-1302],[3002,-2417],[909,-1544],[-549,-1005],[134,-1487],[1461,479],[1938,-306],[3695,-1630],[-1031,-777],[-4749,-460],[-2933,-1124],[-782,-799],[2052,-1586],[2155,-680],[-1180,-946],[-4313,-199],[-1880,-637],[-585,-856],[1234,-1162],[3233,-156],[857,-357],[-506,-1179],[236,-1086],[3063,-2134],[1306,178],[-89,-874],[1053,-396],[3350,730],[-184,-1438],[1055,-3484],[-624,-762],[1071,-658],[152,-1048],[-1269,-1220],[323,-1385],[1863,-15],[-620,-1044],[1791,-1856],[370,-1756],[-2163,-1122],[2441,-137],[1283,-1188],[-1011,-614],[2966,-1256],[-1730,-1094],[1006,-321],[-1581,-441],[-984,-1197],[215,-813],[1812,-722],[-502,-500],[3108,-1428],[-256,-2153],[1592,-1107],[-1754,-2868],[347,-1263],[-605,-1083],[1518,-633],[74,-1466],[1724,-376],[-14,-907],[1606,-777],[-1695,-473],[-1084,-1611],[2093,-1005],[-435,-953],[914,15],[568,-1110],[1981,-1079],[-817,-688],[2586,-215],[936,762],[2697,-547],[1253,-692],[-369,-602],[2380,-20],[1783,-461],[126,-829],[1782,-501],[1120,-786],[-178,-2486],[738,-1169],[1335,-1961],[-370,-4456],[2216,-1803],[2254,-520],[2216,-1783],[2055,-677],[3018,-3127],[761,1708],[-2086,140],[-71,850],[2782,774],[-676,1200],[1849,-18],[-1561,1115],[-1947,-171],[-1236,1459],[1620,1820],[2984,43],[526,-752],[2502,860],[3710,-1875],[1759,815],[-2557,806],[-47,1522],[1822,883],[1275,-87],[1110,1435],[1352,44],[2085,1594],[1130,143],[-132,379],[242,55],[4324,280],[564,-2033],[2595,193],[168,2906],[4968,-633],[846,-1024],[-3801,-2121],[180,-936],[3557,537],[4181,120],[2551,712],[957,-1033],[-1727,-774],[-5815,-169],[-1290,-1214],[6840,130],[-1869,-1995],[5456,870],[299,-1183],[3078,1001],[771,-718],[3718,-1170],[675,1386],[3637,111],[1063,1250],[3270,-217],[-93,-1030],[1309,-1969],[2774,-920],[-1144,-669],[-5498,523],[1498,-956],[-938,-520],[2429,-1001],[4256,-347],[-2276,-1430],[2474,-1191],[1817,-1766],[-1488,-993],[3145,801],[2163,21],[2677,-921],[-989,-1271],[1118,-739],[2867,1284],[877,-1203],[1668,381],[1155,1256],[1045,-531],[3613,1687],[-1848,-1329],[125,-638],[-2179,-730],[523,-824],[-1669,-565],[1431,-929],[4090,508],[1513,-102],[-548,-918],[-2253,-615],[2079,-913],[-2279,-996],[2590,-563],[2201,547],[-3709,-2681],[-3091,-1068],[-2502,736],[-2649,1328],[-243,-631],[3651,-1848],[-941,-1498],[186,-971],[-1247,-561],[3001,-415],[-100,-506],[3054,694],[1618,-296],[4560,2241],[-2553,1242],[1433,2037],[3345,-865],[3145,-128],[1892,-1338],[2819,1027],[2140,-103],[-1709,1240],[-718,2123],[-4244,-743],[-1043,710],[1660,668],[-770,1066],[2181,-362],[362,689],[2150,-292],[3248,2020],[3467,-503],[-37,805],[1774,145],[523,-904],[2664,464],[938,-335],[1424,996],[-1356,653],[1425,968],[1555,-165],[-176,845],[1595,790],[-11,1252],[2688,-524],[1713,439],[-1794,1366],[591,925],[7229,-1956],[2667,758],[3405,37],[359,-1099],[-1667,-1496],[-7,-742],[-1600,-1266],[1914,-1270],[735,-1385],[996,1605],[2918,1021],[1427,-1096],[2724,1131],[2186,-1012],[-430,-2166],[1895,-827],[4013,-993],[750,-1957],[-1866,-713],[3752,-1143],[4695,178],[688,-325],[-794,-1860],[2762,-974],[-22098,-7],[-141,-22102],[58175,-112],[-76,-20678],[-38869,-25],[-50,-15743],[437,-4821],[-19485,46],[-1120,-62006],[-19383,43],[-345,-20730],[97483,103]],[[577799,671273],[-2,-18111],[-93,-380],[160,-31136],[-60,-10092],[205,-10667],[774,-3],[22,-7384],[1360,-723],[13538,-5406],[1485,-1466],[3624,-1105],[1315,234],[6102,-431],[5429,-768],[5934,-44],[-85,-21085],[-58008,106],[-674,-82539],[26,-15387],[-19562,772],[-49,-419],[228,-67745],[441,-10569]],[[539909,386925],[-14245,29],[-160276,-20]],[[365388,386934],[1410,83281],[-28452,-56],[-9953,-17],[-625,-16854],[-1233,-810],[-428,-2932],[-702,-1515],[151,-1385],[-793,-2068],[-3568,-3926],[-611,-1531],[185,-2929],[1004,-2183],[2742,-1271],[-1312,-1271],[-4875,-325],[-3778,-1954],[-763,-1580],[-2347,-2183],[-6444,-2380],[-2753,-1733],[-4100,-551],[-6953,257],[-6212,719],[-3004,1081],[-6755,355],[-2605,693],[-901,-3636],[-3106,-1776],[-3442,-1075],[-9171,3550],[-4509,1351],[-3230,1320],[-1857,-2217],[-3137,-554],[-11422,-3196],[-869,490],[-228,-31344],[88,-10281],[-1798,206],[-19151,4765],[-17848,-2367],[-12224,1471],[-298,7338],[216,3421],[-347,990],[-23351,67],[-2294,-431],[-8342,-4464],[-1099,-134],[-29281,-409],[117,-21064],[-25977,-222],[-1249,245],[-41653,46],[-1173,2510],[-5934,5189],[-50,2515],[-306,10520],[-38788,233],[220,61798],[-42,43117],[20746,41],[5158,-508],[29515,-485],[-1519,9915],[227,666],[3855,722],[20422,9170],[10519,6413],[2641,1139],[7866,2571],[4609,1193],[2349,979],[3481,573],[5406,1787],[4346,1687],[4817,1119],[391,1784],[-3222,4141],[-851,1461],[-3973,1424],[1200,4341],[71,855],[-2049,1059],[-3942,1530],[366,6894],[-1645,2121],[875,4114],[-956,1394],[-2594,1679],[-1063,1124],[-2384,1498],[-1594,544],[-3352,556],[-2330,1035],[-1886,-24],[-3087,-880],[-2839,325],[-5312,2242],[-7715,185],[664,17399],[-243,15947],[151870,-115],[-40,20641],[76,20697],[39194,300],[236,14095],[75,6565],[598,62013],[76034,-329],[-10,10341],[38956,-147],[28,20643],[135877,-324]],[[810335,703891],[546,0],[19099,35],[167,10254],[38957,-160]],[[869104,714020],[-299,-20616],[19587,54],[-67,-17762],[541,-660],[-16,-2282],[38950,37],[-152,-10451],[-121,-1385],[-550,-1498],[-2687,-4301],[216,-1922],[2660,-129],[496,-658],[57733,-227],[1,-18832],[-3050,-489],[-7520,58],[-2647,254],[-1864,727],[-2253,-750],[-1628,144],[-2420,990],[-2121,27],[-3961,-1650],[-1582,-117],[140,-11395],[-29362,197],[-18604,72],[-19790,-367],[-39,-37550],[19316,-16],[239,-2118],[2306,-30],[82,-3145],[5415,-15],[60,-5129],[-27309,180],[59,-5599],[19417,-14],[194,-25495],[9669,-288],[-1554,-1284],[-688,-1832],[471,-2805],[1722,-1499],[-85,-1525],[-1916,-513],[547,-1294],[-2097,-2824],[-6476,-2104],[-2425,-1461],[-3082,-1145],[-545,-2428],[25270,8],[-28,-31043],[702,-1],[-85,-20768],[19208,-95],[-34,-10273],[14493,52],[-25,-5280],[-9570,15],[-97,-4848],[-24053,948],[20,-11468],[42454,-38],[757,-10316],[-43304,-14],[-25,-10341],[19249,3],[-67,-10495],[38077,-81],[286,-10320],[-19182,42],[9,-10336],[-19393,38],[-47,-10348]],[[946630,376197],[-87215,208],[-12,8306],[529,1348],[158,703],[-30585,62],[-228,0],[-1139,-1323],[-17228,-13147],[-83,2212],[-10499,-4932],[-71,17193],[-31068,44],[-74628,52],[-145903,-6],[-8749,8]],[[675459,437499],[1515,-1290],[13262,17],[64,-5095],[4314,-19],[17552,41],[660,127],[860,913],[10,11678],[7165,28],[250,492],[-35,4287],[-2427,357],[102,8515],[-22571,1133],[-875,-1951],[1123,-1690],[-89,-1890],[-5345,-2828],[-3155,1680],[-3115,-1671],[-2929,1553],[-5879,-3141],[-533,-483],[76,-10763]],[[946630,376197],[-106,-13356],[769,-1092],[1524,-767],[2408,-386],[5869,14],[1815,-422],[1782,-1197],[482,-1736],[1420,-1165],[3201,-911],[1653,-1126],[494,-903],[-494,-1818],[-1988,-1307],[-11,-1066],[33385,-5311],[208,0]],[[999041,343648],[14,-19928],[21,-30965],[28,-41280],[10,-14206],[2,-3496],[59,-6092],[-15,-943],[-173,-10654],[-64,-9312],[-25,-4582],[51,-871],[-55,-556],[27,-3019],[211,-3258],[26,-10456],[-45,-4862],[-149801,320],[245,38037],[1288,605],[373,384],[501,191],[1538,-342],[493,133],[-807,656],[-1759,-103],[-1603,875],[-206,521],[-114972,51],[-19227,206],[171,-10359],[-135,-20928],[19170,-27],[117,-62363],[-17915,60],[-27,-927],[-38988,487],[161,-19866],[17157,-274],[820,-331],[174,-20418],[-17821,198],[-1655,-884],[244,-9689]],[[676649,75381],[-38553,129],[119,-10421],[-19106,-38],[-18207,-1],[-828,-35],[-380,5308],[-6015,-40],[-1105,662],[-2455,4520],[-19190,-65],[-335,684],[-2950,956],[-2960,1416],[-3446,1183],[2,-2739]],[[561240,76900],[-2530,2084],[77,2021],[-4271,1581],[-10898,10391],[-3344,3189],[1832,26],[-145,20276],[-19050,-191],[-27,-3533],[-9122,8695],[-12033,4874],[-413,2033],[-60998,50607],[41688,-519],[3078,302],[4801,174],[13747,163],[112,5031],[230,299],[-347,4084],[-39122,-681],[-67,17734],[44392,21015],[-155,92],[-104,3223],[-1351,881],[-2871,65],[-1649,9],[-9597,103],[-8693,8412],[-465,22104],[-18984,-24],[-455,51986],[-9557,96],[-9694,-187],[-146,9744],[-18,1276],[-28835,150],[-121,20047],[9713,-51],[-157,11126],[-21626,-58],[192,10460],[-38853,10],[-16,20915]],[[657210,117222],[1715,-4],[7323,-16],[9798,-12],[-79,12945],[-3497,-17],[-58,-2170],[-714,-396],[-14492,44],[4,-10374]],[[676649,75381],[58117,-9],[-391,-31026],[32948,-25],[44,-23651],[38655,55],[-214,-10351],[-133721,-19],[10,-10355],[-39857,27],[-2,9806],[1435,753],[132,10036],[-38110,-38],[-53483,48],[-208,54528],[19225,94],[11,1646]],[[869104,714020],[30,2560],[3228,597],[4698,234],[1329,1539],[2620,1046],[2481,1368],[4895,-327],[9645,583],[5974,64],[4009,438],[-19,2266],[52125,-13],[5386,512],[632,565],[312,29828],[33543,5],[6,-20562],[1,-31911],[-34,-29181],[-30,-25001],[-506,-12866],[9,-945],[0,-2],[9,-936],[218,-21816],[-31,-5879],[-110,-21513],[-206,-39976],[-54,-10429],[-175,-33963],[5,-2053],[1,-79],[7,-2849],[7,-5234],[29,-20800],[13,-9669],[-50,-3404],[-30,-2470],[-1,-71],[29,-2411],[-23,-1751],[-7,-529],[-1,-48],[0,-1254],[-1,-2639],[-18,-199],[-69,-791],[-92,-696],[-158,-1197],[-27,-894],[-2,-74],[-2,-2106],[0,-190],[-9,-10842],[-26,-34370],[0,-11],[47,-7185],[1,-45],[239,-9349],[37,-10415],[46,-12729],[7,-10303]]],"bbox":[-103.949223,33.759289,-103.042769,35.165172],"transform":{"scale":[9.064549064549031e-7,0.0000014058844058844017],"translate":[-103.949223,33.759289]}}
