{"type":"Topology","objects":{"foo":{"type":"GeometryCollection","geometries":[{"type":"MultiPolygon","arcs":[[[0]]],"properties":{"postal_code":"76950","realtor_list_price":"NA","realtor_list_price_yoy":"NA","realtor_list_price_base":"NA","realtor_active_listings":14,"realtor_active_listings_yoy":-0.3913,"realtor_active_listings_base":-0.4096,"realtor_new_listings":0,"realtor_new_listings_yoy":-1,"realtor_new_listings_base":-1,"realtor_days_on_market":"NA","realtor_days_on_market_yoy":"NA","realtor_days_on_market_base":"NA","zhvi":149175.454,"zhvi_yoy":-0.0439,"zhvi_base":-0.0127,"zori":"NA","zori_yoy":"NA","zori_base":"NA"}},{"type":"MultiPolygon","arcs":[[[1],[2]]],"properties":{"postal_code":"78837","realtor_list_price":437500,"realtor_list_price_yoy":"NA","realtor_list_price_base":"NA","realtor_active_listings":2.667,"realtor_active_listings_yoy":-0.2727,"realtor_active_listings_base":0.3529,"realtor_new_listings":0.667,"realtor_new_listings_yoy":"Inf","realtor_new_listings_base":"NA","realtor_days_on_market":16,"realtor_days_on_market_yoy":"NA","realtor_days_on_market_base":"NA","zhvi":"NA","zhvi_yoy":"NA","zhvi_base":"NA","zori":"NA","zori_yoy":"NA","zori_base":"NA"}}]}},"arcs":[[[388536,486764],[2392,760],[3296,1616],[1360,366],[2318,2440],[1978,601],[1524,1401],[146,1402],[-806,701],[927,1812],[-224,1470],[-1939,2320],[-1877,556],[-1785,3774],[-3558,6614],[-686,1646],[258,1104],[2848,1797],[2333,1103],[276,2854],[792,2921],[-277,4873],[-1261,1495],[1219,1946],[-364,1293],[-1734,703],[-1959,1883],[-932,38],[-555,1509],[70,1009],[3034,4643],[2134,2052],[1164,372],[1292,2532],[129,2093],[211,371],[3322,5134],[3579,3464],[5908,2346],[1029,1788],[2623,2558],[2403,3297],[1968,2278],[621,2040],[3338,3261],[2002,2654],[843,9879],[-1015,4007],[-204,1935],[-641,1669],[-2508,12220],[275,7962],[3423,1405],[3560,641],[2271,1316],[459,593],[2276,660],[253,1827],[-422,1357],[-1221,1109],[228,3257],[-486,-659],[-2431,-4762],[-2976,2615],[-3090,1329],[-1292,-284],[-322,1906],[1213,2859],[1574,33],[68,53476],[-128,1666],[124,3587],[-93,980],[46,124992],[-89,1884],[68,141858],[42,35293],[75587,132],[143031,676],[8215,56],[20074,298],[21211,203],[-1335,-4348],[-1656,-4036],[-1521,113],[-4891,-2017],[202,-1055],[-1262,-1001],[-397,-1776],[-2377,382],[-1831,1816],[-2594,309],[-1415,-1079],[-1053,-3364],[93,-980],[1523,-1830],[195,-1336],[-1281,-2595],[-467,-2071],[2072,-6192],[2925,781],[1583,-130],[6619,-1553],[541,-494],[205,-1445],[823,-934],[1855,-610],[2932,-23],[1199,-1552],[-890,-1604],[-886,-2952],[-755,-1517],[-1211,-749],[54,-1582],[634,82],[3047,-2734],[2815,771],[1538,1341],[1335,323],[1167,1048],[1162,268],[672,1151],[2677,-1458],[3888,278],[2148,-1818],[1376,-1868],[19518,365],[3058,941],[223,1751],[-53,9772],[1180,5576],[-661,5290],[-1897,5064],[-571,700],[2421,6171],[10754,11286],[194,1664],[26025,267],[1797,-3305],[220,-2889],[6235,-4147],[2532,574],[3389,-127],[1589,-305],[4029,70],[7689,5226],[758,780],[1703,4244],[27336,238],[116505,834],[51572,370],[-49,-120464],[-171,-76474],[-1351,-3176],[-776,-941],[-1455,-803],[-4554,1187],[-4230,718],[-4934,1609],[-2417,100],[-1784,489],[-1896,-828],[-1681,-1820],[-2971,-1118],[-4332,-1197],[-580,-1459],[-4503,-705],[-3470,-1915],[-1376,-1664],[-900,-5154],[-2491,-2811],[-1321,-1020],[-311,-962],[1196,-2182],[-109,-1403],[-4314,-5573],[43,-661],[-2880,-1554],[-5869,-1376],[126,-738],[238,-1271],[-110,-3231],[665,-1796],[581,-892],[3952,-4168],[2817,-1810],[1229,-2007],[2080,-1871],[1520,-298],[1901,799],[2648,-148],[2659,246],[1218,541],[1866,1385],[996,1265],[1016,2391],[1365,1167],[2513,520],[2138,-153],[1547,388],[2401,2034],[1820,1864],[767,281],[4662,319],[3131,2007],[1921,908],[1773,2109],[1844,1100],[2203,361],[1081,-1544],[1840,-1041],[1361,-2315],[140,-491],[-1069,-2414],[274,-2179],[847,-663],[313,-2016],[925,-1847],[-30,-77341],[163,-43574],[-6038,84],[-54098,-266],[-68244,-602],[-867,-5905],[-3180,-596],[-1080,-1933],[-2501,-2712],[1263,-788],[5028,-1946],[5419,-210],[-1718,-7765],[1255,-846],[3076,-2853],[748,-2639],[910,-1207],[544,491],[2460,196],[-251,-11242],[-27972,94],[-1120,117],[93,-1170],[954,-946],[134,-3130],[762,-699],[557,-1880],[1847,-2186],[1027,-1736],[20,-1372],[-672,-2905],[2,-2341],[-1052,-2669],[-853,-269],[-3809,226],[-985,-475],[-2175,-2613],[-1019,-3511],[-1220,-1321],[-1703,-1120],[17294,-27530],[-97,-855],[-1207,-857],[-1700,677],[-3917,704],[-1400,872],[-780,1144],[-2229,-398],[-4256,-3336],[-568,-922],[-1383,-211],[-782,-2548],[-5,-5605],[-1051,870],[-14129,8901],[-621,278],[-18328,-75],[-1125,169],[-6057,3928],[-913,213],[152,-1542],[-1255,-636],[116,-753],[-2253,-1224],[-1523,-2193],[257,-1861],[1104,-467],[320,-2029],[1438,749],[663,-602],[-372,-1365],[241,-2044],[-426,-505],[-815,-3325],[431,-324],[-2278,880],[-2090,-2822],[-56,-866],[-2099,-2421],[484,-1844],[-474,-1505],[-1116,250],[-1121,-682],[13587,-24197],[-343,-583],[-1001,-4847],[-1658,-3128],[-1446,970],[-3047,4719],[-939,-130],[-952,-1433],[-2619,91],[-2881,3325],[-5463,-3347],[-199,3014],[-774,1500],[331,1440],[190,3420],[-2294,1116],[-656,784],[-1783,284],[-1965,1030],[-2539,-69],[71,1675],[-1453,474],[-1358,1673],[-2224,935],[-697,-1147],[-2232,-1367],[-908,-91],[412,-2702],[-1949,-888],[-602,-1869],[-1168,-1391],[-1356,-907],[-1025,-1552],[-1570,-232],[-1856,239],[-2340,811],[-827,934],[-2385,358],[341,-808],[-21,-7326],[2325,-4925],[481,-646],[-1892,-1597],[-3301,-443],[-2821,-2298],[-1875,-958],[-1231,-1655],[-1617,-396],[-140,-1444],[-1474,-782],[-2605,-2001],[-2300,-1298],[-5019,-236],[-3052,876],[-745,618],[-1077,-210],[-1631,511],[-1511,1719],[-213,2447],[223,1374],[-690,2232],[-127,2567],[-2276,2955],[-930,2099],[-1025,841],[3,2514],[-704,2720],[-1144,2722],[-1592,2274],[-159,1319],[-1395,1677],[-1362,389],[-997,1184],[-657,-2222],[10,-1482],[-883,-2450],[-1201,-1433],[-678,-2751],[70,-1962],[-1243,-1922],[-862,-318],[-2937,-5719],[-930,-1470],[-2871,-2221],[-2849,-4667],[-571,-237],[-1328,1269],[-842,-429],[-1822,-5184],[-1025,-3370],[-2178,-673],[-1843,440],[724,3711],[-417,2653],[-1419,3189],[-3983,3057],[-1057,4424],[-682,3773],[-134,3857],[-2029,1131],[-3566,165],[-1783,1009],[-2740,-42],[-1245,-832],[-3628,-1455],[-1906,-1031],[-6117,-1354],[-2324,16],[-3166,3828],[-1074,2405],[-1248,1826],[-3794,2417],[-354,892],[-3691,1693],[-2570,605],[-999,1571],[-199,2025],[494,8472],[-627,1804],[-3152,633],[620,3692],[428,7347],[1951,5869],[2899,-700],[992,1691],[-272,2157],[584,882],[77,2449],[421,876],[-2252,1335],[-1493,2045],[-1625,-547],[-2930,7679],[-3465,756],[-2028,-266],[-2554,490],[-2328,-1487],[-615,-1000],[-446,-2635],[-1178,-841],[-690,-2051],[105,-1487],[-608,-1795],[-941,329],[-1371,2705],[-2070,2188],[894,12054],[-1567,-2547],[-1016,-6182],[-1446,-10779],[27,-1676],[787,-3288],[-12,-1702],[-3082,-10224],[-730,-2779],[-44,-2242],[215,-10252],[-856,-15107],[-2246,-12201],[-1219,-1896],[13,2347],[297,134266],[-82,1159],[-318,23400],[-67892,-189],[176,-6612],[-232,-955],[-100,-19340],[-74,-10895],[-4476,-5323],[-247,-1917],[-1241,-373],[-2647,1434],[-2491,190],[-4284,-6330],[-63,-599],[1096,-2254],[1670,-1979],[975,-2213],[1423,-294],[0,-397],[-1094,8],[-5136,38],[-403,2209],[1053,1277],[42,3108],[-503,2085],[-1471,1874],[-972,1923],[-1637,2113],[-744,-72],[-1595,1927],[-448,-778],[-14799,105],[1018,-514],[2282,-272],[1256,-607],[546,-927],[-171,-1793],[-2914,-494],[-3771,190],[-1018,-197],[-2080,-1345],[-911,-1602],[822,-47],[2446,-2103],[1767,-444],[-6106,-4552],[1307,-773],[1174,-1539],[2128,-448],[2875,460],[937,746],[610,1259],[684,312],[-568,-1617],[2187,-3043],[2494,-516],[1071,-682],[2852,-2686],[1819,-2483],[2649,-2177],[-684,-860],[-2491,-1371],[-1576,-3301],[-1479,-1502],[-588,-2213],[-805,-269],[-2223,-2727],[-1616,-830],[-2946,-761],[-1537,-2560],[-987,-3056],[-546,-119],[-2372,1433],[-1032,33],[-311,-779],[-2447,-934],[-2157,-1247],[-1968,-2084],[124,-963],[2651,-3631],[433,-5886],[1323,-4414],[2016,-3457],[2390,-5630],[2293,-854],[1246,-1626],[1362,-688],[-73,-32719],[22877,22],[741,-1151],[-227,-2645],[-558,-750],[-2983,-197],[-1743,-811],[-966,835],[-3624,-1971],[-1309,-1033],[-1241,-264],[-1475,783],[-1364,1627],[-1725,223],[-1520,-1333],[-82,-2465],[-2819,-2930],[-1845,3086],[-2078,-426],[-1052,1381],[-876,-201],[-1477,2046],[-1445,98],[-676,1489],[-1365,-90],[-698,-999],[-1026,-3266],[556,-879],[2900,-1845],[118,-3712],[672,-2949],[2339,-2224],[1941,-2610],[475,-1847],[-748,-1791],[757,-3499],[962,-2567],[31,-3658],[-1518,-1698],[-4071,-2971],[-653,-5199],[-1594,-1330],[-3192,-1916],[-275,-2394],[1395,-4847],[3774,-4224],[695,-1375],[129,-3310],[3545,-2115],[708,-842],[237,-8492],[789,-2375],[-952,-762],[-1613,-2454],[-1626,-612],[-1163,-1095],[-1378,-598],[-1702,-1393],[-1663,-362],[-1331,281],[-795,-453],[176,-670],[-1317,-3770],[837,-1485],[-1631,-22],[-1404,1588],[-2418,74],[-835,585],[-1104,-399],[-2666,302],[-1566,-226],[-2312,-1485],[-1573,-1551],[-2438,-1205],[-5057,-540],[-1478,642],[-1073,1931],[-1148,964],[-3715,99],[-814,522],[-167,1230],[847,1496],[-238,1394],[2685,2591],[419,2460],[1411,1177],[1505,2072],[1220,5546],[416,2830],[455,965],[2240,2727],[2825,2574],[1610,2269],[3556,2936],[-1871,106],[-911,916],[-331,889],[-332,4798],[-795,1927],[-332,2029],[274,2894],[1277,4938],[-110,2701],[-603,-312],[-969,1827],[-150,1425],[-1287,1469],[-1789,168],[-1755,1989],[-1623,-272],[-1441,572],[-2257,-134],[-1891,3223],[-1170,1100],[-1695,-1125],[-978,-100],[-1845,-1014],[-1156,68],[-458,-854],[-1910,-27],[-1115,1861],[-2766,3220],[-1650,3389],[-3617,1089],[-1106,607],[-1169,260],[-3349,-148],[-1440,290],[-4682,-74],[-3582,985],[-3036,95],[-1342,1172],[-1800,-1213],[-3621,-165],[-1653,385],[543,1660],[-140,1261],[489,3636],[1686,1622],[563,3437],[-1964,1853],[-3136,-1823],[-3212,522],[-1258,1002],[-4383,4028],[-1321,2242],[-4873,2386],[-4405,705],[-2247,1172],[1028,1721]],[[0,183260],[1716,293],[3477,-1137],[3349,-559],[1057,263],[1334,2190],[316,1573],[-427,1554],[123,4029],[-809,3953],[-428,732],[107,1726],[1540,4254],[-1142,81],[924,655],[1325,2672],[2987,3099],[-424,2017],[-1160,1763],[-2297,2458],[-1327,-684],[-1955,138],[1963,349],[1357,1043],[1215,-1066],[2122,-2610],[1357,-2768],[3776,1700],[476,494],[2016,393],[2148,1481],[1778,2223],[-24,980],[-1480,1711],[-274,1583],[1741,-2735],[642,-196],[1092,1449],[1694,764],[565,1291],[1249,-325],[4365,2868],[-5202,1766],[-2941,195],[-3431,-376],[-3377,-1173],[-1074,702],[-379,1062],[1660,-728],[1749,193],[2648,2395],[355,1583],[-944,2348],[103,3924],[282,1729],[-777,2255],[1504,-955],[1533,349],[1613,-162],[-1599,1670],[-7,1713],[-1119,2342],[-1249,88],[-1069,723],[-401,2224],[-988,1307],[-785,-447],[456,1464],[1156,65],[3364,3305],[756,377],[3407,4744],[1637,1097],[-562,1438],[294,1618],[2567,2288],[788,2235],[-1001,3442],[2175,1238],[527,1419],[-223,1333],[1392,2730],[177,2284],[989,1114],[1220,372],[1620,2428],[-895,259],[-2350,2065],[-1272,2248],[-334,1520],[78,2257],[-702,2595],[-217,3901],[-313,1860],[-1031,2868],[-262,2511],[334,-1931],[-7,-410],[1106,-3216],[595,-5070],[531,-1320],[-812,5631],[-1335,4159],[-317,3241],[1663,4761],[2164,2366],[2343,1357],[1495,497],[5993,-648],[6494,446],[6299,1892],[1430,791],[1101,-258],[484,187],[171,-14],[681,196],[771,153],[-154,196],[1760,1455],[810,67],[2047,1325],[2745,3018],[2017,1038],[2210,2195],[2544,2965],[1740,2587],[1147,5020],[663,-177],[1041,2147],[1208,3485],[-53,5455],[-176,2634],[-283,741],[209,1435],[-382,1811],[-1282,3250],[-836,899],[-1042,2576],[-956,1279],[-850,1092],[-2122,2619],[-2945,2101],[-2556,951],[-6109,2711],[-2079,587],[-2097,960],[-2648,1858],[-1937,2615],[-732,2381],[-1020,1903],[-526,1658],[-3869,7761],[-1170,1382],[-3095,1632],[-450,884],[-1761,1535],[-820,445],[-3141,5179],[511,3484],[1653,3634],[1531,1882],[2440,147],[1810,420],[6167,102],[1929,-809],[2175,257],[2977,590],[1440,871],[2020,378],[2739,1259],[1896,1149],[990,985],[2097,2028],[1954,3108],[219,1348],[-799,2208],[446,980],[-1657,5258],[-709,1181],[-326,95],[-172,139],[-86,373],[-785,726],[-772,152],[-793,-52],[-721,-192],[137,225],[-614,420],[-3955,-65],[-1647,-345],[-540,-468],[-3145,-323],[-2278,494],[-1882,1630],[-206,498],[1108,2356],[1153,-60],[2130,2739],[337,1559],[777,568],[3030,4470],[2958,816],[294,1159],[887,725],[1608,345],[1898,-1248],[1458,-300],[1174,1175],[1703,689],[3576,783],[2111,2208],[1999,1455],[1464,-3244],[1372,146],[934,965],[1815,417],[1679,898],[3113,471],[1648,-914],[1723,-83],[832,440],[4049,-250],[1044,-1297],[-3,-1453],[767,-2276],[2827,3465],[795,537],[2253,-246],[1080,465],[660,1129],[1188,632],[-952,1581],[760,980],[-232,1215],[-1648,1922],[314,1736],[643,291],[798,3562],[1185,496],[-175,2075],[-989,2324],[-842,547],[-3092,5086],[-2181,984],[-5,1742],[5793,3915],[859,-11],[1327,1413],[-986,2234],[-822,982],[1364,1598],[1542,1177],[218,1892],[-513,927],[-321,2407],[367,3355],[-729,1286],[267,6416],[884,3221],[-146,4044],[-1516,3255],[-240,2055],[1023,1956],[-58,1777],[-967,-4],[-1078,-1448],[-1386,-692],[-1900,2970],[-403,3064],[373,2113],[-470,1915],[-951,776],[550,5440],[260,590],[2182,1773],[131,3637],[1357,2500],[-68,985],[1353,856],[1027,1562],[1615,952],[1460,-153],[1113,774],[555,4097],[-708,1524],[224,3256],[-1684,1344],[1580,578],[2815,42],[2487,1420],[2348,80],[3965,1379],[3074,214],[11596,-2016],[5263,1141],[1354,23],[2882,-1064],[1304,-797],[7944,-8256],[8341,-5049],[1478,-1913],[2459,216],[1382,593],[1183,-398],[200,4308],[592,2757],[-602,4371],[-1460,-76],[-1517,-1014],[-829,1391],[1070,2046],[1417,1435],[146,2314],[571,942],[1264,748],[1867,-8326],[1746,-749],[2132,-1604],[40,963],[2474,3775],[-174,1446],[369,2556],[1858,4545],[3299,3808],[1497,3946],[3423,2343],[229,1145],[2829,2918],[1451,926],[226,900],[1932,1585],[874,191],[1149,1661],[4913,1043],[5009,2228],[2608,-1867],[2272,-4588],[1392,-1868],[1287,-2496],[3512,-4609],[27,-578],[2059,305],[1419,753],[935,1577],[-142,1876],[1196,1511],[3432,3405],[2829,6204],[984,1467],[4415,2911],[2865,3590],[286,2511],[511,-1449],[2246,3198],[2399,614],[4340,-1536],[2722,-2046],[2627,-77],[1131,837],[3553,-1458],[-307,-1141],[272,-2149],[1126,1056],[3662,340],[528,607],[1050,-702],[1228,438],[1532,-3340],[1263,-655],[30,-1521],[1213,-2749],[480,-5778],[1736,-486],[5364,-9475],[214,-1927],[1034,-2229],[1010,-805],[155,-1547],[-332,-6028],[824,-3251],[1044,-2033],[1936,-495],[3224,-4676],[1938,-1324],[1650,-518],[1521,483],[506,-1282],[4087,-1505],[800,1110],[2039,-94],[1284,2325],[2688,3166],[3235,2688],[1368,531],[1119,2227],[3311,3280],[2001,678],[1691,1333],[2382,-1097],[-180,-4397],[319,-2126],[1091,-4220],[1601,-3041],[2269,-2453],[2656,-5921],[508,-880],[1434,-3877],[47,-775],[-311,-1090],[-1175,-1394],[346,-561],[-133,-2462],[-743,-321],[-4930,-3659],[-1163,-1334],[-2068,-3142],[-995,-1351],[-1415,-908],[-463,-1683],[-2149,-3547],[-3277,-5890],[-634,-4919],[-163,-4496],[306,-4324],[747,-2582],[787,-4705],[547,-1785],[440,-1204],[3241,-6470],[1634,-2566],[2500,-1852],[488,-878],[-2035,-7067],[46,-3836],[313,-3641],[-1191,-6661],[-1246,-1810],[478,-2117],[444,-3198],[-68,-1453],[-609,-1722],[-2449,-2493],[-1613,-790],[-2415,-545],[-2919,-2349],[-3745,-2386],[-6520,-4637],[-3168,-58],[-3701,201],[-2135,-327],[-2297,3220],[-2239,1952],[-3163,1674],[-1651,296],[-2305,-496],[-2703,841],[-1664,-33],[-2991,-722],[-2977,-305],[-1124,-847],[-661,-2988],[-2394,-3276],[623,-4346],[841,-2285],[2093,-1755],[1613,-459],[1128,-1654],[1450,-3127],[1368,-1157],[960,853],[2324,-3867],[1023,-863],[1467,-4113],[503,-3546],[503,-4925],[526,-2687],[-1044,-2286],[-609,-3246],[-1288,-3453],[-96,-1795],[-597,-3302],[-381,-4392],[1239,-5681],[1197,-3324],[1624,-2408],[3496,-3381],[2414,-761],[2704,-2055],[1481,-1753],[2821,-3824],[291,-828],[1026,-705],[1470,-2013],[1194,-3147],[3196,-6011],[1127,-517],[3968,-743],[2113,276],[3008,815],[1221,766],[3115,1202],[2041,331],[1620,-306],[2521,-1676],[1910,-3034],[-611,-354],[781,-1400],[2336,-2717],[2406,-4614],[1504,-865],[1775,-1567],[2391,-2741],[1463,-3852],[-527,-3945],[-2787,-4288],[-900,-2732],[-1195,-1406],[-557,-1798],[-1274,-9977],[954,-4534],[2720,-3978],[1524,555],[1492,-1980],[943,-2046],[2098,-2233],[2399,-1223],[2283,-545],[4142,4099],[1100,1855],[1527,4320],[3450,-2040],[1350,-1070],[4463,-297],[4467,-3515],[1542,1764],[1394,-100],[-561,-628],[2035,-1562],[1023,-3052],[2510,-774],[1225,-1256],[1017,-62],[-425,-2686],[-1314,-725],[-4812,-1104],[-2784,-2180],[-1599,309],[-2076,-503],[-2232,-1527],[-1219,-1846],[-2573,-1614],[-105,-1292],[-982,-2278],[-1470,-1681],[-1693,-391],[-663,-1480],[-2232,-1938],[-87,-1307],[-1690,-2567],[-1568,-3848],[-1268,-1894],[-1102,-846],[-1401,-113],[-1501,1159],[-865,-355],[-681,-1689],[-1258,-1666],[-3049,-5406],[-1846,-4232],[-671,-4507],[-1873,-2063],[-1381,-3291],[-1614,-1861],[-52,-6965],[-172,-2437],[822,-1887],[-359,-1921],[-1450,-3425],[-770,-612],[-316,-1368],[-1716,822],[-951,2295],[-2567,-2445],[-2116,35],[-1628,-697],[-2498,-2274],[-906,-1458],[-2284,-1993],[-1112,-2733],[-513,-2318],[270,-1392],[-3017,-670],[1853,-5023],[676,-4837],[-396,-2429],[-866,-1709],[-2407,-3594],[-437,-1333],[-830,-4771],[-1812,-3959],[20171,-53605],[287,-1470],[3681,-9891],[-233,81],[284,-222],[4749,-12796],[13344,-13194],[-16780,278],[-88,-22190],[-69,-7302],[-1201,-2920],[-583,-3374],[-1171,238],[-589,-2171],[-1199,-1307],[-1979,-7207],[-1063,-1813],[-1725,-230],[-915,-1255],[62,-1850],[-444,-3099],[71,-3101],[376,-3360],[-1294,-2654],[-1305,1710],[-1337,2340],[-685,1882],[-399,2683],[-401,11823],[-184,1823],[-1984,12402],[-676,897],[-405,2669],[-1691,1008],[-2483,-1484],[-7147,-7413],[-970,2759],[-95,-725],[-1476,-1244],[-3903,-264],[-936,2654],[-1797,-413],[-1832,434],[361,-848],[-957,-1348],[-94,-1056],[-1253,-1779],[-4452,-3559],[-4495,-4980],[1809,-2385],[971,-2975],[1322,-171],[35,-770],[1154,-295],[-832,-5225],[1162,-1802],[-298,-3529],[-641,-1124],[-3714,-8887],[-941,-610],[-2774,2030],[-27,1599],[-4084,1728],[274,1813],[-1443,1239],[-2634,1032],[-1387,-15],[-1598,-2405],[-448,574],[350,2309],[1682,1120],[-1503,-479],[-998,-861],[-1939,483],[-81,574],[1323,76],[103,1454],[1268,454],[-1413,106],[-718,-1349],[-1460,-943],[287,-831],[-1008,-2845],[-1490,104],[1401,-1032],[256,-2903],[-990,1545],[-713,-737],[-1273,928],[-1343,58135],[-349,-548],[44,-728],[-769,-1062],[-1238,734],[-904,876],[-1015,205],[-1767,-1055],[-825,-1263],[-617,-399],[-163,-541],[-1779,-1661],[-3155,-3222],[-658,-536],[-1146,-39],[-678,239],[-474,829],[-261,1066],[-386,478],[-881,143],[-491,-222],[-762,-1117],[-798,-440],[-347,-1065],[-3147,-937],[213,674],[-466,1526],[4,645],[431,483],[1678,543],[871,488],[956,1836],[611,465],[743,-196],[688,268],[533,780],[394,-875],[-65,1018],[-103,1717],[-688,817],[222,760],[-551,-530],[671,-1492],[-145,-650],[-803,-1120],[-888,220],[-948,-583],[-1277,-2039],[16,2033],[-376,554],[-290,-1334],[-850,306],[483,-1377],[-478,-569],[-717,-144],[-1141,277],[-663,525],[-615,870],[-1571,797],[-102,788],[-701,-300],[-418,502],[184,1233],[1611,321],[-435,717],[413,512],[-1870,-909],[-294,2057],[675,1434],[-902,-1310],[-478,564],[-34,818],[-648,1019],[-256,899],[111,688],[-295,918],[338,717],[-320,938],[261,1803],[843,786],[326,873],[-60,787],[510,1507],[-607,407],[-488,895],[-152,821],[-463,315],[-90,1069],[-444,1971],[-475,912],[-51,844],[-622,558],[129,1417],[-756,1621],[-1535,-510],[-1656,245],[-2995,191],[-1960,-196],[-459,246],[-1022,1099],[-559,-157],[-851,355],[146,891],[-851,1081],[80,2246],[463,1339],[1345,1358],[1505,1951],[886,2570],[-2895,-580],[-1368,209],[-1092,706],[-1984,514],[-2040,948],[-819,669],[-1547,910],[-776,229],[-640,-2430],[784,-1054],[-35,-1652],[-338,-976],[-1425,-2111],[-1441,-776],[677,-398],[392,-1196],[1318,-1393],[-969,-495],[655,-479],[567,412],[665,-2222],[499,-818],[978,-1016],[428,-916],[498,-1654],[-157,-751],[-534,894],[-1103,234],[-653,493],[-654,-660],[-1141,349],[-602,-220],[-86,-884],[-351,-421],[-1371,-229],[-1164,459],[-605,1235],[-587,1],[-660,-1335],[142,-2212],[-106,-1354],[178,-1056],[-588,-1414],[409,-579],[962,-718],[-682,-203],[-56,-636],[-594,14],[-427,-908],[230,-2496],[1107,9],[543,-301],[-923,-138],[-650,-421],[69,-947],[670,-157],[-760,-426],[-304,-2778],[-261,-1454],[-632,-2194],[-838,-3887],[876,-124],[-496,-1525],[-269,1051],[-1042,-1482],[-260,-1296],[-466,-1157],[-102,-803],[474,-564],[-735,-1568],[-721,-1172],[-582,-966],[43,-841],[1077,-971],[-756,-262],[-201,-134],[-141,-139],[-128,-192],[-214,-373],[-30,-119],[116,-210],[367,-225],[0,-196],[-889,-301],[-196,-765],[688,-278],[793,563],[719,-845],[-1533,-492],[448,-598],[845,-62],[1137,-234],[-556,-554],[-1311,27],[-790,340],[261,-587],[1259,-1234],[-2220,884],[-158,-1204],[314,-232],[-750,-524],[1589,-53],[1853,-554],[-1003,-101],[-210,-593],[-572,402],[-781,-469],[1473,-1137],[-918,9],[-56,24],[-72,75],[-43,45],[-85,52],[-444,120],[-90,38],[-167,134],[-183,186],[-363,201],[-90,-38],[-47,-63],[-115,-496],[-4,-206],[68,-100],[111,-63],[56,-52],[17,-124],[93,-178],[-17,-48],[-47,-42],[-162,-63],[-72,-14],[-39,-38],[-103,-272],[0,-144],[90,-158],[227,-71],[205,86],[499,425],[-21,-698],[-260,-239],[-95,-120],[-38,-76],[21,-77],[30,-24],[77,-4],[248,81],[226,9],[150,58],[243,148],[205,153],[1555,182],[640,-206],[-798,-153],[-1854,-956],[197,-569],[999,-478],[708,-344],[-1200,10],[95,-708],[-606,760],[-142,57],[-141,44],[-68,38],[-290,415],[-103,120],[-337,244],[-175,67],[-154,0],[-51,-67],[17,-86],[72,-115],[248,-335],[37,-100],[23,-62],[0,-86],[-34,-48],[-48,0],[-57,72],[-45,57],[-60,57],[-68,-10],[-124,-123],[-60,-163],[13,-382],[368,-484],[-137,-296],[1046,-382],[171,-570],[-1051,-124],[222,-2209],[513,961],[867,63],[1110,803],[-1208,-1917],[922,-245],[999,388],[-841,-1052],[-807,-62],[145,-359],[-1182,-134],[115,-1094],[47,-201],[128,-431],[38,-191],[47,-67],[35,-4],[42,67],[47,612],[0,94],[0,140],[13,72],[25,42],[705,-497],[256,-1114],[-628,-674],[368,43],[299,-163],[-235,-989],[666,139],[103,1003],[119,67],[239,-19],[85,34],[64,110],[-8,100],[-154,158],[-124,153],[-21,76],[9,144],[-5,42],[-38,182],[-166,239],[-38,68],[-26,47],[-112,264],[-38,167],[845,-493],[590,-951],[521,674],[-299,1262],[871,-1205],[1110,292],[-973,-860],[-393,-947],[-539,-340],[-302,-822],[439,-679],[1217,-278],[-59,751],[619,-536],[72,670],[713,-33],[991,0],[269,-1014],[-1128,-239],[474,-641],[-256,-812],[-551,-144],[-192,659],[-1319,-463],[-423,545],[-995,206],[1499,-1516],[572,134],[-764,-1134],[-43,34],[-49,135],[-7,18],[-76,144],[-73,57],[-128,77],[-183,52],[-60,29],[-111,120],[-77,23],[-82,-29],[-34,-80],[-8,-111],[-34,-148],[-90,-34],[-77,25],[-94,48],[-51,-15],[-13,-48],[17,-81],[99,-96],[171,-72],[113,-9],[109,-10],[140,0],[30,-23],[13,-27],[34,-69],[-64,-191],[-13,-63],[30,-23],[119,23],[150,44],[107,-20],[51,-57],[22,-153],[42,-158],[38,-177],[-12,-71],[-111,-153],[-43,-91],[30,-125],[13,-105],[-35,-153],[26,-71],[65,-10],[72,86],[30,134],[0,77],[38,234],[14,22],[29,50],[43,42],[98,19],[136,-28],[64,-24],[56,19],[-166,402],[623,511],[794,-38],[371,-770],[-653,-282],[828,-497],[108,-5],[144,96],[128,52],[64,-14],[26,-53],[-8,-90],[3,-50],[5,-61],[60,-138],[-4,-53],[-43,-57],[-107,-5],[-149,-34],[-35,-86],[-17,-153],[-42,-62],[-150,96],[-184,93],[-72,36],[-372,105],[-140,15],[-145,-25],[-52,-66],[-60,-192],[-68,-57],[0,-71],[73,-110],[21,-63],[30,-287],[0,-134],[-29,-97],[-61,-65],[-141,-62],[-93,-86],[188,-10],[115,-38],[55,-53],[52,58],[21,311],[34,157],[517,292],[499,-464],[-372,-1089],[769,649],[107,-803],[555,1559],[457,-1292],[619,-67],[-324,1258],[405,493],[495,-277],[624,205],[-316,-746],[-30,-129],[0,-130],[56,-114],[55,-153],[38,-48],[51,-22],[18,-7],[81,91],[28,83],[27,199],[39,101],[55,43],[115,19],[150,-52],[124,-25],[85,44],[21,61],[0,130],[26,172],[56,77],[51,23],[64,-9],[89,-72],[73,-76],[115,-96],[86,-34],[64,10],[42,62],[26,67],[111,19],[256,-58],[112,53],[42,62],[64,120],[162,57],[51,48],[-4,110],[-235,187],[-25,61],[-85,67],[-1094,-4],[-239,530],[-794,345],[-653,29],[-645,-789],[209,975],[-661,-162],[145,683],[-781,58],[-325,569],[1020,105],[936,-526],[42,870],[-495,134],[98,689],[-930,187],[593,448],[-115,1210],[888,-100],[-85,-1167],[678,-492],[218,-1306],[560,1358],[427,-655],[862,-951],[-17,114],[-154,158],[-38,105],[12,96],[112,195],[4,149],[-30,115],[-303,344],[-380,100],[-402,832],[-409,560],[640,794],[-828,425],[854,124],[81,732],[743,-53],[-265,-1095],[231,-932],[81,-9],[132,134],[73,52],[85,-5],[39,-86],[12,-225],[22,-96],[21,-13],[248,80],[59,67],[73,354],[-21,139],[-73,148],[-4,58],[60,57],[98,57],[34,100],[-9,66],[-29,198],[-86,157],[-12,44],[90,38],[85,-29],[452,-698],[291,-995],[-56,-53],[-134,-47],[-15,-5],[-112,-67],[-72,-90],[-34,-96],[-43,-38],[-115,-72],[-30,-43],[-34,-101],[-5,-67],[-60,-90],[-80,-172],[21,-44],[38,-19],[248,48],[175,-158],[13,-114],[431,922],[846,1081],[43,-63],[32,-91],[10,-28],[42,-47],[56,33],[18,29],[17,28],[55,72],[81,-10],[81,-57],[52,-63],[110,-133],[77,-29],[128,0],[48,-19],[89,4],[17,29],[-158,72],[-98,86],[-21,67],[124,272],[-31,67],[-76,-90],[-47,-101],[-65,-53],[-93,5],[-141,91],[-205,220],[265,655],[-1038,-936],[-610,936],[777,134],[-320,570],[119,71],[79,53],[241,162],[214,172],[30,43],[-22,33],[-320,-38],[-51,5],[-205,91],[-764,-559],[68,105],[72,143],[90,312],[42,112],[18,49],[64,144],[17,244],[-149,-67],[-179,-215],[-73,38],[21,163],[111,253],[-21,120],[-670,-258],[-714,-411],[372,607],[243,478],[-1913,1640],[2101,-469],[73,-225],[17,-310],[106,-105],[78,-14],[127,-86],[78,-67],[213,-58],[72,134],[-16,224],[260,14],[116,-200],[157,24],[94,-10],[239,-296],[863,14],[777,-852],[448,-1185],[86,-95],[85,-34],[230,-39],[103,-76],[51,-96],[55,-62],[52,0],[21,39],[-102,157],[-94,163],[-56,43],[-252,134],[291,1009],[483,-584],[363,602],[-688,933],[906,163],[-1017,406],[-739,-904],[107,1009],[-683,-550],[-461,971],[-846,-688],[90,798],[-792,-171],[-845,555],[1552,108],[388,-717],[884,292],[1469,-508],[1319,-434],[590,-899],[-1452,273],[772,-943],[-990,-492],[12,-818],[-307,-234],[-709,569],[-559,1091],[-247,-512],[-142,1109],[-1716,478],[-986,264],[17,388],[-448,47],[640,-866],[-325,-501],[927,167],[320,-215],[-175,-765],[1081,71],[21,-230],[-577,-410],[543,-254],[-496,-550],[1007,311],[-260,-789],[722,205],[-120,-731],[598,86],[-419,-555],[-1140,388],[-247,-263],[-222,-837],[755,201],[-717,-1812],[346,1152],[-842,-697],[-401,-775],[-90,1319],[-371,-124],[90,793],[559,632],[-427,717],[-98,-631],[-461,-464],[-1080,1028],[213,-760],[-149,-851],[700,-29],[183,-1468],[-585,-411],[-184,570],[-520,19],[-60,898],[-341,-946],[-483,-273],[-77,794],[-973,1387],[589,-1229],[-85,-1339],[-880,340],[589,-866],[1546,105],[533,-942],[619,301],[781,-578],[103,-392],[-897,-737],[-661,115],[-112,-774],[-524,473],[-39,-645],[-747,894],[-598,363],[388,-1061],[-25,-574],[-1106,263],[-256,1095],[-107,-1506],[-576,-215],[-5,1171],[-798,-779],[-154,593],[389,784],[-683,349],[-226,-899],[-431,287],[-505,612],[701,-47],[-248,654],[231,349],[1310,77],[-345,210],[-940,369],[573,363],[21,28],[-43,43],[-128,87],[-42,57],[-18,96],[39,95],[63,86],[-12,24],[-107,-58],[-136,-86],[-133,-38],[-123,24],[-48,72],[-34,139],[-34,95],[-149,-72],[8,-143],[13,-67],[-94,-86],[-294,38],[264,-372],[-72,-417],[-790,-492],[-261,712],[103,679],[-504,-105],[-1055,1698],[769,-588],[145,502],[1375,-349],[-303,100],[-1682,1416],[-897,993],[615,340],[875,-893],[1576,-355],[802,401],[487,670],[-614,-167],[-440,325],[-880,-177],[-611,182],[-696,951],[226,1023],[603,402],[435,971],[-427,707],[56,-717],[-517,-574],[-845,685],[-13,66],[13,91],[-34,62],[-30,95],[-65,106],[-72,24],[-56,0],[-42,-34],[77,-119],[34,-101],[-9,-244],[9,-95],[98,-96],[162,-95],[64,-110],[26,-72],[-22,-125],[-183,-320],[-69,-14],[-251,62],[-60,-15],[-21,-38],[-141,-1051],[-688,-220],[-512,396],[4,53],[34,24],[145,0],[51,24],[13,72],[-59,287],[8,80],[47,111],[69,96],[85,80],[21,44],[-25,48],[-99,4],[-192,-52],[-218,-105],[-106,0],[589,1004],[-636,1042],[-17,-641],[-278,-205],[-303,894],[-205,1458],[235,258],[837,57],[98,354],[1003,230],[-632,43],[-790,545],[607,865],[-987,-129],[-337,-1047],[-495,177],[-355,2195],[1012,641],[-483,392],[-683,-268],[205,659],[-38,72],[-239,306],[-86,186],[-8,106],[-30,181],[30,326],[42,119],[43,91],[128,115],[13,42],[-9,58],[-29,62],[-47,62],[-56,91],[-17,77],[17,119],[483,124],[1447,-1147],[615,144],[-700,263],[-568,832],[1520,1032],[-1973,-459],[-282,210],[414,842],[-691,-316],[-133,92],[-110,109],[-48,67],[-38,110],[25,244],[73,272],[52,72],[80,53],[125,57],[4,24],[-17,29],[-26,124],[-30,39],[-73,23],[-55,57],[-34,73],[4,210],[98,764],[295,207],[1486,-856],[-752,860],[1405,675],[-503,448],[-1243,-119],[-585,201],[93,287],[675,258],[-589,1071],[-34,765],[722,-14],[1204,-650],[-803,746],[-59,597],[-526,311],[1170,-163],[538,-358],[-380,922],[-593,297],[1196,564],[-1624,201],[-598,745],[1431,780],[-260,354],[337,898],[-1371,-721],[-765,396],[184,792],[-646,218],[200,680],[2721,5795],[1953,4901],[1838,5176],[854,4751],[-930,5858],[-629,2401],[-1027,2280],[-1833,2419],[-2571,1986],[-3122,1262],[-5233,635],[-6219,757],[-3828,45],[-5437,1226],[-2145,-232],[-1136,-1103],[-2143,-5174],[-1182,-2857],[-1299,-1876],[-1068,-140],[-1764,832],[-1294,2239],[-1095,8581],[-577,4093],[-966,3204],[-2255,3423],[-1441,2621],[-342,2037],[529,8421],[269,3547],[-608,4760],[-1773,2069],[-2271,1432],[-6358,3489],[-2027,1738],[-3980,3897],[-960,2655],[198,3331],[1206,5413],[-485,6007],[-2462,3579],[-6372,2973],[-2340,2037],[-1434,2342],[-94,3193],[615,2167],[2358,1366],[5034,2885],[2559,2171],[1161,3954],[-142,2453],[-1513,2276],[-1482,1190],[-1964,188],[-2603,-899],[-2571,-1871],[-7212,-6223],[-7714,-7702],[-2405,-1597],[-4318,-1061],[-2310,1132],[-1057,2259],[-676,3322],[-2573,12832],[864,5405],[993,4114],[-877,2687],[-1288,1747],[-1988,1181],[-2058,483],[-2577,-722],[-6599,-2691],[-2516,-1586],[-1311,-1666],[-3519,-6348],[-5372,-4375],[-6332,-4570],[-2669,-644],[-3226,650],[-5035,5],[-5801,-3458],[-2512,-1170],[-2901,-294],[-1493,953],[-777,1516],[605,9732],[134,11695],[553,3401],[1165,3737],[381,2657],[-1937,5579],[-1950,4137],[-790,1677],[-1691,935],[-2445,-1569],[-3049,-5060],[-2086,-1108],[-8274,-3680],[-4100,-8462],[-361,-2104],[761,-2177],[218,-2331],[253,-5945],[70,-1298],[-1726,-2790],[-1418,-639],[-2180,471],[-4129,1148],[-1420,-25],[-724,147]],[[33299,234204],[2623,-1732],[915,-2253],[1444,285],[-324,-3071],[1522,-2071],[3476,-737],[-2064,-1491],[-1990,-2184],[20858,-5528],[11805,-3022],[2375,-299],[11814,-473],[1338,-319],[2272,-1540],[5188,-5869],[593,633],[2423,-1242],[2569,-3518],[1259,-1052],[3769,-903],[-719,6081],[-685,1626],[1712,1088],[-3905,2790],[-4339,652],[-3164,1683],[-579,2589],[327,2159],[1830,3287],[2483,3511],[2390,1669],[1807,651],[6385,-708],[1913,287],[6274,1740],[5084,491],[3026,1228],[4529,2417],[381,226],[2054,1514],[1011,545],[1696,2949],[167,1687],[660,1903],[638,478],[1015,1104],[1982,1132],[-149,3724],[-1675,7339],[-1417,2248],[-1553,589],[-4444,3525],[-372,1105],[-2919,2433],[-7813,5275],[-792,665],[-1773,707],[-2633,1588],[-334,311],[-3948,9],[-6063,1353],[-450,242],[-2060,2098],[-4000,6621],[-2222,3136],[-1199,359],[-4180,1653],[-2707,554],[-1135,-321],[-5726,1533],[-3028,1998],[-3448,1451],[-2001,229],[-3083,-1317],[-3267,-676],[-2869,-1636],[-1796,-2568],[-5145,-4501],[-372,-90],[-2677,-295],[-2891,54],[-1023,-1831],[1943,-2372],[89,-1376],[1395,-2640],[398,-2393],[-361,-2271],[-2051,-2782],[-2155,-1552],[-3074,-1051],[2110,-1072],[-785,-2584],[738,-1242],[4394,-766],[1903,760],[559,-1912],[-1395,-1833],[-1518,-3715],[-3356,-3967],[-4019,-1766],[-2958,-2500],[-873,-2303],[-1944,-2731],[-3934,-3027],[220,-862]]],"bbox":[-101.589488,29.560373,-100.116234,30.710366],"transform":{"scale":[0.0000014732554732554703,0.000001149994149994152],"translate":[-101.589488,29.560373]}}
