{"type":"Topology","objects":{"foo":{"type":"GeometryCollection","geometries":[{"type":"MultiPolygon","arcs":[[[0,1,2,3,4,5,6,7]]],"properties":{"postal_code":"26280","realtor_list_price":"NA","realtor_list_price_yoy":"NA","realtor_list_price_base":"NA","realtor_active_listings":4.667,"realtor_active_listings_yoy":-0.2632,"realtor_active_listings_base":1.2594,"realtor_new_listings":0,"realtor_new_listings_yoy":-1,"realtor_new_listings_base":"NA","realtor_days_on_market":"NA","realtor_days_on_market_yoy":"NA","realtor_days_on_market_base":"NA","zhvi":131089.163,"zhvi_yoy":-0.0265,"zhvi_base":0.4076,"zori":"NA","zori_yoy":"NA","zori_base":"NA"}},{"type":"MultiPolygon","arcs":[[[8,9,10,11,12,13,14]]],"properties":{"postal_code":"26241","realtor_list_price":229919.231,"realtor_list_price_yoy":-0.098,"realtor_list_price_base":0.4545,"realtor_active_listings":40.667,"realtor_active_listings_yoy":0.1193,"realtor_active_listings_base":-0.5044,"realtor_new_listings":8.667,"realtor_new_listings_yoy":-0.2353,"realtor_new_listings_base":-0.2323,"realtor_days_on_market":67.385,"realtor_days_on_market_yoy":-0.2619,"realtor_days_on_market_base":-0.2744,"zhvi":172635.328,"zhvi_yoy":0.0132,"zhvi_base":0.3607,"zori":"NA","zori_yoy":"NA","zori_base":"NA"}},{"type":"MultiPolygon","arcs":[[[-9,15,16]]],"properties":{"postal_code":"26283","realtor_list_price":200750,"realtor_list_price_yoy":"NA","realtor_list_price_base":"NA","realtor_active_listings":4,"realtor_active_listings_yoy":3,"realtor_active_listings_base":-0.2568,"realtor_new_listings":0.667,"realtor_new_listings_yoy":"Inf","realtor_new_listings_base":1.3333,"realtor_days_on_market":16,"realtor_days_on_market_yoy":"NA","realtor_days_on_market_base":"NA","zhvi":146352.715,"zhvi_yoy":-0.002,"zhvi_base":0.4012,"zori":"NA","zori_yoy":"NA","zori_base":"NA"}},{"type":"MultiPolygon","arcs":[[[-4,17,-12,18,19,20]]],"properties":{"postal_code":"26268","realtor_list_price":"NA","realtor_list_price_yoy":"NA","realtor_list_price_base":"NA","realtor_active_listings":"NA","realtor_active_listings_yoy":"NA","realtor_active_listings_base":"NA","realtor_new_listings":"NA","realtor_new_listings_yoy":"NA","realtor_new_listings_base":"NA","realtor_days_on_market":"NA","realtor_days_on_market_yoy":"NA","realtor_days_on_market_base":"NA","zhvi":81809.275,"zhvi_yoy":-0.0679,"zhvi_base":"NA","zori":"NA","zori_yoy":"NA","zori_base":"NA"}},{"type":"MultiPolygon","arcs":[[[21,-19,-11]]],"properties":{"postal_code":"26254","realtor_list_price":"NA","realtor_list_price_yoy":"NA","realtor_list_price_base":"NA","realtor_active_listings":2,"realtor_active_listings_yoy":0,"realtor_active_listings_base":-0.5044,"realtor_new_listings":0,"realtor_new_listings_yoy":"NaN","realtor_new_listings_base":"NA","realtor_days_on_market":"NA","realtor_days_on_market_yoy":"NA","realtor_days_on_market_base":"NA","zhvi":176764.226,"zhvi_yoy":0.083,"zhvi_base":"NA","zori":"NA","zori_yoy":"NA","zori_base":"NA"}},{"type":"MultiPolygon","arcs":[[[-16,-15,22],[23]]],"properties":{"postal_code":"26250","realtor_list_price":175000,"realtor_list_price_yoy":0.5301,"realtor_list_price_base":0.4741,"realtor_active_listings":7.667,"realtor_active_listings_yoy":-0.1481,"realtor_active_listings_base":-0.61,"realtor_new_listings":1.333,"realtor_new_listings_yoy":-0.75,"realtor_new_listings_base":-0.4624,"realtor_days_on_market":36,"realtor_days_on_market_yoy":0.3458,"realtor_days_on_market_base":-0.5636,"zhvi":112704.299,"zhvi_yoy":-0.0035,"zhvi_base":0.2858,"zori":"NA","zori_yoy":"NA","zori_base":"NA"}},{"type":"MultiPolygon","arcs":[[[24,-13,-18,-3,25,26]]],"properties":{"postal_code":"26253","realtor_list_price":215000,"realtor_list_price_yoy":0.1136,"realtor_list_price_base":"NA","realtor_active_listings":6,"realtor_active_listings_yoy":-0.4194,"realtor_active_listings_base":-0.5219,"realtor_new_listings":1.333,"realtor_new_listings_yoy":0,"realtor_new_listings_base":-0.087,"realtor_days_on_market":81,"realtor_days_on_market_yoy":0.1329,"realtor_days_on_market_base":"NA","zhvi":181238.86,"zhvi_yoy":0.017,"zhvi_base":0.4246,"zori":"NA","zori_yoy":"NA","zori_base":"NA"}},{"type":"MultiPolygon","arcs":[[[27,-26,-2,28]]],"properties":{"postal_code":"26293","realtor_list_price":"NA","realtor_list_price_yoy":"NA","realtor_list_price_base":"NA","realtor_active_listings":1,"realtor_active_listings_yoy":-0.4,"realtor_active_listings_base":-0.6109,"realtor_new_listings":0,"realtor_new_listings_yoy":"NaN","realtor_new_listings_base":"NA","realtor_days_on_market":"NA","realtor_days_on_market_yoy":"NA","realtor_days_on_market_base":"NA","zhvi":166362.627,"zhvi_yoy":0.0156,"zhvi_base":0.4282,"zori":"NA","zori_yoy":"NA","zori_base":"NA"}},{"type":"MultiPolygon","arcs":[[[29,30,31,-29,-1]]],"properties":{"postal_code":"26278","realtor_list_price":"NA","realtor_list_price_yoy":"NA","realtor_list_price_base":"NA","realtor_active_listings":1,"realtor_active_listings_yoy":0.5,"realtor_active_listings_base":-0.4016,"realtor_new_listings":0,"realtor_new_listings_yoy":"NaN","realtor_new_listings_base":"NA","realtor_days_on_market":"NA","realtor_days_on_market_yoy":"NA","realtor_days_on_market_base":"NA","zhvi":126186.555,"zhvi_yoy":0.0237,"zhvi_base":"NA","zori":"NA","zori_yoy":"NA","zori_base":"NA"}},{"type":"MultiPolygon","arcs":[[[32,-6,33,34]]],"properties":{"postal_code":"26282","realtor_list_price":245000,"realtor_list_price_yoy":"NA","realtor_list_price_base":"NA","realtor_active_listings":0.667,"realtor_active_listings_yoy":-0.3333,"realtor_active_listings_base":-0.8019,"realtor_new_listings":0.667,"realtor_new_listings_yoy":"Inf","realtor_new_listings_base":2,"realtor_days_on_market":6,"realtor_days_on_market_yoy":"NA","realtor_days_on_market_base":"NA","zhvi":139265.36,"zhvi_yoy":0.0981,"zhvi_base":"NA","zori":"NA","zori_yoy":"NA","zori_base":"NA"}},{"type":"MultiPolygon","arcs":[[[-5,-21,35,-34]]],"properties":{"postal_code":"26273","realtor_list_price":"NA","realtor_list_price_yoy":"NA","realtor_list_price_base":"NA","realtor_active_listings":4.667,"realtor_active_listings_yoy":-0.0667,"realtor_active_listings_base":0.1402,"realtor_new_listings":0,"realtor_new_listings_yoy":-1,"realtor_new_listings_base":"NA","realtor_days_on_market":"NA","realtor_days_on_market_yoy":"NA","realtor_days_on_market_base":"NA","zhvi":131045.021,"zhvi_yoy":-0.0513,"zhvi_base":0.2276,"zori":"NA","zori_yoy":"NA","zori_base":"NA"}},{"type":"MultiPolygon","arcs":[[[-30,-8,36,37]]],"properties":{"postal_code":"26224","realtor_list_price":"NA","realtor_list_price_yoy":"NA","realtor_list_price_base":"NA","realtor_active_listings":1,"realtor_active_listings_yoy":0,"realtor_active_listings_base":"NA","realtor_new_listings":0,"realtor_new_listings_yoy":"NaN","realtor_new_listings_base":"NA","realtor_days_on_market":"NA","realtor_days_on_market_yoy":"NA","realtor_days_on_market_base":"NA","zhvi":"NA","zhvi_yoy":"NA","zhvi_base":"NA","zori":"NA","zori_yoy":"NA","zori_base":"NA"}},{"type":"MultiPolygon","arcs":[[[-37,-7,-33,38]]],"properties":{"postal_code":"26230","realtor_list_price":"NA","realtor_list_price_yoy":"NA","realtor_list_price_base":"NA","realtor_active_listings":1,"realtor_active_listings_yoy":0,"realtor_active_listings_base":"NA","realtor_new_listings":0,"realtor_new_listings_yoy":-1,"realtor_new_listings_base":"NA","realtor_days_on_market":"NA","realtor_days_on_market_yoy":"NA","realtor_days_on_market_base":"NA","zhvi":"NA","zhvi_yoy":"NA","zhvi_base":"NA","zori":"NA","zori_yoy":"NA","zori_base":"NA"}}]}},"arcs":[[[216481,514076],[993,9],[11379,-5497],[764,-3806],[2336,-3328],[2307,-7074],[2702,-2999],[-709,-1909],[1489,-4627],[2687,416],[1410,1926],[1976,936],[5204,437],[776,681],[-141,2854],[4785,1290],[2241,-284],[1549,826],[3383,-564],[2426,3793],[3289,1185],[-2321,1859],[-411,1706],[1278,840],[2455,658],[4709,-5025],[2248,-1361],[5308,-1921],[1663,1675],[621,-3553],[3893,-1967],[4062,-812],[4577,998],[1688,-508],[6069,-488],[5834,-1676],[2782,-1349],[6488,2330],[5041,2282],[2179,3929],[233,2993],[3486,2087],[5024,2354],[932,-1264],[1091,-592],[-2127,4351],[-3867,4585],[19098,6253],[5952,4451],[2281,1035],[-537,1440],[4730,-2132],[-3139,-2227],[-347,-1484],[7683,-4496],[1504,-1887],[4822,820],[1617,-870],[-2802,-2512],[853,-2204],[2077,-2640],[12753,-4680],[2328,-193],[-887,-1942],[6340,4432],[1656,3395],[2251,3050],[3089,2315],[213,1666],[2945,2429],[2492,2804],[596,2213],[2531,1866],[556,2409],[2724,2970],[3889,1060],[753,1533]],[[418283,529346],[2276,-4386],[576,721],[1250,-3136],[4616,-949],[-27,-3292],[4967,-2187],[1089,-2158],[4896,-656],[2604,496],[3395,-3903],[-3608,-3506],[2458,-1979],[2151,316],[-2087,-1835],[2268,-1894],[2945,1557],[4190,-1322],[1915,-1130],[2035,3148],[880,-376],[904,-3476],[3810,219],[-306,-1416],[3746,-386],[1778,-1688],[2192,-174]],[[469196,495954],[-2152,-543],[2419,-2554],[1407,-4039],[-2781,-604],[6398,-5597],[492,-3664],[3927,-3770],[6811,-3689],[3771,-3026],[2081,-4298],[429,-2491],[4349,-3726],[1073,-125],[2203,-2430],[1284,661],[4424,-4019],[4848,-2431],[-495,-2039],[3499,-3316],[1855,-2748],[-1010,-2568],[-2428,-1535],[-11,-2074],[-1060,-1828],[30105,-11811]],[[540634,421690],[-6617,-1337],[-1797,-2938],[712,-1285],[-3866,-3069],[-2135,-5803],[-4407,-5609],[-1680,-325]],[[520844,401324],[-7197,-666],[-4826,-1640],[-5487,-3407],[-470,-2586],[-1909,-1763],[1631,-1188],[384,-3074],[-2798,975],[-2837,3563],[2139,2160],[-6530,3290],[-4859,640],[-5324,7003],[-199,3549],[-45930,39733],[-1262,7590],[-5033,1342],[-3712,-385],[-2371,-2981],[-514,-2448],[-2130,-1898],[-5377,-352],[-3927,714],[-2724,-1906],[-1398,672],[1201,2209],[-8463,2888],[-852,613],[-3870,-1954],[-888,-1800],[-3841,-2296],[-4209,-3981],[-2776,-1724],[-1671,-252],[-7661,-3151],[-4467,1818],[-5351,656],[-1643,878],[-1701,-1489],[-5242,-1544],[-3532,-2620],[-1501,-4076],[-2940,-4330],[-4068,-3623],[-6007,-8277],[-2802,-2746],[-5497,-2955],[-3609,1189],[-2362,-2163],[-1652,-226],[-2838,-3015],[-1120,-1950],[-2762,-967],[-168,-3080],[-2900,-3213],[-40,-1374],[-1811,-2180],[-6612,-3437],[-2794,-457],[-978,-1016],[-4516,-665],[-309,-2587],[-2099,-2057],[876,-3375],[1240,-794],[-699,-1817],[-4831,-3239],[-1428,790],[-2212,-1769],[-3179,-1394],[-1540,-1600],[-960,-3936],[384,-1035],[-3498,-5839],[-1512,-1546],[2082,-809],[-2230,-2463],[400,-885],[-902,-1470],[-4953,-152],[-2564,-1281],[149,-4386],[-2212,-4074],[1771,-3332],[-1431,-2123],[615,-1190],[-2068,-1990],[-470,-2395],[2312,-4275],[-4338,-1872],[-2708,-3239],[-3163,-1956]],[[256764,319861],[-4763,-1761],[-6924,-6556],[-226,-1661],[-4169,-4367],[-2734,-628],[-4630,698],[-1463,733],[-2273,-2152],[-4718,879],[-2553,2372],[-2990,841],[-2757,2229],[222,3349],[-1602,4092]],[[215184,317929],[-1733,425],[-6109,-352],[-642,-675],[13,33167],[9763,1805],[302,1982],[-995,7188],[1004,4247],[-402,1280],[-2967,1700],[-4283,1603],[-2615,2022],[-661,1070],[42,5568],[-3028,4596],[-137,2536],[2618,7580],[452,4888],[-717,1419],[-4533,3293],[-1463,1792],[-5338,3352],[-2343,3223],[-2611,5470],[-1322,1765],[-547,2766],[-1474,-340],[-4617,-966]],[[180841,420333],[1288,4491],[2594,1636],[5487,977],[4369,5060],[697,2247],[526,8426],[-1829,4350],[-1193,5145],[-1358,3390],[-3771,3528],[-815,1757],[-422,5270],[-3653,4295],[-668,4142],[692,14],[22171,301],[11525,38714]],[[522115,813639],[1682,-1246],[3578,-6131],[2031,-794],[1588,1437],[4464,34],[65,-578],[-104,-338],[-17,-265],[97,-218],[185,-136],[153,-50],[602,-20],[559,-190],[214,-35],[487,53],[171,-28],[681,-372],[175,-168],[12,-185],[-131,-337],[-29,-1400],[1898,-1382],[526,45],[595,-255],[88,-190],[-189,-133],[-715,-275],[-639,-2481],[2042,-1147],[5130,-13216],[12,-9037],[-521,-3522],[3354,880],[6208,353],[3674,-1756],[2145,-1850],[161,-1931],[-1590,-2933],[1491,-3210],[-578,-992],[916,-2936],[-1809,-4719],[1016,374],[-1022,-1897],[1134,-51],[-501,-3905],[248,-1206],[587,-880],[1989,-2524],[214,96],[3937,1918],[2573,3673],[-663,775],[1606,3058],[11332,2798],[-2891,2446],[5538,1723],[432,2285],[4010,5166],[-2556,1439],[893,3163],[-5148,4068],[-246,-446],[-1794,1449],[-1428,1418],[-1059,1371],[-1288,1084],[-362,593],[-313,1537],[1045,1126],[-81,346],[4199,4605],[4244,6026],[4211,7484],[2931,2742],[4514,1692],[-1788,6],[1996,2779],[-900,1280],[1741,2337],[-262,1112],[2475,-31],[-1737,1048],[1247,2067]],[[600850,816129],[9428,-920],[55559,13916],[3344,208],[1557,1643],[3338,451],[2801,-742],[4562,-2590],[2857,-3619],[1592,-1156],[2650,-4552],[-30,-1169],[1836,-2817],[2298,-2315],[3073,-1242],[1618,-2571],[6076,-6495],[3974,-1703],[-270,-679],[6710,-3849],[1706,43],[4545,-2020],[2382,-2094],[4592,-1530],[2146,270],[1463,-1056],[1018,1407]],[[731675,790948],[708,-223],[1585,55],[2296,-1523],[2060,-3954],[2235,-780],[5900,-3576],[5585,-2743],[9243,-2815],[3267,-337],[-31224,-47052],[-1952,-988],[1747,-2843],[4095,-3014],[-4516,1386],[-3151,-290],[-1853,-1210],[-4070,-7043],[-406,-1543],[-2613,1186],[-899,1296],[-4517,2451],[-1858,21],[-6875,-3720],[-2479,-472],[-1231,-613],[1656,-1964],[-6627,-1525],[-2684,-2508],[-17,-1467],[-5065,-3925],[-1612,-2365],[-2881,-1524],[-3627,1295],[-2482,1642],[545,1018],[-825,-466],[38,-684],[2409,-2188],[3424,-2218],[3858,-423],[9045,1623],[4911,2226],[3161,3719],[2114,437],[5463,-1455],[8929,-4715],[2532,-958],[2527,-90],[4827,945],[6179,-424],[6837,737],[9282,-3127],[2948,366],[3414,1775],[2648,617],[3251,-409],[-2264,-132],[2224,-1954],[3655,-1639],[5419,-7851],[6497,-2043],[1793,-2086],[-3452,-2765],[2547,-1952],[5332,-5243],[4236,-1624],[-1193,-1167],[584,-3482],[-5390,2485],[-3449,-200],[-3231,799],[-6148,-905],[6000,-1485],[2910,-2824],[1759,-657],[5020,-5346],[4532,-1062],[916,-1063],[3413,2872],[3086,602],[1362,4298],[3912,1697],[-2166,2159],[-717,8426],[3781,1305],[-2772,1177],[-1648,2356],[-5155,2628],[-7295,2272],[-2317,1701],[-1840,2719],[-1408,5575],[3720,4574],[9386,5875],[6291,1002],[3335,1194],[4297,449],[2994,-1348],[2294,-3139],[1206,-3801],[5659,-5825],[1706,-992],[6845,-1962],[670,-4387],[-3194,-7961],[-1922,-2161],[-8798,-6092],[64,-1980],[-1966,-3845],[-353,-2413],[-3187,-2556],[-2688,-1037],[-1862,-4720],[785,-2833],[-3140,-1821],[-5060,-4632],[-2168,-890],[-367,-1547],[-6875,-3612],[-2304,1438],[-3024,3454],[-6483,48],[-262,870],[-938,-9749],[-2866,-3353],[-3064,-2257],[-711,-2623],[-3545,-3548],[-1786,-3049],[993,-2983],[2272,-2702],[117,-1137],[-3728,-4534],[40,-3010],[-1759,-2611],[-1041,-3701],[-1617,-1229],[-4548,-805],[-6767,125],[-1633,-839],[5306,-2874],[-1186,-5938],[1193,-5673],[959,-1700],[-698,-3488],[369,-5815],[1967,-1573],[-964,-632],[-2895,-5313],[-2664,-2006],[-867,-1900],[-2404,-2403],[627,-1794],[-816,-3456],[-2451,-2121],[282,-3346]],[[746239,545473],[-1444,31],[-4005,1782],[-1636,1104],[-814,3000],[-4504,2098],[655,4368],[-2994,1891],[2570,3375],[1016,2448],[-1476,1639],[1609,2618],[-547,3502],[-1438,1707],[-913,3128],[-2356,2976],[1021,2498],[3344,4401],[419,3066],[-2372,2835],[619,5457],[2229,3812],[-643,2708],[731,2901],[2064,2238],[204,1951],[-1511,1389],[-1612,5065],[-3437,-5623],[2176,-3028],[-32,-1227],[-3063,-8541],[-2946,-1653],[-819,-3624],[-1830,-2347],[327,-4556],[2869,-3842],[-3548,-3562],[-599,-2518],[-2756,-1237],[-3156,-3801],[1905,-4280],[-284,-2615],[-1179,-181],[-1583,-2233]],[[716500,564593],[306,5569],[-1739,2901],[1802,4173],[-2724,-3268],[872,-3183],[-2736,-4138],[-6141,-602],[-3774,1402],[-3438,6107],[-442,2197],[1374,3617],[-94,-3411],[1660,4053],[164,5067],[-462,4400],[-2166,-2071],[-3761,161],[-3980,2113],[-1871,-43],[-4392,2045],[-3339,132],[948,1003],[-4272,4792],[-6577,4557],[-717,-1170],[2207,-3445],[-3215,1849],[-3130,836],[-9626,86],[-3663,1448],[-2866,-38],[-1449,-1458],[-1476,-4843],[-1858,-1964],[340,-1316],[-635,-481],[247,958],[-2342,350],[-2533,1347],[-3964,4297],[3628,3800],[1313,5042],[2381,4875],[64,5085],[-4060,1984],[-639,959],[-4247,198],[-1399,1073],[640,7517],[-1098,1488],[-1875,-565],[-3027,2705],[-2003,-432],[-8636,651],[-2465,-441],[-5919,-5326],[-4024,-1570],[-1463,302],[-7004,-447],[-5686,-1393],[-2287,-1073],[2370,-3785],[12,-2044],[-5094,3904],[-4337,6395],[-2639,2754],[-1105,4211],[-1326,637],[-3333,-750],[-991,-772],[-719,-1815],[-953,-944],[-2660,-834],[-1941,313],[-1962,866],[2078,1143],[-109,114],[-6505,-2937],[-1818,-894],[-734,-690],[-2387,-2997],[-2300,2134],[-522,287],[-5497,-7523],[-206,-3436],[-1345,-1842],[-1060,315],[-85,2807],[2367,3124],[-471,2757],[1274,2536],[4790,2986],[1942,2518],[-1095,2037],[-2283,709],[-3795,-856],[-1508,230],[1669,2108],[2985,1552],[11,2667],[-4344,748],[12,1479],[5031,1514],[-2833,3787],[-1120,6109],[-1282,1266],[-2895,-718],[69,3341],[-1568,1761],[-3311,834],[-1222,-371],[-353,-2717],[-2926,-421],[-2768,-1421],[-2171,5242],[961,4263],[-235,1742],[-2924,1628],[-1587,6631],[-774,5044],[-2328,1262],[-1720,2151],[-2214,4814],[-353,2133],[-1386,2214],[-4241,1965],[-1563,-42],[-1486,-543],[-3432,-5089],[-7948,-1230],[-3810,-2948],[-12526,724]],[[480703,685191],[567,846],[-331,6414],[431,2656],[988,596],[1652,3757],[2483,1094],[1498,5386],[-3427,3669],[-166,1958],[-3580,4057],[3681,4158],[4610,479],[3329,4827],[839,2716],[-5384,-697],[-3083,802],[-9234,-1005],[-4357,-1401],[-4317,0],[-4496,1429],[-8804,4065],[-2465,870]],[[451137,731867],[1094,1531],[189,187],[11214,-5811],[2150,-679],[3891,-275],[1338,4834],[2778,1931],[3217,-568],[9066,3067],[4388,2274],[1899,4545],[-145,6702],[2924,4886],[3655,3409],[7605,5794],[1901,3295],[439,6591],[2632,2726],[-72,1752],[1729,6119],[3729,3724],[132,3448],[-666,2538],[267,2394],[2929,4522],[665,2395],[2663,3458],[-633,6983]],[[522115,813639],[233,732],[597,1587],[-64,1738],[3594,6385],[-133,2128],[3062,3724],[2265,7315],[1997,2128],[399,4123],[1331,2794],[1198,4788],[1731,3325],[3861,4789],[-266,2527],[1198,1596],[2529,7316],[-399,5055],[1730,2261],[-931,1330],[1065,3857],[3328,3725],[399,3059],[1065,798],[-665,5986],[1331,3059],[3062,1862],[2795,2927],[-3461,5586],[2301,2260],[-4347,4232],[-10306,1836],[-2088,1776],[-629,1749],[42,6891],[-1366,1045],[1878,2174],[382,3653],[-1746,1802],[245,1957],[1347,1430],[-2607,674],[-4627,4492],[-6750,2650],[-4039,1074],[-2603,5022],[-6379,928],[-4034,1390],[-2916,-286],[-2444,-1040],[-2874,1962],[-4400,4445],[-3296,894],[-1303,2880],[870,2676],[-235,2446],[-138,2043],[-3370,12239]],[[489534,985433],[-3584,13701],[3601,865],[7684,-298],[2157,-943],[3729,-3868],[-731,-2654],[8796,-5059],[2275,-1674],[2222,-423],[5330,1688],[4073,2507],[4325,1180],[3130,2260],[3183,905],[-250,3024],[10039,-1090],[2672,452],[2095,1826],[2347,79],[2096,-1808],[-1508,-5222],[-3244,-2519],[-949,-2674],[-182,-3926],[-2562,-2850],[346,-2522],[-1062,-2720],[726,-2035],[-496,-1782],[2628,-6124],[2632,-285],[3792,-1597],[5055,-3334],[4792,-971],[5429,-2149],[6109,-1797],[1838,282],[4294,-1610],[5091,745],[4345,-919],[6388,998],[4167,1100],[1058,-1389],[3611,2694],[-267,4788],[-2396,2394],[0,3592],[1331,1197],[2265,798],[399,1463],[2530,1064],[1597,-532],[2797,-2660],[2530,-4523],[3062,-399],[8653,-2660],[799,-1463],[3994,665],[1597,-1330],[3995,-798],[1731,-1595],[-399,-1197],[2020,-2418],[1868,203],[-44,403],[2394,1497],[920,3538],[4269,4081],[6587,2454],[6649,1532],[2744,1594],[4543,824],[4865,3223],[1114,1067],[2945,831],[5434,-457],[4883,-2619],[3751,-1402],[4043,-474],[5076,801],[2397,1069],[4579,744],[2463,-1318],[7616,-153],[6559,2821],[5406,1032],[3235,1970],[5002,1816],[8034,-7561],[4854,-2965],[479,-2145],[-3522,-3121],[6829,-2306],[104,-1530],[-2786,117],[-2881,-2358],[-5018,879],[-4513,-437],[-3062,3781],[-1641,980],[-4252,-2398],[-527,-1105],[-4319,1128],[-690,-5210],[-964,-3272],[-7957,1304],[-1656,2566],[-4848,568],[-4087,-532],[-4193,1936],[-4032,-785],[-1773,726],[-4159,-93],[1115,-3774],[2437,608],[-842,-3640],[943,-8443],[6903,1503],[4285,512],[2697,-1198],[4762,-1290],[5994,-4133],[5534,-2072],[4983,-1382],[1889,298],[2336,1831],[3991,-1095],[8872,-7575],[14010,-2837],[13171,2554],[1946,298],[1512,109],[1465,-5100],[1924,-2939],[-292,-3425],[-929,-2566],[779,-1735],[-731,-1790],[-1604,-1821],[-1575,-408],[-4756,299],[-4043,-1555],[515,-2260],[-456,-105],[-1960,-1837],[-2396,1340],[-2116,2121],[-2501,1249],[-4972,-581],[-3725,-2680],[-1780,-443],[-3159,392],[-3190,2199],[-322,2478],[-8196,4796],[-13367,-3204],[-47182,3428],[-5555,1281],[-799,-1463],[1464,-1730],[-3062,-2926],[799,-2526],[-266,-3458],[2929,-2261],[-799,-2129],[-1731,-532],[-1331,-2793],[799,-2394],[-3062,-2128],[-666,-1597],[1598,-2926],[-799,-1995],[1464,-1463],[-1198,-2261],[1997,-2661],[-4526,-2261],[0,-2926],[-1332,-798],[-1065,-2661],[-4260,-266],[-403,-3179],[-2852,1232],[-1407,1647],[-2444,-2295],[-4644,151],[-7535,-2473],[-3892,-3731],[-4537,-3516],[-5252,-2478],[-3125,-906],[-5983,619],[-2457,-2867],[-1679,-520],[-1712,-2245],[-753,-5105],[-1854,-2499],[-105,-2835],[-1086,-3301],[3220,-6312],[-688,-331],[-2515,600],[-2200,770],[-750,786],[-3300,1316],[-1499,-338],[-3786,199],[-647,-473],[-2204,41],[-7239,1091],[-1687,-1778],[-3502,-9402],[20822,-2119]],[[540634,421690],[3454,1400],[2651,59],[2790,-1527],[5319,3086],[5804,-448],[1723,1491],[-3266,1915],[-1982,-238],[-1710,1261],[-1218,2248],[-4519,1354],[4362,4115],[4041,578],[2897,2832],[2506,-223],[1863,2270],[-3893,3231],[662,2834],[3260,1209],[1069,1060],[-884,2518],[-1849,2465],[1069,1615],[-48,2773],[2069,3750],[2015,1649],[3274,1200],[-258,3139],[1683,2497],[4786,892],[2187,-255],[2106,1959],[3485,-1716],[3963,-85],[763,1872],[-792,2765],[-89,5239],[-2454,1538],[1412,2922],[543,4141],[1360,2132],[6304,5572],[1439,2191],[3697,1339],[1516,1554],[195,2435],[2373,2587],[2241,3975],[2497,3174],[4870,675],[4206,5160],[3181,702],[2755,-1277],[3529,337],[3445,3928],[2048,3594],[1231,3350],[3438,6670],[2202,3592],[2211,1006],[2523,-182],[1611,999],[3502,1036],[3057,-359],[3621,706],[1711,1055],[1029,3825],[2207,2392],[1877,946],[6300,-72],[2729,2374],[3170,-218],[5220,-4658],[5056,-886],[1822,1628],[610,2703],[60,3990],[1488,3892],[4114,2563],[4516,229],[1493,-951],[6075,-1695],[3250,-137],[4280,805],[1013,837]],[[746239,545473],[1605,-489],[-663,-2505],[1383,-322],[-551,-2672],[1280,-122],[749,-1967],[-1326,-1466],[-3383,-437],[-848,-2279],[-1627,-792],[-606,-2744],[-1344,-435],[-1494,-2160],[-699,-3138],[-2840,-1342],[-36,-2079],[-1728,-1017],[160,-2166],[-1166,-2660],[-2147,-391],[-2923,-3977],[-6077,-3554],[1323,-1432],[-4269,-4767],[-2900,-5327],[-1259,-746],[-1362,26],[-2283,2716],[-3300,-4953],[-6898,-6539],[-4164,-1797],[-1012,-1460],[-1013,-3775],[-1907,-1341],[-3619,-1340],[-3968,-3288],[-235,-4171],[-1752,-4721],[-1461,-2031]],[[681879,461813],[-2024,1678],[-9453,3857],[-5326,-2394],[-1730,-1463],[532,-3326],[-3860,-7448],[-5296,-4436],[-1760,-1949],[-5325,-3857],[798,-1198],[0,-4655],[-665,-931],[-8520,-4922],[-3195,-2660],[509,-4876],[4017,-2174],[932,-1729],[-1997,-3857],[-4527,-5718],[-2396,-3858],[-5458,-2793],[-133,-4124],[1464,-2660],[133,-4256],[-3062,-3991],[-2529,-1330],[-3328,-3325],[799,-3325],[-2530,-3459],[-2263,-4921],[-1937,-1902],[-2323,-4866],[-1065,-8529],[-799,-1064],[-5991,-1064],[-1597,-798],[-4394,-5321],[-2289,-1888],[-1172,-1570],[1997,-3857],[-266,-2927],[532,-2659],[1598,-1064],[1396,-2355],[-808,-2318],[-4212,-4030],[-1568,-3667],[-1731,-133],[-3062,-2261],[-5316,1064],[-1606,1197],[17,1841],[-1200,477],[-2678,-2850],[-667,-2128],[666,-2395],[-666,-3192],[1199,-6251],[3062,-4523],[799,-5587],[1331,-4256],[-665,-1596],[-4793,-4790],[-2929,-3990],[-640,-3041]],[[573909,279420],[-2068,1629],[-7915,2943],[-9611,7194],[-1495,1400],[-5534,8523],[-1178,3322],[2267,3431],[978,3214],[-1558,3239],[-5877,5879],[-1193,636],[-6655,838],[-2392,-570],[-9178,-6866],[-4188,-1423],[-6024,-589],[-3710,1384],[-4300,4463],[-3092,1907],[-2158,550],[-10916,1053],[-11214,-520],[500,3371],[-2029,6015],[2893,3356],[2742,1512],[2359,3009],[-495,2382],[2841,4399],[2973,2148],[-440,1644],[-2120,2776],[641,2975],[1286,1472],[3293,983],[2923,1707],[1627,1837],[-459,4418],[1057,4803],[4180,2466],[5221,5342],[9296,5299],[3343,1205],[-3540,4981],[-1987,273],[-3150,3971],[208,2378],[5698,2840],[2843,1970],[2242,735]],[[731675,790948],[372,2717],[-1671,4636],[-1741,1929],[-1420,3284],[-1797,2042],[486,3005],[2725,2914],[3560,-335],[3618,-1971],[4853,-3626],[2209,-97],[1955,2749],[-1169,2066],[-3621,2119],[-6262,1797],[-2770,1911],[-819,2696],[1689,2727],[4593,358],[4251,-1134],[1285,-1515],[207,-3250],[3131,-1796],[4427,161],[-1442,5078],[-4115,7055],[490,2466],[2315,1208],[2988,-328],[4976,-3525],[4425,338],[1932,2830],[-1461,2754],[-4597,1860],[-2654,2639],[-3059,1883],[-910,1774],[1280,2239],[47497,-10644],[51710,-11596],[-217,3841],[-1654,693],[-2436,2486],[-2368,3905],[235,2697],[-2059,1773],[-1278,4948],[-3436,2788],[-659,3638],[-1985,1581],[-522,1828],[852,3515],[-309,2353],[1246,4227],[-221,2501],[2900,2007],[905,4358],[1823,562],[4312,-768],[1255,-1497],[2013,268],[1029,1311],[3938,760],[3878,-6],[3230,975],[3127,-713],[4283,858],[5073,-500],[6000,-2635],[2133,-2721],[3151,1577],[1936,2579],[3075,459],[3399,-929],[1946,1198],[148,-117],[1990,-1272],[7133,-1062],[5955,-2971],[2024,-2112],[1501,-6065],[6719,-1338],[1290,-1498],[326,-2683],[3334,-4654],[5909,-829],[4780,11],[3871,-3062],[338,-2726],[2455,-3272],[2295,-440],[5676,2736],[6917,855],[2512,-488],[8396,-5844],[2463,-1243],[2242,794],[4875,-517],[3743,-2119],[-172,1446],[4895,-547],[3982,1784],[7451,1079],[2758,-1255],[457,-1906],[-1130,-2640],[-4403,-2034],[-2946,-2088],[-4199,-726],[-6703,3591],[-2356,-1123],[857,-1911],[4698,-2845],[1944,-2738],[868,-2974],[-87,-1466],[-2526,-4747],[-5108,-2900],[-2214,-3261],[1945,-3556],[2823,165],[3916,5002],[2826,1487],[4959,475],[2469,-748],[2145,-5616],[-129,-1605],[-1855,-2453],[-5994,-2801],[-9812,-2550],[-735,167],[-4874,739],[-10565,20],[-631,-894],[1790,-4258],[262,-3469],[-4626,-4544],[-2085,-2566],[394,-1467],[4396,-62],[2075,-1027],[597,-2167],[-4227,-5076],[-3355,-2640],[-3779,-1652],[-1703,-1962],[397,-2402],[-3671,-3855],[-452,-2845],[2357,-1926],[-194,-1550],[-6233,-1875],[-2153,-4049],[-1986,-5200],[2769,-3712],[819,-3478],[1619,-221],[2995,1127],[1522,-2008],[-1203,-1614],[-3115,-932],[-2745,1498],[-1549,-957],[2295,-4947],[-1545,-1341],[-3748,275],[-1641,-2806],[-2349,343],[-1411,-1403],[5981,-1190],[939,-4577],[-2055,-560],[-7766,2600],[-4338,-1364],[822,-2093],[-2415,-3330],[1687,-3082],[3770,-2574],[-526,-1963],[-2318,386],[-6245,-802],[-1177,1829],[-2455,69],[2238,-2825],[6601,-2305],[-4199,-1851],[-3480,-2365],[-5395,-1179],[-541,-1223],[5128,-883],[-948,-1623],[-4471,-1866],[-1351,-1934],[855,-1471],[3055,-834],[-960,-1785],[-2982,-540],[-761,-1401],[922,-1162],[3406,-1555],[5041,268],[1869,-968],[6,-3425],[-2590,-947],[-6696,1711],[-1576,-1722],[1969,-3316],[-1277,-3304],[-4974,-1669],[2184,-1284],[11997,-11852],[1800,-22],[-1004,-1729],[-2198,-1621],[-3674,-6716],[-220,-1628],[-1821,-1860],[-1396,-4055],[337,-3412],[-2720,-9730],[-3146,825],[-4336,2561],[-4046,-792],[-3357,2278],[-1189,-2072],[98,-3416],[1875,-2195],[1983,-876],[-2605,-2113],[-4665,-1060],[-4342,-1991],[-1432,-1419],[802,-1946],[-264,-2446],[1131,-2432],[1738,-1158],[2512,996],[3660,-2177],[-2682,-349],[-1398,-1408],[-229,-2741],[-3565,1432],[-6648,1508],[-5495,593],[2555,-3337],[-313,-2060],[-3841,20],[-1423,-1537],[-5623,-552],[-3608,2194],[-8309,3039],[-5248,4586],[-4111,460],[-4441,-409],[-570,-3030],[-1614,-2408],[991,-3378],[-2833,-2686],[1803,-4420],[-447,-1917],[-2978,-1275],[-151,-4448],[-3755,-3824],[3038,-2641],[-2241,-8374],[-1725,-987],[-1628,-3107],[-3950,-2662],[-4048,-4823],[-488,-4628],[-3495,-2109],[-314,-5392],[-2563,-1876],[55,-4077],[-1467,-2105],[671,-2510],[-401,-1833],[-3585,-2931],[-357,-1626],[-3305,-3155],[-985,-1936],[250,-3913],[-2781,-2829],[-1804,-2779],[-345,-2550],[-7827,-4540],[-874,-1429],[-4156,-2717],[82,-1241],[-3059,-2564],[-2361,-3151],[-4370,-8565],[-3969,-1625],[-777,-2296],[-4219,-1189],[-1696,-2688],[-4202,163],[-4057,-690],[-2086,-1925],[-316,-1818],[-5026,-2132],[-1303,-3054],[-2969,-2722],[-2741,-267],[-2392,-2591],[-155,-1656],[1461,-2125],[-1787,-1508],[-1491,-2616],[-3090,-3134],[-2874,-802],[-1388,-1474],[1162,-1448],[196,-2153],[-2237,-581],[-172,-1180],[1711,-2644],[-495,-2088],[-1269,1205],[-5325,-1463],[-799,3192],[-3995,4522],[-2396,1065],[-3462,-267],[-2929,1730],[-2396,-399],[-4260,3192],[666,4654],[-1465,1463],[-5060,1463],[1464,1996],[-266,6251],[-5857,133],[-1199,2794],[-4127,-666],[-4659,-1463],[-2103,1648]],[[451137,731867],[-3327,1436],[-3816,-174],[-4561,-3681],[-1079,-302],[-12836,1972],[-568,419],[-331,851],[415,2195],[2415,1745],[1971,2555],[-341,2243],[-2877,778],[-6406,-1377],[-1664,-713],[-2236,-4653],[-2115,-1027],[-4774,4],[-5152,2146],[1287,5026],[872,1457],[-1145,2531],[-3904,1602],[-1592,1442],[-3180,1351],[-4664,-154],[-1441,659],[-744,4687],[-3361,3466],[-492,1575],[-65439,-8743],[350,-4301],[-1292,-3180],[792,-541],[-2804,-4874],[-3330,-998],[-7451,-3801],[-402,-1024],[-5546,2274],[-5723,979],[-2293,3213],[-1935,723],[-967,3321],[-1885,318],[-1878,3366],[15351,2021],[-6946,3379],[-4947,9529],[-2514,2115],[-1081,-559],[-6167,476],[-3556,2133],[-394,534],[1174,5334],[3829,-2182],[2049,-241],[4793,2555],[2510,4113],[775,4308],[10290,-363],[1890,588],[585,5121],[-832,4109],[-1304,2697],[185,1640],[1566,2139],[1250,3665],[407,3095],[-524,2782],[5699,2187],[426,1673],[-2862,1538],[-2415,3114],[-2419,1225],[-1676,-142],[-1374,1476],[242,3827],[4413,1675],[4625,2882],[4600,1882],[351,1599],[-1374,2248],[-1629,932],[-5843,1056],[-2561,950],[-4374,6474],[-3229,1905],[-352,1073],[2351,2670],[3181,2399],[1078,2416],[325,2784],[-703,5971],[-2032,3402],[-1489,-246],[-2522,-2929],[-2841,-807],[-3026,1072],[-5190,4077],[-1807,2859],[1214,1666],[5755,-10],[141,2367],[-2842,2606],[-33,3332],[5634,1640],[2131,1231],[2161,36],[6113,-1507],[2177,512],[1959,1715],[15,2818],[-3413,4221],[-51,2213],[-1237,2873],[2291,1580],[2265,22],[3449,1289],[322,70],[33326,9181],[24754,8052],[2767,-4746],[5140,-554],[1834,-422],[1792,1765],[5493,1372],[-2098,3092],[570,2158],[-313,2742],[515,805],[-855,1684],[3607,15416],[-3904,2049],[-2091,2651],[1518,629],[5499,126],[3865,1338],[7386,-1448],[2656,589],[1154,439],[1471,3876],[2768,2906],[2130,893],[2456,3586],[2309,638],[2665,3243],[-887,3520],[1747,1789],[-272,1273],[4814,3247],[1887,-59],[1762,1749],[2057,-1516],[5935,-2271],[1095,-1306],[5119,-637],[-1674,-2035],[-1827,-3939],[937,-671],[5050,-421],[-96,-1410],[4336,-78],[1794,-1622],[4647,-875],[3827,4161],[4277,907],[3712,2280],[1397,-148],[3522,2760],[-5354,-291],[-3978,1685],[-4403,3609],[-2375,3394],[-440,2573],[-3302,1419],[-1865,4130],[-3512,2031],[6427,3549],[2640,-621],[5238,2425],[926,-552],[-412,-2508],[4984,249],[-1418,-2929],[606,-1983],[11810,-1],[4280,320],[4842,1844],[1605,2669],[3961,2101]],[[411176,799682],[3287,-7939],[-1197,-4048],[1726,-6325],[2172,-44],[1804,27],[1762,-1003],[1562,-2364],[1106,-1039],[1615,-473],[-32,-335],[338,-140],[-1730,-4182],[-6970,-3059],[-3619,-4935],[50121,7241],[1805,3327],[-1267,3123],[2770,922],[5948,4137],[1659,2282],[-482,2469],[1779,2136],[2163,2545],[602,4072],[1254,2264],[-2892,1952],[-2296,-152],[-4785,3970],[615,2658],[-1191,1526],[-4818,-3891],[-4172,-632],[-2490,313],[-2519,-6288],[-2269,-2222],[-3173,-4366],[-1235,-662],[-2487,-789],[2383,1433],[2717,2720],[2961,4096],[628,3662],[1875,6611],[211,6328],[-174,613],[-529,1106],[-1134,1114],[-3592,2040],[589,3319],[588,2012],[-62,1150],[-665,-467],[8,-455],[-142,-575],[-599,-1373],[-4661,3338],[-435,282],[-3953,4002],[-2368,-3578],[-2837,-2099],[-551,-4299],[3220,-3228],[2942,-1659],[-655,-4819],[-4143,-3748],[473,-3162],[-3798,-4717],[-3358,260],[-3508,-4044],[-6036,1381],[-2118,2809],[-5683,-152],[-1574,1253],[-484,-1230]],[[461103,635325],[2982,4093],[3433,1397],[2242,2975],[-920,2659],[-2118,571],[2022,1798],[248,3298],[1133,1199],[-1008,3543],[2677,1880],[1795,2564],[558,2561],[1922,957],[543,3096],[-1247,2305],[2927,3259],[-2669,3513],[3555,2507],[-894,2388],[2419,3303]],[[469196,495954],[3512,23],[2050,2456],[3902,1091],[2144,-596],[8246,1473],[2136,1405],[-1983,4043],[2486,284],[4856,-3124],[83,1975],[-1771,1152],[-1021,4215],[-3587,1499],[3732,1813],[-173,3150],[2752,5865]],[[496560,522678],[1900,2774],[3465,1795],[-2923,2573],[7877,5760],[4301,1117],[2391,-1692],[3671,1978],[171,2527],[-5885,5683],[-6213,3977],[765,2930],[71,176],[4151,8027],[3014,3490],[251,2949],[3330,2731],[480,1548],[-3935,3967],[-2776,284],[-4710,3431],[-2636,1778],[638,67],[5839,-3653],[2620,-291],[2738,2094],[4009,323],[-3517,5072],[1215,5383],[968,6771],[138,3606],[1758,3291],[1911,6024],[4169,5143],[1696,478],[383,2504],[-37,1052],[-398,1748],[-5673,2276],[-5848,1569],[-2114,110],[-3971,-404],[-9045,-2552],[-2603,-4476],[-3087,-1140],[-3172,-157],[5940,3142],[940,1722],[2960,2736],[-1533,-379],[-1367,793],[-5589,4154],[-49,1084],[-2313,-204],[1592,-2474],[-6066,2188],[-1686,-622],[14,-2322],[-8063,3148],[-798,-963],[-4565,358],[-275,1902],[-3143,-148],[-3625,3248],[-1146,2147],[491,1294],[-2553,-798]],[[449220,561319],[2102,168],[3592,-780],[157,-4652],[2585,-2960],[-362,-1927],[1285,-3878],[2285,-3958],[2296,-4967],[2633,-2325],[6409,-2407],[5530,-1182],[9,1613],[3330,-1747],[2431,-167],[5458,-4057],[3151,-1694],[1335,-2890],[3114,-831]],[[418283,529346],[79,691],[-273,152],[-973,121],[-156,274],[818,366],[233,427],[-351,364],[-40,518],[247,440],[-1522,2535],[2797,3105],[2845,-703],[3855,309],[2608,2799],[5842,2903],[2242,3598],[3376,2277],[3159,2997],[290,1950],[3009,3038],[-22,1356],[2874,2456]],[[216481,514076],[5962,20505]],[[222443,534581],[19414,66762],[-2210,11367],[-2409,12461],[22916,-2474],[-2148,4157],[546,2596],[-1094,2276],[3152,5728],[-696,2854],[3280,2820],[1904,3585],[-1068,3615],[-2928,2059],[-253,1169],[3176,2085],[2693,2877],[377,1697],[2906,2838],[438,2847],[1620,4],[2253,-1587],[4066,480],[5048,-617],[4189,-2438],[2282,-661],[4448,-5295],[1337,-2669],[4543,-1843],[3740,-776],[3479,1274],[6050,-473],[2369,-641],[3521,1822],[2950,3287],[1060,291],[4486,-1706],[2354,1141],[3856,4176],[-1371,3493],[1881,2365],[118,3137],[-372,681],[4381,311],[2008,1258],[3033,-820],[736,-2748],[3931,-2155],[3905,-492],[2552,-1571],[1987,-347],[2718,1754],[-116,2843],[3163,-1984],[4424,454],[3094,-1703],[2600,-455],[3157,1363],[5199,960],[5381,1426],[4236,-407],[3383,2628],[3098,99],[309,-417],[3245,1018],[999,3833],[5595,2522],[3600,-33],[13663,-6139],[3267,824],[2001,-3965],[-1260,-4633],[-4069,-894],[-2429,-1450],[-3111,74],[558,-1195],[5324,-3995],[262,-1100],[-1739,-1362],[-664,-3009],[2602,342],[2070,2242],[4365,-91],[-1624,2277],[3007,552],[-479,1559],[2455,-141],[4658,-3420],[1785,-218],[3520,-3793],[4582,-2573],[6908,-746],[-3189,-2473],[-3914,-1382],[-84,-1849],[7532,-2265],[4142,-2534]],[[461103,635325],[-65,-465],[-1055,-7364],[-216,-6509],[618,-614],[-215,-2496],[1496,-4094],[-6850,-4286],[28,-1595],[1029,-2396],[-875,-1025],[-72,-350],[166,-1455],[1182,-1430],[286,-1707],[-1314,-1282],[-1790,313],[-439,-216],[-596,-681],[-193,-616],[-772,-481],[38,-528],[342,-1278],[-196,-982],[-797,-802],[-94,-1542],[106,-194],[-127,-662],[627,-157],[586,-419],[990,-446],[1189,-661],[4,-730],[-1446,-2764],[26,-2413],[-1663,-1781],[-791,-12672],[24,-1055],[-563,-816],[1570,-704],[-1266,-962],[-868,-176],[-1271,-1156],[280,-830],[-552,-621],[1616,-906]],[[94215,241704],[2606,2974],[5678,3608],[245,1057],[4330,1304],[6235,496],[8104,4418],[3223,2446],[48,2850],[886,1034],[5079,884],[3178,-1382],[4742,-160],[2106,549],[5032,2715],[4193,210],[3847,-2256],[-196,-1000],[2413,-1455],[1835,-128],[3066,2149],[2268,4461],[1286,1039],[-1352,2389],[20,1876],[1819,3068],[5119,4404],[382,1454],[2646,1203],[1280,2268],[4185,3314],[3235,1049],[5995,3228],[4241,1042],[1850,5902],[1540,1852],[3787,2891],[4689,1500],[2926,2417],[508,2368],[2456,3213],[2628,1824],[772,1917],[2039,1233]],[[256764,319861],[326,-2645],[1748,-1526],[638,-2185],[-3087,-701],[2177,-2405],[-737,-4689],[776,-1491],[-1396,-3897],[1010,-1918],[-154,-4963],[-1281,-883],[3030,-3686],[1123,-3931],[3834,-243],[1890,2463],[5697,-3369],[2423,-3309],[3594,-1815],[2865,1538],[5417,1366],[3196,2152],[485,1099]],[[290338,284823],[904,-2427],[-44,-5392],[-1836,-2631],[-1820,-1069],[-886,-3400],[-3266,-1261],[-1471,-4190],[-6132,-1463],[-3938,-4123],[-4456,-141],[-1872,-1728],[-2512,-306],[-3241,1708],[-6149,-72],[-90,-1456],[-3552,-2661],[506,1986],[-3245,-453],[199,-1198],[-2223,-1308],[181,-3584],[2325,-383],[535,-1882],[3172,-1083],[780,-1992],[-1557,-2567],[1492,-4052],[-1870,-2594],[-2896,-1291],[-4902,-1303],[-2770,366],[1616,-1736],[-556,-2329],[2397,503],[-1042,-1475],[-97,-2405],[1955,273],[3211,-2213],[2244,67],[2304,-1665],[1008,-1719],[2432,-907],[2486,-3224],[932,-2654],[3119,857],[-1005,-1526],[-2860,-1556],[-121,-1623],[-2267,-3340],[-4915,-623],[-3627,1673],[-2784,-885],[-2729,50],[-6720,-2756],[-3352,-2947],[-3701,-437],[-2628,-2489],[-1160,-269],[6444,-2386],[4380,-2116],[2449,-527],[1543,-2671],[2349,-3],[886,-1304],[-1604,-2991],[3477,-1976],[1802,-4596],[2541,-1916],[1969,-3986],[1675,-603],[2713,775],[7307,-4271],[-77,-1875],[11356,-3195],[957,-805],[3736,-97],[3175,-1337],[5473,-971],[3978,-1572],[130,-1608],[-1882,-4865],[183,-3648],[4198,-1393],[4962,65],[1504,-425],[-1942,-2629],[-1136,-3449],[3154,-2520],[-1229,-3823],[-2941,-1204],[-2117,991],[-2843,-35],[-6097,-3740],[396,-1470],[-5971,-590],[-1483,-7482],[-2798,-3198],[-2049,-1272],[768,2725],[-1316,1010],[-1506,-2251],[-2512,119],[-373,1636],[-3468,-858],[-5634,1775],[-4831,-464],[-4968,1870],[-4607,214],[-5287,-2933],[-3965,342],[-1697,2052],[-2188,306],[883,-1870],[-857,-2212],[-4363,-1901],[-2757,-2808],[-2227,-270],[-1818,1759],[-1397,-72],[1254,-1646],[-2362,398],[-83309,-55597],[-87891,-58124],[12658,27689],[19109,42212],[9287,20760],[40935,91473],[-13958,24630],[-19800,34940]],[[573909,279420],[108,-3609],[-3062,-4122],[-2929,-5719],[-4127,-6385],[-133,-4921],[1464,-4523],[-665,-3458],[-2130,-2794],[399,-2660],[-2396,-5985],[-400,-2395],[133,-4655],[-2662,-3059],[-533,-3060],[-2400,-2776],[-89,-3561],[-58312,-32330],[-31057,-17178],[1507,4354],[85,2055],[-2275,3346],[-2199,1862],[-3206,1648],[-1825,1813],[-569,1836],[14,4803],[-1177,2474],[-867,5052],[2372,4180],[1228,4517],[2624,3528],[2417,1383],[1120,1701],[262,6005],[1774,4042],[2063,1327],[2535,-208],[-369,3007],[-13917,1464],[-8745,-175],[-12283,110],[-6607,558],[-2093,-1023],[-9797,-1106],[-6464,1154],[-4612,1658],[-1817,2300],[-2981,649],[-2357,1316],[-2608,2593],[-2909,1050],[-2628,2882],[2212,6064],[-3878,3432],[-4471,1615],[-1352,-817],[-2274,1735],[-384,2346],[-31,3674],[1508,3253],[3016,2671],[2543,1154],[595,2482],[1685,1346],[-1269,2725],[835,4110],[1920,1596],[744,2493],[-786,1169],[2265,1690],[931,2472],[-421,2035],[-3404,3578],[-2434,1388],[-1679,1992],[-5285,1058],[-1456,2745],[-4887,2812],[-4270,354],[-1761,1160],[-4662,-1531],[-13506,-492],[-4510,637],[-4242,-990],[-6748,345],[-1048,-954],[-6908,-2729],[-2135,1427],[-358,-1217],[-1135,-983],[-6929,-2917],[-8194,-1991],[-7124,-2429],[-3934,-728],[-1839,-1499],[-1884,-158],[-3532,315]],[[180841,420333],[-599,-3452],[-1741,4059],[-222,6730],[-1155,-303],[-2679,-4078],[-512,-2131],[1285,-1946],[-4970,-998],[-2009,-2820],[-3883,-1344],[-948,-1460],[-2946,-196],[-2268,-944],[-5596,35],[-4018,528],[-20786,-12814],[-17029,-26014],[-7352,-10021],[-288,-1453],[-895,1936],[675,2312],[-3071,5993],[-3182,1473],[-2686,-48],[-3929,2442],[-1995,480],[-3816,-982],[-2705,-95],[-3031,763],[-2672,1401],[-3111,6073],[255,3760],[-1288,2178],[745,5521],[2070,4565],[-3276,2976]],[[71213,402459],[3963,1778],[6558,-1246],[1795,743],[1121,3965],[-397,5384],[2057,3973],[2773,1511],[354,2725],[2196,1647],[600,7022],[-2063,111],[-2013,1196],[3118,3747],[1800,-882],[1526,1836],[7341,3687],[-235,1824],[-2489,4534],[72,1455],[-2118,2416],[-3411,-1445],[-2625,717],[-544,1016],[-6380,-53],[-2349,-3381],[-1585,-411],[-4588,899],[-3505,3002],[-4149,2885],[-8006,2794],[-3210,2855],[-291,3210],[1330,2551],[571,3323],[2693,2144],[-803,-3139],[6102,-2559],[2415,-1800],[3334,-956],[3323,326],[3707,-672],[4310,-2509],[5834,-264],[7109,4936],[3821,-850],[3628,-2125],[2572,-2696],[359,-1383],[2987,-1671],[-1191,-1815],[4251,1722],[2415,403],[363,1658],[5549,-409],[313,1467],[-1317,5651],[1688,1879],[3661,6587],[519,2224],[37093,690],[-152,6497],[1549,3547],[-3382,4097],[829,2015],[-4092,1070],[-6470,2866],[-2307,-592],[-2298,-1903],[-2186,-5809],[-3641,-2953],[245,1353],[2727,1568],[635,4581],[2804,3192],[1345,2735],[-2160,5911],[-3613,3231],[-3064,832],[-3596,194],[-2344,258],[-2320,3148],[-5528,-371],[-6524,24],[-2017,668],[-4968,3543],[165,2434],[-1949,1906],[-3293,-1734],[-2023,-3065],[-3336,-1454],[-4108,1051],[-2566,1352],[-3759,4227],[-2873,-661],[-3127,1438],[-3399,4909],[-4693,1107],[-930,809],[424,1596],[3209,2206],[6070,1163],[124,1190],[-1914,2336],[-2008,4859],[835,1113],[8076,671],[2842,2269],[5376,6445],[-6573,2394],[-2300,1952],[158,2260],[2813,2771],[-526,2940],[392,2798],[1259,2437],[-1243,2860],[-1912,1459],[-3820,976],[2731,801],[4876,-2620],[3523,-4353],[5049,-967],[655,-3784],[2282,-926],[7353,2549],[-131,2024],[2402,1164],[735,4243],[4619,1903],[4748,759],[2159,-956],[-1504,-3250],[3150,-1927],[2850,568],[4842,-760],[2775,-2704],[-541,-1256],[587,-5223],[2244,-1814],[456,-4607],[3991,-2837],[3842,-2063],[4846,-1052],[-2739,-2269],[2132,-1926],[3609,187],[-354,-1620],[1826,-822],[-1411,-745],[-152,-2760],[3986,-127],[7759,1755],[1758,2822],[1100,143],[901,-3082],[1762,-1110],[1608,-4553],[-515,-1177],[3848,-2243],[-1682,-1241],[675,-1103],[3458,-1198],[1744,858],[4001,159],[4470,-2073],[2234,344],[2917,1973],[3315,372],[1410,1970],[-2812,5439],[218,3353],[3732,4717],[2021,332],[5162,-2915],[2720,-1020],[7175,-4173]],[[94215,241704],[-176,309],[-34041,59877],[-6968,12304],[-186,424],[-52844,92948],[20429,22904],[-791,-2191],[-3474,-3838],[-756,-2045],[894,-2175],[-879,-2793],[885,-2769],[-21,-2391],[2657,-5117],[1725,-957],[11085,-1953],[3863,-4355],[4572,59],[3557,-1949],[4208,1163],[2102,-229],[4736,757],[3196,1088],[3748,3382],[3310,-1819],[3857,544],[2310,-423]]],"bbox":[-80.280059,38.388457,-79.528904,39.14026],"transform":{"scale":[7.511557511557483e-7,7.518037518037471e-7],"translate":[-80.280059,38.388457]}}
