{"type":"Topology","objects":{"foo":{"type":"GeometryCollection","geometries":[{"type":"MultiPolygon","arcs":[[[0,1,2]]],"properties":{"postal_code":"79935","realtor_list_price":297747,"realtor_list_price_yoy":0.1897,"realtor_list_price_base":0.7018,"realtor_active_listings":21.667,"realtor_active_listings_yoy":0.0484,"realtor_active_listings_base":-0.2851,"realtor_new_listings":10.667,"realtor_new_listings_yoy":0.3333,"realtor_new_listings_base":-0.2587,"realtor_days_on_market":49.5,"realtor_days_on_market_yoy":-0.175,"realtor_days_on_market_base":-0.1219,"zhvi":245733.037,"zhvi_yoy":0.0183,"zhvi_base":0.6054,"zori":1167.16,"zori_yoy":0.054,"zori_base":"NA"}},{"type":"MultiPolygon","arcs":[[[3,4,5,6]]],"properties":{"postal_code":"79924","realtor_list_price":209964.488,"realtor_list_price_yoy":0.1091,"realtor_list_price_base":0.8972,"realtor_active_listings":96,"realtor_active_listings_yoy":-0.4386,"realtor_active_listings_base":-0.2007,"realtor_new_listings":54.667,"realtor_new_listings_yoy":-0.0575,"realtor_new_listings_base":0.0067,"realtor_days_on_market":48.39,"realtor_days_on_market_yoy":-0.086,"realtor_days_on_market_base":-0.0984,"zhvi":196346.46,"zhvi_yoy":0.0307,"zhvi_base":0.7924,"zori":1308.729,"zori_yoy":0.0245,"zori_base":"NA"}},{"type":"MultiPolygon","arcs":[[[7,8,9,10,11,-4]]],"properties":{"postal_code":"79938","realtor_list_price":304642.279,"realtor_list_price_yoy":-0.0124,"realtor_list_price_base":0.7438,"realtor_active_listings":455.333,"realtor_active_listings_yoy":-0.3473,"realtor_active_listings_base":-0.347,"realtor_new_listings":136,"realtor_new_listings_yoy":-0.3333,"realtor_new_listings_base":-0.2587,"realtor_days_on_market":62.333,"realtor_days_on_market_yoy":-0.1436,"realtor_days_on_market_base":-0.175,"zhvi":255700,"zhvi_yoy":0.0189,"zhvi_base":0.5687,"zori":1767.144,"zori_yoy":0.0198,"zori_base":0.5198}},{"type":"MultiPolygon","arcs":[[[12,13,14,15,16]]],"properties":{"postal_code":"79903","realtor_list_price":242568.182,"realtor_list_price_yoy":0.0486,"realtor_list_price_base":0.976,"realtor_active_listings":22,"realtor_active_listings_yoy":-0.0294,"realtor_active_listings_base":-0.3593,"realtor_new_listings":7.333,"realtor_new_listings_yoy":0.2222,"realtor_new_listings_base":-0.5229,"realtor_days_on_market":63.091,"realtor_days_on_market_yoy":-0.0973,"realtor_days_on_market_base":-0.0016,"zhvi":181991.461,"zhvi_yoy":0.0218,"zhvi_base":0.7217,"zori":1337.222,"zori_yoy":0.1981,"zori_base":"NA"}},{"type":"MultiPolygon","arcs":[[[17,18]]],"properties":{"postal_code":"79839","realtor_list_price":"NA","realtor_list_price_yoy":"NA","realtor_list_price_base":"NA","realtor_active_listings":1,"realtor_active_listings_yoy":-0.7,"realtor_active_listings_base":-0.7213,"realtor_new_listings":0,"realtor_new_listings_yoy":"NaN","realtor_new_listings_base":"NA","realtor_days_on_market":"NA","realtor_days_on_market_yoy":"NA","realtor_days_on_market_base":"NA","zhvi":"NA","zhvi_yoy":"NA","zhvi_base":"NA","zori":"NA","zori_yoy":"NA","zori_base":"NA"}},{"type":"MultiPolygon","arcs":[[[19,20,21,22,23,24]]],"properties":{"postal_code":"79838","realtor_list_price":298000,"realtor_list_price_yoy":1.0238,"realtor_list_price_base":"NA","realtor_active_listings":9.333,"realtor_active_listings_yoy":0.4737,"realtor_active_listings_base":-0.2069,"realtor_new_listings":1.333,"realtor_new_listings_yoy":-0.6,"realtor_new_listings_base":-0.1558,"realtor_days_on_market":70,"realtor_days_on_market_yoy":0.2111,"realtor_days_on_market_base":"NA","zhvi":164515.742,"zhvi_yoy":0.0975,"zhvi_base":0.7521,"zori":"NA","zori_yoy":"NA","zori_base":"NA"}},{"type":"MultiPolygon","arcs":[[[25,26,27,28,29,30,31]]],"properties":{"postal_code":"79912","realtor_list_price":421396.252,"realtor_list_price_yoy":0.0423,"realtor_list_price_base":0.796,"realtor_active_listings":137.667,"realtor_active_listings_yoy":-0.1918,"realtor_active_listings_base":-0.6752,"realtor_new_listings":71.333,"realtor_new_listings_yoy":-0.1008,"realtor_new_listings_base":-0.3751,"realtor_days_on_market":50.009,"realtor_days_on_market_yoy":-0.0128,"realtor_days_on_market_base":-0.268,"zhvi":322699.912,"zhvi_yoy":0.0223,"zhvi_base":0.6368,"zori":1571.067,"zori_yoy":0.042,"zori_base":"NA"}},{"type":"MultiPolygon","arcs":[[[-2,32,33,34,35]]],"properties":{"postal_code":"79907","realtor_list_price":218352.941,"realtor_list_price_yoy":0.2598,"realtor_list_price_base":0.9494,"realtor_active_listings":33.667,"realtor_active_listings_yoy":-0.4599,"realtor_active_listings_base":-0.3012,"realtor_new_listings":11.333,"realtor_new_listings_yoy":-0.3929,"realtor_new_listings_base":-0.2821,"realtor_days_on_market":70.706,"realtor_days_on_market_yoy":-0.2362,"realtor_days_on_market_base":0.0076,"zhvi":181064.25,"zhvi_yoy":0.044,"zhvi_base":0.7326,"zori":1264,"zori_yoy":0.1139,"zori_base":"NA"}},{"type":"MultiPolygon","arcs":[[[36,-25,37]],[[38,39,40]]],"properties":{"postal_code":"79849","realtor_list_price":244458.333,"realtor_list_price_yoy":-0.0652,"realtor_list_price_base":"NA","realtor_active_listings":8.667,"realtor_active_listings_yoy":-0.1875,"realtor_active_listings_base":-0.6442,"realtor_new_listings":4,"realtor_new_listings_yoy":-0.25,"realtor_new_listings_base":0.3084,"realtor_days_on_market":52.667,"realtor_days_on_market_yoy":-0.2785,"realtor_days_on_market_base":"NA","zhvi":183470.153,"zhvi_yoy":0.0202,"zhvi_base":0.8132,"zori":"NA","zori_yoy":"NA","zori_base":"NA"}},{"type":"MultiPolygon","arcs":[[[41,-8,-7,42,-27,43]]],"properties":{"postal_code":"79934","realtor_list_price":293906.849,"realtor_list_price_yoy":0.0863,"realtor_list_price_base":0.7691,"realtor_active_listings":151.333,"realtor_active_listings_yoy":-0.1715,"realtor_active_listings_base":0.2005,"realtor_new_listings":48.667,"realtor_new_listings_yoy":-0.1412,"realtor_new_listings_base":0.0549,"realtor_days_on_market":57.26,"realtor_days_on_market_yoy":-0.1607,"realtor_days_on_market_base":-0.2382,"zhvi":252889.324,"zhvi_yoy":0.0284,"zhvi_base":0.6786,"zori":1838.068,"zori_yoy":0.0342,"zori_base":"NA"}},{"type":"MultiPolygon","arcs":[[[44,-11,45,-33,-1,46]]],"properties":{"postal_code":"79936","realtor_list_price":266338.961,"realtor_list_price_yoy":0.0669,"realtor_list_price_base":0.7474,"realtor_active_listings":103.667,"realtor_active_listings_yoy":-0.256,"realtor_active_listings_base":-0.5299,"realtor_new_listings":51.333,"realtor_new_listings_yoy":-0.2596,"realtor_new_listings_base":-0.4014,"realtor_days_on_market":51.519,"realtor_days_on_market_yoy":0.032,"realtor_days_on_market_base":-0.0888,"zhvi":225771.406,"zhvi_yoy":0.025,"zhvi_base":0.7117,"zori":1461.775,"zori_yoy":0.0406,"zori_base":"NA"}},{"type":"MultiPolygon","arcs":[[[47,-32,48,49]]],"properties":{"postal_code":"79932","realtor_list_price":553250.889,"realtor_list_price_yoy":0.1143,"realtor_list_price_base":1.5805,"realtor_active_listings":154.333,"realtor_active_listings_yoy":0.113,"realtor_active_listings_base":-0.3905,"realtor_new_listings":42,"realtor_new_listings_yoy":0.2115,"realtor_new_listings_base":-0.3024,"realtor_days_on_market":89.81,"realtor_days_on_market_yoy":0.1357,"realtor_days_on_market_base":-0.0615,"zhvi":328022.575,"zhvi_yoy":0.022,"zhvi_base":0.6421,"zori":1861.467,"zori_yoy":0.0238,"zori_base":"NA"}},{"type":"MultiPolygon","arcs":[[[50,51,-48,52]]],"properties":{"postal_code":"79835","realtor_list_price":305012.75,"realtor_list_price_yoy":-0.0642,"realtor_list_price_base":0.6017,"realtor_active_listings":16.667,"realtor_active_listings_yoy":-0.0385,"realtor_active_listings_base":-0.335,"realtor_new_listings":5.333,"realtor_new_listings_yoy":3,"realtor_new_listings_base":-0.0035,"realtor_days_on_market":53.125,"realtor_days_on_market_yoy":-0.585,"realtor_days_on_market_base":-0.4566,"zhvi":224762.668,"zhvi_yoy":0.0455,"zhvi_base":0.6979,"zori":"NA","zori_yoy":"NA","zori_base":"NA"}},{"type":"MultiPolygon","arcs":[[[-20,-37,53,-40,54]]],"properties":{"postal_code":"79836","realtor_list_price":272750,"realtor_list_price_yoy":-0.4433,"realtor_list_price_base":0.9041,"realtor_active_listings":99.333,"realtor_active_listings_yoy":2.3864,"realtor_active_listings_base":2.6438,"realtor_new_listings":6.667,"realtor_new_listings_yoy":0.6667,"realtor_new_listings_base":0.9252,"realtor_days_on_market":79.4,"realtor_days_on_market_yoy":0.5318,"realtor_days_on_market_base":-0.0198,"zhvi":222000.327,"zhvi_yoy":0.015,"zhvi_base":0.5613,"zori":"NA","zori_yoy":"NA","zori_base":"NA"}},{"type":"MultiPolygon","arcs":[[[55,-18,56,-23]]],"properties":{"postal_code":"79853","realtor_list_price":"NA","realtor_list_price_yoy":"NA","realtor_list_price_base":"NA","realtor_active_listings":"NA","realtor_active_listings_yoy":"NA","realtor_active_listings_base":"NA","realtor_new_listings":"NA","realtor_new_listings_yoy":"NA","realtor_new_listings_base":"NA","realtor_days_on_market":"NA","realtor_days_on_market_yoy":"NA","realtor_days_on_market_base":"NA","zhvi":189002.908,"zhvi_yoy":0.0839,"zhvi_base":0.6344,"zori":"NA","zori_yoy":"NA","zori_base":"NA"}},{"type":"MultiPolygon","arcs":[[[-30,57,-17,58,59]]],"properties":{"postal_code":"79902","realtor_list_price":398708.333,"realtor_list_price_yoy":-0.1178,"realtor_list_price_base":1.0293,"realtor_active_listings":62.333,"realtor_active_listings_yoy":0.1402,"realtor_active_listings_base":-0.3116,"realtor_new_listings":16,"realtor_new_listings_yoy":0.0435,"realtor_new_listings_base":-0.2222,"realtor_days_on_market":76.333,"realtor_days_on_market_yoy":0.0401,"realtor_days_on_market_base":-0.0657,"zhvi":285266.373,"zhvi_yoy":0.0095,"zhvi_base":0.6583,"zori":1174.505,"zori_yoy":0.0547,"zori_base":"NA"}},{"type":"MultiPolygon","arcs":[[[-43,-6,60,61,62,63,-28]]],"properties":{"postal_code":"79904","realtor_list_price":214897.6,"realtor_list_price_yoy":-0.0008,"realtor_list_price_base":0.6724,"realtor_active_listings":35,"realtor_active_listings_yoy":-0.0708,"realtor_active_listings_base":-0.4775,"realtor_new_listings":13.333,"realtor_new_listings_yoy":-0.3103,"realtor_new_listings_base":-0.2739,"realtor_days_on_market":53.9,"realtor_days_on_market_yoy":0.0885,"realtor_days_on_market_base":-0.2761,"zhvi":190808.425,"zhvi_yoy":0.0267,"zhvi_base":0.7505,"zori":1209.645,"zori_yoy":0.0708,"zori_base":"NA"}},{"type":"MultiPolygon","arcs":[[[-16,64,65,66,67]]],"properties":{"postal_code":"79905","realtor_list_price":180060,"realtor_list_price_yoy":-0.0455,"realtor_list_price_base":0.6134,"realtor_active_listings":19,"realtor_active_listings_yoy":-0.1493,"realtor_active_listings_base":-0.3882,"realtor_new_listings":6.667,"realtor_new_listings_yoy":-0.3333,"realtor_new_listings_base":-0.3601,"realtor_days_on_market":50.8,"realtor_days_on_market_yoy":0.0613,"realtor_days_on_market_base":-0.2055,"zhvi":161821.7,"zhvi_yoy":0.039,"zhvi_base":0.7661,"zori":1080,"zori_yoy":"NA","zori_base":"NA"}},{"type":"MultiPolygon","arcs":[[[68,-36,69,-66]]],"properties":{"postal_code":"79915","realtor_list_price":189796.227,"realtor_list_price_yoy":0.0595,"realtor_list_price_base":0.7425,"realtor_active_listings":27,"realtor_active_listings_yoy":-0.2636,"realtor_active_listings_base":-0.367,"realtor_new_listings":14.667,"realtor_new_listings_yoy":-0.0833,"realtor_new_listings_base":-0.1396,"realtor_days_on_market":54.864,"realtor_days_on_market_yoy":-0.0534,"realtor_days_on_market_base":-0.167,"zhvi":175224.865,"zhvi_yoy":0.0375,"zhvi_base":0.6899,"zori":1112.917,"zori_yoy":0.0332,"zori_base":"NA"}},{"type":"MultiPolygon","arcs":[[[70,-47,-3,-69,-65,-15]]],"properties":{"postal_code":"79925","realtor_list_price":271075,"realtor_list_price_yoy":-0.0109,"realtor_list_price_base":0.7196,"realtor_active_listings":45,"realtor_active_listings_yoy":0.1066,"realtor_active_listings_base":-0.3769,"realtor_new_listings":18.667,"realtor_new_listings_yoy":0,"realtor_new_listings_base":-0.4085,"realtor_days_on_market":50.643,"realtor_days_on_market_yoy":0.0686,"realtor_days_on_market_base":-0.0799,"zhvi":241637.197,"zhvi_yoy":0.0276,"zhvi_base":0.633,"zori":1322.218,"zori_yoy":-0.0049,"zori_base":"NA"}},{"type":"MultiPolygon","arcs":[[[-46,-10,71,72]]],"properties":{"postal_code":"79928","realtor_list_price":329950,"realtor_list_price_yoy":0.0856,"realtor_list_price_base":0.8761,"realtor_active_listings":813.667,"realtor_active_listings_yoy":-0.1207,"realtor_active_listings_base":0.3151,"realtor_new_listings":194,"realtor_new_listings_yoy":-0.0762,"realtor_new_listings_base":0.283,"realtor_days_on_market":81.598,"realtor_days_on_market_yoy":-0.0727,"realtor_days_on_market_base":0.0214,"zhvi":262211.838,"zhvi_yoy":0.0075,"zhvi_base":0.5926,"zori":1803.796,"zori_yoy":0.0263,"zori_base":"NA"}},{"type":"MultiPolygon","arcs":[[[-64,73,-62,74,-13,-58,-29]]],"properties":{"postal_code":"79930","realtor_list_price":234055.556,"realtor_list_price_yoy":-0.0146,"realtor_list_price_base":0.9009,"realtor_active_listings":45.333,"realtor_active_listings_yoy":0.619,"realtor_active_listings_base":0.032,"realtor_new_listings":18,"realtor_new_listings_yoy":0.5,"realtor_new_listings_base":0.2392,"realtor_days_on_market":59,"realtor_days_on_market_yoy":-0.1918,"realtor_days_on_market_base":-0.0613,"zhvi":184710.842,"zhvi_yoy":0.017,"zhvi_base":0.692,"zori":1319.453,"zori_yoy":0.0135,"zori_base":"NA"}},{"type":"MultiPolygon","arcs":[[[75,-51,76]]],"properties":{"postal_code":"79821","realtor_list_price":271710.5,"realtor_list_price_yoy":-0.0429,"realtor_list_price_base":0.9,"realtor_active_listings":10,"realtor_active_listings_yoy":-0.7196,"realtor_active_listings_base":-0.1031,"realtor_new_listings":4,"realtor_new_listings_yoy":-0.5,"realtor_new_listings_base":-0.1778,"realtor_days_on_market":62,"realtor_days_on_market_yoy":-0.3941,"realtor_days_on_market_base":0.541,"zhvi":227783.532,"zhvi_yoy":0.0181,"zhvi_base":0.7028,"zori":"NA","zori_yoy":"NA","zori_base":"NA"}},{"type":"MultiPolygon","arcs":[[[-59,-68,77,78]]],"properties":{"postal_code":"79901","realtor_list_price":"NA","realtor_list_price_yoy":"NA","realtor_list_price_base":"NA","realtor_active_listings":3.667,"realtor_active_listings_yoy":-0.3125,"realtor_active_listings_base":-0.7223,"realtor_new_listings":0,"realtor_new_listings_yoy":-1,"realtor_new_listings_base":-1,"realtor_days_on_market":"NA","realtor_days_on_market_yoy":"NA","realtor_days_on_market_base":"NA","zhvi":135190.613,"zhvi_yoy":0.0413,"zhvi_base":0.6572,"zori":"NA","zori_yoy":"NA","zori_base":"NA"}},{"type":"MultiPolygon","arcs":[[[-76,79,-44,-26,-52]]],"properties":{"postal_code":"79911","realtor_list_price":526848.295,"realtor_list_price_yoy":0.1346,"realtor_list_price_base":1.12,"realtor_active_listings":71.667,"realtor_active_listings_yoy":0.2147,"realtor_active_listings_base":-0.5136,"realtor_new_listings":29.333,"realtor_new_listings_yoy":0.1579,"realtor_new_listings_base":0.0042,"realtor_days_on_market":65.023,"realtor_days_on_market_yoy":0.1721,"realtor_days_on_market_base":-0.2739,"zhvi":399054.427,"zhvi_yoy":0.0226,"zhvi_base":0.5873,"zori":2407.083,"zori_yoy":"NA","zori_base":"NA"}},{"type":"MultiPolygon","arcs":[[[-49,-31,-60,-79,80]]],"properties":{"postal_code":"79922","realtor_list_price":698658.143,"realtor_list_price_yoy":-0.0635,"realtor_list_price_base":0.8379,"realtor_active_listings":19,"realtor_active_listings_yoy":-0.24,"realtor_active_listings_base":-0.6775,"realtor_new_listings":9.333,"realtor_new_listings_yoy":0.1667,"realtor_new_listings_base":-0.311,"realtor_days_on_market":60.214,"realtor_days_on_market_yoy":-0.2112,"realtor_days_on_market_base":-0.1938,"zhvi":430469.105,"zhvi_yoy":0.0441,"zhvi_base":0.7809,"zori":"NA","zori_yoy":"NA","zori_base":"NA"}},{"type":"MultiPolygon","arcs":[[[-73,81,-21,-55,-39,82,-34]]],"properties":{"postal_code":"79927","realtor_list_price":284744.211,"realtor_list_price_yoy":0.0499,"realtor_list_price_base":1.0643,"realtor_active_listings":88.667,"realtor_active_listings_yoy":-0.189,"realtor_active_listings_base":-0.1709,"realtor_new_listings":25.333,"realtor_new_listings_yoy":-0.05,"realtor_new_listings_base":-0.1133,"realtor_days_on_market":69.947,"realtor_days_on_market_yoy":-0.0735,"realtor_days_on_market_base":-0.2324,"zhvi":207704.917,"zhvi_yoy":0.0232,"zhvi_base":0.7194,"zori":1630,"zori_yoy":0.0423,"zori_base":"NA"}},{"type":"MultiPolygon","arcs":[[[83]]],"properties":{"postal_code":"79837","realtor_list_price":"NA","realtor_list_price_yoy":"NA","realtor_list_price_base":"NA","realtor_active_listings":1.333,"realtor_active_listings_yoy":0,"realtor_active_listings_base":"NA","realtor_new_listings":0,"realtor_new_listings_yoy":"NaN","realtor_new_listings_base":"NA","realtor_days_on_market":"NA","realtor_days_on_market_yoy":"NA","realtor_days_on_market_base":"NA","zhvi":"NA","zhvi_yoy":"NA","zhvi_base":"NA","zori":"NA","zori_yoy":"NA","zori_base":"NA"}}]}},"arcs":[[[175645,583727],[3893,693],[26,-199],[-300,-2432],[16,-3370],[17,-2948],[20,-2998],[13,-3496],[388,-1864],[-418,-142],[176,-1736],[682,390],[216,-503],[-1051,-807],[-826,-3126],[3120,-19],[20,-3012],[23,-3566],[-416,-1147],[-2253,-2421],[-134,-443],[1259,-686],[1578,-86],[7,-5060],[-1300,257],[-3367,1544],[-282,-969],[-776,-1082],[1649,-1424],[960,-1768],[-1338,-1121],[1293,-1190],[-105,-175]],[[178435,538821],[-343,366],[-3559,3099],[-2634,2243],[-4821,4109]],[[167078,548638],[1668,2831],[1387,2519],[27,2567],[-17,1970],[-37,5016],[-24,4186],[386,1252],[607,3116],[1104,1301],[519,-636],[541,-265],[338,1374],[-246,975],[1453,2252],[171,589],[22,1147],[-38,966],[-853,3601],[1184,214],[375,114]],[[152957,682343],[-7433,-16134],[-2427,-5276],[-113,-243]],[[142984,660690],[-4976,-10810],[-4791,-10412],[-424,-919]],[[132793,638549],[-182,157],[-4438,-111],[-1105,-27],[-3330,-84],[-2502,-60],[-319,4],[-3564,-86],[-3462,-91],[-318,-4]],[[113573,638247],[1,53],[55,2809],[-317,19087],[624,0],[-121,5851],[-69,3245],[-33,2078],[-53,3785],[50,655],[379,1562],[605,1204],[44,68],[980,1137],[2654,1834],[5129,3426],[1017,-1491],[1377,-456],[3278,85],[-4,114],[1988,42],[1248,381],[5,-455],[7730,71],[1177,-42],[1189,-42],[490,-36],[6184,74],[586,0],[1608,-56],[837,-531],[746,-356]],[[152957,682343],[3349,7264],[11563,25087],[11326,24569]],[[179195,739263],[56,0],[125,1],[5472,41],[25278,81],[275,-111781],[18665,20],[-17,-11788],[-5437,16],[-98,-5027],[21221,-99],[556,154],[-161,-5556],[2682,-25],[-123,23251],[-231,21222],[539,-1],[20,2263],[46379,348],[1211,1031],[376,103],[4139,-25],[1136,-122],[717,211],[1329,1422],[228,51],[121,46195],[-406,11289],[98,7060],[1927,840],[4246,914],[4889,19],[4320,369],[1140,-458],[1521,130],[-2695,4208],[-665,1511],[-2621,4406],[-1391,4300],[-1067,4198],[18100,-41],[29172,-64],[109,-1704],[368,-48354],[833,393],[313,967],[762,47],[-33,708],[1333,401],[1086,1808],[-154,1514],[480,1347],[704,-68],[614,1074],[18,758],[-1013,1228],[-467,1096],[-1073,4148],[983,-618],[390,-907],[1759,-155],[499,240],[513,2195],[-444,440],[627,655],[1289,396],[717,795],[813,2265],[835,384],[1531,-166],[1038,-1082],[1436,-422],[867,1909],[1003,600],[-309,1405],[990,-180],[3006,-2194],[2713,-3956],[-1033,-1131],[1252,-6503],[-519,-1127],[-59,-1193],[-485,-649],[834,-997],[1452,-447],[756,-1882],[593,1349],[664,-315],[3137,-1020],[3251,8974],[1580,3312],[2374,2472],[6311,1617],[3326,569],[1946,-92],[7691,597],[1560,-108],[5814,334],[-878,-3468],[649,-4323],[99,-2500],[260,-872],[2057,-3672],[218,-2072],[-552,-2517],[-127,-2447],[691,-2974],[45,-2229],[637,-4407],[-143,-2329],[1338,-184],[435,-548],[1885,-33],[2333,237],[2306,-699],[1919,-847],[2789,-823],[1222,-564],[1353,-1509],[1021,-1989],[170,-3126],[362,-1969],[-523,-4213],[-575,-2323],[3167,3229],[1102,460],[1678,-104],[1645,685],[480,1792],[-618,2072],[1217,854],[619,-399],[2700,-770],[2207,-130],[4818,-1248],[2823,-234],[5375,386],[2611,-245],[-655,-1322],[-2752,-3163],[-500,-1210],[-114,-1081],[1268,-2777],[-467,-862],[519,-544],[-409,-2664],[444,-2904],[455,-80],[6343,2387],[1200,1098],[1258,-79],[4132,-1124],[2136,424],[2349,999],[4330,1022],[3068,901],[1815,-1896],[2268,-1279],[1146,-1311],[4013,-2947],[2333,-1575],[1104,-77],[2938,1476],[140,1300],[2045,1878],[1733,754],[2001,1692],[2122,401],[3562,2220],[536,740],[1973,1399],[1850,-96],[3,879],[836,547],[4717,2464],[2636,1528],[2385,621],[2573,1051],[2934,606],[763,335],[2267,1625],[1684,411],[-405,-1751],[-8584,-27077],[-3306,-7825],[-1158,-3352],[-1267,-2031],[-4418,-5526],[-4757,2401],[-3088,1157],[-2111,516],[-5779,768],[-2074,360],[-1406,478],[-2462,-195],[-827,-1078],[-1283,754],[-7021,2966],[-1733,447],[-377,2189],[-2004,-392],[-2126,-1163],[-2018,-528],[-1323,85],[-1632,1633],[-1800,1093],[-1254,373],[-673,-957],[-1231,824],[-2714,404],[-705,541],[-1770,2362],[-608,2536],[-1136,1731],[-1600,928],[-1758,93],[-2423,597],[-983,-37],[-1619,851],[-1890,1628],[-2791,147],[-1043,-180],[195,-4075],[798,-6078],[793,-3795],[1375,-5310],[-300,-951],[176,-1042],[949,-10],[-8120,-1143],[-2897,-24],[-1163,-221],[-2668,-2043],[143,-3043],[-642,-900],[-1393,-2955],[183,-1254],[229,-201],[13288,-2611],[5241,-1159],[22,-4997],[-727,-5085],[-1671,-3534],[-3043,-5038],[-1692,-4374],[-779,-1213],[-875,-2045],[-1252,-2249],[-2567,-3767],[-886,-658],[-450,-1456],[-2196,-2912],[504,-1175],[811,-835],[789,-1558],[1364,-4124],[1998,-2064],[832,-3403],[1310,-439],[1780,-1115],[3083,475],[673,-521],[1271,229],[1929,-755],[379,389],[779,2606],[925,1346],[2164,559],[1820,-1053],[834,-1550],[1326,-446],[3286,-581],[3940,-1875],[2787,-2332],[1682,-804],[2783,271],[2460,-55],[1752,-3316],[410,-369],[-81,-1601],[21,-843],[-77441,4238],[-1886,1290],[-1950,349],[-802,922],[-469,2546],[-549,1039],[-1118,1085],[-2472,654],[-977,1889],[-2433,1063],[421,1356],[-5598,6904],[-1221,562],[-3327,2036],[-1095,-34],[-1501,769],[-2070,1510],[-1589,583],[-2264,-1271],[-1616,12],[-3013,400],[-758,-165],[-1096,1319],[-937,522],[-1196,1812],[-1156,192],[-439,1318],[-1175,247],[-1157,1291],[-1315,-192],[-3136,1754],[7731,-5762],[3649,-3606],[4752,-5247],[2323,-2410],[2875,-3349],[9272,-9984],[-48,-1104],[-2286,-5420],[8,-4016],[576,-5719],[698,-5276],[2327,-9680],[-469,-6980],[2201,-2650],[1387,-775],[319,-1498],[659,-1002],[1310,-150],[2283,-1230],[817,-1115],[2337,794],[1601,-651],[874,581],[84,985],[1634,764],[268,809],[1103,203],[1249,-747],[2349,-3728],[565,-2821],[-1763,-7027],[-2729,-2922],[-2028,-1415],[-26133,7915],[-2380,509],[-11658,4267],[-13628,8991]],[[361918,508594],[-257,36594],[-196,1483],[-94,25769],[-94290,65],[-18458,-18],[-323,0],[-287,0],[-2,-323],[54,-5527],[34,-5240],[161,-13952],[-1901,1656],[-1574,922],[-2290,403],[-3750,-28],[-17,610],[-332,-459],[-7422,-27],[-400,-99],[-9877,23],[-345,3],[-588,1284],[-30,3095],[-2767,-40],[-37,0],[-1291,115],[-5190,-60]],[[210449,554843],[-4,1122],[-133,6410],[49,4412],[-127,5780],[-13,1709],[45,4778],[-117,4353],[-1,84],[18,6285],[2,201],[20,657],[-245,3301],[-66,2731],[-372,1264],[-1111,1433],[-1080,601],[-6972,3113],[-18781,8397],[-1153,870],[-392,538],[-1419,3696]],[[178597,616578],[-3024,6714],[-148,-21],[-5303,12489],[-3278,7718],[-5827,13669],[-1317,1600],[-1042,870],[-765,498],[-2424,695],[-9119,8],[-3366,-128]],[[95773,567074],[711,620],[504,-411],[2610,3760],[552,776],[303,405],[2003,1570],[1705,1260],[862,686],[1841,2035],[1768,1449],[271,347],[181,279],[487,780],[778,1245],[1729,2772],[564,1213]],[[112642,585860],[982,46],[246,-5],[1159,-44],[1527,7],[2661,-3251],[340,-4],[-10,-1579],[2533,-1917],[3385,-2566],[1365,3]],[[126830,576550],[-144,-1497],[-1276,-66],[73,-2576],[-1634,2],[1616,-1440],[-1140,-3149]],[[124325,567824],[-622,-146],[-1258,-15],[-4093,20],[-2610,24],[-2570,40],[-760,2],[-1638,5],[-2449,440],[-104,9],[-833,20],[-4117,21],[-840,1],[-1266,-261],[-4536,-3787],[-871,-773]],[[95758,563424],[3,1031],[12,2619]],[[360705,268633],[13827,16141]],[[374532,284774],[114,134],[12454,-9629],[806,-727],[12551,-9636],[722,-669],[789,-908],[709,-1011],[19940,-32218],[2165,-3448],[1544,-1968],[966,-1032],[20902,-18636],[21930,-19465],[1633,-2214],[1169,-2738],[409,-1806],[2866,-15650],[-152,-41],[404,-2229],[998,-5522],[751,-2321],[904,-1249],[40516,-42563],[1778,-1116],[6213,-1196],[436,1191],[1083,95],[1459,906],[1206,1422],[908,2288],[1493,2285],[1546,1907],[4422,7647],[1922,3006],[1400,1481],[953,1901],[1488,3569],[4393,7209],[705,1286],[625,-3284],[-178,-760],[315,-3124],[594,-2243],[1308,-2210],[387,-1731],[166,-4537],[358,-2348],[-177,-1853],[2471,-2889],[783,-1114],[3264,4386],[4855,7036],[2525,5687],[1837,5092],[16,649],[1675,4952],[-357,2598],[1290,4266],[815,1896],[1602,4338],[1207,2462],[444,1850],[-998,950],[-2158,2927],[11,1020],[693,753],[555,1626],[-5642,-36],[-4414,737],[-741,1098],[-1130,223],[-118,1404],[-1058,1560],[-1849,1062],[18,836],[974,2192],[-211,1365],[1660,553],[-748,2539],[-881,6495],[284,1741],[-2150,5443],[-423,832],[-40,1505],[-1295,592],[-1930,2390],[-177,757],[-1038,1292],[-162,2320],[-888,3298],[-1566,5151],[-829,1152],[175,2784],[-116,1336],[242,1598],[-1134,4584],[-534,2905],[-120,2101],[148,1661],[806,3337],[180,1849],[816,1676],[-931,-46],[-943,-646],[-719,806],[-1064,28],[-4529,1188],[-2206,-242],[-515,1012],[-1115,370],[241,912],[-355,918],[-1521,1776],[-444,1941],[-1502,1629],[-612,1795],[-1279,1754],[-900,2175],[1238,1691],[1365,2654],[-1989,-160],[-4378,-880],[-4905,-351],[-2017,69],[-1003,-10403],[-9797,-1484],[-4462,-872],[-694,185],[-273,2717],[-1646,1589],[-1028,1520],[-4944,8356],[-1104,1140],[-151,907],[-1283,2152],[-331,1153],[-2177,3382],[3133,1962],[1038,1189],[2779,2526],[3449,2362],[4105,3755],[1106,1597],[-2872,52],[-2562,-189],[-1491,83],[665,1430],[8082,26678],[-92,842],[-5459,126],[-2491,287],[-5588,354],[-259,-1148],[-1252,-2],[-384,1354],[-1232,1743],[-10079,9007],[-593,287],[-14458,14677],[-825,305],[-2435,-608],[-2573,-854],[-3798,-2027],[-7170,-3306],[-2355,-336],[-4100,-1509],[16,-512],[-698,510],[-283,1036],[-179,4021],[193,1124],[965,2915],[-12485,597],[3653,5865],[1242,1798],[5389,24651],[-721,1449],[-2247,3356],[-1099,2095],[-428,1422],[6086,2749],[715,74],[758,792],[6932,4809],[1921,452],[222,675],[4299,17211],[221,1254],[778,1343],[-167,3299],[-954,612],[124,1297],[886,-72],[1221,1294],[1672,2521],[1332,2298],[-2,662],[1147,1062],[2818,4848],[1663,2213],[1580,1568],[1107,557],[4327,2732],[2259,2028],[-1086,4282],[1340,2147],[230,6338],[261,1604],[965,3262],[305,4743],[329,1488],[1756,5167],[2646,6842],[4162,2266],[12608,3986],[669,-3700],[673,-1873],[1633,-2498],[-1254,-3325],[-849,-1184],[-9,-2550],[-517,-2025],[-1038,-2083],[-1121,-1641],[-82,-1358],[-1500,-4391],[-554,-3186],[-590,-1464],[-488,-2274],[113,-814],[13812,-32163],[177,-605],[68,-428],[527,-13350],[669,-6540],[587,-9332],[-2123,-5871],[-1030,-2097],[-940,-2500],[476,-289],[1444,1956],[1749,1529],[1760,-129],[1248,-518],[835,119],[475,-988],[37,-1690],[-807,-3425],[-885,-2786],[-553,-3151],[-206,-3198],[55,-3133],[768,-4826],[54,-3749],[662,-2668],[474,-1034],[1882,-2240],[1081,-986],[1214,-226],[1075,-2022],[1715,-1598],[4047,-4646],[602,-2214],[1491,-2374],[427,-1342],[11470,-2367],[1599,1069],[1256,86],[2836,-1022],[1827,-1981],[1573,-554],[896,-620],[1194,715],[3004,1014],[2431,393],[2687,-1132],[3114,-50],[1186,-1204],[-683,-3250],[706,-2004],[4161,-2501],[2169,-1944],[2242,-437],[898,44],[2411,653],[2785,1023],[2773,4700],[2189,4769],[687,-1340],[2758,-2429],[470,-175],[2848,451],[1380,659],[709,1108],[3045,6608],[1738,1490],[2567,180],[2486,897],[1480,912],[-837,3802],[742,776],[175,-338],[2205,491],[3762,380],[6731,209],[7064,-631],[1027,-235],[2299,-1247],[860,-2],[5074,-1379],[1406,483],[4386,143],[-615,-34575],[-2889,-2340],[-3103,-2035],[-1881,-2193],[-682,-16],[-10946,-2709],[-2240,-783],[-965,166],[-2654,-459],[-4272,-2840],[-690,-903],[-58,-2065],[366,-4976],[165,-935],[-1018,-1562],[-1773,-1765],[-433,-3210],[167,-754],[1234,-1905],[798,-2393],[1355,-2327],[2242,-1320],[1522,-632],[2403,-448],[3226,-1298],[2172,715],[553,-265],[873,-1416],[1287,-524],[3,-1926],[334,-3291],[-200,-1092],[567,-923],[752,177],[228,-1008],[-261,-965],[370,-2225],[1013,-1260],[291,-949],[-414,-872],[1190,-1008],[1465,-2314],[1679,-461],[466,-426],[61,-868],[-863,-577],[327,-2761],[-172,-1664],[-1245,-2477],[-47,-637],[1087,-2503],[-215,-949],[520,-889],[-456,-1032],[1485,-2336],[-382,-1610],[1136,-1808],[1044,-262],[267,-805],[-963,-1770],[865,-1779],[-531,-400],[1631,-2879],[-514,-1256],[42,-1391],[733,-2365],[-296,-1324],[-1718,570],[-2495,3642],[-1080,1178],[-3004,-11609],[-426,-952],[-1763,-6124],[58,-2546],[1075,-2775],[-202,-1282],[-809,-1226],[-257,-1614],[-1671,-1276],[-1097,362],[-808,895],[-1122,92],[-51,-604],[-3053,-2310],[926,-1138],[1273,-572],[1445,-127],[844,-563],[1430,-1852],[3506,-3291],[1719,-1289],[8889,-8509],[-316,-10246],[-403,-16444],[-15247,-12059],[-833,-556],[-1410,-476],[-1466,27],[-6212,1573],[-10637,1137],[-11667,418],[-3038,-59],[-8201,-3306],[-2163,-1253],[-1534,-1450],[-3094,-3609],[-1521,-1198],[-19704,-8748],[318,-1777],[-902,-4540],[-241,-3325],[998,-8124],[351,-1550],[1768,-5742],[2693,-5870],[6645,-5777],[2680,-3096],[6004,-8822],[2830,-3439],[8494,-9843],[3463,-4774],[2455,-5833],[5168,-8588],[336,-668],[150,-557],[942,-6693],[660,-5931],[-72,-2669],[581,-1826],[252,-2942],[-2983,-1064],[-2773,15071],[-265,890],[-1023,1433],[-798,914],[-3265,2408],[-808,880],[-1587,7726],[-2534,5900],[-633,857],[-907,986],[-11820,10355],[-650,84],[-6290,-772],[-568,114],[-579,403],[-391,806],[-2302,11137],[-486,820],[-684,708],[-5561,2727],[-572,168],[-726,112],[-621,354],[-662,632],[-866,488],[-2275,1038],[-5728,2243],[-7784,3668],[-8942,4257],[-3721,3212],[-459,667],[-289,749],[-92,786],[-32,1011],[-306,1879],[-256,822],[-434,671],[-12250,11659],[-620,398],[-560,274],[-415,77],[-10623,-945],[-3354,578],[-1232,800],[-824,749],[-328,870],[-234,1023],[-607,4039],[-427,1444],[-1666,3432],[-500,1275],[-129,1743],[114,864],[228,1199],[100,1698],[-149,1098],[-589,1796],[-1174,3016],[-366,559],[-629,527],[-903,434],[-2839,1095],[-984,434],[-670,535],[-13599,21792],[-3835,5047],[-5557,7313],[-8226,14143],[-661,1984],[-929,3000],[-382,747],[-1788,1714],[-662,859],[-2920,4777],[-3032,4961],[-719,751],[-2589,1298],[-710,137],[-949,-95],[-7108,-1173],[-1266,277],[-805,486],[-903,1045],[-267,574],[-3003,8130],[-763,2494],[-1790,2343],[-195,947],[-194,715],[-314,266],[-455,163],[-1330,160],[-1689,44],[-2170,-318],[-2220,-492],[-4966,557],[-853,315],[-3281,4301],[-5208,16195],[-6,986],[1293,7325],[6,1046],[-201,862],[-4413,8844],[-501,332],[-505,93],[-7292,241],[-776,244],[-6644,7610],[-8391,8718]],[[227321,376197],[3555,3214],[-1818,3090],[-52,238],[1480,-2235],[2768,56],[2915,-3664],[1966,1741],[1090,-1973],[7383,-9212],[2478,-2762],[1408,-1215],[3021,-1683],[967,-88],[5593,707],[-2525,1871],[588,2860],[606,1940],[-7771,6525],[-2272,2281],[1992,3302],[-1621,1740],[2961,3068],[3389,3016],[142,90],[1517,1313],[-746,1277],[1478,1505],[1296,-1725],[5629,5395],[-5203,9331],[6260,-174]],[[265795,406026],[1014,-1812],[14359,-25547],[4939,-8793]],[[286107,369874],[-2497,-1890],[-4983,-3258],[1308,-1688],[0,-685],[-9,-1899],[-13,-3822],[2192,-3442],[-3754,-4620],[10041,-11378]],[[288392,337192],[-223,-277],[-2216,-2506],[-27,-1224],[-475,-2423],[506,-1895],[89,-1388],[-521,-1896],[-267,-2089],[313,-931],[921,-35],[1309,-1000],[4877,-2072],[29,-808],[-981,-1896],[245,-2137],[-550,-1628],[-24,27],[-2441,-153],[-604,-1798],[-337,-2753],[129,-583],[1167,-2126],[944,-2562],[-6,-913],[-158,-2247],[88,-3293]],[[290179,296586],[-339,1],[-620,167],[-944,35],[-1290,273],[-714,322],[-1016,458],[-5568,3647],[-6364,4284],[-1220,1014],[-1579,1646],[-2100,3337],[-1684,2620],[-2339,3315],[-842,981],[-1265,1234],[-868,786],[-1531,965],[-753,345],[-319,147],[-7808,2721],[-41,262],[-2886,1002],[-2029,1304],[-995,791],[-835,886],[-1275,1649],[-2408,3750],[-2292,3570]],[[238255,338098],[96,2361],[1944,3722],[-337,2371],[2143,1710],[398,-473],[856,777],[-3230,6562],[-755,669],[-8223,12784],[508,848],[-1432,2211],[-2902,4557]],[[35023,667929],[1923,-8],[7096,-767],[-31,-282],[-657,-1764],[-884,-980],[-1560,-1183],[-732,-1095],[-654,-2098],[115,-23],[-94,-1718],[636,-3167],[921,-4540],[705,-3382],[476,-1099],[702,17],[751,396],[2936,35],[2051,-450],[919,-52],[2802,753],[1126,887],[475,-1072],[1166,446],[1036,-207],[2579,763],[2421,-1567],[9360,-32],[-888,4114],[6650,-52],[25,-933],[2429,23],[676,-1060],[1151,-1470],[1896,-1297]],[[82546,645065],[1275,-7368]],[[83821,637697],[45,-327],[554,-4111],[122,-1267],[-53,-8241]],[[84489,623751],[-782,-1414],[-151,-272],[-591,-2163],[-496,-1820],[4,-659],[16,-2543],[1695,-3821],[682,-1440],[1234,-2698],[568,-1249],[460,-2202],[228,-1092],[56,-3327],[6,-369],[26,-1591],[618,-2540],[1869,-4511],[465,-2071],[-178,-613]],[[90218,587356],[-9291,1236],[1794,148],[619,686],[44,2713],[-3950,-44],[-689,-573],[479,-2703],[-116,19],[-814,-26],[-554,-2177],[-2272,-2606],[-504,109],[-60,-276],[-721,800],[143,4485],[-6149,1100]],[[68177,590247],[-1146,1194],[-1264,583],[-630,105],[-2564,33],[-3867,6],[-1306,142],[-1389,842],[-2497,3388],[-2447,3436],[-503,705],[-877,1219],[-5956,8328],[-588,1016],[-1157,3770]],[[41986,615014],[-1060,3954],[-1265,6205],[-711,3972],[-791,4504],[-499,2822],[-1657,9298],[-15,83],[-494,2766],[-292,1646],[-166,1567],[-13,16098]],[[178435,538821],[5086,-6670],[320,-425],[5761,-7621],[1842,-2429],[3187,-4231],[1463,-1936],[4707,-5857],[282,-341]],[[201083,509311],[-6849,-10383],[-96,-134],[-811,-863],[-632,-471],[-4983,-2698],[-2386,-1869],[633,-976],[2247,2027],[1735,-2718],[-882,854],[-2489,-1117],[-495,772],[-114,-746],[-2033,-1204],[411,-897],[-1908,-196],[1383,-3360],[-720,-502],[-1838,3713],[-1596,-319],[-423,1496],[-2261,-852],[-2893,-914],[-1869,898],[-199,-2216],[-175,-351],[-701,-78]],[[171139,486207],[-5025,15247],[-1418,4302],[-4154,4195],[-6293,5627]],[[154249,515578],[181,1214],[-69,42],[139,288],[801,1676],[-43,-360],[90,200],[681,-326],[577,1910],[-573,234],[492,1668],[191,544],[997,829],[1497,-61],[1389,-451],[454,69],[206,85],[1088,833],[274,216],[706,1021],[332,538],[831,3363],[1093,1072],[838,852],[1320,2614],[-388,1908],[-582,2203],[-48,607],[109,-4],[280,2294],[-187,7742],[153,240]],[[224705,376288],[2616,-91]],[[238255,338098],[-541,844],[-454,977],[-303,981],[-2250,12918],[-374,1356],[-587,1270],[-5666,7497],[-692,1196],[-355,969],[-497,2176],[-1831,8006]],[[194659,432448],[6012,2058],[566,193],[3000,1020],[118,945],[351,-784],[166,-377],[311,539],[4436,1515],[190,-913],[682,209],[-133,957],[4403,1511],[84,29]],[[214845,439350],[314,-1457],[1478,-3888],[1255,-3511],[1235,-3430],[1037,-2798],[1696,-4333],[4533,778],[431,83],[1266,-4653],[2426,-3312],[-2417,-2273],[1933,-2857],[2723,-3938],[7544,-11078],[124,-183],[-534,-1157],[263,-4305],[-2738,1199],[-5606,-41],[-110,-340],[-1064,-1997],[-2172,100],[-3827,662],[-3225,1139]],[[221410,387760],[-131,208],[-244,383],[-3634,3455],[-3726,2719],[-10073,7350],[-491,469],[-372,705],[-2290,10338],[-1406,6346],[-325,1275],[-57,222],[-149,582],[-2335,5493],[-1518,5143]],[[71519,738853],[1710,9],[20759,111],[7718,41],[10497,57],[219,1],[18039,96],[8,0],[1174,15],[8157,100],[9522,-235],[177,-4],[8844,65],[424,3],[1885,14],[7391,55],[2602,19],[6377,47],[719,5],[1454,11]],[[113573,638247],[-686,-9],[-961,-25],[-3221,-77],[-1858,-53],[-103,-22],[-1576,-43],[-265,59],[-18515,-685],[-7,606],[-2412,-285],[-148,-16]],[[82546,645065],[11,3594],[6,271],[418,19108],[120,5489],[616,25438],[-891,5307],[277,4540],[-1614,7539],[-3617,6542],[-646,610],[-4249,4016],[-57,3615],[-1057,2232],[1372,3101],[-3,1115],[-1753,639],[40,632]],[[175087,616314],[3327,255],[183,9]],[[210449,554843],[-43,-4447],[5,-800],[37,-4041],[21,-2456],[86,-2461],[33,-906],[-6,-401],[-50,-3165],[149,-7833],[-1,-1558],[-287,-2131],[-265,-974],[-498,-1299],[-599,-1124],[-2603,-3917],[-5345,-8019]],[[175645,583727],[-558,32587]],[[14484,673559],[-34,-590],[3298,202],[4393,-2],[306,-10],[-33,-5567],[-223,-2877],[1432,-10],[177,-2285],[-1611,-2],[72,-5855],[2946,-337],[571,-401],[-914,12044],[552,-84],[455,-7101],[14,-214],[108,-1361],[678,-3208],[3802,8199],[1874,3539],[297,-292],[2379,582]],[[41986,615014],[-3409,905],[-194,-631],[-199,-155],[-999,-395],[-178,518],[-356,1240],[-169,38],[-6365,1694],[-3889,1031],[-4036,1070]],[[22192,620329],[-55,51],[-3874,112],[-1016,29],[-4015,4877],[-2173,2622],[-1137,3308],[-1054,1008],[-2139,2048],[-241,231],[-1082,1036],[26,4045],[560,2271],[1962,3463],[16,28],[288,508],[301,1042],[590,2038],[-643,1596],[-10,25],[-179,443],[-1799,2125],[-2351,1900],[-2640,973],[-1332,1475],[-195,606],[93,2315],[2580,4542],[3989,3978],[4295,1867],[1391,1385],[2136,1283]],[[17211,704432],[-401,1151],[-4,1804],[4118,-14],[909,-320],[946,-90],[414,-32],[587,-13715],[155,-112],[50,-1099],[6202,-123],[-1,790],[3512,-49],[0,888],[1195,102],[1,6209],[145,-3],[2,3632],[-6,2292],[10,7674],[2,2760],[-1,2471],[208,-29],[0,-901],[10683,60]],[[45937,717778],[24,-1506],[255,-8378],[426,-11112],[-1568,-419],[-1494,19],[-1659,-1491],[-4005,-543],[-1693,-425],[-1189,-302],[0,-2811],[-3,-9692],[-4,-8092],[-3,-4990],[-1,-107]],[[14484,673559],[56,34],[-693,4787],[1533,73],[127,398],[-3430,2084],[-2631,-1319],[-603,2265],[694,753],[1767,1916],[700,1661],[854,2025],[229,1347],[-145,3250],[-713,3561],[4185,2244],[797,5794]],[[224705,376288],[-1930,8442],[-604,1832],[-761,1198]],[[214845,439350],[-205,1005],[2806,-119],[4310,1485],[150,52],[5574,1979],[235,83],[949,325],[280,-1103],[1058,-262],[1253,-1825],[804,-1907],[1107,524],[231,105],[-800,2498],[-263,390],[-2023,2457],[30,58],[3717,838],[1289,737],[968,-1920],[1841,-3652],[1444,1351],[-187,-3843],[1322,-2621],[4895,3839],[2753,-5104],[-2637,-2057],[442,-1630],[555,-1026],[363,-581],[218,-281],[307,-310],[762,1110],[329,371],[1166,902],[199,96],[700,65],[550,353],[2270,-4035],[12188,-21671]],[[288392,337192],[2472,3268],[791,-1029],[9784,12652],[21536,-16262],[1551,-1338],[1584,-1680],[3667,-4698],[16227,-20947],[977,-1059],[701,-603],[26850,-20722]],[[360705,268633],[-2877,2989],[-1458,1004],[-1220,292],[-3666,380],[-7557,608],[-16519,1700],[-9732,929],[-1314,255],[-1892,621],[-1424,934],[-1200,1168],[-1988,2571],[-4828,6122],[-2999,3979],[-392,520],[-1974,2100],[-967,745],[-833,492],[-1144,430],[-1575,99],[-4967,15]],[[90218,587356],[-278,-829],[-1,-377],[888,-2411],[-167,-1283],[549,-612],[335,-1081],[-53,-564],[389,-1281],[-335,-2565],[55,-982],[753,-1976],[298,-1336],[1774,2406],[146,1047],[274,324],[876,-630],[-3,-3140],[26,-4160],[29,-832]],[[95758,563424],[-491,-435],[-5600,-4949],[-52,-39],[-1036,-553],[-916,-224],[-395,-177],[-241,-151],[-1215,-1039],[-473,-420],[-1741,-1347],[-1191,-542],[-1432,52],[-1277,579],[-342,-271],[-454,497],[-921,1543]],[[77981,555948],[-1674,2905],[257,199],[115,75],[-1769,3534],[-720,984],[-1337,1961],[-1175,2677],[-445,1879],[-1204,9440],[55,3854],[-307,2449],[-1600,4342]],[[132793,638549],[-5181,-11244],[-2251,-4912],[-748,-1629],[-4136,-8996],[-3226,-7001],[-1519,32],[-431,-13],[-3702,-90]],[[111599,604696],[-5943,-123]],[[105656,604573],[-594,-372],[-2717,-448]],[[102345,603753],[-2,103],[-789,-342],[-760,-757],[-152,1607],[-1817,-2770],[-1724,66],[-587,200],[-1189,745],[-608,773],[-105,478],[81,1237],[-387,5038],[-1470,2731],[-1050,-5],[-1028,1182],[-744,1559],[-1560,1601],[-1480,374],[-1402,4586],[-1083,1592]],[[124325,567824],[798,390],[-11,-186],[1962,1627],[-105,92],[1630,1036],[4156,96],[3160,435],[1834,-842],[123,-78],[2853,-1829],[43,-27]],[[140768,568538],[-123,-268],[-2775,1733],[2279,-7430],[326,-1969],[-530,-5097],[-115,-994],[-94,-1044],[296,-841],[-778,784],[-567,664],[-1028,1202],[-199,-51],[-1311,1548],[-624,495],[-419,-190],[670,-2544],[91,-508],[1231,-1738],[498,-3831],[-2807,-5156],[-467,-875]],[[134322,542428],[-7400,5498],[-271,201],[-471,152],[-1704,552],[-1575,287],[-3815,695],[-1058,362],[-1133,388],[-1639,1201],[-3462,2857],[-3567,2943],[-57,4],[-219,18],[-992,80],[-1084,-289],[-6463,-3456]],[[99412,553921],[-347,1267],[-75,1626],[0,506],[35,1316],[1380,1244],[-52,87],[2023,1796],[33,741],[0,120],[4,764],[-48,1132],[-16,1647],[-1740,-635],[-2538,-1675],[-818,-648],[-1502,-1331],[7,1546]],[[140768,568538],[8506,-5401],[3075,-1983],[603,-470],[3589,-3057],[1774,-1511],[726,-629],[2264,-1933],[3315,-2820],[2458,-2096]],[[154249,515578],[-1011,904],[-1241,1425],[-817,1717],[-436,1928],[-1667,7384],[-233,1032],[-743,1496],[-912,1394],[-14,22],[-1547,1149],[-1040,772],[-64,48],[-4200,3120],[-693,515],[-575,427],[-4734,3517]],[[126830,576550],[1281,53],[853,-32],[2179,-14],[48,1558],[70,1431],[2676,-1148],[349,1277],[16,1106],[17,290],[-32,2024],[-47,6998],[2002,-6],[-205,-2242],[1812,1467],[360,799],[1605,1188],[-776,1856],[-43,3915],[6728,146],[56,2423],[2051,65],[1209,564],[4976,4920],[2183,720],[1045,835],[-615,1025],[995,990],[2047,2396],[3258,3261],[2335,1473],[1730,310],[8094,116]],[[361918,508594],[109,-15882],[482,-55931],[248,-30940],[16,-1963],[-28722,195],[-67070,141]],[[266981,404214],[-1015,1810],[-12194,21682],[-2316,4117],[-9626,17103],[-4156,7381],[-3114,5530],[-766,1357],[-5259,9341],[-2772,4917],[-3162,5520],[-1658,2101],[-636,777],[-9665,11797],[-2482,3031],[-4361,5320],[-2716,3313]],[[102345,603753],[-727,-328],[-777,-781],[7,-3750],[680,15],[943,0],[-42,3197],[1701,122],[1005,1075],[3282,689],[-194,572],[-2567,9]],[[111599,604696],[199,-1898],[0,-1306],[951,28],[-20,-2016],[1566,-3],[356,2],[226,1],[-409,-1311],[-411,-1928],[-233,-1724],[-631,-6329],[-63,-464],[-82,-440],[-406,-1448]],[[45294,738713],[483,-15789],[143,-1376],[-4,-1076],[21,-2694]],[[17211,704432],[-1672,6],[-2843,-2388],[-1281,1256],[-229,2257],[31,122],[656,2619],[2139,1800],[602,1053],[348,1669],[-458,3542],[-1281,1038],[-747,-17],[-1808,-1701],[-2029,435],[-4490,4262],[-747,2703],[1689,4115],[2954,3134],[803,173],[191,41],[492,106],[890,192],[1859,400],[2291,2861],[481,3962],[1,11],[53,442],[4833,81],[190,4],[1364,22],[237,4],[2142,36],[2019,34],[254,18],[29,0],[1810,18],[1915,-10],[2179,-12],[2945,2],[22,0],[1,0],[281,0],[6498,4],[2443,2],[509,-18],[517,3]],[[99412,553921],[-310,-356],[-573,-657],[-947,-3423],[-438,-1201],[-836,-1044],[-460,-154],[-1236,-415],[-3985,-1388],[-1076,-374],[-1232,-68],[-1494,527],[-2856,2602],[-1002,1562],[-1444,928],[-564,362],[-724,1161],[-1163,863],[-1299,1765],[-839,552],[-670,22]],[[76264,555185],[406,803],[1311,-40]],[[45294,738713],[1111,6],[25114,134]],[[76264,555185],[-851,29],[-379,1056],[-169,471],[-485,3161],[-317,1278],[-667,1277],[-659,672],[-779,34],[-873,138],[-3227,3367],[-853,1713],[-1928,2578],[1,383],[57,204],[165,441],[-1921,579],[-15926,-20],[973,1817],[918,3272],[1229,1662],[2125,2376],[1179,927],[2781,1602],[1357,421],[1357,-651],[840,-1594],[1291,-3203],[1123,-1149],[2019,-598],[985,-750],[-49,376],[-114,571],[-1431,1223],[-1093,-145],[-289,-65],[-24,60],[-945,3218],[-229,753],[-105,320],[-278,843],[-3479,2711],[-26,-29],[-1429,1670],[-351,552],[-685,1205],[-316,555],[-772,292],[-1277,483],[-2804,1060],[-1432,542],[-1153,246],[-1350,288],[-278,1151],[-1891,537],[-1205,-1255],[-1076,-1121],[-3504,154],[-2280,2681],[-386,1063],[-59,163],[-2881,4440],[-401,618],[-556,459],[-488,308],[-116,74],[-2056,1300],[-4119,79],[-831,15],[-18,28],[-1349,2114],[-46,71],[1024,4968],[213,1033],[611,2959],[-56,3678],[-1780,1149],[-279,256]],[[266981,404214],[20243,-36021],[263,-797],[-1380,2478]],[[194659,432448],[-558,1893],[-606,611],[-1740,4075],[23,1385],[128,1402],[-1262,4090],[31,1209],[-113,837],[-317,918],[-6,16],[-2231,4947],[-263,583],[-2203,3761],[-4490,7659],[-2784,4749],[-1178,2737],[-1689,3027],[-2473,4430],[-1789,5430]],[[548402,913047],[242,2441],[3625,4718],[2326,2520],[846,1368],[1837,2107],[2014,2887],[225,616],[998,909],[1303,-13],[1086,1723],[2400,798],[-2316,4657],[-4165,19840],[-944,17956],[2042,-749],[1684,218],[1021,-633],[4764,363],[5649,-282],[886,2835],[1079,2810],[960,1616],[2296,1440],[3961,3882],[374,-1439],[929,-2123],[872,-825],[1711,-806],[1352,-1265],[1051,-175],[2163,-2424],[329,377],[-231,1710],[-73,3030],[726,6152],[312,1671],[120,2898],[240,1704],[1364,4130],[18803,36],[60710,122],[623,-102],[9658,88],[33472,166],[9,-900],[21046,-6],[1146,-3872],[1030,-1422],[1721,-771],[1150,-687],[829,-71],[821,518],[771,-1323],[1715,-911],[1084,-223],[2266,143],[1362,-519],[1193,329],[551,-797],[1184,-670],[1611,7],[771,89],[476,160],[515,21],[1174,-573],[569,-422],[32,-529],[72,-504],[235,-249],[432,-231],[202,-21],[295,338],[2269,-1317],[2994,362],[893,-338],[2453,441],[1424,724],[1300,-439],[1164,151],[2936,1811],[741,872],[1344,452],[2068,52],[2356,932],[1235,-602],[3275,-782],[938,-1382],[2813,-1355],[721,126],[3275,-626],[634,-910],[-1989,-729],[-2465,670],[1975,-2381],[1620,-2268],[2023,309],[6334,1349],[1769,-381],[5388,-3854],[1801,-2191],[9146,-11520],[2029,-1272],[2804,-1036],[2034,-530],[1109,-999],[2352,-344],[1138,-983],[1202,-2659],[603,-2217],[2112,-5349],[411,-645],[4081,3465],[1398,539],[13549,2213],[2716,605],[9760,4820],[-178,960],[686,-177],[1707,309],[5477,-292],[824,45],[4359,-1907],[3330,-1163],[1195,-787],[4447,-1911],[1351,-469],[2029,-1112],[4406,93],[2756,-366],[1952,104],[1090,-691],[3913,953],[3491,-2680],[2499,71],[2265,606],[2630,1913],[1554,932],[590,678],[270,826],[652,848],[191,-1169],[1667,158],[991,1293],[2612,2485],[1601,198],[4610,-1958],[1192,-1082],[3314,-1568],[638,-600],[2615,-5475],[281,-1302],[1207,-1682],[1094,-856],[1279,-2702],[1031,-1275],[592,-1738],[1144,-4570],[1585,-2527],[155,-707],[1860,-3675],[2326,-3133],[1954,-2309],[7886,-13414],[2240,-6440],[4220,-19589],[5186,-18352],[635,-1520],[762,-836],[1655,-815],[3566,-3964],[1686,-2560],[2034,-1794],[1624,-2782],[2688,-2410],[1972,-1590],[730,137],[337,-722],[-73,-1918],[1002,-1654],[423,-1547],[1624,-2139],[523,-1227],[1578,-2453],[-317,-1850],[-368,-605],[-1252,-636],[-483,-1031],[98,-3589],[534,-1784],[-67,-1559],[565,-1876],[2426,-2929],[-364,-556],[960,-1918],[14,-78148],[-39278,258],[-292,2],[-47591,67],[-775,-886],[-1099,24],[3139,-27719],[10,-6509],[-2765,-33],[12,-7287],[627,-396],[-18,-4989],[-596,-6],[-135,-11217],[213,-11712],[-9305,7],[203,-22651],[19033,67],[-137,-12769],[10032,10],[347,-4446],[1596,-3966],[7894,-2418],[354,-755],[-1718,-2276],[-1528,-1562],[-2305,-1902],[-75,-1076],[596,-3332],[644,-2469],[389,-3233],[333,-6249],[-1280,-1533],[-87,-1679],[606,-3614],[-191,-1146],[-1888,-2036],[-1130,-2502],[-602,-1998],[-1967,-4951],[-225,-4135],[-760,-2572],[-864,-5805],[-471,-1386],[-812,-4050],[-236,-3946],[733,-3419],[-162,-3007],[-1442,-384],[-53641,-7579],[-985,51097],[-101,371],[-743,646],[-27869,27],[-373,1113],[-586,3227],[-1671,2913],[-1398,3218],[-3375,5782],[-1761,3751],[-758,1062],[-694,15809],[-22006,-140],[82,-3724],[-788,232],[-2047,1377],[-2699,1291],[-2217,772],[-11,12332],[84,11849],[4902,6],[267,5185],[-190,3239],[-6,6402],[135,622],[9,6356],[-292,1707],[-4854,-8],[7,-11739],[-9784,-47],[6,-11726],[-19322,-15],[-10,11729],[-9839,9],[20,5787],[4950,21],[-61,5954],[9757,-5],[-11,11783],[-9629,7],[26,11621],[-5060,-27],[101,11919],[-6325,20],[-421,170],[-2584,4052],[-229,636],[9,3334],[-487,1740],[-1792,2024],[-4766,2021],[-1735,391],[-3415,1981],[-1531,50],[-2963,1858],[-4376,-190],[-3435,1328],[-2570,2620],[-1246,752],[-414,980],[-3,0],[-516,1312],[-1756,2401],[-697,258],[-9626,5624],[-828,760],[-2281,1425],[-2080,946],[-7851,4759],[-837,684],[-2335,1231],[8,893],[1554,2934],[25,361],[-2127,-665],[-2047,551],[-2343,267],[-891,591],[-844,1641],[-1009,809],[-1733,817],[-617,1017],[-1268,447],[-1965,1687],[-2059,1112],[-1767,582],[-1907,1413],[-1607,725],[-1340,1176],[-797,1532],[32,2029],[-262,1376],[-424,240],[-2966,303],[-702,406],[-2337,3435],[-1626,1887],[-1400,362],[-2453,1732],[-4902,-1648],[-1332,822],[-3751,-440],[-5128,-248],[-2430,585],[-2646,1240],[-1241,69],[-1414,-158],[-1493,-1273],[-2228,-18],[-893,-1898],[-2296,-1214],[-1508,-327],[-1270,-883],[-1036,-251],[-2142,-983],[-1723,-204],[-1543,129],[-501,-558],[355,-826],[-1207,-1023],[-1983,-338],[-1574,17],[-898,-1758],[-923,-2428],[-614,-401],[-1085,-1487],[-733,-1458],[-1001,-475],[-745,-4129],[-76,-1905],[194,-1524],[-215,-1887],[-3335,-627],[-1276,-768],[-4069,-891],[-1798,-256],[-3860,-966],[-7157,-4653],[-2553,-1565],[-1356,-1302],[-2692,-654],[-937,-554],[-132,7693],[-549,1751],[736,1513],[789,2387],[-79,1866],[-455,3076],[2107,7167],[-2076,716],[-5274,-1702],[-3096,-1578],[-742,18],[-875,993],[-109,4009],[302,1881],[-8,1761],[341,2589],[-336,1925],[498,2649],[15,2513],[-277,1219],[1112,2475],[-365,1018],[145,4976],[578,3449],[-810,1906],[-1158,3668],[-198,1404],[22,3414],[641,1611],[325,2337],[3475,4382],[3840,3706],[1237,1667],[910,2043],[2238,-1555],[5041,-615],[-116,1136],[1675,4165],[1242,1466],[-2466,3422],[-1811,1206],[-405,772],[-253,1732],[282,1348],[926,2378],[-1414,26631],[-1374,-2265],[-723,-948],[-6589,-6240],[-539,-803],[-658,-3784],[-764,411],[-2458,3019],[-1184,1088],[-3537,1894],[-2143,788],[-2102,1421],[-5787,4874],[-1883,715],[-464,28326],[-3242,3544],[-3132,3091],[-2894,3196],[-2003,1085],[791,2510]]],"bbox":[-106.645646,31.0366577,-104.8477416,32.34174],"transform":{"scale":[0.000001797906197906191,0.0000013050836050836074],"translate":[-106.645646,31.0366577]}}
