{"type":"Topology","objects":{"foo":{"type":"GeometryCollection","geometries":[{"type":"MultiPolygon","arcs":[[[0,1,2,3,4]]],"properties":{"postal_code":"87581","realtor_list_price":"NA","realtor_list_price_yoy":"NA","realtor_list_price_base":"NA","realtor_active_listings":2,"realtor_active_listings_yoy":1,"realtor_active_listings_base":-0.0475,"realtor_new_listings":0,"realtor_new_listings_yoy":"NaN","realtor_new_listings_base":"NA","realtor_days_on_market":"NA","realtor_days_on_market_yoy":"NA","realtor_days_on_market_base":"NA","zhvi":"NA","zhvi_yoy":"NA","zhvi_base":"NA","zori":"NA","zori_yoy":"NA","zori_base":"NA"}},{"type":"MultiPolygon","arcs":[[[5,6,7,8]]],"properties":{"postal_code":"87064","realtor_list_price":"NA","realtor_list_price_yoy":"NA","realtor_list_price_base":"NA","realtor_active_listings":1.667,"realtor_active_listings_yoy":0.6667,"realtor_active_listings_base":-0.5025,"realtor_new_listings":0,"realtor_new_listings_yoy":"NaN","realtor_new_listings_base":-1,"realtor_days_on_market":"NA","realtor_days_on_market_yoy":"NA","realtor_days_on_market_base":"NA","zhvi":"NA","zhvi_yoy":"NA","zhvi_base":"NA","zori":"NA","zori_yoy":"NA","zori_base":"NA"}},{"type":"MultiPolygon","arcs":[[[9,10]],[[11,12,13,14,15,16,17,-7,18,19]]],"properties":{"postal_code":"87510","realtor_list_price":"NA","realtor_list_price_yoy":"NA","realtor_list_price_base":"NA","realtor_active_listings":8,"realtor_active_listings_yoy":-0.1429,"realtor_active_listings_base":-0.5051,"realtor_new_listings":0,"realtor_new_listings_yoy":"NaN","realtor_new_listings_base":-1,"realtor_days_on_market":"NA","realtor_days_on_market_yoy":"NA","realtor_days_on_market_base":"NA","zhvi":401924.822,"zhvi_yoy":-0.0299,"zhvi_base":"NA","zori":"NA","zori_yoy":"NA","zori_base":"NA"}},{"type":"MultiPolygon","arcs":[[[-9,20]]],"properties":{"postal_code":"87012","realtor_list_price":405000,"realtor_list_price_yoy":"NA","realtor_list_price_base":"NA","realtor_active_listings":1,"realtor_active_listings_yoy":-0.5,"realtor_active_listings_base":-0.5292,"realtor_new_listings":0.667,"realtor_new_listings_yoy":"Inf","realtor_new_listings_base":"NA","realtor_days_on_market":6,"realtor_days_on_market_yoy":"NA","realtor_days_on_market_base":"NA","zhvi":"NA","zhvi_yoy":"NA","zhvi_base":"NA","zori":"NA","zori_yoy":"NA","zori_base":"NA"}},{"type":"MultiPolygon","arcs":[[[-4,21,22,-10,23,-14,24]]],"properties":{"postal_code":"87530","realtor_list_price":"NA","realtor_list_price_yoy":"NA","realtor_list_price_base":"NA","realtor_active_listings":4,"realtor_active_listings_yoy":1,"realtor_active_listings_base":-0.2191,"realtor_new_listings":0,"realtor_new_listings_yoy":"NaN","realtor_new_listings_base":-1,"realtor_days_on_market":"NA","realtor_days_on_market_yoy":"NA","realtor_days_on_market_base":"NA","zhvi":"NA","zhvi_yoy":"NA","zhvi_base":"NA","zori":"NA","zori_yoy":"NA","zori_base":"NA"}},{"type":"MultiPolygon","arcs":[[[-3,25,26,27,-22]]],"properties":{"postal_code":"87539","realtor_list_price":1200000,"realtor_list_price_yoy":"NA","realtor_list_price_base":"NA","realtor_active_listings":1,"realtor_active_listings_yoy":-0.25,"realtor_active_listings_base":-0.3656,"realtor_new_listings":1.333,"realtor_new_listings_yoy":"Inf","realtor_new_listings_base":"NA","realtor_days_on_market":2,"realtor_days_on_market_yoy":"NA","realtor_days_on_market_base":"NA","zhvi":"NA","zhvi_yoy":"NA","zhvi_base":"NA","zori":"NA","zori_yoy":"NA","zori_base":"NA"}},{"type":"MultiPolygon","arcs":[[[28,29,30,31,-20,32]]],"properties":{"postal_code":"87575","realtor_list_price":"NA","realtor_list_price_yoy":"NA","realtor_list_price_base":"NA","realtor_active_listings":4.667,"realtor_active_listings_yoy":0.0769,"realtor_active_listings_base":-0.6576,"realtor_new_listings":0,"realtor_new_listings_yoy":"NaN","realtor_new_listings_base":-1,"realtor_days_on_market":"NA","realtor_days_on_market_yoy":"NA","realtor_days_on_market_base":"NA","zhvi":"NA","zhvi_yoy":"NA","zhvi_base":"NA","zori":"NA","zori_yoy":"NA","zori_base":"NA"}},{"type":"MultiPolygon","arcs":[[[-30,33,34]]],"properties":{"postal_code":"87520","realtor_list_price":403725,"realtor_list_price_yoy":-0.18,"realtor_list_price_base":0.5261,"realtor_active_listings":28.667,"realtor_active_listings_yoy":-0.0115,"realtor_active_listings_base":-0.4453,"realtor_new_listings":2,"realtor_new_listings_yoy":0,"realtor_new_listings_base":-0.7007,"realtor_days_on_market":76.667,"realtor_days_on_market_yoy":-0.4057,"realtor_days_on_market_base":-0.132,"zhvi":318909.378,"zhvi_yoy":-0.0041,"zhvi_base":"NA","zori":"NA","zori_yoy":"NA","zori_base":"NA"}},{"type":"MultiPolygon","arcs":[[[35,36,-16]]],"properties":{"postal_code":"87548","realtor_list_price":"NA","realtor_list_price_yoy":"NA","realtor_list_price_base":"NA","realtor_active_listings":4.333,"realtor_active_listings_yoy":-0.2353,"realtor_active_listings_base":0.1042,"realtor_new_listings":0,"realtor_new_listings_yoy":"NaN","realtor_new_listings_base":-1,"realtor_days_on_market":"NA","realtor_days_on_market_yoy":"NA","realtor_days_on_market_base":"NA","zhvi":"NA","zhvi_yoy":"NA","zhvi_base":"NA","zori":"NA","zori_yoy":"NA","zori_base":"NA"}},{"type":"MultiPolygon","arcs":[[[-27,37,-1,38]]],"properties":{"postal_code":"87577","realtor_list_price":390000,"realtor_list_price_yoy":-0.1995,"realtor_list_price_base":"NA","realtor_active_listings":11.333,"realtor_active_listings_yoy":-0.1053,"realtor_active_listings_base":1.5622,"realtor_new_listings":1.333,"realtor_new_listings_yoy":-0.3333,"realtor_new_listings_base":1.6182,"realtor_days_on_market":78,"realtor_days_on_market_yoy":-0.3314,"realtor_days_on_market_base":"NA","zhvi":"NA","zhvi_yoy":"NA","zhvi_base":"NA","zori":"NA","zori_yoy":"NA","zori_base":"NA"}},{"type":"MultiPolygon","arcs":[[[-32,39,-12]]],"properties":{"postal_code":"87518","realtor_list_price":"NA","realtor_list_price_yoy":"NA","realtor_list_price_base":"NA","realtor_active_listings":2,"realtor_active_listings_yoy":-0.5,"realtor_active_listings_base":0.9923,"realtor_new_listings":0,"realtor_new_listings_yoy":"NaN","realtor_new_listings_base":"NA","realtor_days_on_market":"NA","realtor_days_on_market_yoy":"NA","realtor_days_on_market_base":"NA","zhvi":"NA","zhvi_yoy":"NA","zhvi_base":"NA","zori":"NA","zori_yoy":"NA","zori_base":"NA"}},{"type":"MultiPolygon","arcs":[[[40,41,42,43]]],"properties":{"postal_code":"87566","realtor_list_price":200000,"realtor_list_price_yoy":"NA","realtor_list_price_base":"NA","realtor_active_listings":0.667,"realtor_active_listings_yoy":1,"realtor_active_listings_base":-0.8404,"realtor_new_listings":1.333,"realtor_new_listings_yoy":"Inf","realtor_new_listings_base":"NA","realtor_days_on_market":129,"realtor_days_on_market_yoy":"NA","realtor_days_on_market_base":"NA","zhvi":"NA","zhvi_yoy":"NA","zhvi_base":"NA","zori":"NA","zori_yoy":"NA","zori_base":"NA"}},{"type":"MultiPolygon","arcs":[[[44,-34,-29]]],"properties":{"postal_code":"87551","realtor_list_price":439375,"realtor_list_price_yoy":"NA","realtor_list_price_base":"NA","realtor_active_listings":12,"realtor_active_listings_yoy":0.2857,"realtor_active_listings_base":0.0799,"realtor_new_listings":0.667,"realtor_new_listings_yoy":"Inf","realtor_new_listings_base":0.2115,"realtor_days_on_market":152,"realtor_days_on_market_yoy":"NA","realtor_days_on_market_base":"NA","zhvi":"NA","zhvi_yoy":"NA","zhvi_base":"NA","zori":"NA","zori_yoy":"NA","zori_base":"NA"}},{"type":"MultiPolygon","arcs":[[[45,46,47,48,49,-41]]],"properties":{"postal_code":"87582","realtor_list_price":"NA","realtor_list_price_yoy":"NA","realtor_list_price_base":"NA","realtor_active_listings":1.667,"realtor_active_listings_yoy":-0.7368,"realtor_active_listings_base":-0.579,"realtor_new_listings":0,"realtor_new_listings_yoy":-1,"realtor_new_listings_base":-1,"realtor_days_on_market":"NA","realtor_days_on_market_yoy":"NA","realtor_days_on_market_base":"NA","zhvi":"NA","zhvi_yoy":"NA","zhvi_base":"NA","zori":"NA","zori_yoy":"NA","zori_base":"NA"}},{"type":"MultiPolygon","arcs":[[[50,51,52]]],"properties":{"postal_code":"87521","realtor_list_price":"NA","realtor_list_price_yoy":"NA","realtor_list_price_base":"NA","realtor_active_listings":2,"realtor_active_listings_yoy":-0.5,"realtor_active_listings_base":-0.5361,"realtor_new_listings":0,"realtor_new_listings_yoy":"NaN","realtor_new_listings_base":"NA","realtor_days_on_market":"NA","realtor_days_on_market_yoy":"NA","realtor_days_on_market_base":"NA","zhvi":"NA","zhvi_yoy":"NA","zhvi_base":"NA","zori":"NA","zori_yoy":"NA","zori_base":"NA"}},{"type":"MultiPolygon","arcs":[[[53,54]]],"properties":{"postal_code":"87523","realtor_list_price":"NA","realtor_list_price_yoy":"NA","realtor_list_price_base":"NA","realtor_active_listings":1.333,"realtor_active_listings_yoy":1,"realtor_active_listings_base":"NA","realtor_new_listings":0,"realtor_new_listings_yoy":"NaN","realtor_new_listings_base":"NA","realtor_days_on_market":"NA","realtor_days_on_market_yoy":"NA","realtor_days_on_market_base":"NA","zhvi":"NA","zhvi_yoy":"NA","zhvi_base":"NA","zori":"NA","zori_yoy":"NA","zori_base":"NA"}},{"type":"MultiPolygon","arcs":[[[55,56,-53,57,-48]]],"properties":{"postal_code":"87527","realtor_list_price":"NA","realtor_list_price_yoy":"NA","realtor_list_price_base":"NA","realtor_active_listings":4.667,"realtor_active_listings_yoy":0.0769,"realtor_active_listings_base":0.0067,"realtor_new_listings":0,"realtor_new_listings_yoy":-1,"realtor_new_listings_base":-1,"realtor_days_on_market":"NA","realtor_days_on_market_yoy":"NA","realtor_days_on_market_base":"NA","zhvi":"NA","zhvi_yoy":"NA","zhvi_base":"NA","zori":"NA","zori_yoy":"NA","zori_base":"NA"}},{"type":"MultiPolygon","arcs":[[[-49,-58,-52,58,59,-54,60,61]]],"properties":{"postal_code":"87578","realtor_list_price":"NA","realtor_list_price_yoy":"NA","realtor_list_price_base":"NA","realtor_active_listings":4,"realtor_active_listings_yoy":0.7143,"realtor_active_listings_base":-0.3555,"realtor_new_listings":0,"realtor_new_listings_yoy":"NaN","realtor_new_listings_base":-1,"realtor_days_on_market":"NA","realtor_days_on_market_yoy":"NA","realtor_days_on_market_base":"NA","zhvi":"NA","zhvi_yoy":"NA","zhvi_base":"NA","zori":"NA","zori_yoy":"NA","zori_base":"NA"}},{"type":"MultiPolygon","arcs":[[[62,-56,-47]]],"properties":{"postal_code":"87531","realtor_list_price":"NA","realtor_list_price_yoy":"NA","realtor_list_price_base":"NA","realtor_active_listings":3,"realtor_active_listings_yoy":-0.1,"realtor_active_listings_base":-0.0858,"realtor_new_listings":0,"realtor_new_listings_yoy":"NaN","realtor_new_listings_base":-1,"realtor_days_on_market":"NA","realtor_days_on_market_yoy":"NA","realtor_days_on_market_base":"NA","zhvi":"NA","zhvi_yoy":"NA","zhvi_base":"NA","zori":"NA","zori_yoy":"NA","zori_base":"NA"}},{"type":"MultiPolygon","arcs":[[[-61,-55,-60,63]]],"properties":{"postal_code":"87522","realtor_list_price":"NA","realtor_list_price_yoy":"NA","realtor_list_price_base":"NA","realtor_active_listings":3.667,"realtor_active_listings_yoy":-0.2143,"realtor_active_listings_base":-0.4835,"realtor_new_listings":0,"realtor_new_listings_yoy":-1,"realtor_new_listings_base":-1,"realtor_days_on_market":"NA","realtor_days_on_market_yoy":"NA","realtor_days_on_market_base":"NA","zhvi":326952.045,"zhvi_yoy":0.0733,"zhvi_base":"NA","zori":"NA","zori_yoy":"NA","zori_base":"NA"}},{"type":"MultiPolygon","arcs":[[[-17,-37,64,-43,65]]],"properties":{"postal_code":"87537","realtor_list_price":"NA","realtor_list_price_yoy":"NA","realtor_list_price_base":"NA","realtor_active_listings":2.333,"realtor_active_listings_yoy":-0.5333,"realtor_active_listings_base":-0.4821,"realtor_new_listings":0,"realtor_new_listings_yoy":"NaN","realtor_new_listings_base":-1,"realtor_days_on_market":"NA","realtor_days_on_market_yoy":"NA","realtor_days_on_market_base":"NA","zhvi":"NA","zhvi_yoy":"NA","zhvi_base":"NA","zori":"NA","zori_yoy":"NA","zori_base":"NA"}}]}},"arcs":[[[496040,684315],[199,-1986],[2037,-1885],[829,-2124],[1477,-1768],[1728,-144],[1356,498],[2115,-613],[649,-744],[405,-1739],[1720,-1103],[728,-1425],[2732,-63],[2148,-1705],[642,-1374],[1286,-733],[44,-1205],[-1283,-985],[977,-784],[422,-1715],[-292,-2448],[-1314,-2573],[441,-1982],[849,-432],[-584,-1842],[1846,-3732],[34,-922],[1382,-1393],[1310,-565],[526,-1100],[-585,-1544],[1376,-224],[1109,-1347],[-245,-2166],[217,-1294],[1436,-305],[1159,594],[393,-1803],[1223,-1506],[772,-192],[385,-1452],[2223,-1358],[2138,-684],[1918,-2429],[818,-1578],[3240,-4580],[395,-1891],[1563,-2610],[3165,-2839],[1571,-778],[1826,-2931],[649,-1835],[-31,-2377],[653,-1548],[-42,-1803],[895,-1411],[1102,-293],[2702,932],[167,2874],[-1118,-619],[-2104,1196],[2162,-251],[-293,856],[1566,3229],[-1921,1387],[893,1561],[250,2477],[931,1054],[1876,3962],[1573,2235],[1379,1288],[802,1452],[-1332,2907],[332,1191],[-527,1667],[137,1791],[1511,3367],[2799,210],[942,597],[674,2110],[218,8363],[2000,397],[1648,-252]],[[567039,649526],[533,-3432],[670,-2846],[-819,-1820],[249,-1480],[1197,-248],[1542,-1201],[1680,-4784],[2381,-1279],[1162,-2573],[-2767,-3427],[-521,-3584],[2100,-967],[1223,-1099],[661,-1417],[153,-3110],[1682,-3836],[5042,-2716],[2883,-530],[2536,-2188],[981,-1162],[296,-1186],[-1045,-4148],[-32,-2556],[297,-784],[1622,-407],[2234,139],[1494,-1180],[1960,-2121],[1532,-4502],[-197,-639],[-1808,-1762],[183,-1742],[878,-1576],[-2098,-1735],[-232,-831],[1637,-3921],[-36,-2598],[299,-999],[-1183,-345],[-62,-2022],[-926,-2925],[994,245],[-637,-2243],[-2067,-2575],[-499,-3346],[306,-1627],[-1573,-1001],[77,-2681],[2264,-48],[2799,-2711],[503,-1038],[4155,-698],[3693,-3910],[1091,-248],[4398,2841],[556,-1288],[1335,-981],[128,-1588],[1593,-502],[218,-1713],[1993,-3048],[2243,-2738],[1217,-611],[1424,-2212],[1965,-1869],[1211,66],[987,-1779],[1592,-364],[968,685],[2115,-836],[401,609],[2004,920],[4444,-770],[1613,1143],[1035,-537],[3222,825],[792,1606],[1293,409],[2662,-357],[2087,345],[1041,-121],[-465,-1363],[1851,-1564],[1255,460],[993,1140],[3622,1050]],[[657319,533964],[60,-1331],[877,-873],[88,-1384],[-1569,-1447],[-2514,-4865],[-592,-5730],[1203,-5043],[503,-7319],[-104,-2008],[368,-2279],[945,-3364],[85,-2882],[-1382,-1958],[-530,-3196],[-1642,-1305],[-1245,-1521],[372,-4198],[1189,-2370],[-636,-3273],[-2537,-4543],[-2691,-2200],[-1299,168],[-734,-1249],[369,-2395],[-623,-1507],[316,-1438],[1042,-1359],[-441,-1333],[-1497,3112],[-965,301],[-895,-995],[487,-1468],[-559,-3037],[715,-2163],[-576,-998],[-2355,289],[-1205,-549],[-521,1801],[-1545,2009],[-92,1965],[-2335,1049],[-694,2448],[-2611,1475],[-4930,-97],[-615,-745],[-135,-3730],[-736,-252],[-357,1494],[-1212,854],[-2010,620],[-644,1881],[-1496,1111],[260,1148],[-917,2210],[927,2688],[-1648,1286],[-925,-485],[-1430,671],[288,2003],[1950,1974],[-5,3196],[-1515,2936],[-320,5068],[370,1264],[-657,2245],[-1200,822],[146,-1121],[-576,-2137],[335,-3364],[-540,-3951],[-779,-1044],[-413,-2941],[-2698,551],[-1796,81],[-2371,711],[-1616,-214],[-2772,-687],[-3064,-1391],[-1423,-1216],[-2408,-646],[-2200,-1280],[-1433,-441],[-741,-2290],[-1729,-564],[-1753,-1378],[757,-3700],[2450,-5285],[2190,-2112],[2514,-1429],[-723,-515],[1503,-494],[-1704,-612],[-2008,20],[-1042,-639],[-1275,97],[-3195,-893],[-2826,586],[-2825,-144],[-1807,-567],[-2034,294],[-604,667],[-3665,239],[-1576,-1113],[-4643,1912],[-709,1168],[-3255,2444],[-747,918],[-179,1384],[-1496,1671],[-1564,1016],[-4211,758]],[[554087,467512],[180,935],[-1508,2470],[-2090,863],[-1853,2054],[-2848,798],[-923,1958],[-1319,3860],[-1238,983],[-1460,251],[-2311,-368],[-1837,424],[-1164,-596],[-1892,128],[-1365,698],[-776,4275],[-908,998],[523,1774],[1187,562],[648,3308],[1231,1803],[2091,1775],[-1418,981],[-1070,4307],[-818,-222],[-879,1991],[-2045,2133],[-2311,1827],[-1636,2770],[-2966,2604],[104,3201],[-1863,143],[-961,841],[-3151,-41],[73,754],[-925,2587],[-1088,906],[-337,3742],[-601,2446],[866,5613],[-169,1913],[1509,989],[428,1007],[-1890,332],[-2688,-733],[-1499,395],[-865,1156],[-603,2478],[-2402,-229],[-150,1591],[-637,393],[239,1653],[-1355,-74],[908,1266],[313,1491],[-528,1083],[599,817],[-997,1080],[136,2570],[-1365,993],[-198,1635],[-1324,587],[1194,837],[520,2021],[-175,2310],[-1911,2572],[600,1184],[-332,1342],[-449,1327],[-1070,1421],[-465,1916],[-1353,1769],[-538,1489],[-1921,3599],[-612,621],[-3566,667],[-828,586],[-1692,-1138],[-1306,-2058],[-1198,14],[244,-803],[-2489,-2542],[24,-847],[-1192,-1799],[-125,-1049],[-1182,-1189],[-724,-2274],[976,-3934],[-75,-1883],[-1121,-342],[-361,-1569],[276,-2378],[-1657,-1943],[-31,-1227],[-1393,-1482],[123,-1272],[-1113,-1125],[-591,-465],[-2276,41],[-1621,1909],[-1426,-1640],[-553,-1447],[647,-719],[-1105,-772],[-1230,910],[-1062,1895]],[[468752,547974],[547,3224],[765,980],[711,5622],[285,228],[-1357,3199],[-1213,3991],[-1031,978],[-786,2856],[-1135,1340],[-720,3215],[-1199,3457],[-527,3868],[-1061,2353],[32,2951],[479,1697],[-1358,3367],[-2154,2253],[-1166,2834],[-542,2424],[-1535,3868],[-1023,512],[-105,3435],[-1149,1879],[-662,2616],[-513,5651],[-1041,6057],[-1005,1202],[-1039,3312],[248,2595],[3082,2495],[-933,400],[58,2797],[-553,2481],[656,4798],[-779,2702],[252,1738],[-1990,2855],[-2212,1792],[-3381,884],[-3483,-541],[-2947,557],[-3521,3036],[1074,844],[2538,5042],[2989,3026],[3248,815],[1647,1179],[916,1408],[1453,1147],[2439,1220],[1790,2276],[1851,1378],[3010,-156],[4011,1506],[2767,-162],[2211,505],[2487,1013],[2190,1548],[1579,1576],[5497,204],[3643,1707],[1820,97],[2088,1589],[2605,1046],[2715,1386],[2325,-108],[245,-236],[3155,-1467]],[[236712,288447],[1492,1465],[-708,652],[268,1137],[-1267,2981],[-264,4754],[1367,2005],[1278,402],[823,2951],[-1602,3953],[-952,690],[2139,1876],[783,-237],[1177,1686],[1449,3310],[-625,1398],[934,2395],[-282,1562],[687,1526],[528,3676],[-389,997],[1508,1499],[3782,2168],[1015,271],[-1068,2876],[1020,2856],[1531,1764],[1367,2852],[273,2785],[1200,1556],[1454,669],[3623,5210],[-1317,912],[-2875,1359],[-1182,1040],[-233,957],[330,975],[1858,1944],[-168,1492],[-1370,1699],[-473,961],[247,3607],[-562,3041]],[[253508,370119],[170,0],[465,-2767],[-104,-3932],[2185,-3389],[-216,-802],[-1734,-1662],[-149,-2038],[827,-827],[2010,-1060],[1727,-380],[2384,-1427],[2279,-941],[4544,-3256],[1623,-364],[5224,-614],[1178,-526],[1810,-1600],[3496,-3656],[1238,-1035],[3671,-314],[2155,135],[7806,3416],[3252,-50],[3702,1013],[2438,1155],[7484,5564],[2746,2355],[1339,253],[2219,-227],[4619,-5358],[4144,-660],[6652,-4131],[5682,-4823],[3245,-7567],[472,-2281],[-108,-1687],[3307,-6928],[-46,-410],[1974,-1802],[1087,-566],[2069,204],[498,317]],[[352872,317451],[715,-1980],[-465,-899],[-1803,-619],[-4065,-1873],[-2098,-1971],[-4204,-591],[-991,-520],[-1026,-2395],[-1137,-1391],[-1031,-2080],[-3567,-1356],[-1540,823],[-4799,7442],[-561,411],[-1194,110],[-2103,-515],[-1616,107],[-2352,-580],[-1145,-898],[-3772,-885],[-3478,-1352],[-3584,-1849],[-2896,-1797],[-5109,-4043],[1926,-2607],[-606,-3877],[871,-250],[22,-2287],[-673,-2826],[1438,-1985],[-1165,-2176],[1037,-4946],[-220,-1268],[-1238,-1205],[-2618,-1751],[-465,-1737],[-1728,-935],[-2458,1242],[-1200,-57],[-1137,-1367],[2,-879],[-1152,-914],[-2343,-609],[122,-1620],[-592,-1128],[835,-2258],[-2494,-1091],[-4268,1781],[-1182,-2727],[-173,-1670],[-1597,-2244],[-1598,-883],[-3666,285],[-2114,-800],[454,-1273],[2093,-2968],[1324,-2649],[226,-1228],[-127,-2844],[2618,-2277],[1244,-2431],[5068,-5962],[5063,-3437],[1546,-1876],[598,-6301],[1360,1024],[1893,-701],[1406,1761],[-45,1475],[1030,532],[921,-1273],[1344,122],[1423,1167],[1794,412],[-190,-5547],[-1115,-4148],[-3047,-4468],[-2578,-1434],[-117,-2661],[-2015,-2526],[-757,-1891],[1298,-1267],[10,-3027],[-1908,-2326],[-2703,-615],[-2429,3202],[-890,625],[-3652,577],[-2758,-423],[-1055,-569],[-1031,-1376],[-663,-1665],[537,-2563],[1995,-1273],[-277,-634],[-2743,-1346],[-2318,936],[-984,-362],[-824,-2948],[-3323,-3267],[-4802,-8842],[-7072,-4915],[-3306,-4142],[-1662,-589],[-2492,139],[-1281,-927],[-997,-8362],[-655,-2606],[1095,-6506],[-155,-687],[-2514,-4926],[-810,1577],[67,2213],[-2779,2214],[-2474,1206],[-614,906],[-295,1780],[-1119,1434],[503,645],[-833,2090],[-1395,1035],[-148,1949],[-870,1448],[-160,2743],[698,840],[48,1916],[-447,1589],[-2179,1249],[-1446,-949],[-1024,538],[-717,2679],[530,2660],[998,1196],[937,5640],[2298,822],[511,6459],[-139,2876],[-642,1464],[-38,2438],[349,2051],[-1287,1238],[1012,697],[1483,-253],[1415,1813],[578,2059],[-2953,1519],[-1656,1625]],[[231874,207281],[-666,2002],[254,2996],[-1282,4529],[39,3210],[328,626],[1328,1802],[278,2023],[-884,1680],[-1858,1957],[33,1217],[-1016,1588],[-191,2183],[-560,1071],[1420,2427],[-1028,2295],[128,2487],[-326,4526],[188,1405],[-632,691],[-441,3573],[-1283,-1268],[-644,1781],[-2053,108],[-1519,3019],[-1514,-2483],[-763,-625],[-673,497],[1199,1116],[1579,4299],[2532,1064],[10747,5243],[-2498,739],[-669,1104],[-1429,137],[-1258,246],[-438,268],[809,2550],[1438,436],[846,1742],[-890,923],[438,718],[998,-121],[757,3802],[7,1510],[1424,2270],[-179,1152],[1419,1623],[1590,-14],[776,1563],[-2588,754],[1565,2725]],[[516479,312344],[3111,318],[950,433],[1520,-450],[416,-1381],[134,19],[598,-237]],[[523208,311046],[-1578,-1050],[2225,-742],[1253,773],[1845,-405],[2725,-2322],[720,-2106],[1206,-224],[-1482,-2311],[-3539,-559],[31,-1611],[1018,-669],[-1992,-1209],[-3045,-919],[-2156,373],[-2125,2000],[272,1869],[-795,609],[-1417,-282],[-1346,1628],[2907,1847],[-1133,2094],[52,2986],[377,726],[-752,802]],[[223971,614188],[-3803,836],[3148,-2390],[1742,-594],[-3195,-1232],[-2683,-2402],[-4937,39],[-2682,-185],[-3381,226],[-4570,-655],[531,-3365],[818,-2688],[1637,-2914],[3188,-1870],[-380,-1724],[118,-4205],[-820,-1270],[-2090,-1455],[1315,-2250],[2823,-640],[935,-3576],[100,-2987],[736,-1107],[-1776,-1614],[-249,-997],[1877,-3583],[-1499,-1978],[126,-3182],[-1389,-2572],[-499,-3583],[1736,1707],[1307,1992],[4868,599],[1875,-94],[4302,-1739],[4030,-2187],[1701,-1423],[2842,487],[216,-2049],[3654,-1793],[853,-1464],[1376,-1092],[2138,-56],[786,-4016],[-296,-2250],[-1186,-2392],[-1194,-4581],[20,-1652],[777,-3062],[-1304,-2661],[-65,-1099],[1613,-1251],[2204,414],[-15,-3179],[-1880,-105],[1740,-1971],[358,-1528],[-735,-2969],[-1966,-1249],[270,-3824],[-2288,-2389],[1537,19],[750,-1401],[-536,-2019],[795,-2267],[-130,-1606],[-2634,1769],[-2842,-130],[-804,-1967],[104,-1584],[-645,-1289],[433,-1770],[-740,-1204],[-471,-3047],[-766,-2454],[905,-3812],[-156,-523],[971,-3765],[-111,-1954],[1128,-2298],[330,-1913],[-2017,-3602],[-1806,-685],[-1049,-936],[-331,-3980],[-437,-2346],[2489,835],[1402,16],[2648,-832],[1475,119],[2194,1557],[1828,-133],[722,1415],[1513,1040],[3915,1164],[5593,-831],[1308,-703],[801,1006],[1107,226],[3873,-1082],[907,-1100],[968,-133],[1599,-1865],[1519,2004],[2708,1252],[113,5168],[-95,4076],[8837,78],[2211,507],[1122,963],[222,1838],[-1746,5783],[-1737,1340],[-1837,4199],[-889,1379],[-691,2347],[-826,6049],[734,239],[4505,-1462],[1003,-1482],[3405,-252],[934,637],[2944,-80],[3448,-446],[4099,-1738],[5230,-629],[2279,1044],[3287,-329]],[[303448,501815],[3441,-227],[2519,-1177],[2905,-1926],[1776,-393],[232,-1175],[1309,-851],[2231,32],[847,1478],[82,-2326],[-702,-1657],[-1973,-2962],[-683,-2051],[-383,-3080],[-866,-2231],[-218,-2367],[-1104,-4951],[-927,-1710],[-3121,-4811],[-3190,-2500],[-1338,-1837],[-766,-2424],[577,1058],[1621,450],[712,2115],[854,204],[2111,-1640],[-674,-1785],[124,-1149],[1677,-2400],[2372,-1722],[3660,-840],[2311,-204],[3025,535],[1472,1231],[-880,1251],[2064,3099],[2880,5410],[1378,890],[1319,47],[189,845],[2159,360],[1246,847],[1950,1615],[2881,-30],[876,1098],[301,2437],[2549,1645],[1273,3215],[2428,2328],[489,-1390],[394,-3302],[1345,-870],[3518,369],[756,-472],[2577,697],[1446,-1179],[1287,1524],[643,-782],[3176,3183],[2106,799],[47,-1495],[755,-221],[3689,1447],[259,581],[-686,2213],[1554,512],[900,2473],[1232,77],[3352,-1790],[2809,-347],[3413,1741],[1485,1639],[671,223],[3498,-2242],[1240,-1442],[4989,-1056],[545,-341],[1462,-3764],[-1021,-2125],[1428,728],[1411,-539],[3167,255],[2848,-1456],[421,-2324],[1241,-1045],[2498,-17],[1410,511],[4113,-1568],[116,-512],[1845,1145],[928,-916],[3555,2283],[1536,-715],[113,7269],[869,0],[1548,6478],[756,1105],[-303,1081],[-1294,671],[-353,3222],[143,2400],[3162,358],[1084,585],[1760,2731],[-452,1762],[1052,394],[512,1640],[4638,814]],[[433656,504579],[338,-912],[1224,141],[1601,-2007],[227,-699],[-474,-3684],[382,-936],[769,-1151],[404,-322],[183,-3088],[3139,-4003],[973,-2729],[657,-3763],[-408,-1187],[264,-1901],[1050,-1796],[1968,-1824],[190,-3695],[-447,-1304],[405,-1390],[-962,-3507],[-700,-3592],[-1456,-2325],[454,-1697],[99,-3439],[674,-1024],[1421,-993],[2193,-4241],[874,-3338],[1183,-2297],[26,-3880],[637,-1566],[28,-1334],[-802,-2239],[1345,-3016],[-86,-1275],[-1086,-2613],[-321,-3167],[-1460,-3661],[-1204,-1593],[568,-42],[566,-2207],[1722,-3367],[3960,-4357],[1287,-3508],[281,-832],[-282,-526],[1224,-5507],[-840,-2812],[-885,-6269],[628,-1118],[2832,-10605],[-760,-3818],[-785,-2839],[-2127,-4860],[-2251,-4140],[-2626,-3642],[1884,-1590],[103,-1436],[1696,-2582],[106,-958],[1270,-1664],[364,-1279],[1867,-2829],[351,-4134],[1283,-1987],[4486,-2],[-1136,-1005],[-1372,-3847],[414,-1328],[-823,-1135],[157,-2204],[-1964,-1575],[-328,-2925],[-934,-661],[-332,-2124],[171,-1366],[1163,-3011],[530,-4029],[769,-1131],[217,-3379],[926,-2486],[1334,-2200],[652,-1832],[4115,960],[6177,26],[5766,-239],[3265,-864],[636,-1805],[-224,-2660],[6978,5963],[-828,1907],[2329,1594],[12,857],[-1174,639],[-1209,2590],[756,2572],[-1211,2145],[192,882],[1660,-604],[898,1387],[1141,-519],[374,631],[1064,-767],[750,925],[1628,-720],[1548,771],[1939,-546],[176,-1200],[82,-5217],[876,-1965],[5084,2013],[10025,1066]],[[515149,312206],[30,-4150],[-1981,-2467],[598,-606],[658,-330],[2863,1675],[-3417,-2167],[972,-1488],[1298,-569],[-719,-1333],[-813,-93],[-1238,-1338],[-2101,-3562],[-691,-417],[-1815,-3610],[-915,-3095],[-5013,-9604],[-1376,-315],[608,-949],[4520,-1232],[5683,-2335],[1492,-2012],[1170,-172],[1610,-1924]],[[516572,270113],[2539,-1265],[1042,-1747],[3249,-1213],[2238,-1266],[177,-619],[-2929,1168],[-1304,-379],[-2991,350],[-892,2105],[-1840,2575],[-302,-73],[-1080,1488],[-3419,1746],[-2873,-1563],[-3489,-888],[-875,629],[-3367,-3311]],[[500456,267850],[-1304,1175],[-1195,1333],[-543,794],[-3651,2705],[-17330,18483],[-2142,368],[-12465,896],[-12027,-2507],[-2145,-228],[-4336,234],[-1922,-216],[-4367,-951],[-2897,-938],[40,-3039],[-1025,4],[-2331,-2247],[-1637,448],[-995,-913],[-75,-625],[-680,-979],[-1277,-3913],[-98,-1776],[-866,-2996],[-319,-1431],[-1308,-2373],[-2441,-2148],[-2761,-3986],[-2273,-1896],[-2634,-580],[-3392,-2414],[-1222,-1129],[-1602,-2238],[-1941,-129],[-1141,-1649],[-1240,-515],[-946,559],[-3975,-3124],[-4036,-1685],[-164,1703],[-1005,166],[-2327,3468],[-2687,1529],[-1114,-2359],[-1207,-1503],[-2576,-1209],[-558,-2488],[-1742,-1156],[-1280,-269],[-1233,-1367],[-1925,-626],[-2033,-2288],[-861,-1554]],[[373245,240271],[-9,68680],[-2243,3044],[-2721,1377],[-3854,1345],[-669,-500],[-3586,841],[-728,3137],[-1598,565],[-2668,-94],[-2297,-1215]],[[253508,370119],[-61,1667],[-525,1648],[525,4394],[-2736,134],[-1560,508],[-2429,73],[-2217,820],[-1452,1293],[-1258,1708],[-1165,902],[-749,-917],[-427,41],[-1833,1497],[-202,-424],[-1701,-286],[-1007,136],[-2740,2379],[307,1346],[-631,1193],[-3592,846],[-1337,-354],[-1749,706],[-1117,967],[-793,-240],[-773,-1871],[-2750,480],[-368,333],[197,1199],[1200,877],[61,735],[-2420,2351],[-400,-103],[-1382,364],[-1492,791],[-1859,2448],[-1618,-407],[-1805,1658],[-1902,1197],[-1965,3052],[-2915,685],[-1891,1439],[-1314,-281],[-898,267],[-2704,-822],[-1738,472],[-1039,1056],[-369,843],[-282,2918],[-2140,465],[-2015,1638],[-1046,30],[-1839,809],[-241,1377],[-1291,3093],[-290,410],[-321,-39],[-458,-467],[-409,-80],[-4294,830],[-654,39],[-1594,299],[-367,-164],[-430,-575],[-265,1],[-75,70],[-185,-114],[-243,145],[-182,436],[65,328],[1233,1060],[82,336],[-315,237],[-1322,-294],[-436,-76],[-551,661],[41,2804],[-867,2626],[710,393],[-2535,2774],[-2254,1488],[-128,2284],[871,1284],[813,417],[690,1532],[-680,1142],[-1327,890],[-749,3292],[-23,5064],[-470,630],[-1847,694],[-999,2366],[-1326,824],[-976,1486],[382,3982],[-1076,1184],[-855,2853],[-557,556],[-23,2237],[-2083,3574],[-75,1081],[-1539,2841],[86,1027],[433,573],[901,48],[249,950],[-2202,705],[-1439,4433],[-696,230],[-1159,4091],[-423,227],[-201,417],[-319,2143],[318,3859],[-1581,1539],[-149,2485],[322,1403],[1295,1470],[-591,2897],[1299,2188],[-965,2139],[-161,2324],[169,448],[3018,1540],[82,817],[-1383,3530],[-86,1201],[-1291,2466],[-602,1661],[-185,1330],[569,1998],[-216,876],[-286,681],[-1936,1493],[-721,-271],[-403,477],[503,3943],[-423,1099],[-2368,863],[-449,783],[-1953,644],[-1298,1811],[-3297,3689],[-1270,1156],[-1414,2479],[-305,875],[367,6937],[-2197,705],[-392,275],[-415,1132],[65,437],[1283,1695],[-1,1850],[-718,496],[-780,1295],[4,621],[2256,2304],[3101,889]],[[138213,559963],[78,0],[117,0],[1055,1951],[-515,3545],[322,1363],[1140,767],[388,375],[45,655],[-138,967],[-659,271],[-992,1428],[-373,74],[-290,924],[-1114,505],[-822,-55],[-1581,-360],[-499,395],[-230,255],[-821,389],[-613,-12],[-1883,-1116],[-529,249],[-441,1228],[1184,514],[537,648],[241,513],[26,784],[811,637],[695,352],[284,328],[145,471],[2,2165],[372,783],[-73,491],[-1653,915],[-2005,731],[-1025,3633],[-1485,3616],[339,919],[-80,1743],[452,881],[1752,783],[2908,-278],[717,-1312],[106,-1872],[437,-1390],[-219,-877],[2,-517],[207,-311],[763,-277],[1176,134],[917,-363],[1052,245],[2995,2089],[670,-28],[1284,354],[317,312],[76,2078],[-424,2529],[313,975],[101,681],[242,884],[-14,347],[-271,722],[62,123],[309,336],[1962,1264],[963,1131],[1000,59],[1223,-1207],[1158,-278],[779,709],[1396,-509],[793,798],[1094,-328],[2492,472],[1580,-861],[1146,877],[519,1245],[880,-510],[1182,667],[1997,-272],[1051,762],[2812,647],[5,2069],[-786,640],[531,1019],[-761,609],[2105,36],[1258,1880],[961,-88],[1004,1205],[1950,-831],[1036,1231],[338,-1376],[1869,-298],[177,-1346],[2607,336],[1653,1005],[-1317,1529],[3286,-1123],[275,1370],[899,-186],[-10,-1285],[2185,514],[-244,1571],[999,1003],[309,-1077],[1883,-202],[1384,-1244],[1050,1383],[4032,-399],[-1173,699],[1454,339],[599,-563],[155,1732],[1252,-1441],[1514,-314],[1854,1454],[2077,294],[275,925],[2080,1498],[1290,1484],[27,791],[1531,104],[220,1630],[1121,25],[1476,-1033],[-688,-851],[1402,-157],[344,-813],[2808,726],[797,-960],[565,1079],[1608,710],[1156,-974],[-673,-434],[1161,-1708],[1928,-453],[-684,-813],[1687,-651]],[[231874,207281],[-496,-1325],[-2202,159],[-2479,-2367],[-652,34],[-1289,1216],[345,1482],[-600,55],[-841,-1481],[-937,1092],[-2432,1741],[-1052,343],[-616,888],[530,1465],[-1582,-1305],[-502,-2093],[834,-1933],[53,-1275],[-1439,-4152],[361,-996],[-294,-1645],[-1088,-1634],[865,-1892],[-337,-1863],[-640,-1085],[-142,-1619],[-1173,-851],[-299,-5208],[-835,-1356],[222,-2274],[-1576,-1642],[-623,-2087],[-1825,-2099],[-700,-1344],[-155,-2701],[-2152,-1512],[-1164,-1557],[-38,-1641],[-1132,-1739],[301,-2233],[112,-3383],[-1647,-5037],[-1319,-2591],[-1634,-1628],[-1079,-760],[-1002,-2161],[-896,-657],[-1558,56],[-1158,1704],[2,1396],[-905,902],[-1317,4050],[65,718],[-3343,1041],[-1526,1087],[-427,1314],[1039,2769],[-264,759],[-1445,329],[-2240,-163],[-2212,823],[-1556,-1185],[-1820,65],[-3397,-1224],[-1798,-214],[-1636,-897],[-1850,-2757],[-1169,-2180],[-1427,-662],[-865,-1171],[-1178,-3424],[-2755,-2181],[-2185,-582],[-153,-1670],[-729,404],[-1022,-1605],[-1459,-587],[440,-984],[-1163,-536],[378,-1811],[-1344,-1116],[-747,1099],[-1307,855],[-1017,2150],[92,1390],[-600,866],[77,3380],[-1277,1581],[-68,2105],[-950,1570],[-1720,-454],[-519,-1112],[-1324,153],[-1613,2304],[-943,2380],[-9,765],[1505,3541],[-242,1016],[-736,221],[-4959,-577],[-1048,465],[-354,4229],[-1628,2195],[-951,297],[-81,1667],[767,2529],[-335,1276],[-1168,1141],[356,1220],[87,3300],[-708,1530],[-2277,1915],[535,2012],[-1378,91],[-306,1546],[-1553,622],[-1390,29],[-2015,-1021],[-1500,-1487],[-1300,-2022],[-220,182],[512,1935],[1103,1975],[3074,2552],[1384,1964],[-449,4063],[-1331,453],[-3022,-491],[-1013,1032],[-803,2312],[-370,3644],[715,1274],[-262,2704],[-2482,2479],[-1618,-298],[-1441,1081],[-36,3115],[689,3747],[1794,2846],[-731,1737],[1322,695],[1028,3969],[1491,3093],[4787,6706],[3782,3582],[194,1465],[-878,2092],[-218,471],[-1242,7517],[1927,2276],[63,1230],[-362,5415],[-895,613],[-1106,-189],[419,1533],[-595,848],[-1213,371],[-24,768],[-1800,1146],[-5198,4465],[-604,1484],[-1301,1931],[-1374,1216],[-1965,1106],[-7834,6994],[-1484,1583],[-513,956],[2675,-724],[3127,541],[1466,-30],[8769,-1906],[1513,-730],[1750,-1701],[1298,-745],[1143,77],[1500,1424],[668,2259],[1274,1288],[3797,752],[-3891,2995],[18208,351],[1163,-944],[-156,-2180],[-1097,-1985],[1598,-1306],[1097,-1484],[584,-2569],[520,-820],[2723,-1363],[7757,-5788],[3844,-2365],[27,1024],[2377,4290],[2079,64],[320,691],[1556,-916],[386,636],[3813,2277],[3324,3548],[7649,8656],[1571,1334],[3207,1252],[1644,122],[2199,-431],[3628,516],[1910,-129],[2101,-924],[2012,-393],[1816,860],[531,1087],[1142,144],[223,2051],[2386,20],[1468,596],[1367,-370],[1653,-1352],[1530,-676],[1897,104],[2244,-1231],[3345,-1044],[7091,242],[1104,-715],[2598,-280],[1438,1192],[-201,-352]],[[554087,467512],[-2461,-268],[-2950,-2213],[-3100,-1237],[-1693,-1703],[-662,-2144],[-1425,-3022],[-182,-1175],[693,-2681],[-100,-1850],[784,-1357],[1114,-707],[76,-1443],[692,-609],[-87,-1990],[-1850,-5324],[714,-1142],[2883,-2712],[-1780,-2661],[424,-1239],[-361,-1185],[1760,-2380],[670,-269],[792,-2324],[198,-2140],[1610,-1083],[833,-2218],[-855,-2953],[555,-2994],[1254,-603],[1629,611],[2054,2382],[2318,1833],[930,295],[1049,-300],[1275,-1207],[1700,-165],[3301,592],[2324,-1105],[3814,-24],[2007,556],[6067,-602],[2900,-89],[1158,-596],[2667,-2370],[2270,-942],[965,-257],[949,41]],[[591010,412539],[-566,-1244],[-2228,-793],[-730,-910],[-2851,-1213],[-4070,-1031],[-1429,-1040],[-308,-1359],[-1949,-579],[-267,-1622],[-970,-351],[569,-1028],[-1766,-1738],[2186,-2721],[298,-798],[1139,-187],[637,-1550],[888,-868],[521,-2100],[849,-1013],[200,-1761],[1130,-687],[-751,-1027],[1216,-901],[1002,-1649],[1093,-144],[2144,-3551],[289,-1855],[2168,-2873],[-40,-1085],[870,-2999],[2621,-3115],[818,-1889],[2688,-66],[965,-1202],[2838,-482],[2120,-1607],[1538,920],[1377,-125],[6355,-2858],[1691,-1243],[1099,-1870],[6312,-2897],[578,126],[-1173,-1575],[-658,-1726],[-958,-1329],[55,-2215],[-550,-1343],[-343,-3268],[125,-3694],[330,-928],[-76,-2765],[-748,-2067],[715,-3315],[1954,-4046],[826,-2358],[241,-2601],[724,-1991],[239,-1878],[923,-951],[291,-1217],[-550,-2765],[666,-6365],[2533,-4509],[1878,-1478],[-354,-1182],[-1319,-5348],[-1297,-1926],[247,2902],[-2183,1275],[-1481,-1555],[-1501,261],[-4426,2695],[-959,1662],[-1120,1769],[-404,2026],[-1123,1332],[-2668,1364],[-1235,3099],[-3028,-351],[-900,-1365],[-866,-222],[-1497,-1455],[-1379,-123],[-1328,-1207],[-548,-1635],[-820,-975],[-4115,-1566],[-1579,42],[-1012,-700],[-7235,8],[-2967,1377],[-1963,1528],[-2012,907],[-162,826],[-2408,101],[-4396,-1211],[-1775,329],[-2631,1787],[225,533],[2592,1210],[429,2215],[-3717,3110],[-630,1169],[-2064,915],[-1064,-160],[-144,-1875],[-35364,-342],[-136,-1234],[-2203,-134]],[[516479,312344],[-1330,-138]],[[433656,504579],[-390,2429],[-1818,2933],[108,1841],[3123,398],[62,1137],[1680,-670],[1428,1083],[668,-1243],[1002,-582],[-36,-1402],[2915,-797],[1657,-1018],[2438,-363],[2441,-1104],[1912,1094],[1692,29],[2816,-510],[618,455],[4669,1310],[-390,797],[-49,1788],[417,5307],[1125,2087],[703,3491],[487,1267],[-321,2312],[-896,2169],[581,4423],[1273,3299],[2092,2570],[1394,4386],[561,3722],[377,1119],[757,-362]],[[657319,533964],[-1510,989],[-748,4102],[2028,2566],[-1425,1740],[98,1600],[-631,89],[-880,1346],[54,1515],[-1094,892],[452,3183],[-262,1782],[1920,1004],[1006,1386],[-280,2352],[-477,448],[477,1664],[-953,3354],[-274,2979],[-414,1513],[-563,4170],[-2027,2615],[-174,1455]],[[651642,576708],[1823,-509],[3501,2278],[3158,1515],[1650,1342],[845,1972],[3571,-763],[3939,-1589],[2726,-2906],[2496,-873],[3267,-1883],[2831,-238],[2866,567],[3578,1573],[3363,585],[3481,-1414]],[[694737,576365],[382,-2242],[-15,-4764],[579,-2001],[1407,-1385],[1729,-5520],[1807,-4132],[2180,-7593],[27,-2882],[528,-1327],[665,-4382],[-514,-3402],[-13,-5348],[716,-5951],[737,-1641],[226,-2893],[-206,-2791],[-1186,-4719],[-1433,-4104],[-1616,-2853],[-368,-2462],[-3907,-7839],[-1472,-3919],[-531,-2092],[-347,-3099],[-532,-1785],[-63,-3057],[-612,-2877],[139,-5049],[448,-808],[1012,-4805],[-512,-3323],[496,-3293],[-110,-2836],[-443,-509],[1693,-2501],[127,-1209],[-519,-1536],[-269,-2477],[498,-1469],[331,-5399],[-298,-4737],[-1428,-4123],[462,-1468],[-1385,-1268],[-1380,-3872],[45,-2018],[-1269,-1400],[56,-886],[-949,-1097],[-200,-1215],[-67,-1441],[-770,-435],[-1774,-2434],[-919,-159],[-2455,-2278],[-1727,-1056],[-514,-1700],[-980,10],[-2749,-1421],[-2622,590],[-2660,-476],[-1818,-2204],[-1635,-843],[-2141,-381],[-1401,-1130],[-1645,30],[-1443,-1328],[435,-605],[-779,-2008],[-1122,-741],[-3565,-1493],[-1383,321],[-1551,-283],[-2068,507],[-1368,-794],[-1668,-680],[-668,-1481],[7,3354],[-1607,1641],[-2754,191],[-5873,2090],[-294,155],[-1225,3860],[-6706,3855],[-1065,3334],[-2498,1949],[-285,1012],[-956,304],[-397,1253],[-248,510],[-103,448],[65,163],[784,-67],[179,698],[-296,305],[-1474,2568],[-892,-908],[-2282,-549],[-3359,536],[-3918,-92],[-1731,310],[-2730,-1080],[-3677,-3720],[-4290,-3377],[-2232,-1204],[-7526,-3094]],[[103490,699181],[496,-804],[1196,58],[1914,-2098],[-620,-1043],[791,-1778],[-1093,-792],[-2796,-816],[-572,-812],[138,-1084],[1687,-2895],[-109,-1497],[382,-4441],[-2506,-2042],[1014,-143],[1047,-1399],[3165,-705],[713,-1557],[-439,-1639],[-812,-14],[-178,-2102],[-1216,-281],[1638,-1969],[-980,-1403],[786,-2920],[-1401,-1762],[194,-901],[1883,-522],[1129,-1725],[-528,-1980],[1053,-1960],[1613,-366],[-721,-1177],[678,-4826],[762,-196],[2253,-2730],[-550,-2562],[-264,-3220],[1240,-1617],[2363,-1241],[437,-1826],[-585,-2450],[755,-689],[2064,118],[1877,-2073],[360,1113],[-66,3650],[283,1718],[-992,854],[-391,1528],[4112,-2026],[1459,155],[-401,-1081],[2059,-932],[3330,-590],[-2075,2152],[-1070,2944],[-3056,402],[-2848,1691],[-1394,3460],[-374,1681],[1115,2426],[1554,2449],[932,5191],[-2197,6609],[-430,2580],[-2288,6013],[-1191,6162],[279,1236],[1687,960],[2717,469],[1812,1258],[27,1793],[1487,245],[2881,-3231],[1428,5],[3219,1148],[3241,2390],[25,2128],[859,2124],[-269,901],[-1663,671],[-592,879],[1788,1367],[2540,2579],[2114,9],[1135,-956],[1526,532],[920,1355],[1487,975],[1669,158],[2265,-1398],[3859,695],[630,-477],[508,-1935],[2146,-788],[1753,582],[1137,1211],[960,-84],[990,-1900],[1280,-1207],[2432,-113],[896,498],[379,1314],[4022,261],[1191,-276],[443,1049],[-629,1925],[541,576],[2353,-517],[1098,1043],[144,1955],[1526,1255],[2392,-1433],[1192,1167],[2974,255],[1935,-1207],[1943,-2275],[1537,-60],[1270,-1714],[2563,-2251],[1896,880],[2329,319],[2039,1309],[1698,-1734],[1388,-355],[739,728],[-275,2152],[2270,1170],[1843,3017],[-387,2334],[-246,1138],[779,807],[691,2969],[-829,4496],[1568,2542],[-522,962],[1112,1519],[806,2010],[2221,523],[2506,1193],[2708,2089],[1113,242],[1427,1660],[1639,2970],[211,1157],[1526,2113],[1803,828],[1181,1531],[123,1241],[2069,1660],[-95,1340],[1345,1192],[58,1969],[2325,380],[2146,2494],[3507,1203],[1744,1160],[1840,2770],[3942,-1773],[822,1835],[1640,1315],[3289,3937],[-844,-2039],[345,-1419],[1480,314],[465,1127],[1289,1735],[3520,427],[2086,1736],[1925,3556],[1317,1130],[1900,3537],[2228,1250],[1376,159],[702,-50],[2702,-2769],[1877,-879],[1642,-1558],[-1151,1634],[-281,598]],[[274433,764376],[2878,166],[1202,-305],[1110,1378],[1626,157],[276,940],[2272,161],[1952,-1207],[1996,729],[2676,-282],[1523,-518],[1005,733],[833,-306],[2347,1673],[2035,-1099],[2860,-696],[783,473],[2322,-260],[651,-727],[2336,-1117],[1513,405],[898,-556],[1157,680],[1627,-580],[1489,-1102],[1335,542],[1040,-531],[2518,1252],[2479,571],[4184,26],[2587,725],[3603,-216],[1744,558],[2361,-547],[2504,1626],[2040,369],[1760,1093],[1443,-610],[2450,-128],[2509,-881],[2257,-1802],[1321,363],[2158,-1905],[3416,876],[4706,-744],[1105,591],[1168,1929],[986,763],[2809,285],[1386,1378],[1036,1585],[1380,699],[2794,-356],[1952,285],[1075,654],[-34,1222],[1529,220],[4627,2844],[3816,1371],[1474,-84],[1597,602],[2469,2093],[2217,732],[654,663],[2159,347],[2795,1324]],[[401209,782900],[1505,-1622],[299,-1830],[1804,-2444],[2799,720],[1719,-28],[1064,-1052],[1174,548],[2107,-1200],[1449,-112],[5772,-2258],[875,1047],[1455,357],[245,-949],[2981,-178],[1009,-1163],[545,-1915],[-66,-1683],[1702,-1045],[244,-948],[1490,-1090],[1210,-1841],[45,-77],[70,-52],[80,-10],[102,-63],[80,-20],[37,-65],[-3,-66],[-55,-117],[-20,-82],[144,-235],[1078,-1772],[1083,-1779],[-1363,37],[-1482,-177],[-7916,-2508],[-8247,-3670],[-1576,-334],[-5661,-554],[-3869,-102],[-1563,-651],[-309,-1174],[146,-2085],[-1170,-3253],[-1688,-3007],[-3959,-4949],[-547,-1392],[681,-5426],[-181,-2003],[597,-2459],[597,-774],[3325,-2590],[2611,-196],[1087,-480],[314,-1243],[-1337,-1112],[-700,179],[-3596,2279],[-1993,419],[-1949,907],[-2999,165],[-2060,-536],[-3994,1217],[-3297,-472],[-1818,410],[-968,-214],[-643,-894],[391,-1301],[944,-412],[4120,131],[1327,-1003],[33,-616],[-427,-782],[-2234,-1837],[-997,-2095],[-2840,-1182],[-1489,502],[-1678,-184],[-1387,-1656],[-1764,-707],[-1951,-3904],[-456,-474],[985,-1302],[-1414,-4008],[496,-3565],[-70,-2851],[-2138,-2313],[-1172,-217],[-1408,-1412],[-2600,-1565],[-341,-2093],[-2019,-3333],[-2969,-1048],[-1727,498],[-2900,108],[-1077,1463],[-2861,871],[-945,633],[-13230,-5482],[-5034,-2330],[-1138,-248],[-5443,-277],[-3964,264],[-1822,-296],[-3617,-1405],[-5378,-3123],[-1137,-496],[-4146,-1028],[-2752,547],[-9,-782],[1465,-639],[3581,-3376],[438,-1398],[-468,-1887],[974,-3110],[645,-1064],[2876,-2758],[2740,-1488],[42,-2109],[847,-1369],[612,-2374],[1166,-2537],[54,-3152],[-319,-3540],[1236,-837],[696,-147],[1718,-898],[-604,-1111],[-3451,-1146]],[[315715,637984],[-6196,-512],[-6799,40],[-1237,-762],[-1550,1586],[-3158,-1259],[-2824,1425],[-2368,-481],[-1953,-2832],[-2104,-4285],[1020,-3960],[1705,-3706],[-1020,-352],[-1126,1251],[-1987,-1658],[-2479,523],[545,-912],[-2125,-422],[261,-690],[-1696,-388],[-527,-1738],[-1028,734],[-798,-2663],[-2744,-241],[-5,690],[-1524,-10],[-3103,931],[-1200,-344],[-2188,2108],[-634,-1093],[-1417,630],[684,-1664],[-1446,-724],[-1800,626],[-1928,-1793],[-1722,-43],[-2079,-1232],[-1480,675],[-1491,-182],[-1021,-2215],[-1240,-1075],[-2096,-659],[-649,414],[-1583,-917],[-737,-1467],[-89,1058],[-1509,-88],[-620,665],[-762,-784],[-2916,-443],[-1357,1530],[-2734,271],[-4465,-1853],[49,1290],[-1810,-64],[-967,-1689],[-1417,851],[-695,3160],[-93,-473],[-2143,-168],[447,1128],[-1816,459]],[[138213,559963],[-13706,-52],[-34668,-325],[-293,11082],[9941,-8],[0,1767],[-810,12],[-21,4955],[-17,1931],[-95,20432],[-24003,500],[224,56698],[-7,64792],[2130,568],[3006,0],[2049,-458],[585,-1579],[2422,-1829],[3005,-674],[3272,-2268],[630,-882],[2235,-1418],[2170,-2716],[745,-3341],[-289,-798],[3118,-3077],[449,-2807],[528,-945],[1520,-1045],[773,-1922],[-615,2014],[999,611]],[[274433,764376],[760,3014],[-927,893],[56,1032],[-2673,5836],[-739,712],[-9749,5547],[-3785,2155],[-5422,-9353],[-3415,1012],[-3150,-419],[-1528,-808],[237,-2146],[-422,-4791],[556,-1862],[-1162,-464],[-959,-654]],[[242111,764080],[-119,11794],[986,9],[9692,18043],[527,7852],[-5581,52],[824,2024],[990,1683],[-1573,2236],[-2302,2515],[-3617,3074],[-1273,2177],[827,1048],[-2305,4921],[371,4215],[-186,3284],[453,1324],[1989,631],[777,1088],[-262,1239],[1935,848],[256,1987],[691,968],[859,2152],[883,1819],[-821,736],[464,3373],[-1017,2084],[397,1468],[-414,2059],[168,1860],[737,717],[-52866,-253],[-29,6065],[-7101,-64],[-23,11243],[-9818,-34],[4334,-9343],[-1683,3],[-4634,8],[-2729,9331],[-10017,-15],[-19429,-31],[134,-38236],[-22928,-238],[-813,-112],[-5264,3127],[-2025,4542],[-4068,4659],[-2199,7213],[-5014,10189],[2159,5388],[-2264,5031],[-2102,1600],[-269,3097],[3332,1274],[-2180,2754],[-2748,2913],[-2191,282],[-1249,2642],[-2851,1336],[-1093,1272],[-4551,2571],[-4802,1558],[-589,700],[-4191,2728],[-1300,279],[-3,-13239],[-7507,132],[202,-6304],[-6583,59],[-38,3150],[-3268,-31],[-212,3041],[-3124,-36],[-38,1282],[1084,-23],[1288,692],[-251,1454],[-1875,1874],[-225,2119],[-457,1257],[-654,4817],[-857,637],[-1002,2023],[-1832,2010],[-704,2846],[-1637,1626],[-1256,597],[-1357,2288],[-1050,3944],[-1450,3773],[-5708,6881],[-2053,2039],[-4942,4373],[-719,964],[-1113,2675],[-2951,2412],[-3015,3708],[-842,762],[-6165,2861],[-1859,466],[-4873,281],[-1233,-115],[287,753],[1516,1026],[916,1681],[2026,37],[-905,1896],[-1972,980],[-1385,1731],[-4134,9325],[-787,3596],[721,1927],[-1268,539],[-142,3055],[1168,4275],[801,526],[1750,2627],[2843,2189],[2025,35],[401,1912],[1947,2034],[-279,6795],[-3335,4208],[-868,4712],[20943,6],[5412,-6912],[63472,23],[47,0],[22540,8],[30989,340],[23132,254],[10311,107],[23544,-73],[58,12],[8322,-153],[-25,-33],[84158,718],[401,1],[-1092,-1544],[-2265,-1348],[-758,-1839],[-1090,-916],[-2203,-3283],[-412,-1347],[435,-3654],[-1077,-2238],[-1348,-1128],[-498,-2424],[-2184,-3772],[-5936,-4484],[-2640,-2290],[-2790,-4001],[-955,-602],[-2502,-761],[-1571,-867],[-927,-1044],[-2457,-5186],[-1603,-1717],[-1431,-2183],[-1520,-3123],[-1099,-2810],[-1091,-1556],[-1158,-2934],[-1628,-2504],[-2888,-6565],[-1315,-2110],[-3792,-4380],[-383,-200],[521,-2591],[2542,-3173],[573,-2722],[-391,-2321],[-1190,-1785],[110,-671],[3988,-2158],[1277,-931],[-1732,-487],[402,-1555],[1045,-1154],[-1572,-1423],[-664,-1146],[-2010,-1176],[-1187,-1292],[-1573,-2387],[-2786,-2275],[-1365,-1906],[-1552,-1295],[-1107,-1674],[260,-3261],[-44,-3652],[556,-2881],[-1050,-315],[-77,-615],[6647,-17488],[538,-2301],[1760,-742],[1170,-1236],[1692,1481],[2135,-256],[2567,2559],[1339,-704],[1975,349],[514,-4001],[2940,451],[2076,-657],[1440,801],[1891,-740],[2776,903],[1459,-821],[509,-1885],[-1373,-3059],[575,-1785],[2446,-1540],[409,-838],[991,12],[53,-3059],[2021,-498],[4032,743],[2557,65],[6394,3700],[1261,246],[132,-1094],[1529,-2834],[609,-1959],[776,-1202],[2315,-1730],[1350,-2281],[609,1448],[1557,-749],[1350,-1750],[131,3053],[1433,-1279],[1509,-3976],[1473,-1955],[960,-1854],[1110,-287],[-1132,1990],[-124,2031],[800,1970],[1562,780],[3372,-1558],[2898,720],[1685,944],[2097,411],[1316,1252],[1479,636],[3063,104],[1296,-266],[1273,1743],[2528,1006],[391,1047],[-206,2113],[2872,122],[1751,750],[100,-1406],[1474,10],[2565,-946],[1373,-1546],[2924,-5],[144,1939],[3727,5300],[4142,-4862],[1405,2994],[4146,-1366],[966,61],[2097,-2319],[802,370],[1808,-2320],[1151,-205],[1848,789],[1776,-596],[1889,566],[1540,982],[1372,19],[3934,1821],[3625,774],[-27,-1374],[2883,1533],[425,-1191],[1188,838],[-355,1825],[710,1296],[-352,1127],[-1814,1276],[-1464,1645],[396,3780],[-1772,1807],[594,3262],[1602,-582],[1707,217],[1473,1621],[4059,-700],[2358,1592],[1266,-212],[1071,-1203],[1354,512],[3210,182],[514,-1348],[896,-238],[-781,-2005],[-964,-1034],[21,-2867],[2633,-2580],[1965,-3664],[796,-257],[2879,-2148],[823,-41],[2678,-1970],[739,-1257],[4295,-2314],[484,-840],[2261,-731],[1794,130],[530,-567],[-790,-3076],[1031,-1132],[1512,-1091],[132,-2096],[-1054,-1547],[102,-2685],[-1322,-1912],[524,-2503],[1195,-1173],[177,-864],[1694,-238],[2409,819],[1939,-183],[957,-611],[-85,-1732],[399,-1085],[-1455,-808],[-517,-1984],[-1940,-818],[-1742,-2223],[-1535,-1280],[-167,-1438],[-2123,-2568],[143,-555],[-1389,-2604],[97,-665],[-652,-3899],[-555,-1104],[-1521,455],[-1196,-314],[-991,386],[-1063,-907],[-370,-1621],[-956,-1544],[-832,-467],[-1822,234],[-4077,-2230],[-2319,-1810],[-3955,-1227],[-392,-587],[-276,-3668]],[[516572,270113],[2687,872],[1674,2040],[22559,13],[-49,-23669],[-1107,-716],[-2128,-2375],[-52,-146]],[[540156,246132],[-1330,-208],[-3082,722],[-1543,-338],[-1064,-1610],[706,-983],[-1489,206],[-1388,-1063],[-3051,3824],[-27459,21168]],[[651642,576708],[-564,1908],[1213,3192],[-682,2569],[-67,1644],[-995,1739],[155,1151],[-628,937],[-1770,972],[-995,1215],[-983,215],[-841,2808],[-2884,5929],[-1556,1266],[-831,-563],[-1589,2136],[-1269,399],[-856,1834],[-660,2504],[397,973],[-956,840],[-954,1815],[-2468,291],[97,1253],[-1758,1229],[-1381,2760],[-3181,1769],[353,1533],[-439,1322],[184,1716],[618,863],[-926,1121],[-1746,1019],[445,1116],[-1730,1308],[291,2680],[-2126,837],[-2886,-319],[-550,583],[618,1825],[-535,1989],[-592,733],[-2321,1427],[-860,45],[-2297,-914],[-1389,103],[-1210,1384],[-1003,110],[-1108,1338],[511,1162],[2218,2048],[80,3442],[-679,1698],[1539,1228],[634,1354],[-280,668],[1062,2472],[486,1912],[-112,3629],[2348,2204],[1025,1431],[-371,626],[754,5069],[-743,2345],[1241,1058],[-762,1508],[-32,1108],[-2308,2417],[-3173,-747],[-312,-2596],[1433,-3182],[733,-4738],[-2652,-3392],[-1070,-1877],[-303,-1534],[-1973,-2092],[-748,-2321],[-971,-819],[-2190,-759],[-1351,-1430],[-2072,-446],[-1829,797],[-2359,43],[-1431,624],[-1866,-599],[-154,-825],[-3541,48],[-685,769],[-1317,-518],[-1082,199],[-960,1128],[-910,-405],[-1354,-1852],[-2342,944],[-2305,-945],[-1067,-918],[-534,-1339],[-915,-373],[-4871,297],[-1828,-307]],[[496040,684315],[334,704],[-625,1716],[3693,3352],[2439,992],[486,2638],[-451,5180],[-972,428],[-780,2300],[-4301,2779],[-844,1213],[-3385,1879],[-1707,61],[-1759,848],[-4159,-537],[-1093,74],[-413,256],[-861,2718],[-1236,311],[181,1040],[1369,1894],[-91,1247],[-3176,2691],[-61,892],[1354,3047],[130,1633],[1376,1536],[1489,3003],[2102,1501],[100,2175],[1832,1611],[66,829],[1349,673],[581,1280],[1273,-213],[2742,1049],[62,1559],[-1652,1704],[-734,1266],[2908,-1439],[-1654,4979],[-3503,3704],[-3871,3066],[-1761,2379],[513,413],[4104,572],[1724,1178],[2299,-421],[2791,115],[3551,649],[2256,1201],[3408,-6],[1991,726],[3387,-28],[-62,-735],[3905,-2050],[2141,-278],[337,3725],[607,1422],[1835,1255],[873,1485],[-627,1362],[-1673,703],[-562,954],[730,473],[3800,-390],[4334,1765],[164,841],[2117,1355],[-1233,299],[7044,-156],[1622,-390],[2001,-1582],[910,-101],[1142,1147],[1852,-582],[2588,515],[2742,-1287],[1288,-251],[4404,413],[2849,2190],[2494,2246],[1785,3596],[-1224,2302],[2600,-790],[1008,574],[1837,-30],[2285,-694],[-656,-3499],[2463,-182],[5171,749],[2390,760],[3702,-737],[2394,983],[4975,3011],[4498,3802],[3680,-3],[2185,622],[3396,2311],[1305,1674],[2654,2113],[4882,2653],[4413,1502],[1997,27],[4453,2414],[1335,299],[388,-953],[-502,-1260],[862,-896],[-5,-4372],[2730,-1696],[202,-824],[1429,-260],[1958,-3687],[17,-1577],[2201,-1117],[1055,-1981],[123,-1777],[1192,-42],[1696,-1263],[1578,-227],[3383,-1704],[1708,-225],[2407,-972],[-82,840],[1028,1559],[680,3146],[1788,1802],[843,1804],[-863,533],[-101,1335],[-1007,1506],[1022,760],[2368,45],[2194,1163],[2877,3791],[1605,-136],[3367,1865],[1284,1656],[695,3123],[-1089,1329],[117,3828],[-773,2151],[1348,1331],[1037,-549],[1019,516],[1909,2372],[6031,-747],[3900,-1364],[8633,-4217],[1112,-799],[6162,-10894],[787,-1606],[1105,-1743],[558,393],[841,-4680],[1044,-1848],[320,-2729],[-759,-6580],[91,-1687],[-1285,-724],[-2588,-680],[3886,-5387],[5313,747],[3586,1363],[5865,3456],[2000,2019],[3012,-3004],[5013,1168],[4770,386],[2863,-3326],[1768,-648],[-81,2113],[2034,81],[2383,1723],[-821,2155],[247,1641],[1951,656],[-914,7016],[-922,1592],[19104,77],[414,-176],[167,-4792],[1292,-2682],[2296,-2179],[538,-1246],[1014,-4400],[1622,-1934],[72,-1835],[-634,-1180],[-281,-2346],[-1016,-3289],[-1951,-2586],[-1208,-3305],[1315,-3626],[-390,-1721],[512,-2225],[-625,-3064],[401,-1113],[231,-4050],[-357,-2494],[-1246,-2299],[-1466,-595],[27,-11812],[-122,-13303],[-2580,-71],[-2203,-2615],[-70,-2812],[347,-1988],[-2053,-2030],[25,-1186],[-897,-1522],[500,-2914],[901,-1745],[409,-2667],[1966,-1607],[3047,-1215],[660,-3481],[2297,-122],[42062,55],[397,-2966],[-553,-3436],[966,-6961],[-667,-2686],[544,-972],[-250,-1614],[501,-1457],[1458,-1659],[1018,-3354],[-96,-1097],[17042,19],[494,-7027],[6,-6129],[12506,227],[12880,12],[2396,-2318],[2500,-1359],[6021,-7603],[2108,-1847],[317,-1325],[2830,-1784],[1112,-1515],[4245,-4697],[3665,-3691],[-563,-6334],[1957,-1717],[2071,-3620],[215,-3624],[-474,-2724],[492,-2159],[274,-3001],[-2645,-6542],[2062,1864],[-1766,-2993],[601,872],[963,1036],[608,205],[-343,-243],[-979,-1310],[-926,-2081],[-173,-1387],[-983,-3406],[-2248,-5666],[-1538,-5184],[-1034,-1462],[-1747,-1466],[-1182,-1689],[-475,-1720],[216,-3479],[-288,-4237],[193,-2859],[258,-2759],[-826,-1665],[-2043,-1863],[-364,-662],[-1152,-1122],[-943,-3039],[-824,-5436],[-4892,181],[-2187,815],[-2058,1622],[-1092,1541],[-7804,22194],[-940,3283],[-2511,-1046],[-1976,-1230],[-2019,-400],[-2365,-1041],[-3488,-588],[-2069,-3017],[-2891,-1006],[-142,-3261],[-3,-8577],[-3194,-147],[1849,-2334],[942,-3107],[-12464,-2],[-43,6589],[-12434,-16],[-491,-6450],[-12803,-4],[-127,4852],[-621,1517],[-3857,6],[-1948,-309],[1168,806],[-5022,1899],[-2845,1490],[-1875,-282],[-1179,-741],[279,-1538],[1655,-3916],[-1708,-2998],[-1277,1606],[-486,2188],[-1090,265],[-2337,-691],[-2852,-2417],[-769,-1758],[-1245,-95],[-101,6405],[-1125,1912],[-2001,196],[-45,-1974],[-16112,-42],[-6,4574],[723,3283],[-63,1695],[-1312,4565],[-62,2041],[-6070,-164],[-710,1654],[-18832,29572],[-1409,2453],[-1078,2835],[-1008,-1264],[-507,-3864],[68,-2502],[-851,-1729],[-519,-338],[-5219,-285],[568,-866],[-1968,45],[429,-151],[-380,-6083]],[[315715,637984],[-186,-407],[2007,-877],[2257,321],[1660,-707],[1989,-232],[899,603],[1026,-1438],[2026,-700],[-171,-1581],[-1111,-1829],[-295,-1520],[1616,-1623],[1343,-329],[73,-1397],[-944,-2383],[93,-3334],[-748,-1408],[-474,-2262],[-2154,-2154],[-3420,-6164],[-2158,-2564],[-88,-4193],[-1895,-3202],[3630,63],[1428,-1109],[87,-1511],[996,-1526],[1188,-3],[1462,-2638],[-232,-2422],[909,-4180],[1307,-2943],[-623,-730],[-3969,-2396],[-4004,-2073],[-3378,-3656],[-2871,-1639],[-870,-4769],[-775,-2794],[-2848,-8478],[-4296,-12732],[-274,-1617],[-21,-1372],[840,-6451],[-4207,37],[-899,-292],[-875,-2130],[-2881,-58],[2178,-6538],[328,-2908],[-417,-2153],[1383,-2863],[1473,-1966],[485,-2987],[-1233,-1455],[722,-2960],[2129,-2758],[516,-2782]],[[600144,215493],[-191,-2191],[942,-1015],[430,-2314],[605,-995],[2396,-1965],[2623,-3616],[2891,-370],[2757,-2050],[1242,-1765],[611,340],[1608,2737],[1935,2227],[2403,3622],[2703,2280],[2555,874],[931,-81],[2621,928]],[[629206,212139],[-644,-1051],[-363,-222],[-73,-242],[-281,-265],[-354,-223],[-433,-183],[-1698,-518],[-2704,-1672],[-645,-670],[-1981,-3571],[-1039,-2736],[-2019,-6831],[-769,-2807],[-823,-1997],[-534,-251],[-1762,-4342],[-732,-1964],[-2552,-4562],[-173,-1872],[81,-1472],[341,-3060],[859,757],[2700,1407],[-435,2223],[392,913],[225,-382],[2769,-420],[4438,-421],[1390,-1804],[2796,10792],[167,47],[17027,-535],[304,-30985],[36,-14101],[-2820,-712],[-1399,-929],[-4305,-4034],[-3432,81],[-2321,-665],[-1883,773],[-353,-447],[-2238,302],[-1545,-552],[-1911,-160],[-1323,-528],[-876,316],[-1332,-686],[-441,-334],[-766,-711],[-1379,-295],[-2399,-395],[-548,1246],[52,202],[-6349,-193],[-835,-1896],[-110,-1206],[-2261,3145],[-1020,2556],[-1683,1077],[-1431,3930],[-581,341],[-89,1929],[-158,1577],[-1653,963],[-2119,3130],[-208,327],[-389,158],[-1385,-88],[-1379,2189],[444,1567],[-2764,1705],[-603,2057],[-1657,1676],[-1164,222],[692,1890],[-279,1411],[-3338,1311]],[[581179,161369],[-1002,1431],[-59,1063],[808,2038],[-65,1657],[-946,2056],[-1483,1176],[-482,3219],[-1371,365],[-1522,2372],[-1543,1000],[-1127,410],[-1071,100],[-466,205],[-594,363],[-1047,661]],[[569209,179485],[130,448],[4778,12921],[13361,11574],[1575,1265],[2289,2054],[3668,3108],[5134,4638]],[[103490,699181],[24,328],[5224,-862],[2024,-7084],[6965,2206],[1183,-1285],[618,-2372],[723,-973],[1072,-117],[1688,1759],[103,1917],[12778,20539],[-7338,13954],[-6851,10652],[22987,8420],[12043,-4051],[8033,-4091],[-799,12102],[341,9781],[77946,471],[-143,3605]],[[600144,215493],[1673,1628],[20336,21226],[37175,38593],[2380,2113],[8825,8625],[4010,252],[1368,-1773],[1323,-498],[157,-1937],[2575,-2483],[1018,-180]],[[680984,281059],[-4329,-4798],[-1675,-4472],[-147,-1555],[275,-1442],[885,-1772],[3790,-3710],[921,-1293],[237,-1494],[1295,407],[3897,533],[2000,-551],[2067,-1174],[360,-574],[974,-747],[773,-413]],[[692307,258004],[307,-247],[797,-1173],[2627,-4926],[248,-462],[41,-155],[368,-158],[325,-370],[558,-1314],[470,-355],[1815,-1770],[186,-117],[288,-145],[243,-87],[127,-23],[226,-78],[890,-285],[922,-679],[1555,-2096],[904,-550],[1155,-1565],[1101,-842],[286,-535],[203,-656],[743,-1108],[281,-239],[403,-45],[1231,352],[338,-234],[958,-1355],[3771,-1374],[1222,-1519],[2935,-2361],[4442,-2586]],[[724273,228947],[-510,-924],[-5442,-3179],[-1874,-389],[-714,-1006],[-3770,-307],[-3851,-1170],[-2222,-20]],[[705890,221952],[-5952,1355],[-1568,1005],[-2892,-476],[-1031,1160],[-2483,1663],[-1719,-687],[-3652,138],[-618,586],[-1798,144],[-1846,2797],[-5284,3291],[-2337,2386],[-353,-212],[-4483,-3684],[-3037,-2916],[-5516,-5541],[-3892,2498],[-703,432],[2736,1596],[5907,3983],[-646,1270],[-2507,1903],[-711,-1128],[-3017,-1611],[-3259,-2616],[-3800,-1738],[-2005,-655],[-2031,-2575],[-4033,-4270],[-2314,-1504],[-1114,-571],[-2439,-191],[-2323,-2819],[-4500,-1413],[-1464,-1413]],[[777656,292504],[1129,-78],[3134,1200],[1830,71],[1654,-698],[1454,-2582],[2416,-1654],[47504,-223],[-91,-1350],[26,-11917],[329,-282],[1195,1775],[3209,1229],[2317,1760],[4831,-384],[812,-409],[1218,1011],[9028,-7103],[2632,-2416],[4950,-1767],[566,-500],[316,-950],[-339,194],[1761,-2822],[998,-3440],[1976,-4098],[419,-4032],[-419,-1375],[163,-2098],[666,-4946],[2043,-2728],[359,-1172],[-173,-4726],[-3109,-936],[-1665,-2030],[1026,-4370],[-52,-3321],[574,-2711],[-196,-5678],[350,-2351],[991,3318],[1202,-569],[789,507],[1775,-1280],[487,-1542],[2721,-3281],[1752,-3263],[3152,-1908],[616,-2921],[1145,-1663],[5,-1483],[2168,-3383],[813,-289],[3398,-3221],[-34,-1060],[-1602,-396],[2370,-7312],[491,-2088],[2133,-2166],[792,286],[1281,-3065],[-568,-2454],[463,-615],[1916,-4768],[3130,-4148],[27236,-14346],[8965,-4239],[59713,-31852],[-2017,-2163],[-749,-2007],[0,-1163],[1262,-3068],[1706,-1687],[-939,-266],[-1475,-2614],[-857,-2146],[-1129,-1128],[-365,-3055],[-300,-535],[-2630,-514],[-3178,-1114],[-594,-752],[-3100,-1244],[-2750,-1533],[-2479,-976],[-864,-2023],[-2535,-2444],[-2957,-3845],[-1242,-868],[-3136,-1201],[-3714,1060],[-3500,336],[-2900,-472],[-1472,309],[-2065,1509],[-350,873],[-2386,-999],[-1527,-1222],[-2757,-617],[-1736,-53],[-3122,1442],[-4993,1007],[-958,-9],[-2065,986],[-1471,244],[-1993,-234],[-2657,1766],[-3449,467]],[[926354,85443],[-1885,5606],[-5431,2220],[-1614,1509],[-1147,1830],[-710,3728],[-3768,1627],[-984,1152],[-2457,1696],[-328,1348],[-9059,-32],[53,15915],[0,174],[-672,1390],[-92,1110],[-293,662],[-704,2491],[-748,1750],[-16988,1578],[-453,5513],[-2093,-627],[-2752,767],[-2883,-62],[-792,1292],[-1723,1015],[-2836,-56],[-1735,-371],[-3500,1305],[-4476,100],[-2060,386],[-1365,1418],[-54,1221],[-3599,2755],[-2766,2755],[-2962,4304],[416,671],[-2592,1006],[-659,-76],[-2618,-2282],[-5212,867],[-2167,-390],[-1637,953],[-2129,434],[-4828,-100],[-1373,-632],[-1903,-114],[-1195,842],[-3493,1544],[-2832,578],[-2814,2037],[-1749,2543],[-1403,1403],[-786,1903],[2110,5184],[1083,3309],[-943,2338],[-1140,594],[-3649,948],[-1455,-245],[-2418,751],[132,9828],[-5288,5170],[-3198,1519],[-1141,1128],[-2852,1990],[-1284,1498],[-550,2380],[-1671,1990],[-469,1314],[-2466,3200],[-2954,1128]],[[776351,208123],[1037,853],[3157,76],[4494,1028],[3454,4161],[1181,308],[2060,2580],[1651,370],[3036,1805],[1848,1647],[-28,8661],[695,35],[6146,36],[4946,59],[15573,137],[-12656,16734],[-11630,15117],[-12107,15740],[-8655,11267],[-1397,1816],[-1500,1951]],[[770695,125849],[1213,-1289],[739,1101],[1794,319],[2378,3240],[571,-3387],[1011,-904],[-740,-1378],[-1615,-1204],[-266,-1705],[-1472,-1358],[2064,141],[-1818,-751],[-429,-1254],[-1136,-1125],[-1708,-2810],[-1227,138],[-3257,-3818],[-1418,-720],[-1703,-2071],[-679,328],[1990,-1691]],[[764987,105651],[-2538,-3],[-14431,2],[-16320,-14],[961,1816],[2724,1050],[1469,-135],[7384,3065],[2591,-604],[1528,-188],[1518,514],[1356,456],[3085,771],[2524,1324],[2443,2143],[1614,858],[841,1376],[774,2445],[2050,2545],[2312,1656],[2163,163],[1660,958]],[[692307,258004],[4687,2117],[3870,2831],[993,422],[5081,699],[3013,965],[1293,734],[3686,999],[2225,929],[1516,1154],[3921,737],[3869,1988],[867,1066],[1449,3182],[2656,2566],[245,874],[2243,3528],[-122,596],[-2015,861],[-2680,508],[-805,1061],[-2329,1768],[-368,1323],[-444,4372],[2089,388],[5796,2135],[1630,145],[8374,421],[11516,3423],[913,366],[1868,1524],[2529,4052],[3595,3036],[1158,688]],[[764626,309462],[13030,-16958]],[[776351,208123],[-3486,4822],[-4136,7464],[-3466,1312],[-869,-133],[-2050,796],[-2249,-566],[-1387,743],[-2561,72],[-1298,764],[-1685,-193],[-1016,643],[-2258,-574],[-1512,65],[-4003,-1305],[-2777,-223],[-185,438],[-2274,943],[-454,56],[-323,106],[-195,108],[-314,284],[-947,821],[-1282,-188],[-2433,1443],[-5352,847],[-489,964],[-3077,1315]],[[926354,85443],[-1199,-2088],[-2279,-1890],[-2911,-3762],[-2486,-1830],[-477,-2501],[-70,-3546],[-4729,-2132],[-4744,-1023],[-1255,-106],[-1545,1302],[-593,1795],[-3154,829],[-2454,-1],[-2363,2011],[-752,292],[-3297,2419],[-902,349],[-4974,356],[-2091,-2371],[-1220,-467],[-1818,1568],[-2882,623],[-6292,457],[-1374,1873],[-61,2162],[-2717,3628],[-2993,1293]],[[864722,84683],[483,21130],[-53852,-131],[-46366,-31]],[[770695,125849],[2837,5915],[2883,3641],[92,2559],[681,1408],[322,386],[-1528,-54],[-3186,1678],[-1231,211],[-245,1313],[-3379,1312],[-1812,1990],[-999,2626],[-2016,1887],[-367,1252],[-4602,1824]],[[758145,153797],[533,2339],[-410,1660],[994,4069],[-104,1802],[-461,1086],[-2705,2884],[-1733,1018],[-1992,701],[-1345,885],[-1924,675],[-548,1195],[495,1442],[-1418,1662],[-40,1706],[-609,1556],[-1059,888],[-688,1587],[-1421,2090],[-235,969],[81,2618],[-1762,686],[-988,1244],[-2863,1601],[-1600,2230],[120,1717],[-4238,5235],[-2679,1903],[-3435,2895],[-1456,825],[-4734,3683],[-662,1430],[-1917,1400],[-2227,2269],[-593,1372],[-3849,2327],[-1066,1234],[-2409,1838],[-1308,1434]],[[680984,281059],[647,1749],[2129,2500],[1507,923],[1862,1706],[2261,1304],[712,1454],[1019,872],[2384,417],[1904,-372],[1564,224],[2794,-478],[3743,971],[1725,1682],[4515,1552],[2077,1217],[1587,-414],[1282,352],[-480,1154],[539,2336],[575,115],[143,2592],[1434,4556],[1499,1358],[376,1044],[1437,642],[-45,1730],[1290,1505],[1849,983],[486,1613],[1033,1189],[3391,859],[1577,829],[577,2124],[1277,803],[2384,559],[3463,-1447],[3041,2645],[3205,1702],[2021,615],[1184,1108],[615,1864],[1083,943],[553,1447],[-447,1888],[4441,2069],[4021,3727],[7717,3997],[-35,-15980],[1255,-1242],[1135,958],[1037,-272],[1748,598],[2680,2289],[6866,3699],[1642,1794],[3722,2925],[3046,2510],[2165,2555],[305,22407],[9843,62],[1920,390],[1041,-145],[756,699],[2389,655],[-898,1355],[285,1641],[2471,1598],[-1125,1072],[-600,5607],[3114,-7],[239,6448],[907,59],[557,3132],[1200,-143],[1203,671],[1528,-26],[1388,855],[2303,-38],[3002,-2279],[557,-983],[-1209,-369],[26,-2955],[1314,-1411],[70,-1230],[1622,-1194],[2628,-862],[-916,-3049],[1415,1310],[792,3448],[1809,2856],[2015,2301],[617,2192],[2847,1659],[2866,2582],[1498,1552],[1322,2118],[1088,3198],[953,1454],[3062,1855],[893,1053],[2096,1011],[2089,-73],[1467,1315],[145,397],[1993,2457],[1930,-1443],[3073,2583],[2323,4867],[1251,1150],[2629,1050],[193,1619],[1997,375],[1004,-1339],[-834,-27],[470,-2625],[-556,-1451],[-1421,-1356],[-723,-2144],[614,-4407],[1575,-2975],[3883,-5273],[2828,-3550],[-16473,-7573],[-2224,-1750],[-1112,-1759],[-531,-1607],[4,-3182],[-273,-1155],[-989,-1251],[-1118,-246],[-465,121],[-1555,1690],[-2847,871],[-621,-185],[-2943,-2572],[-190,-1434],[643,-1491],[-526,-1880],[-1566,-813],[-1018,-1741],[-2426,-2271],[-2920,-1065],[-1529,-1222],[-3640,-6022],[-1722,-1667],[-9159,-6717],[-1894,-1186],[-4091,-2050],[-3354,-1620],[-3468,-2447],[-6817,-3780],[-3860,-3324],[-4638,-5402],[-2787,-1938],[-3996,-4134],[-3433,-2187],[-3657,-1128],[-3347,-3132],[-4200,-2603],[-2556,-1827],[-3395,-1659]],[[864722,84683],[-151,-6635],[-1124,-48836],[-1266,-750],[-19,-1190],[-1051,-376],[-1869,-1675],[-1072,-492],[-761,-2511],[-1011,-1328],[-413,-1724],[-1095,-487],[-1240,-1838],[-2705,-1119],[-1744,-1679],[-1073,-363],[-2947,-3106],[-3299,-1183],[-867,-833],[-3379,-1400],[-1191,-1261],[-2655,-1048],[-601,-982],[-2881,-742],[-735,-1185],[-2835,-1639],[-2905,1181],[-3772,-1323],[-875,1310],[-1547,-538],[-1814,834],[-788,-1485],[-1582,-280],[-646,755],[-188,2535],[-1827,1423],[-1324,-455],[-1617,132],[-504,973],[-1507,424],[-3420,2484],[-3554,1312],[-2316,409],[-2122,1307],[-1575,2743],[-397,1660],[-2527,1749],[-28,2495],[-968,865],[-1906,290],[-2200,-1036],[-1662,681],[-2507,-587],[-1789,1591],[-2117,1445],[-1191,-92],[-503,-1103],[-1266,1104],[-2981,1517],[-1283,288],[-900,1455],[-4254,4252],[-2376,2677],[-1516,2314],[-2509,2264],[-2021,3286],[-767,2515],[98,1576],[-1125,1468],[-355,-415],[-688,-3068],[43,-3311],[-838,-1385],[-1293,-12097],[-139,-14111],[-3284,1562],[-702,2171],[-1725,-562],[-459,689],[-3259,1369],[-996,2085],[-787,-1832],[301,-1758],[-1055,-4650],[-2129,-831],[-2474,2328],[192,705],[-865,2336],[386,527],[-721,1878],[-1118,998],[216,753],[-640,2643],[-114,2096],[-832,1069],[387,2578],[-1012,1970],[-2200,1243],[-1614,2042],[-513,1866],[154,1867],[-1346,954],[-1396,4135],[-1052,546],[-20,3067],[-2505,-68],[-2387,-1489],[-904,-1434],[-2919,-956],[-3135,2215],[-3289,-488],[-1678,-861],[-379,-2459],[-1551,-146],[-1969,-818],[-1138,-1600],[-2785,-1097],[-4044,309],[-1671,-330],[-2849,234],[-775,-299],[1935,4535],[1798,2304],[480,1161],[687,4645],[1613,5342],[-724,3545],[875,2271],[1209,737],[4718,-223],[2614,1187],[1857,283],[772,1556],[418,2015],[1291,6245],[1005,2334],[106,2879],[4,504],[-1280,-14],[-153,1101],[-786,1246],[256,1906],[-651,1176],[-759,-130],[-1733,1319],[-2773,372],[-1459,-230],[-1726,2349],[-2231,899],[-606,1284],[-2398,898],[-1384,1460],[908,4015],[-975,1543],[812,2144],[-1134,1231],[-147,1997],[-5860,-44],[-7867,-1367],[28,230],[538,472],[576,768],[4196,1900],[-16,6],[-4747,517],[-2099,-1404],[-910,-932],[402,836],[-207,1853],[-1298,-2],[-3796,-4],[60,815],[331,-32],[176,1180],[-21,480],[121,969],[358,450],[-6,398],[-551,1586],[441,2174],[-865,735],[6,2498],[-970,794],[1080,2245],[-1008,1157],[732,1107],[-1266,1152],[-226,2486],[-61,1544],[937,2226],[-83,3211],[1647,2915],[281,1132],[1074,871],[556,1565],[-11,2991],[-422,3963],[257,-62],[2639,2024],[509,711],[466,472],[422,64],[1003,-84],[222,73],[186,256],[931,593],[2606,62],[585,292],[1071,-95],[687,-424],[544,-709],[341,-650],[683,-1280],[1561,-104],[1200,-1129],[1241,-329],[2054,801],[1789,2112],[812,1395],[3214,-1663],[4353,-1232],[4130,-63],[3498,-1088],[2664,574],[4373,-2528],[2870,-1354],[2077,-1724],[3256,-1520],[1893,1744],[1181,-144],[1670,1149],[2361,656],[2870,-289],[2442,-2791],[1262,328],[3136,2707],[2513,392],[3462,844],[1544,1469],[2082,341],[2380,-237],[1445,595],[1896,1461],[1801,780],[-205,4346],[244,842]],[[540156,246132],[2216,625],[1058,-585],[577,-942],[668,-3450],[1218,-2042],[176,-1480],[1569,-2082],[-210,-2218],[1176,-1557],[483,-1553],[1332,-1964],[512,-2685],[1594,-3826],[636,-2206],[-150,-2280],[-886,-1756],[254,-1790],[-1302,-3910],[124,-3723],[-276,-1821],[3325,-1010],[1247,337],[1480,-337],[1075,-1438],[-185,-228],[-304,-692],[-125,-957],[1867,-3232],[4958,-6274],[1705,-3410],[781,-5528],[557,-1400],[1452,-962],[451,-271]],[[581179,161369],[558,-1877],[1433,-1268],[11,-1357],[2087,-2659],[562,-2042],[-171,-1831],[1928,-821],[753,-1339],[-2805,-998],[-491,26],[-1351,-536],[2597,-3558],[-762,-531],[-3081,3031],[-413,-192],[-3246,-1649],[2206,-2708],[-3040,-3165],[-1405,-198],[-1509,-469],[22,-6964],[-18,-11897],[1181,-15],[-10,-4763],[-7951,1745],[-3895,-588],[-1560,853],[-1195,-174],[-2134,-1218],[-1324,327],[-3897,-1584],[-2652,-694],[-3120,-2152],[-2648,-985],[-4190,-229],[-4158,341],[-3865,332],[-18254,2637],[-8334,175],[-843,210],[-1881,1805],[-476,1443],[-2438,1045],[-3088,349],[-469,1515],[-3022,1146],[-1405,846],[449,745],[3718,8305],[-381,412],[-1474,-927],[-607,1042],[302,1594],[-605,172],[-1691,-1171],[332,-747],[-3522,-124],[344,-1492],[-406,-752],[-2475,-751],[-1600,85],[-1619,898],[-2005,1776],[-1454,-170],[-1760,-1406],[-2270,823],[-1723,-1569],[289,-1034],[-1712,-1567],[-1962,-826],[-991,840],[-625,1573],[277,2952],[-206,1784],[-796,-2982],[-1106,-508],[-2155,-1859],[-1566,-676],[-937,-512],[3139,-1124],[-5970,-272],[-12662,45],[-304,563],[1278,2452],[345,3288],[1654,4164],[-2813,-99],[-1897,-728],[-2288,608],[-626,-607],[-2828,-549],[-1344,1829],[-2876,652],[-1608,-1514],[1433,3085],[924,409],[1645,-1432],[2164,1839],[1111,217],[-2303,211],[-1980,2446],[-3023,726],[-1570,1804],[-896,2485],[-4514,2232],[-1474,-20],[-2079,812],[-2379,476],[-3958,1714],[-954,1741],[-995,558],[-1298,-366],[1490,2146],[-318,1541],[784,1817],[542,2631],[1407,1472],[1086,1915],[469,1831],[142,1698],[-1087,1377],[-261,3679],[-1440,3750],[-2236,2796],[1034,5078],[944,1495],[395,3190],[-2145,3821],[-147,2765],[-211,2032],[614,3757],[-592,2122],[37,10536],[-460,2358],[148,3760],[-1478,-1398],[-901,-492],[-7076,-2837],[-4579,-1489],[-2215,130],[-4792,-1615],[-2978,-1258],[-5211,-1926],[-3189,-1676],[-2379,-3245],[-2255,-2141],[-1268,-466],[-3567,1616],[124,35659],[281,1535]]],"bbox":[-106.915239,35.884244,-105.5301,37.000139],"transform":{"scale":[0.0000013851403851403804,0.0000011158961158961106],"translate":[-106.915239,35.884244]}}
