{"type":"Topology","objects":{"foo":{"type":"GeometryCollection","geometries":[{"type":"MultiPolygon","arcs":[[[0]]],"properties":{"postal_code":"99706","realtor_list_price":250000,"realtor_list_price_yoy":"NA","realtor_list_price_base":"NA","realtor_active_listings":1,"realtor_active_listings_yoy":"NA","realtor_active_listings_base":"NA","realtor_new_listings":1.333,"realtor_new_listings_yoy":"NA","realtor_new_listings_base":"NA","realtor_days_on_market":4,"realtor_days_on_market_yoy":"NA","realtor_days_on_market_base":"NA","zhvi":"NA","zhvi_yoy":"NA","zhvi_base":"NA","zori":"NA","zori_yoy":"NA","zori_base":"NA"}},{"type":"MultiPolygon","arcs":[[[1,2,3]],[[4]]],"properties":{"postal_code":"99701","realtor_list_price":270737.625,"realtor_list_price_yoy":-0.1523,"realtor_list_price_base":0.5064,"realtor_active_listings":37.333,"realtor_active_listings_yoy":0.4933,"realtor_active_listings_base":-0.4896,"realtor_new_listings":21.333,"realtor_new_listings_yoy":0.0323,"realtor_new_listings_base":0.0048,"realtor_days_on_market":37,"realtor_days_on_market_yoy":0.1621,"realtor_days_on_market_base":-0.3901,"zhvi":269433.02,"zhvi_yoy":0.0643,"zhvi_base":0.2948,"zori":1861.222,"zori_yoy":0.0534,"zori_base":"NA"}},{"type":"MultiPolygon","arcs":[[[5,6]]],"properties":{"postal_code":"99707","realtor_list_price":150000,"realtor_list_price_yoy":"NA","realtor_list_price_base":"NA","realtor_active_listings":1,"realtor_active_listings_yoy":"NA","realtor_active_listings_base":"NA","realtor_new_listings":1.333,"realtor_new_listings_yoy":"NA","realtor_new_listings_base":"NA","realtor_days_on_market":2,"realtor_days_on_market_yoy":"NA","realtor_days_on_market_base":"NA","zhvi":"NA","zhvi_yoy":"NA","zhvi_base":"NA","zori":"NA","zori_yoy":"NA","zori_base":"NA"}},{"type":"MultiPolygon","arcs":[[[-7,7,8,9,10,11,-3,12,13]]],"properties":{"postal_code":"99712","realtor_list_price":284127.632,"realtor_list_price_yoy":0.1388,"realtor_list_price_base":0.1758,"realtor_active_listings":59.333,"realtor_active_listings_yoy":0.0471,"realtor_active_listings_base":-0.413,"realtor_new_listings":25.333,"realtor_new_listings_yoy":0,"realtor_new_listings_base":-0.1916,"realtor_days_on_market":39.211,"realtor_days_on_market_yoy":-0.0953,"realtor_days_on_market_base":-0.3694,"zhvi":321593.585,"zhvi_yoy":0.0339,"zhvi_base":0.1981,"zori":"NA","zori_yoy":"NA","zori_base":"NA"}},{"type":"MultiPolygon","arcs":[[[-11,14,15,16]]],"properties":{"postal_code":"99705","realtor_list_price":383620.833,"realtor_list_price_yoy":0.0874,"realtor_list_price_base":0.5814,"realtor_active_listings":110,"realtor_active_listings_yoy":0.6256,"realtor_active_listings_base":-0.2525,"realtor_new_listings":48,"realtor_new_listings_yoy":0.125,"realtor_new_listings_base":-0.1306,"realtor_days_on_market":47.389,"realtor_days_on_market_yoy":0.2369,"realtor_days_on_market_base":-0.1099,"zhvi":332918.049,"zhvi_yoy":0.0484,"zhvi_base":0.2476,"zori":1714.335,"zori_yoy":0.0747,"zori_base":"NA"}},{"type":"MultiPolygon","arcs":[[[-16,17,-9,18]]],"properties":{"postal_code":"99714","realtor_list_price":320250,"realtor_list_price_yoy":-0.1698,"realtor_list_price_base":"NA","realtor_active_listings":9,"realtor_active_listings_yoy":0.0385,"realtor_active_listings_base":-0.3676,"realtor_new_listings":2.667,"realtor_new_listings_yoy":-0.2,"realtor_new_listings_base":0.0331,"realtor_days_on_market":43.5,"realtor_days_on_market_yoy":-0.3925,"realtor_days_on_market_base":"NA","zhvi":206931.622,"zhvi_yoy":-0.03,"zhvi_base":0.0843,"zori":"NA","zori_yoy":"NA","zori_base":"NA"}},{"type":"MultiPolygon","arcs":[[[-13,-2,19],[20],[21]]],"properties":{"postal_code":"99709","realtor_list_price":327466.667,"realtor_list_price_yoy":-0.1587,"realtor_list_price_base":0.4816,"realtor_active_listings":82.667,"realtor_active_listings_yoy":0.4253,"realtor_active_listings_base":-0.2813,"realtor_new_listings":44,"realtor_new_listings_yoy":0.1,"realtor_new_listings_base":-0.1624,"realtor_days_on_market":46.667,"realtor_days_on_market_yoy":0.0646,"realtor_days_on_market_base":-0.0084,"zhvi":317948.366,"zhvi_yoy":0.045,"zhvi_base":0.2133,"zori":1718.889,"zori_yoy":"NA","zori_base":"NA"}}]}},"arcs":[[[852905,24818],[578,-269],[450,306],[757,-216],[1271,548],[-274,933],[559,182],[-111,1476],[148,137],[822,-23],[123,217],[536,-550],[-104,-411],[396,17],[1296,323],[689,77],[326,-161],[1030,45],[366,258],[-1,442],[550,362],[272,-40],[-466,704],[73,595],[406,21],[589,575],[-109,447],[421,40],[163,-261],[515,278],[471,-61],[-119,-490],[495,92],[-54,-498],[471,-133],[29,229],[926,141],[208,318],[1208,-450],[347,249],[1163,-321],[362,-294],[406,274],[89,354],[990,-286],[456,824],[-282,503],[-525,314],[134,821],[-109,506],[560,772],[24,439],[1353,494],[-252,286],[450,88],[1090,-100],[476,-182],[114,330],[624,153],[-123,193],[486,422],[-89,684],[684,341],[589,-250],[-48,664],[753,-65],[520,117],[115,353],[684,390],[1031,237],[81,864],[323,483],[714,19],[-50,237],[1140,-713],[619,-24],[134,-230],[511,426],[654,39],[338,374],[1001,-247],[406,-274],[209,193],[396,-274],[1220,-97],[768,167],[1174,-200],[447,253],[11,402],[784,550],[635,39],[852,-203],[332,-221],[-249,-237],[601,155],[490,-174],[644,39],[894,373],[674,-131],[160,483],[670,175],[-1,-237],[944,456],[81,483],[617,658],[476,-86],[86,471],[552,485],[972,-31],[-162,298],[546,107],[-148,230],[428,518],[705,139],[92,550],[421,3],[860,316],[173,-182],[542,349],[585,-183],[562,396],[292,-197],[205,502],[660,-27],[434,454],[416,-118],[236,679],[252,-46],[756,751],[298,-28],[633,365],[358,-72],[247,266],[754,11],[1432,-378],[1931,-20139],[-777,-9709],[-496,461],[-147,-302],[-195,369],[-331,23],[-96,354],[-518,-178],[63,374],[-678,191],[-504,-166],[-46,-692],[-195,369],[-519,107],[31,-326],[-414,-347],[-229,394],[-261,-335],[-637,-143],[-810,24],[-3,266],[-902,-323],[-261,117],[200,-523],[-631,267],[255,-455],[-553,-581],[-240,-582],[-485,-103],[-67,567],[-957,-801],[364,-239],[-849,107],[91,-660],[-528,90],[73,-237],[-428,-659],[-504,102],[-6,-269],[-470,-232],[-483,367],[127,-310],[-425,-124],[265,-354],[-381,-381],[-464,222],[-1269,136],[122,-334],[-332,-176],[-2,-519],[316,-154],[-658,-247],[221,-306],[-297,-197],[360,-254],[-475,-228],[-577,222],[-347,-449],[-710,609],[-1692,-894],[-549,-224],[-424,37],[-14,310],[-515,-417],[-261,358],[-826,-521],[-300,475],[13,-575],[-464,81],[-1881,12],[58,-290],[-744,428],[85,454],[-583,6],[-291,265],[-717,-305],[-189,-695],[-528,326],[-656,74],[-287,-326],[-296,242],[262,229],[-231,298],[-415,-104],[-232,237],[65,483],[-1092,-196],[-197,515],[-913,78],[-455,-289],[117,-543],[-741,-350],[172,-386],[-222,-277],[-652,81],[-1028,-635],[212,-253],[-524,-108],[-267,-571],[-1135,371],[-5,305],[-637,-52],[-326,-257],[-178,-543],[-376,-353],[479,329],[90,450],[479,125],[409,-242],[657,-52],[646,-258],[569,281],[577,47],[1038,458],[-193,-129],[419,-539],[-651,387],[-292,-627],[-796,-551],[-157,362],[-751,25],[335,-813],[301,-64],[-395,-358],[370,16],[750,-303],[-692,-260],[-646,73],[39,-206],[1214,-93],[163,213],[1017,-455],[-1,-491],[-1066,-47],[58,-411],[365,-201],[148,-471],[449,374],[311,-399],[-826,-1013],[771,864],[1112,820],[-34,225],[-815,-51],[382,1025],[405,156],[355,-169],[404,-149],[-449,-394],[93,-294],[838,-363],[118,-394],[739,-411],[1069,-919],[-347,-619],[-58,395],[262,249],[-670,467],[-100,-691],[-258,-612],[-1112,-988],[380,-241],[63,-495],[-399,193],[-193,-442],[-493,419],[341,462],[-587,-27],[-221,579],[-877,536],[-103,543],[-399,141],[-1106,-264],[-858,206],[-172,302],[399,51],[218,588],[-863,-60],[-135,-784],[-418,471],[232,422],[888,120],[25,193],[657,60],[153,361],[-931,1083],[-918,640],[-991,661],[-746,-32],[-419,262],[-242,-113],[54,-583],[-697,-1025],[242,-331],[-410,-755],[-948,-821],[-687,-784],[-133,-358],[-1751,564],[341,1178],[316,749],[34,514],[-760,-579],[-805,-655],[-1011,-310],[-656,-1182],[-726,-354],[-152,-560],[-814,-277],[-1086,337],[-311,604],[241,1142],[-187,414],[-780,-145],[-178,672],[163,454],[666,604],[1678,728],[291,346],[780,447],[454,700],[-153,623],[-346,322],[-746,338],[-573,716],[-74,454],[-143,197],[-583,-201],[286,503],[15,635],[425,-32],[464,374],[919,415],[1106,229],[252,841],[-543,217],[-934,-185],[-479,197],[192,313],[662,61],[-405,599],[-509,-12],[99,748],[-490,656],[-158,571],[-470,479],[-400,-73],[-839,648],[49,374],[-509,-141],[-603,277],[410,608],[-188,293],[321,-48],[544,652],[657,430],[158,-201],[-242,-679],[361,-278],[109,808],[524,234],[-277,551],[-816,-153],[-222,-306],[-1563,-604],[-548,-121],[-737,84],[-465,-133],[-493,-592],[-470,-241],[-282,100],[-470,575],[-841,494],[-1207,381],[-1132,-331],[-801,52],[-868,1108],[-663,478],[-1246,-138],[-732,88],[-686,-213],[510,4223]],[[401842,239382],[477,57],[3719,153],[1776,-714],[81,128],[-800,664],[741,43],[823,266],[585,-202],[555,178],[1481,178],[-143,-242],[-742,-197],[829,133],[234,254],[1003,-132],[163,-262],[1033,-164],[377,-205],[555,137],[488,-92],[479,657],[548,-120],[62,407],[-1325,-80],[-1,1204],[0,160],[584,-2],[73,1168],[-661,2],[0,700],[1127,-1],[1,466],[-1130,8],[-4,150],[-33,1591],[53,19],[776,198],[3802,20],[458,-110],[22,1342],[-850,52],[-970,262],[-750,25],[-2507,-6],[-3,1044],[-6,1576],[-6,1617],[-18,1142],[-15,755],[1776,-9],[607,121],[835,297],[814,170],[-5,260],[160,257],[864,932],[158,1181],[46,99],[-143,48],[0,562],[996,-11],[963,10]],[[421854,257526],[7961,2],[300,-233],[32,-774],[15,-354],[152,22],[960,-20]],[[431274,256169],[121,-1485],[-30,-1307],[-29,-910],[1420,-671],[1044,57],[356,50],[513,-1239],[-21,-330],[-639,-828],[-128,-103],[-543,-306],[-1215,-273],[-1154,95],[-739,484],[-539,1070],[-890,717],[-794,-209],[-135,-91],[-580,-1334],[-741,235],[-153,-560],[-218,85],[-599,233],[-310,-443],[-177,-397],[-31,-1126],[16,-1039],[66,-231],[238,-335],[451,-284],[413,-119],[531,-22],[3253,-5],[534,-22],[430,-87],[515,-194],[652,-356],[-304,-15],[91,-46],[24,-162],[-606,-70],[22,-638],[-5,-737],[17,-1576],[25,-1182],[-7,-2397],[-83,-4134],[-113,196],[-1185,376],[-961,32],[-616,-566],[-1139,158],[-596,-358],[-676,-64],[-1175,218],[-376,330],[-818,233],[-565,387],[-1515,189],[-1455,73],[-1368,370],[-1140,503],[-1226,-720],[-1358,-496],[-819,40],[-397,471],[-849,-455],[-656,36],[-718,454],[-1139,15],[-1883,847],[-1218,1025],[-1079,216],[-2132,-83],[-791,-987],[-265,-48],[-1075,634],[-684,-85],[493,2509]],[[357,906078],[1002,8604],[527,-2],[260,1879],[2364,4194],[3687,-7],[1576,2982],[4208,2312],[-1976,2544],[2758,4637],[7635,-15],[3282,6071],[-4347,2660],[1043,7844],[5534,2134],[527,1005],[829,6332],[1276,28],[6191,3462],[524,2125],[-400,2889],[1586,3262],[3344,3666],[-3089,2834],[1659,5249],[1018,5145],[-549,3367],[2380,1203],[384,2283],[-937,2061],[1183,1524],[6114,341],[1451,1308],[6674,-1618],[1986,766],[4224,-1205],[-244,-867],[920,-275],[410,-320],[-80,-497],[-363,-426],[133,-411],[680,-427],[118,-481],[-271,-959],[-366,-514],[428,-654],[-56,-1300],[1081,-481],[-35,-606],[858,-1184],[280,-237],[1034,-17],[1293,552],[538,-53],[803,-719],[440,134],[600,505],[768,62],[384,-153],[1313,-1357],[188,-755],[526,-355],[90,-493],[-554,-541],[128,-670],[-318,-322],[801,-552],[177,-287],[-180,-484],[400,-276],[90,-493],[-505,-672],[1961,531],[563,249],[1237,307],[1686,639],[1128,320],[1342,285],[2226,-158],[444,52],[2170,-210],[2123,729],[7023,3712],[2324,1513],[733,557],[438,658],[2056,4800],[3414,1195],[1370,2],[928,146],[810,-420],[621,-87],[2905,88],[1661,-191],[2326,-123],[1959,106],[1356,193],[2103,25],[2993,707],[1606,68],[1447,354],[1511,-408],[981,-488],[1460,-1024],[289,-345],[611,-260],[265,767],[-195,1510],[-98,1486],[48,733],[1943,569],[1029,-73],[1757,-591],[706,-704],[201,-651],[506,-118],[1025,-748],[1956,-1114],[1861,218],[1475,-273],[1441,-481],[252,-636],[-72,-784],[543,-1634],[-38,-1090],[577,-1408],[-4,-973],[274,-773],[316,-214],[-206,-502],[50,-1411],[585,-785],[-117,-756],[-295,-83],[-54,-840],[365,-383],[-271,-124],[601,-794],[-426,-465],[64,-865],[928,-778],[-623,-320],[-374,-401],[580,-408],[-312,-148],[-105,-703],[331,-467],[-463,-7],[267,-1026],[612,-641],[723,-122],[-171,-237],[405,-266],[-35,-322],[400,-198],[-122,-622],[308,-544],[327,-141],[121,-523],[-284,-361],[508,10],[-273,-461],[546,-388],[-247,-735],[286,-338],[-672,-111],[506,-528],[564,119],[100,-374],[435,111],[270,-262],[-442,-280],[20,-422],[535,-163],[48,-579],[-486,-139],[506,-432],[-584,-585],[177,-652],[552,-33],[447,272],[-172,-555],[594,288],[543,-107],[-914,-615],[-29,-286],[550,-419],[-289,-245],[501,-166],[743,157],[-365,-327],[340,-393],[859,-227],[590,-786],[458,-180],[154,-381],[1017,-512],[536,-19],[1056,-479],[504,-425],[1410,-266],[1140,-484],[385,-457],[755,33],[413,-268],[449,242],[494,-827],[421,387],[340,-474],[620,-140],[-116,-534],[536,-192],[-134,-383],[295,-413],[-530,-49],[232,-241],[552,29],[-404,-431],[633,-614],[788,74],[621,-272],[520,-715],[-286,-282],[143,-563],[282,-172],[-53,-917],[-190,-575],[-589,-544],[-511,-250],[-402,-829],[-427,-109],[-704,-1280],[-99,-624],[170,-462],[-166,-607],[577,-976],[991,-33],[231,-399],[-167,-615],[149,-887],[-617,-359],[78,-249],[-846,140],[-708,-294],[58,-377],[-370,-484],[209,-212],[550,174],[-212,-318],[170,-422],[636,-59],[-815,-70],[-155,-523],[-741,-203],[618,-171],[278,-550],[-298,-37],[-822,505],[-409,-222],[804,-244],[-351,-632],[-873,501],[424,-662],[-391,-456],[102,-401],[600,222],[243,-233],[-341,-358],[287,-265],[-1054,-284],[-66,-422],[-533,-202],[2,-434],[220,-185],[683,448],[260,-285],[-987,-380],[-246,-286],[697,-155],[-1144,-317],[-403,-338],[-482,-41],[-181,285],[559,383],[-338,317],[-387,3],[-565,-580],[-550,91],[-685,-191],[-306,-367],[-1055,-343],[-640,98],[-480,-560],[-756,-332],[-1167,45],[-25,-712],[-907,47],[-291,-286],[326,-206],[778,-49],[27,-282],[-901,-261],[-328,487],[-547,-119],[-274,-689],[83,-179],[715,392],[255,-185],[-31,-384],[-536,-294],[529,-109],[724,160],[-438,-872],[-564,-30],[-1404,-766],[168,-340],[470,69],[620,430],[359,-102],[-115,-836],[-233,-166],[-1754,369],[-355,-476],[921,-405],[1170,-30],[121,-320],[-866,-455],[-880,-1261],[429,-437],[-46,-279],[-1012,-230],[-1624,499],[-655,29],[-111,334],[-365,-87],[-884,327],[-105,371],[-1176,163],[-602,-368],[-1060,-115],[-539,-203],[-1580,220],[-914,34],[-1236,-713],[-1009,62],[-387,-156],[-734,33],[-192,-397],[-667,37],[-1100,-372],[-942,81],[-419,319],[-1133,-79],[-1277,255],[-1338,-336],[570,-510],[1612,-785],[4518,-2587],[1037,-853],[1682,-1010],[2093,-1945],[1640,-1009],[941,-683],[928,-513],[-263,-260],[-1712,-702],[-331,-810],[-861,-421],[-461,-613],[-1478,-834],[-678,-271],[-1513,-28],[-964,-172],[-1949,-1290],[-979,267],[-350,-127],[300,-537],[-72,-628],[-383,-562],[-44,-577],[888,-822],[1406,-721],[259,-763],[748,-397],[-293,-339],[-589,-380],[-1379,-541],[-944,-243],[-633,-10],[-910,-455],[-847,68],[-850,-633],[-856,-54],[-2867,-756],[-213,-1069],[-1216,-653],[-544,-767],[-805,-39],[-244,-341],[51,-633],[-758,275],[-595,-153],[-703,-1286],[-456,-245],[-2165,-356],[-662,-412],[-563,-49],[-1494,512],[-1257,100],[-255,167],[94,627],[-782,607],[-364,14],[-996,-996],[-940,-560],[-758,-59],[-627,-607],[-34,-472],[-864,-528],[-1393,-106],[-1579,6],[-1172,-79],[-370,259],[-958,-140],[-52,-733],[-941,-246],[-307,-216],[17,-456],[-915,-229],[-363,-319],[447,-542],[-136,-555],[-1576,-310],[-709,-412],[-413,-2],[-730,1024],[-254,184],[-1206,-219],[-901,-37],[-1121,-230],[-2107,-91],[-1474,-595],[-603,-643],[-738,-482],[-485,-1050],[-838,-548],[-216,-308],[-79,-802],[-981,-858],[-187,-606],[486,-350],[-19,-280],[-1095,-1099],[-823,-338],[-757,639],[-414,-20],[-758,-446],[-973,469],[-1085,753],[-1004,186],[-600,686],[-90,317],[-887,171],[-914,457],[-3355,15207],[3295,8495],[-155,5706],[-656,-229],[239,-666],[-959,-458],[-812,-138],[-1571,-712],[-3047,-623],[-1120,163],[-565,667],[-498,210],[-3743,512],[-836,-112],[-2566,22],[-613,190],[-779,8],[-482,472],[-195,742],[253,901],[-1205,215],[-519,263],[461,352],[-182,199],[-1662,-390],[1253,-1037],[670,-995],[205,-1008],[-2206,-1055],[-944,-598],[-643,-822],[-4397,-4644],[-546,-696],[433,-2306],[-84,-1014],[-368,-1211],[-40,-2280],[86,-1111],[-200,495],[90,587],[-290,402],[85,1033],[-110,607],[235,201],[-234,342],[346,277],[119,1045],[-428,949],[-531,447],[-22,334],[-842,829],[-525,141],[-705,-137],[-346,306],[-1146,314],[-207,-313],[-716,-8],[-587,-241],[-570,181],[-67,302],[-1844,-48],[-839,503],[-1341,72],[-884,-273],[-1744,-310],[-726,-358],[-777,-117],[-190,201],[-883,-44],[-470,-226],[-922,862],[-475,-104],[-740,-931],[203,-758],[-1077,-1228],[-1170,-274],[-707,-532],[-195,-477],[-2628,-427],[-308,-171],[-968,853],[-155,-805],[-2053,-1025],[-745,-856],[-765,-1249],[-313,-280],[-2470,-1659],[-2006,-963],[-1174,-850],[-993,-414],[-856,-873],[-1382,-742],[-305,-934],[-759,-990],[-1222,-1161],[-1380,-747],[-1948,-516],[-4472,-134],[-701,173],[-179,921],[216,711],[502,785],[6512,-708],[4574,8313],[-2503,1441],[-1448,334],[-2784,233],[-9209,1182],[-446,2386],[357,876]],[[662615,380688],[3124,-795],[-295,-1066],[618,-1456],[575,-728],[-730,-1820],[-3240,-1820],[727,-178],[1193,-1129],[973,-532],[642,-762],[1176,-229],[1446,-916],[1502,-129],[617,-702],[-83,-612],[-242,-138],[-600,-1384],[-127,-1116],[168,-546],[589,-130],[1487,-754],[589,-962],[2946,-572],[1468,-895],[2109,-2200],[1865,-25],[1571,181],[972,-519],[1202,-1067],[786,-1508],[841,-910],[1656,-890],[1458,-1587],[1733,-180],[3148,187],[842,-26],[1459,437],[1879,-333],[393,1248],[802,1128],[498,289],[1037,-261],[1534,-220],[1529,-1144],[1481,-1002],[988,-376],[164,-274]],[[707085,352265],[-4804,-528],[-462,-1219],[-45,-624],[-298,-559],[43,-507],[-938,-766],[-1166,-484],[-598,-444],[-1041,-556],[-1443,-1093],[-621,-1047],[-846,-235],[-1030,-489],[-951,-1148],[105,-406],[-860,-493],[-223,-1062],[161,-325],[-101,-568],[574,-521],[460,-1592],[-65,-764],[-436,-476],[192,-313],[-763,-1349],[-665,-86],[-173,-503],[-694,-605],[-212,-1026],[-264,148],[-808,-187],[228,-261],[-354,-472],[-310,149],[-1188,-434],[-147,-499],[-711,-139],[-497,-524],[-414,413],[-266,-556],[-663,-174],[-254,329],[-769,-847],[-633,-50],[-229,-661],[-612,-78],[265,-526],[-1122,-244],[-612,-1000],[-1011,-355],[-347,-317],[-928,-379],[-224,-361],[173,-471],[-500,-301],[461,-459],[-156,-301],[-670,-184],[-199,-784],[-521,-308],[-111,-619],[-676,-360],[-440,-723],[-1460,305],[-167,-462],[-515,-268],[-260,-727],[538,-517],[-791,-847],[-555,135],[-293,-201],[-137,-880],[-850,-328],[-852,-823],[-791,-1197],[-381,-232],[-120,-491],[-871,86],[-959,-50],[-3322,-687],[-433,-35],[-2296,-437],[-1612,-500],[-1844,-747],[-488,828],[-750,-57],[-280,-292],[-1184,-361],[-419,-1295],[-831,-865],[-705,-1137],[-570,-449],[-1641,-724],[-446,-567],[-682,-1580],[-258,-858],[0,-587],[233,-1559],[-523,-69],[-108,230],[-513,173],[-174,587],[-221,-61],[-482,524],[-637,-193],[-483,507],[-1755,-169],[-283,-466],[-1591,68],[-359,342],[-565,-89],[-385,169],[-565,-491],[-621,342],[-3152,-58],[-477,-165],[-437,309],[-605,-603],[-863,276],[-139,334],[-914,80],[-1195,-617],[-1057,-134],[-591,265],[-179,-257],[-596,204],[-862,-73],[-622,324],[-945,148],[-313,273],[-1577,42],[-389,-185],[-951,231],[-580,8],[-502,-436],[-324,201],[-552,-633],[-1104,39],[-1199,-763],[-858,392],[-784,-504],[-211,193],[-682,-235],[-318,83],[-390,-153],[-9,-326],[-564,-41],[-760,102],[-104,189],[-473,220],[-456,-254],[-621,-22],[-807,424],[-359,-81],[-273,293],[-1264,266],[-805,-163],[-533,-191],[-444,-524],[-1363,-523],[-1039,-602],[-818,-352],[-1047,-153],[-980,151],[-984,276],[-529,1015],[63,282],[-279,785],[47,676],[8996,13565],[-3556,1560],[-1380,265],[-2229,1],[-2515,265],[-1822,910],[-293,262],[-888,468],[-1702,1509],[810,629],[162,503],[-247,250],[110,502],[970,549],[85,462],[455,542],[-178,443],[218,607],[9,792],[155,253],[562,131],[916,1012],[1744,602],[369,695],[679,879],[532,296],[33,330],[889,580],[203,350],[112,961],[-205,1231],[-567,1076],[48,1383],[-89,749],[126,442],[-243,1058],[-368,592],[-1245,925],[116,567],[-281,564],[-1048,972],[-11339,5459],[1893,813],[1334,428],[1921,1291],[683,175],[1279,798],[1551,1392],[1151,793],[766,368],[3273,1186],[990,568],[647,102],[1064,469],[1477,503],[1073,478],[387,282],[858,115],[1326,619],[1401,265],[646,223],[435,-67],[1214,176],[1713,-25],[542,243],[1892,378],[398,238],[998,118],[526,484],[703,122],[1030,-47],[470,484],[832,74],[739,351],[558,459],[827,303],[480,753],[1220,568],[0,438],[396,209],[310,652],[1013,722],[232,293],[-109,314],[532,612],[-145,366],[196,406],[445,153],[97,704],[300,234],[335,909],[-264,253],[300,170],[-363,253],[128,748],[357,242],[-218,365],[-430,76],[-162,418],[114,302],[554,105],[411,-534],[460,258],[446,-233],[715,-4],[897,-498],[980,-204],[740,559],[358,-132],[1254,13],[601,-101],[700,-534],[274,273],[1275,-104],[446,-330],[1704,81],[265,419],[673,3],[819,-289],[896,177],[705,534],[368,77],[933,908],[783,479],[560,72],[669,330],[493,510],[1540,1073],[592,651],[1453,747],[1084,369],[570,32],[1328,-82],[767,-150],[1808,-593],[419,-351],[2289,-1210],[954,-45],[228,132],[-1511,4797]],[[707085,352265],[785,-1308],[1660,-1304],[2000,627],[1476,-1072],[1040,-257],[842,-728],[1459,513],[2005,-487],[1095,-1015],[3029,-806],[4741,937],[1515,858],[1824,-1170],[238,-754],[-218,-1324],[-329,-549],[405,-871],[1548,-1627],[-322,-753],[-1182,-779],[98,-312],[2153,-996],[2528,-754],[859,-148],[660,572],[98,-364],[-295,-1170],[239,-884],[926,-1066],[7,-683],[-891,-929],[-1585,-547],[-2272,-390],[-1684,-1196],[-656,-1282],[446,-824],[-112,-936],[-407,-650],[-1823,-1014],[-1520,-937],[-2220,-810],[-1801,-1061],[-1052,52],[-1459,-26],[-1333,-744],[-1085,-1337],[-226,-1696],[-1545,-925],[-1426,-1498],[333,-1564],[879,-1124],[1191,151],[5328,1470],[2550,362],[1174,-216],[596,-106],[644,85],[831,-971],[1894,-338],[196,-858],[-350,-832],[-1347,-598],[56,-676],[1010,-889],[1711,-723],[1263,-1144],[-367,-1119],[507,-1169],[-56,-599],[533,-1378],[715,-494],[870,52],[842,728],[1641,884],[1120,-205],[801,-549],[659,364],[1472,1269],[2302,1124],[1683,-390],[2777,312],[1916,-260],[917,416],[2090,78],[281,728],[-120,1114],[414,2240],[-199,871],[1143,-115],[940,576],[1441,254],[841,650],[505,-1820],[533,-208],[2960,832],[1574,-439],[2087,517],[474,678],[-544,1038],[378,364],[1143,581],[1017,2487],[2806,-546],[1515,728],[757,-572],[715,-338],[758,-780],[1978,-832],[-58,-756],[-686,-1272],[533,-676],[1108,-234],[645,520],[1138,516],[1177,-594],[505,104],[1032,-417],[1058,1],[967,935],[1192,316],[1137,179],[1725,-1196],[926,845],[1543,-845],[1851,260],[2855,832],[1628,47],[1002,-671],[922,329],[677,841],[1122,494],[1024,1664],[3072,1950],[533,806],[2314,1665],[1810,494],[897,598],[197,-806],[757,-599],[2244,209],[688,494],[2580,-520],[2147,494],[546,1898],[1670,390],[1935,1794],[2475,1114],[1522,18],[1088,534],[400,336],[-14,1066],[1710,143],[2091,2041],[1164,183],[856,1247],[1662,-258],[4678,-2706],[3829,-156],[2573,3483],[3180,-564],[1068,-1298],[1888,-1085],[1279,-1067],[-148,-1428],[2374,185],[1300,359],[1504,-543],[3568,-1712],[2663,-1546],[1926,-975],[1322,-1144],[5159,-1333],[1211,-219],[367,3265],[776,469],[2692,-318],[1442,-1481],[1309,-767],[3337,-437],[2082,-934],[1147,-800],[1674,-730],[1270,-767],[1201,-1880],[2422,396],[620,-359],[1546,-237],[3712,-2612],[2366,2287],[3265,1474],[738,37],[797,-383],[1172,-164],[463,-457],[1791,-1277],[374,-365],[404,-1493],[414,-624],[242,-1082],[494,-434],[1961,-200],[1718,2832],[1766,1272],[1133,-125],[257,745],[994,168],[1794,1196],[1829,354],[2019,276],[284,1074],[433,38],[719,-329],[2447,269],[339,133],[433,748],[-98,1022],[1024,712],[139,1116],[-425,1420],[69,803],[1191,1077],[709,73],[589,-655],[927,89],[1398,288],[532,497],[1484,583],[495,494],[541,-803],[747,-2],[775,-507],[1127,801],[2215,766],[295,365],[354,-547],[1615,-840],[2245,-657],[1663,1625],[774,-306],[463,345],[936,343],[1081,-352],[1738,-906],[2254,80],[500,-626],[477,-77],[261,-914],[377,-161],[1413,433],[1018,2451],[296,383],[1239,-63],[610,-415],[1065,-252],[689,-365],[1034,-839],[964,-110],[876,479],[1933,146],[440,470],[355,858],[1575,-128],[1683,-931],[748,0],[1379,-638],[527,83],[821,-595],[1530,-204],[1237,113],[1457,2008],[1782,503],[1319,-229],[1152,-1315],[1334,-472],[925,-751],[2719,-371],[732,-1417],[-128,-438],[1438,-17],[754,160],[473,-232],[1716,-2429],[1034,-511],[1308,-72],[-1751,-896],[-265,-356],[28,-720],[-167,-639],[-826,-967],[29,-1041],[-1241,-1113],[-610,-787],[-906,-509],[285,-1350],[-138,-616],[-4518,-1428],[-853,-1323],[-634,-283],[-2135,96],[-1163,305],[-994,-54],[-495,-303],[-736,-957],[-2424,-766],[-1681,182],[-1249,-1355],[-893,-740],[-683,-150],[-473,-693],[111,-1019],[-515,-1810],[-807,-1770],[-856,-109],[-640,583],[-1300,731],[-1772,511],[-1944,-343],[-242,-235],[404,-591],[1163,-2454],[-858,-1031],[-216,-894],[354,-347],[618,-73],[1381,-1220],[620,15],[1821,-675],[1100,-689],[1233,-1903],[1192,-474],[1427,-146],[1753,-693],[1284,353],[1019,-1023],[-254,-528],[-796,-469],[-1036,-379],[-748,-62],[-872,-291],[-843,-669],[-381,-570],[-802,-762],[-577,-935],[-503,-357],[-1462,-780],[-1972,-454],[-733,-296],[-206,-293],[-1183,-440],[-502,122],[-1049,-304],[-379,178],[-471,-204],[-1177,-31],[-1616,253],[-199,173],[-1551,-102],[-1238,384],[-1074,-59],[-1168,-264],[66,-209],[-608,61],[-937,-112],[-588,339],[-962,-305],[-481,194],[-676,-418],[633,-543],[-195,-1034],[-783,-321],[-257,-374],[-895,-325],[-144,-249],[-701,-172],[-1181,113],[-553,-353],[-353,342],[-655,-318],[-1171,-357],[-419,113],[-266,-242],[-977,-249],[61,-378],[-670,41],[-368,-411],[-506,0],[-251,-345],[-1780,-286],[-848,-462],[-599,-65],[-61,-426],[-864,-101],[-204,-414],[-373,-185],[-608,24],[-1836,-311],[-700,145],[-593,-73],[-848,-527],[-1339,-223],[-450,213],[-588,-57],[-591,-909],[-818,-298],[-777,292],[-704,-591],[-348,100],[-945,-428],[-1354,-1],[-1062,-537],[-790,-584],[333,-410],[-1292,-533],[-142,-386],[-465,333],[-537,-105],[-454,-206],[-533,-1087],[-597,-118],[-509,-672],[-935,-22],[-274,-403],[-1383,-546],[-240,149],[-662,-492],[-664,-162],[-264,-294],[-1270,-522],[143,-1231],[-780,-255],[-506,84],[63,-378],[-591,-295],[-96,-375],[183,-960],[552,-260],[-74,-765],[-223,-262],[196,-647],[358,-140],[-331,-222],[-191,-575],[205,-418],[434,174],[-727,-790],[180,-289],[-544,-500],[-227,-608],[85,-764],[-420,257],[-382,-78],[-534,-254],[-553,-782],[-406,-299],[113,-281],[-722,-364],[-373,19],[-24,-1351],[-223,-294],[296,-217],[-154,-720],[-443,-114],[44,-768],[-754,-1112],[-484,-106],[-668,147],[-141,-346],[-579,-247],[-206,-673],[-635,-299],[-420,-516],[-91,-487],[-632,-663],[-669,-84],[-807,-623],[-11,-665],[-649,-120],[-278,-254],[-646,-68],[-366,222],[-579,-53],[-166,-222],[30,-736],[-208,-169],[-1030,-213],[-1304,-97],[-847,-397],[-378,-479],[489,-418],[-479,-283],[-279,184],[-644,-33],[-769,-309],[-916,-165],[-1060,-1754],[-368,-286],[-456,-740],[-170,-765],[0,-910],[-181,-555],[206,-303],[-351,-392],[3,-403],[-460,-371],[-774,23],[-1607,-285],[-437,-337],[393,-572],[-174,-415],[-412,-285],[-779,373],[-429,-180],[15,-613],[-185,-170],[-684,56],[-396,-426],[5,-368],[929,-465],[-273,-640],[-642,2],[-452,-669],[-761,-661],[7,-315],[529,-996],[-339,-620],[330,-973],[-146,-293],[-894,-656],[-490,-91],[-344,220],[-1862,-120],[-613,-333],[-32,-226],[510,-435],[-294,-604],[-955,-112],[-1149,-475],[-2074,95],[-807,216],[-625,-612],[-853,-291],[-882,43],[-2261,-1616],[-1830,-403],[-303,-850],[-592,-385],[-38,-349],[-871,-1709],[-618,-473],[-482,-1404],[-1041,-76],[-873,-273],[-374,28],[-901,-395],[-1077,-898],[-1019,-585],[-803,49],[-444,-312],[-293,-640],[-366,-287],[-684,1],[-329,298],[-1098,371],[-1077,607],[-1062,-41],[-2224,-631],[-586,152],[-1690,-503],[-413,-391],[-214,-870],[-254,-273],[-616,-1524],[189,-758],[600,-401],[4,-438],[-615,-981],[-1009,-470],[-444,-524],[-589,-387],[-1164,118],[-579,-667],[-564,-300],[-1151,-128],[-1083,-584],[-472,-758],[-559,-213],[-733,-664],[-146,-329],[-803,-784],[-446,-128],[-545,136],[-1572,-170],[-1179,-284],[-1317,-422],[-1848,-496],[-773,-50],[-606,668],[-807,-247],[-1004,-816],[-533,-91],[-1557,178],[-433,-392],[-62,-453],[-321,-325],[-975,-150],[-1045,323],[-915,-522],[42,-382],[391,-486],[-141,-415],[-619,-463],[-784,287],[-819,-294],[-635,-44],[-433,-394],[-151,-846],[-556,-337],[-457,151],[-288,515],[-566,171],[-622,435],[-818,-85],[-1302,-652],[-1871,10],[-586,-371],[-1270,-408],[-1136,-953],[-1063,-1358],[-455,-1022],[-429,-288],[-851,-995],[-488,-111],[-373,26],[-617,575],[-470,72],[-830,-130],[-405,359],[84,488],[-596,557],[-1024,-25],[132,-877],[-385,-262],[-238,-2],[-1585,1236],[-1319,30],[-2171,854],[-833,71],[-631,837],[-395,44],[-733,-212],[-1586,-665],[-986,144],[-797,491],[-848,281],[-1225,219],[-1044,372],[-1231,62],[-866,421],[-134,580],[-318,357],[-654,207],[-901,36],[-753,-124],[-1136,934],[-498,886],[-380,156],[-717,654],[-1410,-200],[-1287,259],[-1766,-95],[-1214,-295],[-450,-210],[-1048,-106],[-1274,-384],[-879,-440],[-859,-641],[-972,239],[-558,305],[-104,1138],[-853,646],[-592,-38],[-1220,191],[-1044,275],[-1569,49],[-936,-200],[-971,-308],[-722,-416],[-448,-455],[-1142,-615],[-165,-270],[-799,-264],[-336,-608],[187,-997],[-896,-83],[-274,156],[-393,820],[-981,893],[-317,808],[-643,895],[-1414,1091],[-651,420],[-956,276],[-663,-2],[-447,-244],[-1521,648],[-1457,297],[-1291,-61],[-359,130],[-776,911],[-657,447],[-1852,515],[-1204,240],[-216,596],[-279,85],[-1495,-259],[-2709,158],[-896,271],[-876,-148],[-811,54],[-1169,319],[-654,-148],[-744,78],[-2011,10],[-740,129],[-597,-108],[-881,327],[-1667,-453],[-2727,-1120],[-849,-1161],[-96,-329],[-752,-1000],[-729,53],[-702,921],[-777,282],[-838,-611],[-1143,-678],[-1685,-604],[-651,-133],[-660,-1081],[-679,433],[-823,31],[-451,214],[-791,833],[254,838],[-822,581],[-1272,-140],[-867,-248],[-396,-294],[-304,-526],[-884,-167],[-959,14],[-1058,-470],[-345,-622],[-205,-786],[-271,-204],[-1565,371],[-719,-124],[-411,-831],[-115,-1179],[-302,-620],[-357,-250],[-973,271],[-563,292],[-738,-24],[-646,-346],[-389,702],[-845,31],[-733,-262],[93,-692],[-841,369],[-897,195],[-570,-351],[-316,-1014],[-597,163],[-697,-427],[-181,-327],[-46068,-16812],[-1138,-1270],[-329,-19],[-762,-708],[-71,-337],[-752,-459],[-388,40],[-949,-812],[-136,-1102],[-590,-467],[-192,-507],[-438,-458]],[[642524,170744],[55,1122],[-111,603],[-283,443],[-515,442],[-570,-238],[-908,149],[-40,290],[-1065,550],[-455,97],[-444,349],[-439,-125],[-439,527],[-356,-96]],[[636954,174857],[905,395],[2392,1045],[8944,3908],[2407,1050],[3257,1421],[12,510],[120,5066],[-271,505],[-440,44659],[-47825,-225],[7,231],[112,5910],[-179,2039],[-312,669],[36,1661],[-4767,8],[-58391,-49],[-71,8423],[-422,-105],[-354,543],[-1016,-439],[510,-23],[649,-578],[-140,-760],[-346,-226],[-504,-86],[-946,879],[-1263,318],[-341,431],[479,713],[-62,297],[-486,235],[-217,-184],[74,-672],[-542,-345],[-483,-735],[-503,-26],[-370,391],[56,685],[-740,352],[-277,-344],[196,-725],[-172,-254],[-1622,-907]],[[534048,250518],[-158,221],[-966,533],[106,310],[957,212],[-242,582],[-725,106],[-278,-543],[-672,-43],[-344,-524],[-372,48],[22,366],[-283,536],[-477,-395],[-370,1704],[230,443],[-137,246],[533,843],[71,949],[325,1640],[438,583],[-494,47],[-1174,-47],[-722,-482],[-4183,405],[-1137,45],[-845,-294],[-691,-23],[-498,326],[-1862,-420],[-2414,-888],[-1491,-691],[-1377,-491],[-1136,-321],[-716,-320],[-1915,-738],[-1209,-560],[-2444,265],[-564,-66],[-1449,-495],[-1516,314],[-2341,681],[-1154,685],[-1716,520],[-710,605],[-1937,-23],[-931,605],[-929,14],[-302,502],[-1510,347],[-1439,116],[-1766,548],[-515,271],[-969,249],[-998,403],[-1086,239],[-772,820],[542,-641],[-366,-153],[532,-213],[-211,-553],[-414,-138],[-280,682],[55,-689],[-739,-386],[1119,316],[52,-411],[-531,-343],[223,-281],[-923,-369],[-378,161],[-60,-545],[463,-152],[-321,-240],[-577,257],[198,-1013],[534,-19],[-190,-218],[-722,-185],[3,-343],[-697,213],[-671,-507],[-130,189],[342,501],[-521,645],[432,210],[-75,344],[-644,135],[-350,-278],[407,-559],[-313,-149],[-212,329],[-706,-43],[-60,762],[-302,671],[-435,6],[322,-617],[-626,-307],[653,-340],[-234,-116],[-750,225],[-373,-140],[-605,433],[311,364],[-605,-284],[-118,-416],[-393,56],[-356,-439],[868,-348],[341,113],[969,-112],[481,-578],[930,-614],[642,-68],[11,-265],[-592,47],[-454,289],[-392,-105],[51,-245],[704,-309],[241,-446],[-209,-266],[-968,-154],[-383,317],[289,475],[-444,269],[-1314,-758],[327,-357],[567,-128],[-549,-641],[-689,152],[80,841],[-603,438],[-459,71],[-805,-266],[-724,79],[-754,-359],[14,498],[539,392],[-384,534],[-699,91],[-336,-117],[-106,-431],[-521,450],[-520,-114],[-131,-467],[-483,-399],[-162,-463],[-319,-49],[2,-116],[-754,240],[476,841],[-190,454],[-611,-77],[-171,-777],[390,-816],[-294,-511],[-649,34],[-175,207],[-1369,152],[-727,646],[-817,272],[-871,-224],[-635,-516],[-597,107],[-472,630],[-724,75],[-554,-480],[-135,-568],[-641,-323],[-999,-120],[-88,301],[278,601],[860,453],[-399,244],[237,1613],[249,339],[-282,244],[-49,656],[163,177],[-141,635],[385,541],[60,483],[-322,219],[-2259,2499],[-4425,-3283],[-518,-563],[-718,-398],[5,-2271],[-1274,-93],[1,-912],[-3823,0],[10,-4020],[212,0]],[[447793,249487],[-805,-366],[-893,-524],[-249,326],[-652,150],[-600,408],[-278,463],[-94,780],[299,1021],[-152,459],[-470,650],[205,286],[-1510,-70],[-712,753],[-1215,600],[-699,-27],[-736,1914],[-227,214],[619,-13],[1454,348],[1902,1121],[1260,479],[-1194,368],[-542,-27],[-1641,-797],[-5122,-415],[-6,87],[-2917,-157],[-146,9],[-1417,0],[19,-1358]],[[421854,257526],[252,3910],[-742,1212],[26,490],[500,443],[843,317],[892,788],[55,870],[-1235,14],[-6,1971],[-1280,-7],[-1287,55],[-2,1859],[-161,156],[-159,141],[531,481],[134,671],[-1090,-217],[-1415,-591],[-1218,-198],[-1120,317],[-942,-51],[-447,134],[-502,1616],[-771,3690],[976,-11],[508,523],[354,-101],[355,584],[516,225],[-245,238],[741,157],[553,-161],[337,704],[1018,197],[338,370],[30,535],[983,451],[4926,631],[1664,220],[2572,319],[3380,783],[-687,2618],[1411,2600],[-972,3399],[12,2448],[-397,685],[-98,168],[-1040,238],[-165,261],[-1976,642],[-1292,-145],[-1468,-454],[-1834,29],[-959,178],[-2042,-115],[-896,-412],[-5155,-389],[-637,103],[-2441,-725],[-1428,198],[-1057,-153],[-487,-438],[-702,-375],[-1447,30],[-740,-73],[-690,-283],[-36,-199],[-1022,-947],[-25,-991],[-1256,106],[-954,195],[-445,-302],[-798,92],[-1183,-581],[-247,89],[-759,163],[-318,185],[138,1306],[-808,-81],[-416,109],[1525,607],[80,270],[426,1750],[-53,1517],[-896,867],[-767,312],[-924,-12],[-3758,-195],[875,541],[966,802],[362,596],[794,581],[1353,333],[990,82],[317,153],[1605,409],[558,544],[-78,366],[942,874],[-171,338],[418,1404],[445,628],[-89,402],[743,677],[-263,543],[436,362],[34,821],[-566,221],[-896,1257],[-401,172],[-806,-154],[-308,-205],[-612,465],[-1275,400],[-465,941],[-494,167],[-797,1020],[-269,85],[-191,557],[335,91],[-108,340],[-213,24],[-481,-529],[-537,27],[626,-501],[-442,-13],[-446,488],[-336,-503],[-549,62],[-364,-319],[-270,399],[687,323],[927,640],[-608,265],[-1002,-301],[-218,-230],[134,-457],[-466,72],[-495,341],[-102,-762],[-440,-137],[32,-334],[-533,-285],[-725,447],[-218,-300],[-470,30],[99,-472],[-509,-76],[-595,-566],[-294,154],[104,386],[-1138,-66],[-222,-1210],[-1007,93],[-264,-231],[-564,176],[135,-514],[-579,16],[-232,549],[511,106],[-68,410],[-564,273],[-52,367],[-826,-45],[-219,-195],[27,-245],[541,-256],[-170,-439],[366,-381],[-881,-676],[231,-382],[-355,-109],[-341,293],[-412,10],[-480,536],[352,232],[-326,661],[513,59],[58,420],[-849,25],[-441,-303],[-937,-82],[-1591,242],[169,475],[-828,42],[-9,437],[-493,46],[814,641],[-204,120],[-930,-415],[-1407,-35],[-100,-579],[-486,-269],[-569,483],[-418,-286],[-297,294],[973,485],[-161,226],[-1220,-436],[-417,-373],[-545,395],[33,-472],[341,-275],[-150,-283],[-447,-5],[-677,306],[281,-592],[-525,-549],[-606,149],[-821,-255],[-858,-642],[275,-276],[1004,66],[93,-209],[-737,-10],[-375,-197],[-676,270],[-174,-229],[434,-414],[-694,43],[-443,-181],[53,648],[-757,-133],[150,-680],[497,-256],[-508,-252],[-340,223],[-472,1113],[-378,-75],[-594,-1425],[588,-307],[-263,-231],[-357,-5],[-1636,1202],[-432,-619],[-422,-128],[-235,504],[-633,359],[-724,-570],[-540,167],[282,372],[-1027,-33],[-484,-321],[-585,184],[8,-517],[-344,-415],[-487,-165],[-170,-405],[527,-441],[83,-792],[-242,-161],[-697,681],[-46,550],[-1048,-67],[-271,118],[208,633],[-717,112],[-684,-360],[-51,262],[457,497],[-757,-99],[-418,-251],[-606,96],[-875,-748],[-586,236],[213,389],[1368,720],[-299,380],[-783,6],[-964,178],[-669,-45],[-617,-359],[-1186,70],[-212,-476],[366,-327],[593,412],[294,-154],[-103,-351],[-930,-312],[-103,-386],[-597,-219],[-564,219],[-95,-684],[257,-434],[-172,-300],[-650,113],[-398,746],[395,269],[-161,207],[-1224,-176],[-832,215],[-468,-60],[-480,-445],[-650,95],[-567,341],[-422,-94],[-54,-491],[788,-268],[95,-190],[-542,-639],[-1182,-71],[-433,-514],[-469,-25],[-678,339],[-543,-586],[-519,219],[280,372],[-140,243],[-756,-117],[-319,-635],[-395,-252],[-668,-63],[25,736],[-381,81],[-762,-765],[-1208,86],[-278,380],[367,496],[-83,593],[-638,497],[-678,269],[-489,-60],[-1547,-603],[-603,-10],[-963,-734],[-502,412],[-32,367],[-930,526],[-1276,101],[-500,-498],[40,-647],[-940,-733],[-1017,-21],[-1477,-215],[-140,225],[508,184],[-112,803],[-273,205],[-1986,-69],[-434,342],[-15,543],[-275,240],[-667,-117],[-413,-392],[-922,211],[-297,257],[-815,-399],[10,-367],[-1421,-271],[-17,578],[-1173,-371],[-335,11],[-772,-329],[-679,-450],[-163,-528],[-1292,-111],[-600,654],[-686,-187],[-274,-548],[-516,78],[-795,441],[-143,312],[-495,113],[-476,-499],[-356,-41],[-712,651],[-652,-589],[-560,59],[-366,274],[-400,-60],[-218,-180],[213,-381],[-354,-94],[-632,198],[-535,-745],[-827,-698],[-342,-496],[109,-628],[-229,-171],[-1010,-185],[-726,-329],[-1011,208],[-1157,-128],[-1229,-636],[-941,87],[-787,-1188],[-747,-1782],[-692,-679],[-925,-368],[-757,-50],[-341,220],[-309,572],[-311,-24],[-475,-482],[-437,-971],[-48,-1261],[193,-451],[167,-1029],[241,-556],[187,-958],[285,-537],[-9,-403],[-1037,-1018],[-738,90],[-433,954],[112,1350],[-498,252],[-2405,564],[-1363,94],[-144,-370],[397,-534],[-391,-306],[-469,12],[-117,290],[207,554],[-182,264],[-846,-85]],[[282204,290530],[-1,24246],[449,290],[365,-105],[433,812],[428,426],[571,39],[-112,479],[176,663],[365,28],[739,-448],[94,463],[308,-153],[722,916],[462,-616],[432,-1],[-120,-495],[504,120],[88,294],[590,-524],[284,406],[339,-258],[442,39],[137,-748],[303,-218],[304,233],[133,-318],[423,446],[590,-371],[618,292],[734,-255],[212,342],[-65,454],[394,-403],[979,348],[-386,134],[502,695],[-81,394],[744,-275],[-459,-349],[200,-238],[550,-29],[-9,314],[560,-122],[349,-391],[436,-66],[351,321],[-60,286],[673,-118],[95,671],[549,-355],[286,-524],[370,88],[1286,-96],[1008,30],[592,280],[-310,688],[453,116],[9,-282],[767,231],[156,233],[3,-446],[-413,-168],[569,-464],[105,410],[530,151],[179,-254],[541,179],[478,-102],[137,-422],[632,-115],[277,301],[374,-695],[643,-143],[-547,-84],[30,-299],[2154,-70],[509,198],[-59,362],[395,198],[614,-364],[-110,494],[1189,-202],[620,308],[216,-191],[-141,-501],[355,178],[7,555],[802,732],[534,977],[649,-212],[-127,-624],[1038,357],[412,-200],[1183,131],[-618,160],[282,262],[330,-201],[575,122],[-114,398],[705,-83],[19,282],[-690,172],[221,298],[-402,115],[333,283],[-659,191],[61,233],[392,-200],[950,413],[470,-587],[427,86],[-146,482],[689,154],[-47,266],[510,-19],[83,-386],[675,-156],[914,621],[-825,284],[674,267],[75,579],[552,-333],[478,222],[9,467],[779,-746],[371,-141],[-68,434],[458,50],[786,520],[-547,550],[818,-19],[3,748],[412,-44],[46,387],[463,57],[-92,-286],[1512,392],[-840,385],[437,459],[438,-249],[349,745],[515,-221],[-360,-374],[623,113],[334,387],[60,664],[309,129],[719,982],[510,81],[-339,-745],[165,-164],[561,342],[-78,326],[438,-233],[396,435],[212,-112],[-185,-487],[329,237],[279,-313],[-453,-310],[530,-80],[634,145],[40,559],[376,41],[-82,-535],[274,-241],[525,12],[226,282],[953,-567],[464,-112],[736,709],[762,-382],[25,402],[804,-120],[87,201],[556,-64],[489,419],[1190,487],[705,108],[2004,-405],[463,-531],[-93,-443],[366,-141],[5,491],[325,362],[649,177],[581,-197],[747,346],[927,-9],[1051,28],[489,-169],[278,-543],[391,104],[438,418],[881,161],[-5,-427],[1164,374],[916,-89],[942,-315],[417,-294],[-619,-514],[546,-121],[-25,233],[767,209],[-11,-535],[372,406],[524,-295],[0,-426],[488,-322],[1292,-424],[710,140],[1,358],[551,-97],[505,184],[504,-386],[504,75],[-334,298],[705,-113],[608,172],[291,860],[783,293],[649,-66],[583,390],[406,-319],[299,342],[618,-215],[-272,463],[1014,-58],[202,370],[391,-371],[423,430],[221,-210],[341,241],[431,-335],[428,112],[9,-394],[447,-307],[326,337],[142,-639],[222,325],[447,-383],[270,-729],[290,358],[796,-440],[723,452],[140,330],[-318,407],[309,-25],[106,732],[1119,275],[79,454],[669,-58],[236,-322],[336,361],[943,78],[-181,-241],[647,-380],[-469,-55],[-130,-394],[219,-467],[433,172],[983,-228],[542,244],[205,-133],[743,303],[-8,-535],[438,-150],[968,26],[402,55],[362,357],[475,42],[461,327],[967,349],[-1,241],[997,305],[60,443],[360,101],[867,-327],[64,623],[378,-441],[572,10],[616,327],[-42,402],[545,203],[930,473],[-187,406],[1076,244],[-279,176],[840,-54],[894,609],[470,-381],[542,-99],[462,275],[1077,231],[1,-462],[397,-4],[45,487],[514,279],[372,-297],[1178,710],[242,-188],[948,130],[30,515],[535,-11],[285,-241],[-70,748],[160,137],[-1380,1168],[-3,901],[-207,354],[545,495],[-968,1153],[-74,474],[-325,285],[-194,893],[-495,625],[-685,-154],[-1329,-1335],[-532,-190],[-647,593],[-235,1056],[-342,392],[-914,629],[-795,958],[-216,580],[-347,331],[-1237,376],[-506,540],[-653,1036],[-369,151],[-782,-128],[-494,87],[-232,335],[495,946],[273,752],[-285,300],[-1468,-312],[-1019,255],[-392,-198],[-143,-494],[-919,-495],[-1083,-188],[-1293,101],[-1067,-224],[-621,40],[-737,401],[-548,501],[-1021,87],[-354,-235],[-435,-591],[-750,-600],[-2237,-370],[-584,93],[-246,340],[-468,2041],[-1339,1877],[-65,285],[1034,852],[-27,358],[-1095,382],[-1463,751],[-1008,327],[-311,346],[30,274],[841,1037],[-20,236],[2651,-1],[16243,1],[63278,1],[1651,897],[1651,1087],[764,815],[1063,748],[1034,456],[2224,2374],[1439,760],[1615,725],[1724,698],[1669,-118],[554,93],[446,326],[4318,1743],[1596,107],[1878,623],[1983,1301],[844,407],[1665,1203],[3068,588],[1723,2199],[1344,657],[1953,510],[3800,257],[983,673],[881,332],[2114,-682],[1960,282],[466,-221],[1731,7],[888,244],[1968,-285],[419,-232],[1185,565],[1269,345],[211,286],[771,194],[832,-36],[4579,1621],[547,229],[2442,-915],[702,-878],[830,-2032],[1051,-522],[2921,1452],[966,788],[1006,422],[4919,124],[1683,-450],[669,1365],[1032,679],[78,487],[1358,-1154],[1390,-615],[675,-1446],[1461,62],[2881,963],[2715,-1351],[964,-1084],[512,-274],[620,128],[610,-639],[2048,-493],[1363,538],[1725,226],[617,391],[263,415],[39,492],[-126,1038],[139,973],[1012,390],[1013,-28],[876,219],[1467,675],[725,179],[1933,94],[1438,-309],[1168,112],[1232,648],[1528,1679],[708,-122],[896,-419],[2549,-15],[159,946],[1257,2322],[393,45],[551,-359],[1254,54],[1102,-317],[554,302],[631,677],[1297,652],[824,21],[809,-406],[869,-1146],[571,-229],[734,846],[167,526],[-233,971],[-620,270],[-66,210],[617,1072],[333,254],[459,-269],[1344,33],[896,128],[601,365],[1073,183],[979,1232],[881,775],[941,360],[983,496],[1197,227],[384,-189],[2410,609],[573,194],[1691,1763],[765,700],[858,225],[1284,-71],[2939,-991],[536,181],[842,527],[1232,88],[755,474],[1894,312],[440,368],[569,969],[1306,1841],[691,671],[571,1356],[182,1439],[1028,697],[1306,463],[1510,1380],[1171,1351],[368,836],[52,782],[-98,227],[-1686,613],[-693,346],[-613,938],[-166,3161],[193,1481],[-2531,148],[-321,463],[-238,2105],[1654,1706],[1356,1200],[731,-585],[1001,0],[973,-1321],[2090,679],[1728,1602],[1709,-269],[1518,346],[1838,-1037],[133,-889],[1063,-2019],[523,-451],[3423,-147],[863,242],[825,1030],[1082,607],[1092,-249],[1062,1938],[1644,135],[1424,-147],[5126,-968],[1138,1876],[2304,1548],[701,266],[798,-130],[2137,518],[579,-120],[510,-296],[1863,-197],[721,466],[1535,408],[655,260],[1076,801],[581,602],[100,512],[933,528],[1025,147],[1660,-345],[2314,-856],[457,-823],[87,-1846],[719,-1277],[-40,-566],[-581,-1131],[138,-676],[1044,-474],[2576,-746],[3006,-1426],[590,-451],[426,-950],[128,-923],[-107,-544],[-413,-310],[-53,-454],[1431,54],[2317,-231],[2798,395],[2206,-108],[1177,-731],[989,439],[989,946],[724,295],[1209,-248],[2315,49],[2008,746],[1717,-364],[297,-461],[328,-1254],[1144,-865],[294,-1407],[-746,-1629],[-1259,-1054],[-1032,-1465],[-1326,-1134],[-565,-594],[213,-1208],[-346,-619],[91,-903],[-227,-1059],[-424,-360],[-935,-434],[-796,-10],[-1675,932],[-2774,-883],[-1205,-1169],[-992,-1215],[-1737,-1420],[-1276,-1262],[-1599,-1082],[-2190,-2663],[-4096,-2757],[674,-2470],[761,-193]],[[534048,250518],[-469,-159],[-513,277],[-593,-49],[659,-564],[-687,-612],[399,-595],[-288,-104],[-709,122],[-576,-413],[-1423,195],[-1127,-325],[-1086,153],[-118,-758],[-1122,138],[88,939],[-665,34],[200,-594],[-450,-168],[-365,-144],[-751,-228],[-565,937],[-505,422],[-668,7],[-793,-505],[-747,86],[-205,-831],[-1298,-1124],[240,-726],[-1012,-452],[-1376,-403],[-913,-520],[-565,550],[-344,-494],[-1,-497],[-262,-560],[-1144,-17],[33,-679],[1163,690],[217,-3582],[-14,-14098],[4850,-56],[0,-2433],[-3566,-34],[27,-3571],[3,-500],[-1188,91],[-43,-1109],[-1371,33],[9,-920],[-294,-3],[-1035,-8],[62,-2687],[30,-1257],[4,-178],[-764,-12],[-1781,2],[1999,-4149],[-342,-112],[2885,-5866],[1065,-1695],[3606,-7402],[416,-834],[1153,-1878],[320,-670],[438,-3312],[163,-2141]],[[522339,185166],[-4094,13],[1,1981],[-1267,11],[-15,2041],[1,3989],[-1247,-25],[-6604,45],[265,-736],[765,-543],[-18,-387],[-588,-559],[115,-1405],[261,-1524],[-233,-227],[-177,16],[-1749,111],[-980,560],[-459,475],[71,89],[-813,536],[-799,181],[-899,946],[-566,182],[-703,-193],[-263,197],[-823,910],[-106,442],[213,580],[-50,567],[-531,382],[-632,85],[-273,237],[-40,584],[-875,720],[-1022,222],[-238,374],[-708,507],[-860,1038],[593,1323],[-182,845],[-921,981],[-350,958],[-622,1343],[-725,1135],[-61,394],[-638,547],[-1231,675],[-25,264],[-1764,626],[-330,1639],[154,214],[-248,508],[-796,196],[924,459]],[[490177,209695],[-1607,385],[-573,346],[227,607],[-52,1360],[167,350],[-453,836],[294,54],[-81,546],[-69,527],[31,1276],[582,-32],[609,-735],[819,-247],[195,151],[-134,92],[329,567],[603,441],[-334,329],[-749,164],[-431,606],[-647,462],[-2127,123],[14,95],[1144,-28],[23,67],[-1071,-10],[-413,13],[-276,52],[-619,259],[-1492,35],[19,862],[-346,321],[-1378,1447],[-264,333],[-1721,0],[-1,-1006],[0,-1445],[-1248,28],[-600,823],[-697,325],[-581,1271],[-387,629],[-1564,797],[-1,371],[-145,-384],[-389,256],[-48,608],[-405,608],[-1000,225],[-927,-309],[-628,-757],[-934,635],[-840,255],[-820,125],[-1071,451],[386,1052],[-389,505],[-425,-73],[-147,274],[299,442],[-77,204],[-508,79],[-648,699],[-826,420],[-582,667],[-8,566],[-333,247],[-812,176],[372,433],[65,432],[-272,518],[-2344,824],[-580,26],[-607,-203],[-1584,-10],[-525,-180],[-693,147],[-390,-169],[-419,525],[-776,535],[-412,106],[-684,107],[-2101,-610],[-125,492],[-598,407],[-244,-55],[-588,396],[-840,-175],[-468,73],[-682,-235],[-956,55],[-238,229],[-1021,486],[-1017,86],[-1238,-177],[-5,1989],[-15,5280],[445,0],[715,-1],[111,1295],[-524,140],[24,65],[517,1497],[-21,1019],[376,23],[1131,-17],[722,43],[1588,-32],[9,2469],[4,336],[-47,264],[5,942],[-2317,-1]],[[522339,185166],[3582,-16],[14963,67],[22,-975],[7102,-3095],[18820,-8273],[64976,-567],[5150,2550]],[[642524,170744],[-244,-50],[-2,-1205],[206,-854],[-784,-997],[-2227,-1367],[-1207,345],[-1643,-494],[-117,-915],[-680,415],[-298,360],[-23,933],[-878,500],[-1992,-683],[-95,-753],[251,-728],[-1240,-504],[-525,-1084],[-1653,180],[-626,-117],[-343,-1247],[-483,-203],[-302,246],[134,841],[-686,474],[-615,-194],[-487,-552],[370,-804],[-210,-596],[-634,-254],[-912,-126],[-444,164],[-349,526],[-463,104],[-609,-295],[-173,-1002],[-769,-600],[-584,-150],[-354,264],[140,407],[-546,562],[-329,551],[-805,-79],[-266,-342],[314,-587],[-75,-225],[-774,-287],[-947,-204],[21,-120],[-843,416],[-367,-53],[-808,509],[-881,-18],[-846,-1398],[-334,-697],[27,-394],[-465,-830],[-1005,-566],[-846,-14],[-459,397],[-169,510],[-909,557],[-513,10],[-1635,-459],[-849,-349],[-743,-751],[152,-861],[-11,-1195],[-269,-530],[-393,-192],[-553,300],[-43,326],[355,590],[-165,383],[-839,240],[-852,-239],[-1798,-172],[-1773,-507],[-596,-501],[-1185,-484],[-459,-437],[-193,-507],[-636,-513],[-679,-11],[-704,332],[-542,456],[-669,1],[-720,-256],[-1499,309],[-718,351],[-992,-131],[-640,-228],[-544,-454],[-953,-533],[-478,-128],[-192,-414],[-1052,66],[-1770,268],[-859,552],[-659,9],[-722,-260],[1397,-1185],[2588,-689],[1932,-46],[2298,-359],[1450,-322],[953,-138],[386,86],[2277,26],[386,85],[1120,-13],[1485,-783],[2524,-1694],[428,-127],[1214,-591],[288,-222],[1213,-591],[379,-104],[1168,-569],[378,-104],[1168,-569],[1695,-990],[1492,-656],[1164,-987],[842,-963],[1090,-855],[773,-783],[1487,-879],[1347,-370],[1817,-752],[1261,-417],[1989,-509],[2317,-843],[393,-55],[1789,-758],[389,-72],[1175,-456],[1269,-764],[1405,-680],[1311,-1193],[1746,-1244],[513,-555],[1441,-1112],[731,-1056],[1284,-338],[1086,-95],[423,-134],[1564,55],[553,-296],[209,-411],[241,-975],[309,-578],[716,-380],[1774,-1344],[1056,-693],[356,-145],[1055,-694],[355,-143],[1038,-683],[246,-251],[1824,-1200],[191,-278],[-552,18],[-1260,493],[-167,-110],[-140,-794],[-1497,-336],[-368,-444],[-909,-743],[-455,-595],[-106,-519],[689,-803],[2616,-2804],[-401,-736],[-761,-707],[-293,-1757],[128,-1059],[-452,-1076],[-120,-654],[122,-1192],[295,-806],[-232,-851],[-1367,-212],[-1093,-64],[-1062,-361],[-557,-95],[-982,-1264],[-2162,53],[-756,80],[-654,-315],[-1826,-516],[-295,-773],[-730,-516],[-365,-451],[-905,-645],[-834,-128],[-147,-1030],[-1017,-66],[-697,284],[-155,-800],[83,-800],[-349,-412],[-1011,-1559],[-1750,-103],[-2853,731],[-8597,815],[-2621,120],[-5481,-58],[-4804,-1137],[-4583,-1385],[-2487,-969],[-2853,-1410],[-1644,-505],[-3061,-685],[-2215,-130],[-1184,42],[-1951,-268],[-570,-393],[-3332,0],[-1101,0],[-20,424],[-324,217],[-1519,2315],[-409,1279],[-557,939],[-389,2312],[-339,502],[62,309],[-376,1155],[-284,351],[-489,310],[-2443,584],[-559,515],[-935,459],[-649,591],[-430,-173],[-1050,-56],[-1149,611],[-195,431],[-385,140],[-425,459],[-86,772],[-645,470],[-1450,117],[-2119,-810],[-229,-278],[-1045,-250],[-470,12],[-1590,477],[-475,253],[-415,-197],[-835,-122],[-1959,18],[-1573,1603],[-447,675],[-1665,239],[-706,257],[-447,872],[-1663,926],[-177,434],[-601,454],[-584,1109],[-461,201],[-1267,680],[-446,140],[-201,254],[42,840],[505,315],[98,487],[-308,780],[19,390],[359,504],[-142,558],[-493,848],[-107,450],[-1413,408],[-425,-154],[-652,216],[-974,565],[-359,1008],[-674,670],[-887,1289],[-193,861],[83,507],[-308,482],[-200,1154],[108,611],[-579,655],[-1021,721],[-182,442],[-377,140],[-978,1284],[-1075,468],[-929,110],[-1632,-520],[-1073,441],[-1341,487],[-935,659],[-804,851],[-801,344],[-414,592],[93,644],[-107,756],[-1463,664],[-684,701],[-163,842],[234,599],[-155,398],[8,736],[-694,899],[-601,484],[-174,467],[67,1730],[275,972],[267,1625],[223,333],[-64,511],[572,892],[385,2207],[861,348],[329,490],[73,502],[405,723],[964,814],[587,863],[-1,1022],[283,273],[-307,1115],[-200,133],[28,704],[-722,517],[-103,777],[183,353],[-246,250],[-203,697],[-402,174],[-217,-189],[-291,286],[175,941],[-1263,39],[-617,561],[-28,523],[-587,600],[-42,773],[445,626],[-870,1672],[-381,294],[-94,543],[-400,870],[670,1286],[-658,621],[-94,503],[-737,959],[189,643],[-276,628],[-547,533],[-456,825],[756,1249],[-292,359],[-3,591],[-623,621],[-579,323],[-1391,502],[-1024,30],[-538,237],[-438,654],[-796,420],[-396,781],[-807,238],[-623,1047],[-14,406],[-1269,1342],[-1004,468],[-528,620],[-607,-144],[-428,230],[-1068,1272],[-1007,1590],[-409,508],[-736,620],[-827,886],[-1005,250],[-974,1111],[-515,133],[-111,326],[-445,40],[-848,487],[-525,508],[-905,113],[-823,664],[-187,474],[-566,749],[-171,531],[-673,415],[-101,410],[-1117,1086],[-677,330],[-516,475],[-511,756],[-106,571],[-367,251],[734,3228],[-181,385],[-502,399],[-1387,1363],[-1006,876],[-3185,1884],[-92,285],[-613,414],[-254,1058],[-649,957],[181,1078],[-780,132],[-107,503],[-543,1053],[-330,117],[-949,1403],[-290,659],[-325,294],[2456,58],[3617,167]],[[401842,239382],[274,1183],[167,111],[-222,-22],[-591,-411],[-233,-186],[-242,-435],[-808,-1738],[-1130,-525],[-1319,-303],[-2403,988],[-165,366],[-219,265],[-305,-124],[-233,-38],[214,617],[-764,580],[-708,112],[-574,-62],[-607,180],[-1983,-484],[-1553,-1225],[-704,-486],[-165,-825],[-467,-307],[-858,-304],[-1914,-930],[-1119,-3],[-477,-311],[-817,-333],[40,-909],[-1256,-1239],[-431,-779],[4,-213],[598,-372],[201,-519],[-52,-346],[-1040,-451],[-398,-462],[-647,-227],[-490,-493],[-268,-856],[-474,-252],[-813,-135],[-730,-746],[-1166,-431],[-2306,-7],[-482,-690],[-1898,-1013],[-839,-124],[-473,-196],[-331,-365],[120,-483],[-148,-209],[-2208,-1303],[-345,-148],[-1336,35],[-2051,-158],[-3783,17],[77,-594],[-1558,-899],[-556,-443],[512,-1539],[802,-900],[322,-129],[31,-833],[587,-588],[150,-1387],[-43,-974],[-529,-824],[-716,-457],[-1293,-297],[-1182,-139],[-441,346],[-739,873],[-360,238],[-791,182],[-177,261],[-618,238],[-683,-2811],[-650,-1339],[-578,-442],[-1729,-406],[-720,-12],[-1850,-220],[-416,-777],[-785,-651],[415,-475],[755,-149],[694,-326],[385,-965],[61,-672],[-274,-832],[-542,-398],[-1955,-519],[-1581,157],[-1002,-387],[-775,-20],[-294,-543],[-946,-764],[-740,-101],[-242,-636],[76,-422],[-430,-363],[-1245,-414],[-50,-242],[542,-406],[693,202],[385,-286],[-30,-305],[-425,-427],[-739,12],[-1048,454],[-694,48],[-739,-182],[-668,313],[-780,-93],[-490,-347],[6,-349],[694,-551],[-268,-177],[-906,-101],[-248,164],[-295,668],[-1386,-368],[-156,-551],[-485,-483],[-920,-484],[-1057,-106],[-1174,135],[-1406,-279],[-765,212],[-1192,1264],[-1484,267],[-789,-82],[-815,103],[-750,268],[-680,542],[-219,357],[12,793],[337,781],[-260,441],[-1020,710],[-719,-33],[-2302,-500],[-1097,-426],[-3768,-1916],[-1549,-1051],[-1441,-165],[-674,119],[-101,218],[814,-128],[840,92],[581,250],[-1345,749],[-1649,244],[48,-600],[351,-652],[-513,512],[-301,616],[-541,263],[-703,111],[-643,-67],[-1359,-603],[-1502,-1034],[-2481,-1450],[-988,-400],[-835,-114],[-920,323],[-1447,104],[-1356,-251],[-1246,-347],[-72,-278],[-674,-505],[-977,-300],[-1174,10],[-905,-116],[-1305,-10],[-1681,-380],[-287,-271],[-2,10857],[529,503],[674,152],[731,516],[234,335],[2088,375],[1055,369],[431,-33],[781,312],[628,87],[879,594],[1495,114],[549,421],[190,804],[-95,608],[-427,1051],[7173,1280],[1148,534],[3070,1998],[846,318],[2840,1620],[577,643],[258,1055],[693,669],[1361,543],[960,314],[3225,1190],[458,344],[1122,1416],[197,348],[301,1054],[733,706],[540,179],[1143,163],[275,124],[198,141],[119,127],[868,1194],[578,410],[1425,591],[1777,662],[842,-19],[558,110],[2823,1459],[1588,623],[891,36],[1097,-82],[379,-219],[739,-719],[764,-154],[551,163],[2219,1595],[1495,400],[791,381],[1216,193],[437,330],[614,838],[1391,968],[1328,1362],[-52,62],[10,206],[99,161],[292,156],[183,70],[103,-28],[1206,588],[2128,187],[1028,352],[921,377],[143,94],[186,628],[428,509],[196,608],[-425,786],[-580,373],[-242,496],[182,1456],[588,737],[1403,724],[80,690],[-452,271],[-650,-548],[-691,-1012],[-610,-257],[-625,172],[-1313,566],[-2498,604],[-688,-55],[-444,-334],[-741,-1026],[-706,-419],[-35,-908],[-352,294],[-336,-686],[-924,-393],[478,625],[-208,197],[-1406,41],[-480,-528],[-399,-124],[-1949,574],[-1466,-148],[-587,54],[-888,-323],[-765,117],[-1006,-182],[-1308,160],[-1439,-1277],[-2776,-597],[-1761,-163],[-5577,-2203],[-3129,-862],[-2416,-411],[-3877,-1159],[-357,4],[-565,43],[-1166,407],[-401,-102],[-469,188],[385,351],[-378,349],[-39,-483],[-273,-311],[-820,227],[-531,361],[-165,-532],[-1237,-227],[-570,42],[475,417],[-457,49],[-385,-590],[317,-773],[-150,-438],[-512,227],[-169,-257],[-156,362],[-362,-236],[-166,455],[-406,238],[-367,-216],[-590,481],[-1383,-526],[-927,-120],[-2640,-14],[-1497,-711],[-1326,-773],[-279,-73],[-8035,355],[-1601,-582],[-3,25448],[-1942,0],[-2,33010]],[[368634,259331],[1723,-692],[561,-296],[1219,-873],[895,658],[62,-344],[394,-267],[547,-1358],[194,-820],[-216,-881],[-1756,-860],[-785,-225],[698,53],[780,-74],[510,87],[1460,-156],[3113,-1706],[568,-99],[319,164],[1307,-104],[150,507],[647,503],[170,679],[332,17],[4233,112],[234,707],[74,336],[-383,436],[-464,-243],[30,-778],[-649,3],[16,1229],[554,174],[127,316],[-368,-5],[356,857],[679,585],[-138,553],[-818,666],[-1490,-495],[-625,279],[-827,83],[-898,296],[-150,1036],[-471,512],[17,568],[-462,615],[-891,363],[-685,1472],[-237,-213],[8,-1370],[-568,-315],[-1225,426],[-1634,-71],[-830,167],[-1549,24],[-984,-545],[-1542,-1219],[-471,81],[-1029,-321],[168,-234]],[[401798,255658],[286,-166],[314,-85],[305,-100],[2475,-263],[2285,-241],[-50,433],[1451,-192],[780,332],[-9,521],[1,295],[-72,683],[-163,271],[-789,-859],[-461,630],[-262,37],[-449,234],[-429,-213],[-109,-491],[23,-484],[-1983,12],[7,325],[17,528],[-1223,-68],[-86,-472],[-263,-347],[-442,-160],[-411,-73],[-518,209],[-225,-296]]],"bbox":[-150.539311,63.938924,-143.88408,67.529019],"transform":{"scale":[0.000006655237655237641,0.000003590098590098595],"translate":[-150.539311,63.938924]}}
