{"type":"Topology","objects":{"foo":{"type":"GeometryCollection","geometries":[{"type":"MultiPolygon","arcs":[[[0,1,2]]],"properties":{"postal_code":"58006","realtor_list_price":"NA","realtor_list_price_yoy":"NA","realtor_list_price_base":"NA","realtor_active_listings":2.333,"realtor_active_listings_yoy":-0.125,"realtor_active_listings_base":-0.2765,"realtor_new_listings":0,"realtor_new_listings_yoy":-1,"realtor_new_listings_base":-1,"realtor_days_on_market":"NA","realtor_days_on_market_yoy":"NA","realtor_days_on_market_base":"NA","zhvi":"NA","zhvi_yoy":"NA","zhvi_base":"NA","zori":"NA","zori_yoy":"NA","zori_base":"NA"}},{"type":"MultiPolygon","arcs":[[[3,4,5,6,7]]],"properties":{"postal_code":"58031","realtor_list_price":"NA","realtor_list_price_yoy":"NA","realtor_list_price_base":"NA","realtor_active_listings":0.667,"realtor_active_listings_yoy":-0.3333,"realtor_active_listings_base":-0.6921,"realtor_new_listings":0,"realtor_new_listings_yoy":"NaN","realtor_new_listings_base":"NA","realtor_days_on_market":"NA","realtor_days_on_market_yoy":"NA","realtor_days_on_market_base":"NA","zhvi":"NA","zhvi_yoy":"NA","zhvi_base":"NA","zori":"NA","zori_yoy":"NA","zori_base":"NA"}},{"type":"MultiPolygon","arcs":[[[8,9,10,11]]],"properties":{"postal_code":"58021","realtor_list_price":315000,"realtor_list_price_yoy":"NA","realtor_list_price_base":"NA","realtor_active_listings":0.333,"realtor_active_listings_yoy":-0.6667,"realtor_active_listings_base":"NA","realtor_new_listings":0.667,"realtor_new_listings_yoy":"Inf","realtor_new_listings_base":"NA","realtor_days_on_market":12,"realtor_days_on_market_yoy":"NA","realtor_days_on_market_base":"NA","zhvi":333838.521,"zhvi_yoy":0.0655,"zhvi_base":"NA","zori":"NA","zori_yoy":"NA","zori_base":"NA"}},{"type":"MultiPolygon","arcs":[[[12,13,14,15,16]]],"properties":{"postal_code":"58012","realtor_list_price":357350,"realtor_list_price_yoy":0.0201,"realtor_list_price_base":0.3563,"realtor_active_listings":10.667,"realtor_active_listings_yoy":0.28,"realtor_active_listings_base":0.3321,"realtor_new_listings":2.667,"realtor_new_listings_yoy":-0.5,"realtor_new_listings_base":-0.419,"realtor_days_on_market":68,"realtor_days_on_market_yoy":-0.1379,"realtor_days_on_market_base":2.4135,"zhvi":330641.439,"zhvi_yoy":0.07,"zhvi_base":0.2583,"zori":"NA","zori_yoy":"NA","zori_base":"NA"}},{"type":"MultiPolygon","arcs":[[[17,18,19,20,21,22,23,24,25,26,27,28,29],[30],[31],[32]]],"properties":{"postal_code":"56560","realtor_list_price":319219.419,"realtor_list_price_yoy":0.0122,"realtor_list_price_base":0.4014,"realtor_active_listings":182,"realtor_active_listings_yoy":0.3382,"realtor_active_listings_base":-0.2184,"realtor_new_listings":57.333,"realtor_new_listings_yoy":-0.0337,"realtor_new_listings_base":-0.2204,"realtor_days_on_market":44.86,"realtor_days_on_market_yoy":0.0741,"realtor_days_on_market_base":-0.1446,"zhvi":289033.247,"zhvi_yoy":0.0209,"zhvi_base":0.3157,"zori":1164.34,"zori_yoy":0.0274,"zori_base":"NA"}},{"type":"MultiPolygon","arcs":[[[33,-4,34]]],"properties":{"postal_code":"58011","realtor_list_price":"NA","realtor_list_price_yoy":"NA","realtor_list_price_base":"NA","realtor_active_listings":1,"realtor_active_listings_yoy":0.5,"realtor_active_listings_base":-0.652,"realtor_new_listings":0,"realtor_new_listings_yoy":"NaN","realtor_new_listings_base":-1,"realtor_days_on_market":"NA","realtor_days_on_market_yoy":"NA","realtor_days_on_market_base":"NA","zhvi":259280.59,"zhvi_yoy":0.029,"zhvi_base":"NA","zori":"NA","zori_yoy":"NA","zori_base":"NA"}},{"type":"MultiPolygon","arcs":[[[35,-27,36,37]]],"properties":{"postal_code":"58104","realtor_list_price":460153.485,"realtor_list_price_yoy":-0.0228,"realtor_list_price_base":0.4937,"realtor_active_listings":182,"realtor_active_listings_yoy":-0.0537,"realtor_active_listings_base":-0.3889,"realtor_new_listings":68.667,"realtor_new_listings_yoy":0.0729,"realtor_new_listings_base":-0.1483,"realtor_days_on_market":48.184,"realtor_days_on_market_yoy":-0.0486,"realtor_days_on_market_base":-0.2309,"zhvi":407810.881,"zhvi_yoy":0.0394,"zhvi_base":0.3239,"zori":1239.621,"zori_yoy":0.0309,"zori_base":"NA"}},{"type":"MultiPolygon","arcs":[[[38,39,40,41,-15]]],"properties":{"postal_code":"58042","realtor_list_price":487500,"realtor_list_price_yoy":0.3698,"realtor_list_price_base":"NA","realtor_active_listings":1.333,"realtor_active_listings_yoy":0.3333,"realtor_active_listings_base":-0.6541,"realtor_new_listings":0.667,"realtor_new_listings_yoy":0,"realtor_new_listings_base":-0.388,"realtor_days_on_market":5,"realtor_days_on_market_yoy":4,"realtor_days_on_market_base":"NA","zhvi":393945.834,"zhvi_yoy":0.066,"zhvi_base":0.4067,"zori":"NA","zori_yoy":"NA","zori_base":"NA"}},{"type":"MultiPolygon","arcs":[[[42,43,44,45,-19,46]]],"properties":{"postal_code":"56536","realtor_list_price":"NA","realtor_list_price_yoy":"NA","realtor_list_price_base":"NA","realtor_active_listings":1,"realtor_active_listings_yoy":-0.25,"realtor_active_listings_base":-0.3971,"realtor_new_listings":0,"realtor_new_listings_yoy":-1,"realtor_new_listings_base":"NA","realtor_days_on_market":"NA","realtor_days_on_market_yoy":"NA","realtor_days_on_market_base":"NA","zhvi":"NA","zhvi_yoy":"NA","zhvi_base":"NA","zori":"NA","zori_yoy":"NA","zori_base":"NA"}},{"type":"MultiPolygon","arcs":[[[47,-37,-26,48,-10]]],"properties":{"postal_code":"58047","realtor_list_price":409205.567,"realtor_list_price_yoy":0.0497,"realtor_list_price_base":0.2002,"realtor_active_listings":129.333,"realtor_active_listings_yoy":-0.0026,"realtor_active_listings_base":3.3349,"realtor_new_listings":20,"realtor_new_listings_yoy":-0.1429,"realtor_new_listings_base":2.3101,"realtor_days_on_market":71.933,"realtor_days_on_market_yoy":-0.2525,"realtor_days_on_market_base":0.0998,"zhvi":422614.179,"zhvi_yoy":0.0329,"zhvi_base":0.3,"zori":1895,"zori_yoy":"NA","zori_base":"NA"}},{"type":"MultiPolygon","arcs":[[[49,-21]]],"properties":{"postal_code":"56529","realtor_list_price":387870.857,"realtor_list_price_yoy":0.1833,"realtor_list_price_base":0.594,"realtor_active_listings":23,"realtor_active_listings_yoy":0.38,"realtor_active_listings_base":0.0087,"realtor_new_listings":4.667,"realtor_new_listings_yoy":-0.2222,"realtor_new_listings_base":-0.3903,"realtor_days_on_market":49.714,"realtor_days_on_market_yoy":0.316,"realtor_days_on_market_base":0.1049,"zhvi":292773.481,"zhvi_yoy":0.0101,"zhvi_base":0.3483,"zori":"NA","zori_yoy":"NA","zori_base":"NA"}},{"type":"MultiPolygon","arcs":[[[-40,50,-29,51,52],[53]]],"properties":{"postal_code":"58102","realtor_list_price":290882.353,"realtor_list_price_yoy":-0.146,"realtor_list_price_base":0.4297,"realtor_active_listings":109,"realtor_active_listings_yoy":-0.2517,"realtor_active_listings_base":0.3501,"realtor_new_listings":22.667,"realtor_new_listings_yoy":-0.2766,"realtor_new_listings_base":-0.3546,"realtor_days_on_market":74.059,"realtor_days_on_market_yoy":0.006,"realtor_days_on_market_base":1.0363,"zhvi":275521.544,"zhvi_yoy":0.0352,"zhvi_base":0.2847,"zori":1044.936,"zori_yoy":0.0233,"zori_base":"NA"}},{"type":"MultiPolygon","arcs":[[[54,-17,55,56,-5,-34]]],"properties":{"postal_code":"58079","realtor_list_price":749000,"realtor_list_price_yoy":"NA","realtor_list_price_base":"NA","realtor_active_listings":1,"realtor_active_listings_yoy":-0.5,"realtor_active_listings_base":"NA","realtor_new_listings":1.333,"realtor_new_listings_yoy":"Inf","realtor_new_listings_base":"NA","realtor_days_on_market":2,"realtor_days_on_market_yoy":"NA","realtor_days_on_market_base":"NA","zhvi":"NA","zhvi_yoy":"NA","zhvi_base":"NA","zori":"NA","zori_yoy":"NA","zori_base":"NA"}},{"type":"MultiPolygon","arcs":[[[57,58]]],"properties":{"postal_code":"56572","realtor_list_price":689477.273,"realtor_list_price_yoy":0.15,"realtor_list_price_base":0.7039,"realtor_active_listings":41.667,"realtor_active_listings_yoy":0.0163,"realtor_active_listings_base":-0.3216,"realtor_new_listings":7.333,"realtor_new_listings_yoy":-0.0833,"realtor_new_listings_base":-0.3062,"realtor_days_on_market":75.182,"realtor_days_on_market_yoy":0.0478,"realtor_days_on_market_base":-0.1232,"zhvi":401180.556,"zhvi_yoy":0.0611,"zhvi_base":0.7591,"zori":"NA","zori_yoy":"NA","zori_base":"NA"}},{"type":"MultiPolygon","arcs":[[[-46,59,60,61,-22,-50,-20]]],"properties":{"postal_code":"56547","realtor_list_price":347450,"realtor_list_price_yoy":-0.1788,"realtor_list_price_base":"NA","realtor_active_listings":15.667,"realtor_active_listings_yoy":0.4688,"realtor_active_listings_base":0.6039,"realtor_new_listings":2,"realtor_new_listings_yoy":-0.4,"realtor_new_listings_base":-0.5451,"realtor_days_on_market":48,"realtor_days_on_market_yoy":-0.2771,"realtor_days_on_market_base":"NA","zhvi":362553.318,"zhvi_yoy":0.0347,"zhvi_base":0.4127,"zori":"NA","zori_yoy":"NA","zori_base":"NA"}},{"type":"MultiPolygon","arcs":[[[-45,62,63,-58,64,-60]]],"properties":{"postal_code":"56549","realtor_list_price":486800,"realtor_list_price_yoy":-0.1247,"realtor_list_price_base":0.6659,"realtor_active_listings":20.333,"realtor_active_listings_yoy":0.1731,"realtor_active_listings_base":-0.2939,"realtor_new_listings":5.333,"realtor_new_listings_yoy":0,"realtor_new_listings_base":-0.3493,"realtor_days_on_market":50,"realtor_days_on_market_yoy":-0.2233,"realtor_days_on_market_base":-0.24,"zhvi":406609.498,"zhvi_yoy":0.0507,"zhvi_base":0.5542,"zori":"NA","zori_yoy":"NA","zori_base":"NA"}},{"type":"MultiPolygon","arcs":[[[65,66,-63,-44]]],"properties":{"postal_code":"56585","realtor_list_price":329900,"realtor_list_price_yoy":0.5713,"realtor_list_price_base":"NA","realtor_active_listings":2.333,"realtor_active_listings_yoy":0.4,"realtor_active_listings_base":-0.361,"realtor_new_listings":0.667,"realtor_new_listings_yoy":-0.5,"realtor_new_listings_base":1.4,"realtor_days_on_market":24,"realtor_days_on_market_yoy":3.8,"realtor_days_on_market_base":"NA","zhvi":310358.076,"zhvi_yoy":0.0572,"zhvi_base":0.5136,"zori":"NA","zori_yoy":"NA","zori_base":"NA"}},{"type":"MultiPolygon","arcs":[[[-52,-28,-36,67]]],"properties":{"postal_code":"58103","realtor_list_price":273475,"realtor_list_price_yoy":-0.1012,"realtor_list_price_base":0.3418,"realtor_active_listings":110.333,"realtor_active_listings_yoy":0.0216,"realtor_active_listings_base":-0.2244,"realtor_new_listings":37.333,"realtor_new_listings_yoy":-0.0508,"realtor_new_listings_base":-0.3919,"realtor_days_on_market":51.875,"realtor_days_on_market_yoy":0.1025,"realtor_days_on_market_base":0.2369,"zhvi":271025.616,"zhvi_yoy":0.0352,"zhvi_base":0.2991,"zori":880.346,"zori_yoy":0.0361,"zori_base":"NA"}},{"type":"MultiPolygon","arcs":[[[-41,-53,-68,-38,-48,68]]],"properties":{"postal_code":"58078","realtor_list_price":406408.984,"realtor_list_price_yoy":-0.073,"realtor_list_price_base":0.4329,"realtor_active_listings":104.333,"realtor_active_listings_yoy":-0.1806,"realtor_active_listings_base":-0.653,"realtor_new_listings":42.667,"realtor_new_listings_yoy":-0.2381,"realtor_new_listings_base":-0.452,"realtor_days_on_market":47.531,"realtor_days_on_market_yoy":0.1778,"realtor_days_on_market_base":-0.2414,"zhvi":359214.021,"zhvi_yoy":0.0298,"zhvi_base":0.3663,"zori":1233.623,"zori_yoy":0.0721,"zori_base":"NA"}},{"type":"MultiPolygon","arcs":[[[-6,-57,69,-12,70,71]]],"properties":{"postal_code":"58052","realtor_list_price":"NA","realtor_list_price_yoy":"NA","realtor_list_price_base":"NA","realtor_active_listings":1,"realtor_active_listings_yoy":-0.625,"realtor_active_listings_base":-0.51,"realtor_new_listings":0,"realtor_new_listings_yoy":-1,"realtor_new_listings_base":"NA","realtor_days_on_market":"NA","realtor_days_on_market_yoy":"NA","realtor_days_on_market_base":"NA","zhvi":283732.679,"zhvi_yoy":0.2049,"zhvi_base":"NA","zori":"NA","zori_yoy":"NA","zori_base":"NA"}},{"type":"MultiPolygon","arcs":[[[-24,72,73]]],"properties":{"postal_code":"56594","realtor_list_price":165000,"realtor_list_price_yoy":-0.3125,"realtor_list_price_base":"NA","realtor_active_listings":1.333,"realtor_active_listings_yoy":0.3333,"realtor_active_listings_base":-0.4577,"realtor_new_listings":0.667,"realtor_new_listings_yoy":-0.5,"realtor_new_listings_base":"NA","realtor_days_on_market":6,"realtor_days_on_market_yoy":1,"realtor_days_on_market_base":"NA","zhvi":"NA","zhvi_yoy":"NA","zhvi_base":"NA","zori":"NA","zori_yoy":"NA","zori_base":"NA"}},{"type":"MultiPolygon","arcs":[[[74,75,-1,76]]],"properties":{"postal_code":"58036","realtor_list_price":249000,"realtor_list_price_yoy":"NA","realtor_list_price_base":"NA","realtor_active_listings":1,"realtor_active_listings_yoy":-0.25,"realtor_active_listings_base":-0.5738,"realtor_new_listings":1.333,"realtor_new_listings_yoy":"Inf","realtor_new_listings_base":"NA","realtor_days_on_market":2,"realtor_days_on_market_yoy":"NA","realtor_days_on_market_base":"NA","zhvi":"NA","zhvi_yoy":"NA","zhvi_base":"NA","zori":"NA","zori_yoy":"NA","zori_base":"NA"}},{"type":"MultiPolygon","arcs":[[[77,78,79,80,-75]]],"properties":{"postal_code":"56574","realtor_list_price":"NA","realtor_list_price_yoy":"NA","realtor_list_price_base":"NA","realtor_active_listings":1,"realtor_active_listings_yoy":-0.5,"realtor_active_listings_base":"NA","realtor_new_listings":0,"realtor_new_listings_yoy":"NaN","realtor_new_listings_base":"NA","realtor_days_on_market":"NA","realtor_days_on_market_yoy":"NA","realtor_days_on_market_base":"NA","zhvi":"NA","zhvi_yoy":"NA","zhvi_base":"NA","zori":"NA","zori_yoy":"NA","zori_base":"NA"}},{"type":"MultiPolygon","arcs":[[[-7,-72,81]]],"properties":{"postal_code":"58027","realtor_list_price":"NA","realtor_list_price_yoy":"NA","realtor_list_price_base":"NA","realtor_active_listings":2.333,"realtor_active_listings_yoy":0.1667,"realtor_active_listings_base":-0.3163,"realtor_new_listings":0,"realtor_new_listings_yoy":"NaN","realtor_new_listings_base":-1,"realtor_days_on_market":"NA","realtor_days_on_market_yoy":"NA","realtor_days_on_market_base":"NA","zhvi":175087.777,"zhvi_yoy":0.035,"zhvi_base":"NA","zori":"NA","zori_yoy":"NA","zori_base":"NA"}},{"type":"MultiPolygon","arcs":[[[-79,82,-66,-43,83]]],"properties":{"postal_code":"56519","realtor_list_price":"NA","realtor_list_price_yoy":"NA","realtor_list_price_base":"NA","realtor_active_listings":1,"realtor_active_listings_yoy":-0.5,"realtor_active_listings_base":-0.5549,"realtor_new_listings":0,"realtor_new_listings_yoy":"NaN","realtor_new_listings_base":"NA","realtor_days_on_market":"NA","realtor_days_on_market_yoy":"NA","realtor_days_on_market_base":"NA","zhvi":"NA","zhvi_yoy":"NA","zhvi_base":"NA","zori":"NA","zori_yoy":"NA","zori_base":"NA"}},{"type":"MultiPolygon","arcs":[[[-2,-76,-81,84,-30,-51,-39,-14,85]]],"properties":{"postal_code":"58005","realtor_list_price":"NA","realtor_list_price_yoy":"NA","realtor_list_price_base":"NA","realtor_active_listings":"NA","realtor_active_listings_yoy":"NA","realtor_active_listings_base":"NA","realtor_new_listings":"NA","realtor_new_listings_yoy":"NA","realtor_new_listings_base":"NA","realtor_days_on_market":"NA","realtor_days_on_market_yoy":"NA","realtor_days_on_market_base":"NA","zhvi":452619.681,"zhvi_yoy":0.0876,"zhvi_base":"NA","zori":"NA","zori_yoy":"NA","zori_base":"NA"}},{"type":"MultiPolygon","arcs":[[[-16,-42,-69,-9,-70,-56]]],"properties":{"postal_code":"58059","realtor_list_price":544400,"realtor_list_price_yoy":-0.1043,"realtor_list_price_base":1.2848,"realtor_active_listings":12.333,"realtor_active_listings_yoy":-0.2745,"realtor_active_listings_base":-0.4384,"realtor_new_listings":1.333,"realtor_new_listings_yoy":0,"realtor_new_listings_base":-0.5514,"realtor_days_on_market":98,"realtor_days_on_market_yoy":0.5077,"realtor_days_on_market_base":0.4661,"zhvi":345452.193,"zhvi_yoy":0.0402,"zhvi_base":0.3044,"zori":"NA","zori_yoy":"NA","zori_base":"NA"}},{"type":"MultiPolygon","arcs":[[[-62,86,-73,-23]]],"properties":{"postal_code":"56580","realtor_list_price":399950,"realtor_list_price_yoy":0.0149,"realtor_list_price_base":"NA","realtor_active_listings":4.667,"realtor_active_listings_yoy":-0.125,"realtor_active_listings_base":-0.0373,"realtor_new_listings":0.667,"realtor_new_listings_yoy":-0.6667,"realtor_new_listings_base":-0.5092,"realtor_days_on_market":52,"realtor_days_on_market_yoy":0.4717,"realtor_days_on_market_base":"NA","zhvi":355190.829,"zhvi_yoy":0.0375,"zhvi_base":0.4152,"zori":"NA","zori_yoy":"NA","zori_base":"NA"}}]}},"arcs":[[[428976,807551],[206,-52781]],[[429182,754770],[-19874,-169],[-633,43]],[[408675,754644],[-15226,9],[-4730,62],[-367,-40],[-6109,-387],[-4509,-11],[-31,-17635],[-9921,66],[50,17604],[-15421,-19],[-5352,5],[88,-8531],[-4863,-190],[38,-5205],[-15541,14008],[10037,-167],[22,17574],[-10200,-29],[-54,-17200],[-10036,9033],[5,8399],[-20455,119],[23,17552],[11276,3],[411,-187],[758,181],[8024,-13],[10054,-275],[-57,17670],[10320,7],[-33,17567],[31111,86],[73,35354],[9722,-92],[10261,101],[-72,-17492],[30730,133],[-30,-35191],[10305,38]],[[174484,448364],[30435,970],[49,23747],[40503,-94]],[[245471,472987],[-34,-17537],[-23,-16086],[107,-1177],[-103,-2168],[-98,-33189],[10177,94],[-21,-8903],[10171,-78],[-11,-8656],[20121,-192],[76,-17566]],[[285833,367529],[-32,-17476],[-20192,49],[-4961,9]],[[260648,350111],[-10289,-1],[-5092,-1],[-5036,15],[-5124,6],[24,-17514],[-15070,-37],[-15148,54],[-31715,224],[-213,-147],[-540,-678],[-234,-128],[-259,15],[-203,130],[-609,795],[-130,31],[-26677,191],[-20290,17],[38,-11012],[-6506,11025],[-3713,243],[-9654,-112],[-497,-183],[53,-17407]],[[103764,315637],[-10075,15],[-126,17496],[-9996,94],[-20,17587],[-10087,37],[-5,-3402],[924,-2106],[-919,-3745],[-7,-8389],[-26090,195],[-4364,59],[-15,-14350],[687,-1564],[-258,-1669],[-10592,74],[14,17550],[39,17577],[-10115,102],[-22759,95],[541,12529],[43,7505],[506,3549],[184,3800],[-848,6959],[1605,1003],[1808,-460],[18966,117],[19,9019],[4144,61],[-85,-9119],[26288,-143],[-49,35083],[30386,-84],[-14,17727],[48,7648],[10011,1780],[20385,-83],[30417,-112],[9756,-99],[-24,-9567],[5069,-35],[5129,-49],[19,9749],[4812,167],[5368,126]],[[366273,378051],[1251,-403],[-42,-3297],[438,-2515],[868,-886],[-459,-3021],[1266,1053],[-243,4694],[913,1284],[1730,-1381],[19,-3654],[1602,-2796],[577,1495],[-609,2880],[574,2076],[946,385],[649,-849],[-134,-3578],[1169,-942],[657,1054],[-224,2299],[-2182,5146],[657,1108],[1105,-692],[1603,-2188],[2404,-27],[-79,-2849],[1442,239],[-338,3995],[-850,1966],[289,1357],[1234,804],[80,2465],[-1218,1579],[-1538,2853],[-1395,664],[-160,1413],[2227,1026],[1251,-804],[897,-3351],[1154,-915],[-16,2383],[-1202,3407],[112,1190],[1411,471],[945,-1247],[224,-2409],[-625,-2936],[577,-2022],[1311,841],[256,-184],[9831,85],[-33,8922],[10144,21],[-16,26268],[1525,17],[8577,96],[25463,347],[5083,152],[20172,607],[16,17223],[10177,89]],[[477736,439059],[146,-52520],[26,-9087],[91,-26221],[10178,-35],[20321,-6],[28,-17668],[10306,-135],[31,-17373]],[[518863,316014],[-10376,27],[-5087,-10],[-5070,-35],[58,17506],[-50643,-194],[6,-1048],[255,-51957],[-10310,40],[-6,17407],[-40608,-346]],[[397082,297404],[-10165,119],[-9,35168],[-10107,-75],[-88,8038],[-4715,391],[1,9169],[-5554,-15],[-141,17560],[-2816,-46],[2128,2069],[619,2520],[38,5749]],[[357225,666484],[20412,-134],[-16,17603],[10407,-177],[76,17601],[20447,-111],[57,17600]],[[408608,718866],[10234,16],[-18,-9059],[-107,-26056],[10203,-1],[-157,-35156],[9363,62]],[[438126,648672],[-616,-34133]],[[437510,614539],[-10199,40],[-95,-17671],[10223,39],[-96,-17472],[10221,73],[-112,-17571],[-2169,97],[-8011,-138],[-16,-17576],[-13,-12247],[-1033,-1913],[-1990,-895],[-1189,359],[268,-2427],[-11330,-312],[10,-282],[-15359,-131],[-20009,25],[-6282,-43],[-2583,-936],[-4118,-2128],[-2316,-171],[-9,-11851],[-577,-2919],[-4613,44],[-10047,-91]],[[356066,508442],[-10194,-138],[10,17568],[-19212,-75],[35,17591],[19170,168],[-4989,583],[46,2698],[-1112,1948],[-49,1390],[-2063,3190],[-275,1853],[513,1686],[-566,2717],[8517,-948],[10,2487],[10193,33],[88,17559],[10490,36],[9895,36],[135,17620],[-9888,-115],[657,52445],[-10264,126],[12,17584]],[[558936,753708],[2678,-99],[304,-17700],[15846,466],[6884,-35208],[7172,-18],[-53,17637],[1974,661],[488,-352],[7727,-400],[-48,17675],[10267,-91],[10148,41]],[[622323,736320],[29,-25089],[10,-10273],[9,-17412]],[[622371,683546],[53,-21714],[-505,-2870],[-513,-125],[-731,2266],[-375,-927],[195,-2308],[-790,-323],[-530,-1564],[-959,455],[-710,-1782],[2129,-927],[946,1032],[938,-311],[150,-1316],[-1125,-293],[145,-2547],[1039,-1475],[717,178],[1,-605],[-510,-12],[431,-1157],[-463,-1441],[-792,712],[-767,-1130],[-887,693],[-283,-1450],[-631,-28],[-1623,-1576],[-76,-846],[1224,-104],[618,-849],[1285,1500],[372,1095],[2382,769],[133,-858],[-1415,-1845],[-533,-2656],[-686,-7044],[7,-17814],[10191,-166],[214,-13914],[-45,-21193],[9890,-13],[-408,-17264],[-4113,-75],[-5385,-99],[-1,-17539]],[[630575,544086],[-5061,-64],[-15303,-216],[-5165,-31],[15,-4195],[32,-4350],[49,-2585],[52,-6229],[-33,-2368],[-1,-351],[24,-1550],[3472,15],[1621,-411],[-1,-272],[-6,-2249],[-4,-1057],[-3,-397],[0,-88],[-1,-53],[566,145],[4534,30],[12729,78],[148,-748],[2378,47],[40,5703],[-1,286],[9148,-88],[606,-344],[-17,696]],[[640393,523440],[1228,-41],[-17,-2195],[-1132,-7299],[2,-4651],[108,-18359],[-2372,-279],[-3014,463],[-4515,47],[37,-1077],[-6,-3708],[31,-3534],[-58,-8766],[-61,-17495]],[[630624,456546],[4,-17499],[-89,-5156],[89,-210],[5125,-12066],[-5263,-59],[-553,-87644],[-82,-52808],[139,-12914],[75,-22321],[10342,8],[70,-13627],[645,-2869],[-1359,-1108]],[[639767,228273],[-984,-4],[-28,-17161],[-20298,36],[-38,17073],[-20447,-98],[-6544,-40],[-3683,-13],[-9389,-31],[-1565,277],[-311,-202]],[[576480,228110],[-99,957],[-1921,-2303],[-2483,2247],[-686,429],[54,-2334],[-430,-1023],[-659,543],[-47,1471]],[[570209,228097],[963,3458],[1482,1307],[910,4955],[725,888],[1780,1418],[-355,1067],[-1344,618],[-685,1117],[-311,2573],[-1278,2386],[1568,1385],[99,1597],[-2941,5153],[-1052,907],[61,4799],[834,1398],[-1274,1721],[95,148],[945,1487],[-340,2585],[1086,1861],[-2495,1492],[-66,1966],[1696,303],[1000,-1410],[727,524],[158,1429],[-349,2670],[1142,432],[101,2059],[-962,443],[-1266,-637],[-1097,1285],[-141,4700],[1248,830],[62,36],[1042,601],[480,-2327],[592,-1192],[1952,221],[288,1301],[-400,998],[-2399,2905],[-672,1694],[144,1301],[1495,-499],[1513,-1468],[151,3251],[1690,598],[64,2077],[-415,1052],[-1349,227],[-929,726],[-256,2305],[1216,1039],[823,342],[-362,1626],[-6,902],[931,998],[-1151,5861],[-127,2084],[1524,-90],[-192,1251],[-1797,395],[-1139,920],[-11,72],[-132,870],[819,1136],[1368,909],[1368,658],[-118,342],[-397,1156],[-2052,1901],[-17,1412],[1425,563],[1281,1227],[-111,721],[-1147,1011],[-619,1389],[1473,2327],[924,589],[68,44],[112,71],[-336,1223],[-1891,592],[-1154,-550],[-930,310],[385,2245],[2658,1024],[2398,3403],[-973,1715],[1124,1503],[101,1783],[-175,3057],[-646,-519],[-758,-786],[-745,1439],[-31,1116]],[[576907,350099],[-67,2437],[1692,987],[-1135,3216],[953,1321],[-146,1474],[-584,2431],[696,209],[110,1295],[-624,717],[-1471,97],[-359,1847],[535,504],[1481,-251],[-63,1834],[-1682,1183],[-498,1857],[956,280],[338,1290],[-163,1224],[-1013,635],[-345,1185],[302,389],[811,715],[81,996],[104,1221],[-1401,134],[-986,1173],[-52,1743],[833,525],[1394,-1856],[881,415],[-320,2825],[-1144,1281],[41,1401],[749,473],[1028,-829],[1506,-971],[593,1690],[-705,1661],[-2127,311],[-1990,1133],[-801,2271],[846,568],[4590,-2377],[1230,1833],[-240,2132],[-4240,1195],[-1656,1883],[-799,4977],[576,672],[1426,-1223],[785,386],[558,2211],[-317,2559],[-1009,363],[-1405,-1178],[-1242,-1705],[-1772,-268],[-803,1839],[2914,6105],[1597,2620],[-32,589],[-67,1246],[-1285,1358],[434,2275],[-2366,-811],[-355,629],[-586,1039],[-384,2050],[144,1467],[1171,2244],[-320,1384],[-786,942],[-1472,-359],[-852,660],[-257,198],[305,1468],[1538,1124],[1018,1435],[-58,3656],[-83,150],[-98,179],[-642,1170],[-1899,-348],[-673,1025],[513,943],[2535,803],[512,1522],[-353,1108],[-2389,2051],[-529,1357],[256,1143],[796,1256],[494,2347],[-269,3469],[-128,1655],[896,2766],[164,507],[2603,1091],[-193,3030],[674,2545],[1052,-520],[2659,-1332],[1196,-1932],[520,1207],[13,31],[-1281,2762],[-1914,2708],[-3385,3363]],[[572191,473814],[364,1570],[5,22],[2856,-2116],[1004,533],[971,4089],[181,765],[-1927,2061],[-387,1378],[194,1410],[2506,-122],[1638,-2181],[1542,-364],[145,1818],[-819,2182],[-1247,1829],[-1115,2413],[193,1939],[274,419],[141,217],[694,1061],[2458,1576],[156,2091],[-542,818],[-1109,121],[-2120,-1575],[-1349,969],[-627,3515],[771,1091],[2795,-2182],[965,606],[-579,3394],[-1019,1683],[-2210,3650],[48,1940],[471,1608],[1024,3119],[4,38],[168,1607],[10,100],[15,141],[-807,2498],[1311,2326],[1491,1407],[-96,1427],[-1229,1004]],[[579404,525709],[-145,118],[-483,1217],[-33,83],[-14,33],[-482,2788],[482,970],[822,-431],[1476,-773],[16,-8],[1542,2412],[482,-1685],[-306,-1827],[354,-961],[723,121],[626,2425],[530,4969],[-292,1156],[-45,177],[-819,0],[-1012,-848],[-820,848],[-547,5000],[277,417],[234,352],[1964,2958],[-289,2061],[-2265,485],[-819,1939],[696,4616],[2147,960],[-48,1818],[-1263,2042],[-87,139],[1494,3879],[1446,-1939],[868,-121],[552,2908],[460,2425],[-201,3689],[1178,2240],[-646,3068],[181,1414],[3281,-5198],[1087,1092],[-877,1350],[-1923,2962],[-941,1731],[-272,500],[-723,4000],[916,1212],[2121,-1819],[1542,243],[241,1818],[-4964,2182],[-819,1454],[96,1818],[1468,291],[1424,-1866],[1060,848],[-289,2788],[-1832,1697],[-241,3030],[-723,485],[-1060,-1455],[-4674,-3636],[0,-3030],[-723,-2424],[-79,-46],[-548,-318],[-289,2423],[-819,244],[-1687,-4364],[-964,366],[337,5089],[-326,913],[-106,299],[-821,2],[-722,-2667],[-627,-728],[-626,1335],[66,3330],[26,3180],[4,518],[723,4121],[-1012,3515],[53,877],[236,3851],[-529,2787],[-1302,243],[-1303,-2910],[-362,335],[-1948,1809],[-871,1377],[76,109],[685,992],[157,227],[936,-18],[235,-5],[566,907],[270,2328],[-32,856],[-48,1294],[-408,1610],[-1674,2599],[-200,2385],[1727,970],[895,3607],[1475,3914],[-2742,3503],[-712,-975],[406,-1922],[-320,-2188],[-920,1789],[-448,2050],[-821,413],[-387,-3661],[-1199,-867],[-1286,1179],[-384,1550],[-1106,977],[-1360,86],[-560,514],[-1105,2326],[-661,1778],[801,2010],[696,5102],[19,137]],[[559588,648073],[2,14],[87,637],[-1306,10372],[-1712,1904],[62,1554],[1235,660],[447,1007],[9,1353],[-1002,2485],[61,3472],[618,2246],[1318,-1024],[524,659],[-732,1513],[-1106,1202],[80,1691],[934,1773],[-129,997],[-885,27],[-1454,-2149],[-848,-12],[-81,2909],[-804,1301],[-966,-1218],[-740,82],[-428,2727],[-571,623],[-1303,-1357],[-693,803],[885,2521],[2028,1579],[-210,3214],[789,2936],[-355,1024],[-821,1191],[499,1136],[1449,1052],[359,2046],[220,1251],[1513,2022],[3253,1572],[1329,-893],[752,128],[188,1668],[-1217,2329],[-847,2701],[-988,1504],[-2303,-687],[-633,1456],[363,2031],[1222,968],[2533,-778],[1175,828],[1743,5434],[-511,1760],[-896,57],[-768,-1292],[-576,-2392],[-1472,-1126],[-655,2256],[963,4576],[1566,5350],[-480,2063],[-896,28],[-2864,-2829],[-511,385],[304,1567],[2805,2314],[1656,3439],[-537,1796],[-2912,2705],[-180,1385],[1561,2020],[-181,1718],[-1080,172],[-889,-698],[-1227,370],[-731,1711],[933,1345],[1955,-722],[1664,-505],[513,1729],[-333,875],[-416,1094]],[[582517,509020],[2129,11],[-2,2382],[17,3813],[-657,5],[-733,-2],[-738,-1262],[-16,-4947]],[[587190,512676],[4617,-16],[1816,9],[782,1406],[-7,2395],[-870,8],[-6,1241],[-1072,31],[-2,-1277],[-610,3],[-4629,-6],[-3,-1255],[-16,-2539]],[[589364,293475],[4,-30300],[2334,53],[674,-1223],[1114,-391],[18,-1524],[710,616],[10,-2038],[3096,75],[-28,9322],[-2947,-63],[32,30448],[-5177,-137],[160,-4838]],[[265887,630992],[-47,-43738],[-13,-8996],[-42,-35114],[9,-8699],[-10040,270],[-305,-9358],[-20110,-32],[18,-2440],[1496,1661],[7696,-40],[986,-177],[-9,-16279],[10111,46],[-43,-35090],[-10123,-19]],[[174484,448364],[6,7395],[10187,-80],[6,35091],[-10167,130],[5,34894],[-10200,248],[4,12420],[-277,1854],[-833,1707],[1284,2229],[534,927],[-726,2293],[32,31341],[10167,105],[56,17557],[20369,-301],[88,17473],[10157,-135],[69,17575],[-30572,488],[-30,18313],[-11469,89],[-3,35053],[-10251,51],[63,32555],[1057,2306],[1950,259],[7291,-91],[10295,-92],[28,17560],[20491,-46],[10080,-145],[-46,-17544],[-532,-6],[553,-4454],[-13,-13000],[10124,-30],[-20,-35136],[10276,12],[10171,-87],[-20,-9051],[34,-7053],[310,-1457],[20086,-59],[637,-9],[-26,-18754],[10178,233]],[[534267,491368],[5052,-32],[89,-5],[5146,-146],[4920,-136],[-5,-8612],[273,-3931],[108,-5112],[215,9],[1220,48],[8351,-183],[48,-2512],[1591,46],[552,2349],[3067,86],[3424,-867],[1241,983],[15,109],[126,2],[1259,-91],[1232,441]],[[576907,350099],[-7102,39],[162,26419],[-1591,10],[-684,1269],[-46,3865],[1244,328],[69,3607],[-1410,2361],[-1040,-1247],[1715,-1684],[593,-1408],[-417,-998],[-416,1468],[-385,-1329],[-897,194],[-1426,-1827],[609,-1054],[0,-2658],[-1651,1496],[-849,0],[193,-1246],[1169,-2023],[-176,-1634],[-625,1247],[-48,-1830],[-1250,138],[179,-2861],[-753,-1164],[-993,1634],[-1602,496],[-465,-780],[1235,-2505],[1217,-592],[-11506,309],[-10537,182],[62,8434],[66,9208],[-1018,161],[-835,1860],[-440,5129],[-1275,2674],[-1404,5995],[-2019,594],[-512,1302],[-2142,21],[-372,5],[187,17547],[-1985,-19],[-544,-1],[23,2247],[-4805,770],[-772,-495],[-131,3779],[-1619,3817],[843,2012],[-165,469],[-554,1099],[-170,621],[-17,460],[560,965],[92,486],[-67,664],[-127,430]],[[520283,438555],[4558,-10],[-213,9015],[-2934,60],[-1366,4230],[-1097,351],[1346,251],[598,1219],[197,2972],[8094,-410],[-296,17636],[-31,17499],[112,11],[4715,-13],[301,2]],[[438126,648672],[848,6],[81,17578],[37957,39],[898,485],[1862,-607],[50,-376],[820,471],[2385,5222],[4317,841],[2712,2905],[10339,157],[-84,26069],[29158,-99],[2663,-162],[-2615,-2015],[10,-3980],[-311,-855],[-2571,-1318],[979,-1574],[947,-442],[-473,-1130],[-1535,-49],[-31,-1382],[793,-163],[2042,-1738],[-860,-1021],[-2583,234],[1201,-2041],[391,-2262],[-663,-257],[-820,1290],[-2061,-909],[159,-1812],[416,-748],[1099,-767],[111,-1296],[-237,-108],[-1227,1565],[-931,-1141],[3223,-11098],[4360,-47],[10224,-107],[-28,-17678]],[[541141,648352],[-1520,31],[30,-16851],[26,-10744],[-93,-3523],[193,-396],[14,-539],[15,-2047],[-205,-285],[-10061,-17],[-4,-5833],[-840,-2024],[214,-9198],[136,-475],[-9775,302]],[[519271,596753],[-3940,338],[-2780,1343],[-3481,-692],[-10209,33],[-167,-17709],[-20417,-143],[-115,5403]],[[478162,585326],[242,12289],[-10190,-132],[109,17606],[-20503,-425],[-10310,-125]],[[642364,771855],[30324,207],[61,1224],[37,16042],[4700,279],[5480,-129],[30,-17683],[20347,-286],[118,8658],[-278,44381],[10281,-322],[20678,353],[10325,-429],[-56,-17589],[14241,-10],[5524,-40]],[[764176,806511],[4714,120],[74,-35259],[-5238,-13],[105,-17690],[-19567,73],[194,-17675],[7357,104],[2108,-152],[48,-8975],[4460,23],[23,-13032]],[[758454,714035],[0,-8601],[-4740,27],[41,-4449],[-9379,-149],[-29,-52482],[-2261,48]],[[742086,648429],[-7353,156],[-21355,41],[-9682,-89],[-71,17604],[-20349,-97],[-40506,-306],[-48,17420],[-10174,54],[-4868,160],[-5309,174]],[[622323,736320],[-40,17819],[9887,128],[36,17482],[10158,106]],[[477736,439059],[30587,211],[-12,-13148],[6331,-319],[12,12847],[5066,-94],[563,-1]],[[570209,228097],[-700,-179],[-11838,3],[-9981,25],[-308,-8335],[-410,-2961],[-2960,-305],[685,-3821],[-400,-1633],[-1472,-114],[-15358,-193],[-170,17391],[-8795,45],[305,17050],[-19,18116],[10116,24],[8,17524],[-10196,58],[130,30838],[17,4384]],[[630575,544086],[31,-8600],[30,-8890],[10,-1405],[2346,-18],[2928,-884],[4474,-42],[-1,-807]],[[541141,648352],[8706,-101],[9741,-178]],[[579404,525709],[-318,-2459],[-822,793],[-6147,927],[-12304,1856],[-10033,1527],[-74,11],[-10144,1525]],[[539562,529889],[-2,638],[-5120,843],[5,3749],[-38,8516],[-5094,56],[38,8287],[3,512],[51,8795],[-10219,216],[85,35252]],[[564988,547693],[2944,-27],[123,-2312],[214,-2056],[1898,-46],[676,27],[22,2918],[-678,-1],[-6,1417],[-1271,1863],[24,2572],[-983,19],[-29,4247],[-2916,125],[-18,-8746]],[[265887,630992],[20139,108],[-18,11285],[-367,3061],[-3,3863],[10391,-84],[-119,7952],[762,-654],[1033,1513],[-34,1244],[-1755,1840],[17,14413],[1511,-3322],[677,-4366],[622,-1053],[17564,-84],[-3,-17605],[10312,17],[20366,-176],[46,17730],[10197,-190]],[[356066,508442],[-94,-35128],[-10120,-100],[16,-22881],[-10180,105],[3,-12477],[168,-52922]],[[335859,385039],[138,-16651],[-292,-2293],[-1604,2066],[-1115,-222],[456,-2306],[760,-1875],[-859,408],[-906,-1409],[-1147,554],[-1490,4642],[-1384,-1479],[-154,-2800],[412,-1960],[-1091,200],[-1270,2034],[73,21095],[-10169,57],[8,-17630],[-10187,-44],[-27,-17612],[-10124,1],[-4,17584],[-10050,130]],[[850758,284404],[-162,14280],[162,17412],[2567,310],[921,-277],[3042,318],[3693,-251],[9919,283],[-244,17708],[-252,23297]],[[870404,357484],[1837,1],[0,3001],[13630,249],[4794,177],[139,-8761],[151,-14197],[188,-523],[876,-1796],[182,-1342],[8803,105],[-200,3584],[1374,567],[685,1565],[-299,3446],[965,-56],[32,-2173],[1112,-513],[1478,1385],[837,1911],[-578,76],[-592,2082],[-738,124],[1090,1384],[-951,-142],[-1829,3264],[-1800,2119],[177,3795],[9441,32],[22,-8115],[962,1144],[1309,4685],[82,897],[-921,5541],[7119,-415],[1066,-806],[422,721],[5576,53],[887,987],[763,854],[3183,515],[-22,-28871],[5727,-67],[-465,-333],[25,-5224],[2678,-3925],[-306,-850],[-2202,4056],[-144,156],[-811,675],[-1295,422],[-2523,-880],[-695,-794],[88,-24052],[2105,561],[2282,2602],[1506,892],[891,-5187],[1193,-1349],[729,-123],[2515,832],[800,-731],[2351,43],[2163,494],[769,-2416],[2214,-2902],[795,-1717],[802,-718],[1551,-235],[-1074,4172],[680,-137],[547,-3069],[2052,-2565],[812,-2384],[-347,-4218],[-483,-1531],[-1533,-2425],[-1968,-195],[-537,-681],[131,-5381],[3823,869],[8351,16225],[8364,79],[-213,-6412],[-143,-1553],[193,-1064],[122,-12066],[24,-13758],[864,-3283],[48,-8118],[-96,-1304],[19828,310],[67,-8722],[61,-8773],[-4283,65],[-148,-240],[739,-4906],[-38,-3087],[-497,-2737],[38,-6551],[381,-416],[2783,391],[1856,-861],[189,-31424],[-227,-2223],[-1257,108],[-2045,2023],[-162,1251],[-1526,-25],[-1097,-816],[73,-6429],[428,-3172],[-172,-2475],[-2357,-7443],[-1102,-1486],[-1985,1737],[-245,-1468],[499,-1214],[-1153,-4791],[-1016,-1200],[-848,-207],[-289,1222],[-926,46],[4904,-11345],[1339,1017],[508,3663],[826,986],[170,2847],[3401,-81],[1549,-1858],[2419,2211],[5298,41],[-3,-26239],[-669,-2],[-9524,-114],[75,-10028],[906,-4059],[-1241,-5595],[930,-3131],[-94,-3377],[-429,-3218],[-103,-5226],[-1164,-571],[-1085,475],[-283,-2222],[124,-3451],[-622,-1665],[-1727,-1404],[-96,-4975],[539,-1738],[-76,-2536],[-560,-1062],[-1852,251],[-2933,1261],[-1897,-199],[-3724,390],[-540,-5522],[987,-4251],[-20,-2815],[-2129,-3123],[-3936,-2591],[-8880,296],[53,17483],[-1429,-6],[-149,1401],[-986,1470],[-551,-345],[-1995,1846],[-4999,0],[-58,4384],[-5033,-88],[-81,4211],[-1720,0],[-57,4269],[-606,-1105],[-417,-3530],[-1526,-1875],[-585,-2139],[46,-8730],[-9219,-95],[-2254,-448],[-1512,652],[-3195,-76],[-1987,-941],[-2680,1302],[-7094,158],[0,23323],[234,3157],[-13176,355],[75,-26373],[-15089,494],[-4299,-97],[83,26434],[-8687,-453],[-1230,-1161],[-259,1133],[49,8724],[-20422,404],[-10216,245],[285,9617],[184,8141],[-21,2503],[-344,-528],[-128,-304],[-63,-748],[-248,-920],[-2160,5],[-17156,154],[-44,17575],[-24,17417],[10,17636],[-10226,-109],[-15,17720],[10202,-84],[29,-12229],[9613,16186],[129,-21477],[5242,-49],[-117,23528],[1240,-1750],[2348,926],[1208,-305],[22,7879],[134,2685],[7514,3503],[3,14394],[-126,1186],[10875,136],[2588,3780],[975,985],[317,1695],[1604,2900],[1428,686],[1087,3248],[1123,1320],[-1786,2917],[-1619,-340],[-1501,345],[55,8362],[-268,7767],[-2699,-322],[-4355,402],[-3229,1042],[-315,2645],[-640,1773],[47,3599],[959,5206],[-864,2187],[-720,554],[240,1800],[1055,222],[-92,2964]],[[742086,648429],[-329,-34758],[-9833,417],[27,-17575],[3774,41],[6046,-277],[48,-17654],[10216,-280],[-23,-34361],[-10118,121],[188,-34751],[4624,135],[110,-9775],[5203,-83],[28,-8695],[49,-17601],[25,-34252],[-54,-18188]],[[752067,420893],[-30464,1158],[104,-17783],[-8057,40],[2367,-8509],[-4436,-162]],[[711581,395637],[-362,0],[-10013,-39],[-8,-2243],[-10040,14886],[-391,572],[-2107,-34],[19,-4217],[-2339,-46],[-5307,-103],[-24,17705],[-9995,-149],[34,3937],[-5448,-194],[-98,8867],[-4621,119],[69,4693],[-78,17537],[3370,59],[-13449,27243],[-1688,2471],[-1292,885],[-2282,639],[97,-14001],[-5053,-98],[55,-17543],[-10006,-37]],[[758454,714035],[2077,-4685],[2080,-379],[1776,-1571],[658,245],[2588,-2891],[1627,371],[3305,-1987],[1337,-1631],[1439,-607],[1260,335],[650,1300],[166,4301],[426,1169],[1672,2049],[2679,745],[6136,-288],[2361,1898],[1152,5790],[5003,6621],[2865,-4],[62,-23611],[10466,-413],[53,-17142]],[[810292,683650],[-112,-35095],[-172,-9],[-51,-15043],[9805,-150],[415,-2818],[-426,-1537],[48,-30814],[9994,-375],[49,-17451],[5421,-66],[4983,14],[20376,-178],[3537,164],[130,206],[182,-119],[114,-16],[348,481],[23,391],[-317,-148],[-167,216],[245,557],[454,154],[354,489],[342,-100],[-184,6452],[5204,-491],[-31,-17690],[49,-1549],[-113,-24279],[-35,-8507],[-217,-8974],[-10734,87],[-4170,-671],[-5499,516],[-297,-21033],[-2369,9],[594,-758],[339,-76],[324,177],[46,-526],[-387,-56],[-388,-966],[-325,-97],[-81,-721],[-407,-188],[-66,-1083],[-596,-641],[120,-931],[-21,-3498],[3167,-37],[-320,-38205],[509,-2692],[-20,-4959],[508,-4042],[-1067,-2362],[-212,-4924],[6758,-46],[1056,255],[5925,-38],[6553,-225],[214,-17753],[145,-8049],[565,-56348]],[[850758,284404],[-2563,-288],[-3521,782],[-371,-257],[-1530,-2355],[-1963,111],[5,-1784],[-20344,251],[-51,-8776],[306,-8674],[-10174,249],[-60,10865],[62,713],[-555,58929],[-179,17535],[-20509,-171],[-180,17511],[-10130,-418],[-10243,184],[-482,35241],[-16192,-656],[-17,17497]],[[764176,806511],[-19,17666],[4687,-15],[-13,8441],[-8,3309],[-66,14202],[-39,9059],[-166,252],[7271,55],[23657,102]],[[799480,859582],[51224,-209],[22,14017],[848,114],[1018,3451],[8382,-19],[4,-17562],[20436,334],[20507,296],[16,-17683],[10283,159],[-53,-35329],[10248,331],[364,-53206],[-79,-8916],[-4876,-125],[9,-8561],[-5591,-53],[-5198,-16],[-5033,-17],[-25,9297],[-4731,-7],[-4,-9334],[-5461,-51],[64,-17543],[-30659,-311],[-10194,158],[86,-17610],[-20604,131],[-237,17553],[-9964,-338],[204,-17974],[-664,-2442],[664,-3695],[16,-10830],[-10210,58]],[[534267,491368],[55,8708],[43,8851],[56,8731],[5050,-195],[97,6729],[-2,2023],[-4,3674]],[[477736,439059],[36,35224],[7,17631],[10220,16],[-18,17638],[-10203,-69],[3,17225],[1867,398],[5686,37],[2115,-2242],[543,-1760],[0,4818],[-13510,-70],[1158,3906],[1847,5065],[1251,2563],[1363,1238],[2888,1839],[2565,1026],[735,1176],[1738,30],[449,35153],[-10351,-121],[37,5546]],[[335859,385039],[10150,78],[19,-15359],[-326,-1551],[1905,-13],[395,1930],[565,-422],[491,-2198],[205,2592],[1002,435],[-280,1710],[1502,-427],[550,-1223],[203,-2307],[-677,-951],[40,-1835],[943,-3640],[453,-362],[453,964],[-100,2896],[1041,3505],[1227,520],[264,1459],[-1907,1091],[-682,1582],[-138,1883],[905,521],[1276,-1031],[1983,-5132],[810,-731],[777,544],[-342,4491],[1969,1576],[1703,-1843],[-1447,3685],[383,1468],[897,-165],[1295,-3240],[-47,-4315],[816,-1660],[752,251],[121,5534],[1265,2702]],[[397082,297404],[69,-35154],[-10237,75],[-10024,-136],[-4,-17531],[-20248,-155],[-20,-17548],[30396,187],[539,-1],[-38,-34045],[0,-17576],[10175,228],[-178,-9788],[45,-7789],[-10097,-25],[265,-34941],[10063,-25],[103,-35925],[131,-17947],[-20241,469],[-27,17317],[-20723,5],[215,-52299],[-2895,8],[-1818,-160],[-208,-17453],[-14475,215],[172,104912],[-1,2749],[-1229,-14],[-48,-2714],[-8881,73],[22,22505],[-488,785],[16,1961],[477,1000],[-3,8665],[-5060,73],[23,17551],[-9781,182],[24,7973],[-5399,40],[-41,9653],[-10145,238],[-10143,163],[-18,15215],[-10482,-6302],[-6,24905],[-1149,5]],[[275710,227028],[-109,26379],[96,26287],[-10180,146],[-12,7702],[1131,-351],[-40,-2327],[718,-833],[-119,-2107],[1745,499],[640,1301],[352,2354],[1328,830],[-31,1912],[-785,-249],[-15,1351],[1616,1813],[673,2064],[880,-1812],[1392,-235],[289,2178],[560,263],[-559,3168],[-1121,-812],[-424,704],[-8176,112],[28,26285],[3,8915],[-5062,7],[120,17539]],[[639767,228273],[21064,80]],[[660831,228353],[4117,31],[12121,-34637],[1852,-5],[93,-35420],[12147,-31],[6965,-17638],[-19025,81],[48,-17563],[135,-35283],[20259,-55],[43,-17541],[23,-52382],[-51,-17910],[-10130,36],[18,17620],[-40691,-166],[43,35151],[-10207,121],[-10139,-73],[-121,35102],[-25266,-449],[5,-17199],[-3966,-1337],[657,2612],[-947,299],[-1326,-2486],[-439,1125],[3111,5802],[1249,-1327],[-746,4175],[-1198,958],[-1096,2421],[31,1770],[2436,-462],[-801,2774],[-900,2644],[292,2396],[-1164,2748],[-1912,-726],[-386,1655],[3449,1549],[335,2645],[-836,2016],[-1913,-1230],[-1441,494],[882,1393],[764,3274],[-333,3747],[-317,1952],[-1317,1087],[463,971],[1540,-76],[1876,-962],[-165,1619],[-372,869],[-383,476],[-858,982],[-75,1091],[-308,949],[-299,906],[508,587],[615,59],[-89,2158],[-86,307],[-128,461],[-654,480],[-1326,-706],[-2248,1122],[105,1224],[1048,975],[802,2194],[810,829],[716,-1518],[620,-2054],[579,895],[-170,1786],[-1936,3592],[-665,83],[-1056,-1427],[-372,335],[1271,5546],[340,2020],[-674,499],[-2324,-896],[-1090,1383],[375,1398],[957,484],[1707,160],[641,849],[-384,1088],[-1598,1381],[-742,1410],[854,647],[1827,-343],[321,2657],[382,529],[66,91],[1322,-2196],[288,958],[-623,1356],[-23,162],[-295,2035],[-959,-51],[-781,663],[746,1673],[340,1960],[-1055,959],[-1748,-669],[-781,343],[-120,921],[90,485],[137,740],[903,816],[1698,-238],[431,1198],[-358,1587],[-1105,608],[-1520,129],[-892,-774],[-760,-1697],[-372,914],[13,1868],[-480,1668],[860,52],[890,303],[548,1366],[295,1758],[359,1572],[66,1097],[-737,-333],[-1043,476],[598,1282],[1011,479],[-112,2333],[-42,1273],[-551,973],[-1850,-1862],[-1362,861],[-1447,2395],[65,2681],[1227,68],[1227,-349],[797,1500],[204,2475],[-1013,804],[-2072,-1684],[-1043,732],[-645,3640],[-1019,1439],[-937,-1107],[-552,-2997],[-647,1761],[-288,3868],[115,1199],[1015,1442],[-1144,1707],[1911,1995],[-103,1600],[-1621,-445],[-2100,-1077],[-1024,1546],[42,1431],[1585,602],[1325,1271],[-999,2051],[204,2628],[290,1043],[1142,189],[-53,1680],[-807,885],[-1133,-1517],[-850,-1485],[-1497,659],[-652,2707],[1023,738],[1501,-580],[698,1482],[-355,3790],[-1007,-1063],[-1594,-683],[-889,445],[-1080,-1162],[-967,43],[-97,2516],[1942,2701],[2172,1131],[130,3158],[-2645,-889],[-1803,-2943],[-1272,624],[-387,1325],[767,1486],[1820,851],[448,2434],[-113,1100]],[[553646,964173],[757,-1305],[944,-2772],[-34,-2537],[-485,-847],[-812,-181],[-1410,3130],[-1374,1302],[-1811,-1876],[-765,-2530],[739,-2332],[1858,-182],[1539,-202],[1273,-1970],[-260,-1850],[-3236,-1952],[-1877,-1496],[-1420,-2405],[286,-3026],[1276,-1044],[973,1245],[151,3428],[547,1362],[1086,313],[946,-696],[769,-1914],[-173,-2368],[-1515,-1982],[-306,-1311],[709,-2010],[1389,-1741],[1194,-2259],[-172,-2086],[-954,-890],[-1629,-233],[-502,-1319],[735,-1355],[1610,-1244],[1298,-1567],[1151,-2859],[-333,-1823],[-913,315],[-859,2029],[-1026,876],[-964,-1081],[-1379,-3438],[-2641,-4912],[-309,-2596],[1319,-2480],[995,463],[14,2411],[-242,2580],[336,994],[700,230],[1387,-1541],[3286,-2791],[1258,-2357],[-172,-2158],[-1026,-927],[-2035,-804],[-1071,-1141],[-565,-1902],[583,-1608],[1412,-414],[2639,2100],[1613,597],[728,-1662],[-629,-2412],[-1671,154],[-612,-835],[1409,-2036],[-45,-2469],[-835,-818],[-1420,-131],[-1400,494],[-497,-1626],[1290,-2415],[1065,-480],[994,283],[1458,-242],[471,-1516],[-982,-3389],[-386,-2091],[347,-2004],[989,-711],[879,-97],[830,-1189],[-488,-2278],[-910,-1496],[-1174,-809],[-2892,-315],[-816,-1645],[648,-1532],[2696,446],[1126,-1138],[145,-914],[-145,-830],[-1079,-1614],[-2560,-111],[-1373,810],[-777,1110],[-844,177],[-81,-1622],[238,-1991],[-765,-936],[-1439,-314],[-184,-1361],[526,-927]],[[549983,858752],[-1353,-270],[-6703,317],[-147,-17512],[-20502,521],[-261,-35049],[-10252,432],[138,17633],[-10174,299],[-62,-17574],[-5869,-33],[-1280,-520],[-294,-52318],[-2986,1],[102,35226],[-30857,31],[101,-17592],[-20218,60],[28,-17590],[-9102,67],[-1110,-111]],[[428976,807551],[-61,35143],[10287,0],[-69,17637],[-5,17700],[-95,34998],[40552,-201],[-2576,17500],[13222,115],[107,-17557],[10298,-112],[10293,-247],[-25,17546],[10191,-285],[-214,35216],[25700,-685],[6645,577],[420,-723]],[[553646,964173],[12174,-54],[1250,-35071],[859,-17475],[13312,206],[-21,22104],[137,3630],[854,-957],[256,-1871],[774,-198],[119,1737],[1542,221],[875,-1912],[1083,-984],[1347,1056],[1015,2057],[575,-1331],[-338,-2436],[-898,-1904],[1672,-1643],[1374,807],[1154,-972],[244,-2461],[668,13],[1862,2771],[289,-1493],[-682,-1746],[1202,-1439],[1735,-591],[-1032,-4574],[-825,-1263],[232,-1249],[1250,1033],[-194,1740],[1471,1886],[1022,-3203],[181,-1547],[1569,1083],[17,46160],[57,35193],[20472,-92],[9545,88],[20512,349],[10167,158],[142,-30230],[-405,-1188],[-1568,-855],[-873,-2929],[2766,-22],[-1942,-3485],[-1884,-1904],[-1710,1354],[-1703,-2718],[-885,-4584],[-1484,-831],[-1072,-1992],[1627,-4761],[1823,-5],[2986,1465],[4137,175],[-26,-17555],[20449,-129]],[[682901,929805],[4,-17537],[-20459,104],[145,-52774],[-20349,27]],[[642242,859625],[-20006,-23],[-30686,-331],[-6,-1300],[-15,-2944],[-67,-13210],[-10191,-95],[48,17406],[-31227,-569]],[[550092,858559],[-109,193]],[[275710,227028],[-10149,23],[-20230,146],[8,17466],[-19504,15],[86,-1802],[807,-2590],[-111,-4679],[-1467,-2605],[-36,-5870],[-8765,22],[621,-103979],[-109,-35119],[-15457,1],[-4853,9],[-10177,-119],[-20410,-334],[74,12643],[147,4992],[-2659,17],[-7847,89],[8,7787],[54,9838],[-30468,53],[37,17591],[-30285,6],[69,17630],[-20227,-19],[117,17677],[20185,-102],[197,52035],[-1774,6],[29,35147],[10160,-67],[10,26221],[4208,273],[-57,8634],[-4157,16],[-21,17557]],[[682901,929805],[10299,103],[48,17530],[41046,-255],[9,-17532],[10264,-25],[-3,17619],[24365,94],[10300,12],[-38,-17565],[20399,-9],[-15,-17514],[-95,-52681]],[[642364,771855],[308,35157],[4348,-213],[5737,494],[-10386,17151],[10697,660],[29907,-459],[2,9596],[13,7939],[-40678,-60],[-70,17505]],[[550092,858559],[1226,-2162],[755,-166],[1136,1411],[632,-90],[521,-1424],[1096,-2487],[-110,-1227],[-2008,-600],[-733,-990],[239,-1941],[1274,-872],[948,-1010],[880,-5296],[627,-1977],[-323,-1989],[-1565,-2066],[-242,-2321],[724,-1165],[1299,968],[1653,2181],[1518,-464],[-230,-3084],[-1941,-1457],[-159,-2691],[-305,-1956],[-613,-608],[-1518,-31],[-2437,1136],[-985,-665],[-290,-1497],[1518,-1578],[1404,-305],[1226,581],[1146,-2904],[1580,-1226],[1017,-2152],[275,-2438],[-758,-2464],[-242,-2493],[532,-1412],[766,-914],[1532,1717],[376,-3599],[52,-2438],[-1693,-2105],[-784,-2958],[1823,-2305],[-194,-3601],[213,-3638],[-929,-1172],[-2991,-1053],[-448,-754],[11,-1172],[673,-639],[2088,1981],[2212,-1581],[198,-991],[-747,-1834],[-1293,-1797],[-285,-1953],[772,-2168],[1481,-1667],[-482,-1724],[-1333,-332],[-3214,-2041],[-1508,-2275],[209,-1438],[707,-1016],[481,225],[816,1566],[677,556],[678,233],[435,-618],[-126,-1290],[-898,-1303],[-483,-1708],[292,-5763],[813,-1878],[180,-473]],[[408608,718866],[35,9136],[39,8376],[-7,18266]],[[711581,395637],[1,-9371],[-69,-33808],[433,-693],[9740,-99],[-85,-16455],[645,-1378],[-31271,235],[59,-17661],[-10213,102],[-26,17558],[-10210,12],[31,-17700],[-10169,-20],[43,-8813],[23,-6644],[962,405],[-383,-1761],[1361,450],[783,-1019],[1387,144],[1228,881],[12,3149],[1251,-790],[-123,1655],[1305,-63],[1061,851],[-408,-1577],[446,-1232],[969,2096],[293,-5325],[-9420,-48],[-718,186],[-2,-17740],[-10087,-98],[-2149,11],[-2225,11],[5994,-14298],[8736,-26098],[45,-12339]]],"bbox":[-97.981266,46.44214,-95.906191,47.267169],"transform":{"scale":[0.0000020750770750770734,8.250298250298257e-7],"translate":[-97.981266,46.44214]}}
