{"type":"Topology","objects":{"foo":{"type":"GeometryCollection","geometries":[{"type":"MultiPolygon","arcs":[[[0,1]]],"properties":{"postal_code":"72359","realtor_list_price":"NA","realtor_list_price_yoy":"NA","realtor_list_price_base":"NA","realtor_active_listings":1.333,"realtor_active_listings_yoy":0.3333,"realtor_active_listings_base":"NA","realtor_new_listings":0,"realtor_new_listings_yoy":"NaN","realtor_new_listings_base":"NA","realtor_days_on_market":"NA","realtor_days_on_market_yoy":"NA","realtor_days_on_market_base":"NA","zhvi":"NA","zhvi_yoy":"NA","zhvi_base":"NA","zori":"NA","zori_yoy":"NA","zori_base":"NA"}},{"type":"MultiPolygon","arcs":[[[2]]],"properties":{"postal_code":"72392","realtor_list_price":69900,"realtor_list_price_yoy":"NA","realtor_list_price_base":"NA","realtor_active_listings":1,"realtor_active_listings_yoy":-0.25,"realtor_active_listings_base":"NA","realtor_new_listings":0.667,"realtor_new_listings_yoy":"Inf","realtor_new_listings_base":"NA","realtor_days_on_market":5,"realtor_days_on_market_yoy":"NA","realtor_days_on_market_base":"NA","zhvi":"NA","zhvi_yoy":"NA","zhvi_base":"NA","zori":"NA","zori_yoy":"NA","zori_base":"NA"}},{"type":"MultiPolygon","arcs":[[[3]]],"properties":{"postal_code":"72322","realtor_list_price":324900,"realtor_list_price_yoy":"NA","realtor_list_price_base":"NA","realtor_active_listings":0.667,"realtor_active_listings_yoy":-0.5,"realtor_active_listings_base":"NA","realtor_new_listings":1.333,"realtor_new_listings_yoy":"Inf","realtor_new_listings_base":"NA","realtor_days_on_market":4,"realtor_days_on_market_yoy":"NA","realtor_days_on_market_base":"NA","zhvi":"NA","zhvi_yoy":"NA","zhvi_base":"NA","zori":"NA","zori_yoy":"NA","zori_base":"NA"}},{"type":"MultiPolygon","arcs":[[[4],[5]]],"properties":{"postal_code":"72360","realtor_list_price":154637.5,"realtor_list_price_yoy":"NA","realtor_list_price_base":"NA","realtor_active_listings":6.667,"realtor_active_listings_yoy":-0.0476,"realtor_active_listings_base":-0.3116,"realtor_new_listings":1.333,"realtor_new_listings_yoy":"Inf","realtor_new_listings_base":1.2003,"realtor_days_on_market":58,"realtor_days_on_market_yoy":"NA","realtor_days_on_market_base":"NA","zhvi":98807.55,"zhvi_yoy":-0.1108,"zhvi_base":"NA","zori":"NA","zori_yoy":"NA","zori_base":"NA"}},{"type":"MultiPolygon","arcs":[[[6,7,8,-1]]],"properties":{"postal_code":"72394","realtor_list_price":"NA","realtor_list_price_yoy":"NA","realtor_list_price_base":"NA","realtor_active_listings":1,"realtor_active_listings_yoy":0.5,"realtor_active_listings_base":"NA","realtor_new_listings":0,"realtor_new_listings_yoy":-1,"realtor_new_listings_base":"NA","realtor_days_on_market":"NA","realtor_days_on_market_yoy":"NA","realtor_days_on_market_base":"NA","zhvi":"NA","zhvi_yoy":"NA","zhvi_base":"NA","zori":"NA","zori_yoy":"NA","zori_base":"NA"}},{"type":"MultiPolygon","arcs":[[[9,-8]]],"properties":{"postal_code":"72346","realtor_list_price":"NA","realtor_list_price_yoy":"NA","realtor_list_price_base":"NA","realtor_active_listings":4,"realtor_active_listings_yoy":3,"realtor_active_listings_base":"NA","realtor_new_listings":0,"realtor_new_listings_yoy":"NaN","realtor_new_listings_base":"NA","realtor_days_on_market":"NA","realtor_days_on_market_yoy":"NA","realtor_days_on_market_base":"NA","zhvi":"NA","zhvi_yoy":"NA","zhvi_base":"NA","zori":"NA","zori_yoy":"NA","zori_base":"NA"}}]}},"arcs":[[[589671,690108],[-5566,-7583],[-6927,-4359],[-1192,-2057],[-650,-3442],[811,-2939]],[[576147,669728],[-576,-290],[-13022,-6668],[-2396,-1272],[-3261,-1711],[-100,493],[-1136,529],[-590,770],[-560,1789],[-2760,8806],[297,225],[2915,2262],[6424,1829],[4702,3170],[3686,3215],[2544,7430],[17357,-197]],[[526,593811],[1315,60843],[67838,-944],[61,26365],[71158,-1380],[-135,-26616],[-1095,-127802],[-97,-9696],[-67,-23929],[-70350,-623],[-287,-28092],[-804,-52574],[-23153,20],[397,28781],[-10240,165],[-17028,20407],[-7777,9298],[11584,2883],[426,4067],[-1210,3150],[24924,10091],[-823,2124],[-2818,-59],[-2103,939],[-1247,5257],[-1805,2121],[-1558,6024],[-1855,1570],[-279,9281],[1059,641],[-878,-16],[138,9995],[-1271,4350],[136,5015],[-1473,551],[-9110,90],[572,32786],[-22671,499],[526,24418]],[[449767,778314],[4875,-163],[6873,888],[2730,-1504],[27,-6053],[-14518,-326],[13,7158]],[[134542,113796],[855,54625],[47993,-1367],[5780,-417],[3943,-797],[8027,-606],[1135,-4714],[1789,-958],[1192,-3491],[-1214,-2929],[1421,-4391],[1844,-259],[1453,-5233],[2120,-3449],[1284,-4001],[1483,-345],[3452,4365],[2078,-1773],[3650,-801],[5041,2470],[1223,-288],[2192,-5098],[3117,-981],[1100,-1783],[3555,-1751],[2713,-7449],[2597,649],[6444,-1490],[1774,-3177],[2499,-2436],[883,1075],[4888,453],[2139,3922],[58,15616],[-21936,163],[-1251,15777],[5404,302],[6095,616],[221,10219],[23401,-743],[240,26497],[359,26442],[12274,73],[11500,36],[27,-26678],[35291,-350],[23392,-194],[759,18],[6074,4350],[2224,4857],[1039,3607],[706,5419],[2890,4458],[3956,2918],[6313,3262],[66,23833],[-17728,127],[81,13482],[-29581,238],[-42,-13267],[-11826,163],[267,49532],[3170,182],[2970,1051],[4466,-401],[-10584,5590],[71,10216],[23628,-562],[102,13836],[191,21741],[-252,3882],[-23327,85],[293,79495],[23699,-310],[526,-13207],[1412,279],[-1296,2161],[454,1444],[2148,-449],[3065,2647],[1863,-2164],[3153,-1187],[1110,2291],[5967,-891],[1155,886],[4109,-2960],[1357,2043],[4547,-1044],[-319,1723],[3179,-944],[1314,-2878],[1660,1325],[-318,-2918],[3169,221],[2355,-2220],[284,-1932],[2104,1167],[2584,-98],[1501,-2111],[2948,1495],[2052,-1753],[-923,-1285],[5948,-625],[-390,-1741],[4102,1444],[4591,-1742],[2460,-4848],[2486,-518],[2948,-7686],[2114,-608],[3178,1434],[3090,-2209],[2032,3037],[4626,-11],[3853,3138],[1971,-100],[2273,1872],[506,2191],[3640,1294],[3879,-737],[2532,-3002],[162,-2894],[2167,-455],[-35,-2737],[1791,2099],[1239,-150],[1538,-3518],[994,1609],[-337,4707],[1537,-1113],[2530,-2941],[359,-2545],[-1136,-2263],[1453,-5035],[-962,-2355],[-1867,2400],[-1122,-221],[-214,-4859],[3664,-1492],[105,-2657],[-2878,-848],[-699,-1707],[1060,-3933],[1504,-1169],[1828,1557],[834,-953],[-405,-5514],[428,-1575],[4355,-1890],[864,18775],[-1438,6669],[559,4694],[3650,5528],[1110,3282],[207,10816],[4414,-6125],[1173,-452],[20133,-18],[4515,1396],[2238,2338],[4102,2990],[5487,5310],[1572,943],[4289,-18],[213,12940],[11787,-199],[17741,-127],[3809,634],[1878,-707],[10229,4640],[2663,2809],[12493,3462],[1386,3933],[5713,4241],[2971,3407],[5221,11110],[3529,380],[1505,6235],[3699,341],[350,13052],[14154,272],[1350,49],[317,-1104],[-2429,-9600],[-5330,-27760],[-1022,-6534],[-1847,-7167],[-2282,-3357],[-3544,-3822],[-17064,-9664],[4022,-154],[5264,-1524],[3673,-7],[2126,-771],[5916,-621],[5517,2720],[5599,4237],[2403,113],[2653,-990],[3801,-3748],[3568,-2738],[9534,-4644],[8549,-1705],[705,-904],[3194,2234],[6566,888],[1678,1378],[4396,7304],[2823,2066],[4129,5328],[599,2483],[853,15514],[-666,4712],[-6420,20444],[-999,1848],[-6220,4586],[-5953,3316],[-2664,2121],[-2889,3753],[-4528,1974],[57741,868],[28778,-306],[-9187,-13649],[-415,-14590],[-479,-1903],[-4488,-3824],[-1412,-20915],[-2531,-4186],[-4556,-5001],[1449,-3371],[-61,-7097],[3417,-930],[432,-6320],[2545,-8695],[5178,1747],[-1582,-4846],[-1245,-6994],[-1343,-4658],[-836,-8007],[1016,-9798],[-2139,-1216],[-13051,11583],[-3410,1283],[-3062,-73],[-6569,-3059],[-5627,1318],[-4004,2735],[4522,-3455],[4118,-1209],[4954,2320],[5628,995],[4421,-2316],[7663,-7530],[613,-3935],[1213,-12872],[-643,-5301],[-5740,-8304],[-1258,-3174],[-403,-3249],[1919,-6753],[509,-8127],[5238,-21844],[1491,-9182],[1495,-3967],[5717,-12826],[2188,-9329],[3170,-8115],[1805,-3225],[8592,-9022],[5207,-4803],[6135,-4237],[5001,-2262],[4483,-1354],[5311,-3148],[3489,-4866],[2358,-11273],[-874,-2550],[-4702,-4977],[-3772,-2570],[-2948,-1134],[-4173,-330],[-3873,1263],[-5693,5223],[-5662,-478],[-3163,-2081],[-6675,-5683],[-2268,-1002],[-3734,-73],[-3974,888],[-276,-25730],[-201,-13519],[-40576,17854],[-13945,8591],[-1778,-14084],[1068,1096],[1263,8056],[1714,2737],[903,-281],[-1546,-5035],[1187,-1544],[578,2140],[2357,865],[-2368,-4600],[-3982,-4558],[-4761,-4558],[-8236,-6599],[-4060,-1782],[-8853,-375],[-2101,-4061],[257,-2032],[3188,-4342],[4582,-4502],[5784,-4055],[1932,-2392],[3905,-9290],[2869,-5320],[2055,-1823],[4323,-2153],[5554,-4114],[3348,-1515],[3916,-810],[5715,1113],[6902,2196],[5237,-413],[5934,-1744],[4334,-1859],[3978,-2717],[2393,-2648],[2422,-4708],[1172,-7059],[-3124,-9033],[-2530,-5867],[-3454,-4043],[-5799,-3221],[-5803,-783],[-4950,560],[-2809,-326],[-3851,-2229],[-1183,-2608],[-18,-3725],[3042,-8815],[1007,-4722],[-188,-5754],[-1078,-11150],[617,-7528],[2266,-8937],[-33961,846],[-11369,142],[-17774,72],[-22979,268],[-5911,40],[-1117,495],[-35150,23280],[530,1033],[-4643,2628],[-958,6164],[11,906],[-947,-6635],[-5273,140],[60,-1293],[1240,6],[-17,-5484],[1960,3],[-26,-1394],[-22,-1172],[2865,-1715],[151,-5727],[5602,-11052],[-29095,372],[-23721,475],[212,26517],[-13068,-37],[-33,5479],[-4026,13584],[-2364,1345],[-22517,-1417],[-28038,29978],[-78,-9042],[-23555,272],[-457,-19420],[304,-6479],[-413,-39782],[-34589,432],[-799,837],[67,12560],[-7765,13049],[-14838,127],[-1012,344],[19,-3171],[6930,-15777],[5251,-7855],[-718,4],[-16799,244],[-3203,3186],[541,1215],[-441,4502],[-5045,7073],[-1700,1396],[-307,5984],[-1212,1405],[-2065,-118],[-1064,-2689],[-4002,480],[-3700,7760],[-1558,2181],[1382,3077],[-1805,3935],[-1868,1216],[-2134,4451],[-1818,1131],[-4041,-5457],[-2051,-924],[-3210,36],[-2837,-2284],[-599,8990],[-11108,-145],[-373,-45853],[-35428,652],[54,19817],[-6066,-198],[-15043,-16815],[-2357,-2360],[-11184,210],[-30166,624],[-1017,-89],[-64481,1506],[2524,105711]],[[334026,141753],[2464,-2700],[-2370,-2610],[11604,118],[135,4127],[-10554,11827],[169,10902],[-1048,-278],[-27,-272],[-373,-21114]],[[589671,690108],[2418,8737],[-393,3259],[-3847,10055],[-6742,9189],[-237,360],[-1735,3301],[866,7835],[10158,6751],[3266,2805],[1063,1617],[1688,2575],[4843,9695],[2717,6151],[907,4703],[-122,13136],[1798,16564],[-10,4975],[-1289,7035],[-194,2],[-542,5198],[283,7945],[-622,1992],[-241,7737],[-2993,7697],[-516,5387],[1655,8723],[1826,3653],[1463,-590],[702,-256],[1744,-767],[5895,-7985],[1475,-5345],[2597,-3037],[9244,94],[3778,-2575],[4375,-6824],[5182,-3090],[5107,-49],[3183,2873],[669,2798],[-488,4270],[-1612,7260],[1977,9100],[1649,2866],[3896,3392],[4043,2166],[3800,1066],[6620,-832],[10319,-4582],[5286,-1426],[4001,-368],[3908,408],[4501,2385],[4521,3670],[4021,5247],[1327,4413],[-2480,3616],[-3773,881],[-5546,2231],[-5325,4117],[-3317,4390],[-2131,5381],[-3052,5123],[-1009,2721],[433,4567],[2712,5047],[892,3712],[110,3411],[23101,-1062],[11228,-54]],[[718702,915548],[-23,-2177],[48894,-1595],[-311,-20877],[-2850,-5546],[26703,-714],[-3050,-12032],[-992,-5640],[-3432,-10934],[19596,9377],[0,-493],[-14,-1983],[-21199,-10062],[-3174,-4612],[-3731,-3714],[2022,-5925],[-872,-1533],[-2957,-946],[-1870,-4500],[-3809,458],[-4194,-3726],[-4368,-913],[-9492,-6110],[594,-457],[15319,1787],[780,912],[12277,-786],[-148,-13398],[-1633,-1286],[1633,-2737],[2708,-167],[3040,-2780],[-185,-6305],[4784,-915],[1002,-15652],[7174,1031],[2544,1269],[-254,-1631],[50419,7242],[-145,-19202],[-16357,668],[3226,-415],[-156,-18872],[-1522,-7427],[-3967,82],[865,-3127],[-439,-2060],[-1511,-1186],[-474,-1895],[823,-1439],[3054,-2170],[442,-3585],[-257,-3561],[-2804,-18],[-1442,-674],[-2339,-2989],[-1588,-2802],[3495,4707],[2597,1582],[3331,-279],[760,-1744],[2464,-1428],[1860,-2965],[-587,-4817],[121,-2764],[1726,-6349],[-10275,-4786],[270,-542],[2139,-6394],[745,-1398],[-3734,-4289],[-2770,-4858],[-226,-3117],[-3263,-12052],[-2145,-6978],[-905,-4277],[526,-4170],[-1677,-749],[-987,-4003],[1141,-2347],[-1559,-4354],[-2394,-1774]],[[815695,636661],[-3359,-111],[-2926,-5283],[-162,-2245],[-2135,-4997],[-4089,-5510],[-6082,-440],[-4375,2465],[-2214,-3357],[-2334,-862],[-4887,558],[-2443,-428],[-3248,-1878],[-2581,-2925],[-3201,-759],[-5605,-3360],[-4111,-7351],[-1063,-3350],[-1043,-74],[-3969,-12900],[-1517,250],[-206,4208],[607,4321],[1560,3875],[-16600,-504],[-195,2666],[2063,12395],[-200,5596],[-1331,5389],[-2967,4061],[-4337,4181],[-2825,4076],[-145,805],[-3255,1002],[-3998,-741],[-2981,-2333],[-5252,-6125],[-335,-5664],[1240,-6090],[-412,-6260],[-1862,-4739],[-3052,-2929],[-3473,-1138],[-2119,339],[-4018,4616],[523,5140],[3854,3402],[3686,5093],[217,3443],[-1930,3594],[-7209,4558],[-1324,2280],[-233,5577],[-642,4237],[-2215,3078],[-6360,1598],[-2139,-1118],[-1634,-3464],[-7,-2995],[2143,-6527],[-3729,-3092],[-2854,-547],[-8403,4841],[-662,-2045],[67,-7340],[-666,-6343],[-7139,-779],[-5647,-1831],[-12520,3371],[-3676,1214],[-4186,4575],[-3073,1515],[-4155,4748],[-1745,689],[1424,-19793],[-5091,-611],[-1935,1461],[-1136,2081],[-113,2775],[2621,6133],[262,4135],[-718,2039],[-6427,9240],[-753,2891],[1144,9549],[-2148,8417],[84,1522],[2502,5412],[92,4399],[-1156,1834],[-4175,2325],[-4036,-74],[-2838,-1820],[-4220,-5854],[-4902,-1722],[-4009,307],[-4744,1210],[-2198,-1941],[-3308,-1386],[-5160,2252],[-1515,2964]],[[718702,915548],[453,53963],[7866,-957],[4143,450],[1366,-1350],[-1062,-6701],[2067,-17747],[1524,-5089],[2192,-4201],[4521,-6546],[6451,-5345],[3912,-2309],[4623,-1781],[9462,-566],[11803,2320],[7340,439],[3376,-1604],[2637,-3565],[1148,-3815],[70692,-1276],[-19,1683],[18460,-378],[750,28117],[-34,13411],[-848,7194],[13,4065],[-17399,433],[145,9872],[-5742,-123],[328,25857],[20885,-25995],[2220,-2577],[18568,-18769],[5594,5678],[10371,-386],[25020,-1029],[-641,-41883],[23385,1699],[11882,788],[233,13147],[11682,799],[201,6804],[10813,683],[916,51],[-196,-15275],[-3381,-1078],[-50,-3848],[-2,-1292],[-32255,-19548],[-13,-7785],[18662,1157],[4545,14],[-470,-80830],[-428,-986],[-1264,-536],[-14314,-3580],[-22438,-3014],[23050,2818],[27058,6844],[-2,-372],[-754,-63917],[266,-7922],[-9773,-9417],[-2214,-3691],[-1758,-8457],[-1500,-4948],[54,-3021],[-1584,-4435],[-2923,-10276],[-360,-3431],[609,-7405],[1125,-3853],[2187,-4870],[3784,-4056],[2084,-3554],[-1968,-2993],[-2692,-2626],[-2806,-286],[-7948,-3788],[-17627,2463],[-2902,-187],[-835,-1660],[-6243,-484],[-1830,-797],[-4939,-540],[-1603,-2300],[-40315,366],[-11655,-16730],[-3112,-2034],[-4645,2076],[-4036,-2012],[-12705,-3964],[-2470,1774],[-9662,-1904],[53,3630],[-31619,138],[-490,74]]],"bbox":[-91.151132,34.641256,-90.400318,35.193017],"transform":{"scale":[7.508147508147562e-7,5.517615517615508e-7],"translate":[-91.151132,34.641256]}}
