{"type":"Topology","objects":{"foo":{"type":"GeometryCollection","geometries":[{"type":"MultiPolygon","arcs":[[[0,1]]],"properties":{"postal_code":"68063","realtor_list_price":235000,"realtor_list_price_yoy":0.4688,"realtor_list_price_base":"NA","realtor_active_listings":1.667,"realtor_active_listings_yoy":-0.5,"realtor_active_listings_base":0.5516,"realtor_new_listings":1.333,"realtor_new_listings_yoy":1,"realtor_new_listings_base":1.5,"realtor_days_on_market":20,"realtor_days_on_market_yoy":0.0526,"realtor_days_on_market_base":"NA","zhvi":179949.766,"zhvi_yoy":0.0691,"zhvi_base":1.2234,"zori":"NA","zori_yoy":"NA","zori_base":"NA"}},{"type":"MultiPolygon","arcs":[[[2,3,4,5,6,7],[8]]],"properties":{"postal_code":"68057","realtor_list_price":206504,"realtor_list_price_yoy":-0.0926,"realtor_list_price_base":"NA","realtor_active_listings":10.667,"realtor_active_listings_yoy":1.2857,"realtor_active_listings_base":1.5987,"realtor_new_listings":2.667,"realtor_new_listings_yoy":-0.3333,"realtor_new_listings_base":3.5709,"realtor_days_on_market":43,"realtor_days_on_market_yoy":0.7917,"realtor_days_on_market_base":"NA","zhvi":244017.717,"zhvi_yoy":0.0226,"zhvi_base":0.8626,"zori":"NA","zori_yoy":"NA","zori_base":"NA"}},{"type":"MultiPolygon","arcs":[[[9,10,-1,11,-4,12]]],"properties":{"postal_code":"68045","realtor_list_price":209000,"realtor_list_price_yoy":0.1223,"realtor_list_price_base":"NA","realtor_active_listings":4.333,"realtor_active_listings_yoy":-0.2353,"realtor_active_listings_base":-0.2298,"realtor_new_listings":1.333,"realtor_new_listings_yoy":-0.5,"realtor_new_listings_base":0.2513,"realtor_days_on_market":43,"realtor_days_on_market_yoy":0.0118,"realtor_days_on_market_base":"NA","zhvi":194853.715,"zhvi_yoy":0.015,"zhvi_base":0.9468,"zori":"NA","zori_yoy":"NA","zori_base":"NA"}},{"type":"MultiPolygon","arcs":[[[-6,13,14,15]]],"properties":{"postal_code":"68621","realtor_list_price":475000,"realtor_list_price_yoy":"NA","realtor_list_price_base":"NA","realtor_active_listings":0.667,"realtor_active_listings_yoy":0,"realtor_active_listings_base":"NA","realtor_new_listings":1.333,"realtor_new_listings_yoy":"Inf","realtor_new_listings_base":"NA","realtor_days_on_market":3,"realtor_days_on_market_yoy":"NA","realtor_days_on_market_base":"NA","zhvi":322839.93,"zhvi_yoy":0.0825,"zhvi_base":0.7528,"zori":"NA","zori_yoy":"NA","zori_base":"NA"}},{"type":"MultiPolygon","arcs":[[[-7,-16,16]]],"properties":{"postal_code":"68649","realtor_list_price":155000,"realtor_list_price_yoy":-0.5256,"realtor_list_price_base":"NA","realtor_active_listings":9,"realtor_active_listings_yoy":0.8,"realtor_active_listings_base":1.3693,"realtor_new_listings":0.667,"realtor_new_listings_yoy":0,"realtor_new_listings_base":-0.5368,"realtor_days_on_market":72,"realtor_days_on_market_yoy":0.1803,"realtor_days_on_market_base":"NA","zhvi":272509.613,"zhvi_yoy":0.0506,"zhvi_base":0.8684,"zori":"NA","zori_yoy":"NA","zori_base":"NA"}},{"type":"MultiPolygon","arcs":[[[-12,-2,-11,17,-14,-5],[18]]],"properties":{"postal_code":"68031","realtor_list_price":285000,"realtor_list_price_yoy":0.0935,"realtor_list_price_base":"NA","realtor_active_listings":2.667,"realtor_active_listings_yoy":-0.4286,"realtor_active_listings_base":0.3317,"realtor_new_listings":1.333,"realtor_new_listings_yoy":-0.5,"realtor_new_listings_base":0.2532,"realtor_days_on_market":16,"realtor_days_on_market_yoy":-0.5646,"realtor_days_on_market_base":"NA","zhvi":328202.81,"zhvi_yoy":0.0609,"zhvi_base":0.8694,"zori":"NA","zori_yoy":"NA","zori_base":"NA"}},{"type":"MultiPolygon","arcs":[[[-13,-3,19]]],"properties":{"postal_code":"68788","realtor_list_price":273600,"realtor_list_price_yoy":-0.1753,"realtor_list_price_base":"NA","realtor_active_listings":12.667,"realtor_active_listings_yoy":1,"realtor_active_listings_base":0.3267,"realtor_new_listings":2.667,"realtor_new_listings_yoy":-0.3333,"realtor_new_listings_base":0.0969,"realtor_days_on_market":77,"realtor_days_on_market_yoy":0.2833,"realtor_days_on_market_base":"NA","zhvi":280518.327,"zhvi_yoy":0.0945,"zhvi_base":0.8637,"zori":"NA","zori_yoy":"NA","zori_base":"NA"}},{"type":"MultiPolygon","arcs":[[[-9]]],"properties":{"postal_code":"68664","realtor_list_price":350000,"realtor_list_price_yoy":"NA","realtor_list_price_base":"NA","realtor_active_listings":0.667,"realtor_active_listings_yoy":-0.3333,"realtor_active_listings_base":"NA","realtor_new_listings":0.667,"realtor_new_listings_yoy":"Inf","realtor_new_listings_base":"NA","realtor_days_on_market":6,"realtor_days_on_market_yoy":"NA","realtor_days_on_market_base":"NA","zhvi":154735.718,"zhvi_yoy":0.0371,"zhvi_base":"NA","zori":"NA","zori_yoy":"NA","zori_base":"NA"}}]}},"arcs":[[[753047,561298],[20618,-32],[18204,-46],[138,0],[-990,-25642]],[[791017,535578],[-173,-51803],[-34846,-68],[731,58033],[-9074,-891],[-2429,1565],[909,5386],[-1233,206],[-320,41],[-5411,145],[-180,5770],[690,876],[10979,-19],[2387,6479]],[[238653,562519],[4813,-44],[11906,-16],[-59,-12584],[16384,-32],[-124,12570],[6765,-16],[60500,-101],[5580,0],[683,-130],[2022,-46],[3469,-138],[16300,223],[78813,-147],[6597,-2],[78194,-151],[158,12868],[17330,-161],[-4,-6203],[8664,-81],[-127,-6478],[17398,-106],[17594,-61],[-25,19303],[-42,6435],[8720,-16],[8682,-14],[17418,-71]],[[626262,587320],[27,-12787],[-68,-12931]],[[626221,561602],[-7679,26],[593,-52188],[-35375,332],[-17715,104],[97,-11258],[-1585,-1608],[-16037,53],[1076,-64648],[466,-18079],[2253,-3212],[2766,-4617],[3562,-90],[-241,-19260],[-8682,108],[72,6426],[-43151,239],[27,-2018],[11861,-8508],[3450,-2444],[212,-151],[1187,81],[9179,-26],[17075,-36],[72,-12635],[4367,-795],[580,-5849],[-22164,12298],[-3,-281],[-15,-2393],[-17119,162],[-9,-3314],[17107,-20],[77,-15818],[4985,-3470],[284,-11920],[12273,-141],[385,-58925],[-17239,100],[-86478,521],[52,-12763],[29,-12983]],[[446816,252602],[-60902,201],[-8682,-22]],[[377232,252781],[-17362,98],[-121014,280],[22,51630],[-95491,-75],[-7893,-28]],[[135494,304686],[-644,51525],[-34760,73],[5,25760],[-1105,25379],[70108,75],[252,25897],[-212,25920],[8680,100],[25888,-57],[-4,12799],[5819,241],[3075,3036],[3487,1182],[-121,1913],[-9981,3188],[-2302,-555],[377,36805],[-183,6483],[-97,12962],[35183,-167],[-306,25274]],[[230278,498363],[2369,-9],[-83,-4463],[1812,23],[138,-8747],[4657,0],[11821,33],[-12,1846],[4748,-358],[-63,7157],[2900,7],[31,4429],[4903,-26],[-42,1485],[-10912,-1],[-77,4886],[-13339,-56],[-3,-1578],[-8724,81],[-124,-4709]],[[591502,844734],[17242,0],[8701,-28],[8612,-22],[19339,-131],[15578,-126],[-45,-25677],[111859,-21],[-37,12567],[-16286,59],[393,12841],[4919,126],[-117,-3424],[3543,-74],[0,-3110],[5177,-77],[0,-1645],[4506,32],[18,6257],[7560,-7],[-151,-9662],[26389,-11],[79,11892],[17379,-192],[-83,-25723],[34128,239],[-52,7511],[7404,-21],[110,5808],[27415,14],[63,-13262],[69562,18],[-24,25606],[19153,71],[8408,-30],[7444,-22],[304,-25794],[7,-11852],[-50,-13916],[-99,-51514],[-34881,125],[-5,-25798],[-293,-25658],[-34969,215],[-11,-25725],[-69644,-279],[339,-51619],[-34555,-69],[16,-12421],[-39,-13343],[30,-25745],[304,-17565],[3272,-1652],[3731,-1147],[4164,-5468]],[[837309,535285],[-46292,293]],[[753047,561298],[-79488,217],[-12535,25],[-7269,21],[-18942,14],[-8592,27]],[[626262,587320],[83,12919],[214,12854],[-17,12839],[-16,12886],[-17179,37],[-17198,46],[176,6472],[483,19331],[34410,-110],[-165,6407],[-34370,183],[-245,6452],[-1173,38357],[-34854,174],[-192,25732],[35202,-202],[81,103037]],[[446816,252602],[14,-6401],[16,-12935],[0,-6373],[1686,-25],[23624,206],[8633,75],[25,-12938],[34565,-21],[206,-9655],[906,-29000],[17314,-99],[17353,-100]],[[551158,175336],[-690,-25771],[34800,-348],[-103,-25769],[34706,-109],[380,-25862],[-78,-25813],[-160,-20563],[6546,-173],[963,-5091],[27173,-71],[23,-6591],[-4,-1446],[-7557,1045],[-26975,1759],[-2535,526],[-34484,2101],[-266,-4587],[-3156,1360],[-3536,-1786],[-3122,-5137],[-3474,-23],[1420,-804],[2969,-3147],[-1992,-13450],[-1849,-1578],[-3679,-883],[-9659,2196],[-6601,140],[-271,4],[-14960,218],[-15628,-268],[-2812,2228],[-8558,1001],[-7334,-1974],[-11434,-4058],[-1677,-1269],[-3490,-2341],[-3752,-2390],[-6684,-664],[-9275,-2378],[-14535,-2844],[-2945,160]],[[446863,886],[186,5121],[-167,27404],[2728,-1492],[6332,937],[2755,1397],[6114,-1323],[8653,883],[2953,2162],[-25606,14653],[-3889,638],[167,804],[7,854],[-32630,19070],[32839,278],[214,25880],[-628,115848],[-52011,251],[25,12892],[-17373,6],[-300,25632]],[[446863,886],[-9757,-314],[-108,-2],[-6365,-132],[-1329,-108],[-14977,-330],[-2334,103],[-1650,264],[-2953,1825],[-12873,5386],[-4509,-1157],[-7602,2456],[-9145,5652],[-4527,4099],[-5311,2123],[-2377,1735],[-3730,1691],[-13315,9836],[-1944,957],[-13527,3731],[-11299,3717],[-19235,522],[-6879,-827],[-7217,34],[-5571,983],[-9486,270],[-1632,-96],[-12592,-3229],[-13153,-6630],[-2493,-254],[-5569,-103],[-2619,-822],[-5278,1522],[-7255,-2991],[-15752,-5170],[-8788,-944],[-7036,1062],[-8378,2435],[-7600,2867],[-2791,114],[-4755,1853],[-2784,2519],[-7005,390],[-7365,-2210],[-4504,1092],[-5449,286],[-1117,-923],[-9069,443],[-3037,881],[-5239,4074],[-3560,1262],[-4394,1127],[-9699,991],[-4865,-18],[-20771,3566],[-4574,1631],[-9825,1026],[-7170,-142],[-21940,178],[-86,5409],[-121,12914],[-90,56939],[83,64627],[-5,12642],[34340,107],[150,18896],[4272,318],[7117,4310],[320,3539],[1720,2214],[5380,1542],[3478,3144],[-457,2253],[8474,5105],[4248,1239],[-45,8842],[410,25666],[17341,43],[8730,32],[8635,34],[-10,25682],[825,2]],[[837309,535285],[22829,-115],[-733,-77271],[70184,-179],[-94,-103206],[-48,-51543],[-69271,77],[70,-38109],[0,-13136],[-61311,-129],[-4009,13182],[-4772,12527],[-103711,-71],[14,-25777],[-108,-10984],[-5797,1431],[-2336,3495],[-6655,909],[-1963,-1989],[-5635,-1107],[-9159,1674],[-5188,1780],[-3354,-3078],[-5008,-2025],[-3817,-458],[-5278,699],[-4490,-538],[-2250,1672],[-719,2890],[-4552,1612],[-117,-20982],[-35038,226],[82,-12929],[-34931,244],[201,-12659],[813,-26082]],[[746803,321378],[9400,-1405],[37,14471],[-9232,-923],[-68,-4819],[-137,-7324]],[[238653,562519],[-3882,47],[-8574,7],[-8653,19],[-31346,39],[-12285,-10],[190,25837],[-8766,-11],[-8554,5],[-45,12948],[-17666,-21],[-67,-12893],[-34719,69],[302,25734],[-34771,-46],[95,12848],[121,12925],[-142,25729],[17364,48],[-36,3809],[-9548,32],[-157,8727],[-7914,-66],[-254,13106],[-34645,145],[-34701,13],[295,25597],[3,12923],[-72,12820],[35025,3],[27,12845],[34,6492],[11,6403],[16250,94],[95,25767],[34861,-40],[17545,-180],[241,-25725],[69706,327],[-87,25823],[34712,24],[455,37880],[4336,-11],[30178,-18926],[-120,36555],[235,17488],[-6198,3371],[1216,348],[5201,-26],[4,25773],[104778,-226],[-352,82116],[-12,3248],[-52,17677],[34884,-211],[160,-25701],[69441,-56],[-7,-12861],[7,-12893],[52,-25728],[59556,-283],[25994,-120],[17743,-174],[553,-25759],[17413,-38],[20,-12914],[17441,-104],[-68,-12842],[-29,-6033],[14,-6657],[13,-12891]]],"bbox":[-96.922992,41.42568,-96.366553,41.98902],"transform":{"scale":[5.564395564395539e-7,5.633405633405599e-7],"translate":[-96.922992,41.42568]}}
