{"type":"Topology","objects":{"foo":{"type":"GeometryCollection","geometries":[{"type":"MultiPolygon","arcs":[[[0,1]]],"properties":{"postal_code":"61439","realtor_list_price":193675,"realtor_list_price_yoy":0.1067,"realtor_list_price_base":"NA","realtor_active_listings":1.667,"realtor_active_listings_yoy":0.6667,"realtor_active_listings_base":-0.4745,"realtor_new_listings":1.333,"realtor_new_listings_yoy":0,"realtor_new_listings_base":2.25,"realtor_days_on_market":6,"realtor_days_on_market_yoy":2,"realtor_days_on_market_base":"NA","zhvi":"NA","zhvi_yoy":"NA","zhvi_base":"NA","zori":"NA","zori_yoy":"NA","zori_base":"NA"}},{"type":"MultiPolygon","arcs":[[[2,3,4]]],"properties":{"postal_code":"61572","realtor_list_price":"NA","realtor_list_price_yoy":"NA","realtor_list_price_base":"NA","realtor_active_listings":3.333,"realtor_active_listings_yoy":0.6667,"realtor_active_listings_base":-0.1295,"realtor_new_listings":0,"realtor_new_listings_yoy":"NaN","realtor_new_listings_base":-1,"realtor_days_on_market":"NA","realtor_days_on_market_yoy":"NA","realtor_days_on_market_base":"NA","zhvi":137087.853,"zhvi_yoy":0.1522,"zhvi_base":0.5116,"zori":"NA","zori_yoy":"NA","zori_base":"NA"}},{"type":"MultiPolygon","arcs":[[[5]]],"properties":{"postal_code":"61430","realtor_list_price":"NA","realtor_list_price_yoy":"NA","realtor_list_price_base":"NA","realtor_active_listings":1,"realtor_active_listings_yoy":-0.75,"realtor_active_listings_base":-0.6627,"realtor_new_listings":0,"realtor_new_listings_yoy":-1,"realtor_new_listings_base":"NA","realtor_days_on_market":"NA","realtor_days_on_market_yoy":"NA","realtor_days_on_market_base":"NA","zhvi":"NA","zhvi_yoy":"NA","zhvi_base":"NA","zori":"NA","zori_yoy":"NA","zori_base":"NA"}},{"type":"MultiPolygon","arcs":[[[6,7]]],"properties":{"postal_code":"61423","realtor_list_price":"NA","realtor_list_price_yoy":"NA","realtor_list_price_base":"NA","realtor_active_listings":"NA","realtor_active_listings_yoy":"NA","realtor_active_listings_base":"NA","realtor_new_listings":"NA","realtor_new_listings_yoy":"NA","realtor_new_listings_base":"NA","realtor_days_on_market":"NA","realtor_days_on_market_yoy":"NA","realtor_days_on_market_base":"NA","zhvi":167772.666,"zhvi_yoy":0.0325,"zhvi_base":"NA","zori":"NA","zori_yoy":"NA","zori_base":"NA"}},{"type":"MultiPolygon","arcs":[[[8,9,10,11,12,-3,13]]],"properties":{"postal_code":"61489","realtor_list_price":"NA","realtor_list_price_yoy":"NA","realtor_list_price_base":"NA","realtor_active_listings":1.333,"realtor_active_listings_yoy":0,"realtor_active_listings_base":-0.6272,"realtor_new_listings":0,"realtor_new_listings_yoy":"NaN","realtor_new_listings_base":-1,"realtor_days_on_market":"NA","realtor_days_on_market_yoy":"NA","realtor_days_on_market_base":"NA","zhvi":152350.006,"zhvi_yoy":0.1046,"zhvi_base":"NA","zori":"NA","zori_yoy":"NA","zori_base":"NA"}},{"type":"MultiPolygon","arcs":[[[14,15,16,17]]],"properties":{"postal_code":"61467","realtor_list_price":240000,"realtor_list_price_yoy":"NA","realtor_list_price_base":"NA","realtor_active_listings":2.333,"realtor_active_listings_yoy":1.3333,"realtor_active_listings_base":-0.5899,"realtor_new_listings":0.667,"realtor_new_listings_yoy":"Inf","realtor_new_listings_base":-0.6461,"realtor_days_on_market":88,"realtor_days_on_market_yoy":"NA","realtor_days_on_market_base":"NA","zhvi":142700.118,"zhvi_yoy":0.1279,"zhvi_base":0.4818,"zori":"NA","zori_yoy":"NA","zori_base":"NA"}},{"type":"MultiPolygon","arcs":[[[18,19,-12,20]]],"properties":{"postal_code":"61449","realtor_list_price":"NA","realtor_list_price_yoy":"NA","realtor_list_price_base":"NA","realtor_active_listings":1.667,"realtor_active_listings_yoy":4,"realtor_active_listings_base":-0.6339,"realtor_new_listings":0,"realtor_new_listings_yoy":-1,"realtor_new_listings_base":-1,"realtor_days_on_market":"NA","realtor_days_on_market_yoy":"NA","realtor_days_on_market_base":"NA","zhvi":116394.307,"zhvi_yoy":0.0317,"zhvi_base":-0.0605,"zori":"NA","zori_yoy":"NA","zori_base":"NA"}},{"type":"MultiPolygon","arcs":[[[21,-14,-5,22,23]]],"properties":{"postal_code":"61458","realtor_list_price":"NA","realtor_list_price_yoy":"NA","realtor_list_price_base":"NA","realtor_active_listings":1.333,"realtor_active_listings_yoy":-0.4286,"realtor_active_listings_base":-0.5448,"realtor_new_listings":0,"realtor_new_listings_yoy":"NaN","realtor_new_listings_base":"NA","realtor_days_on_market":"NA","realtor_days_on_market_yoy":"NA","realtor_days_on_market_base":"NA","zhvi":"NA","zhvi_yoy":"NA","zhvi_base":"NA","zori":"NA","zori_yoy":"NA","zori_base":"NA"}},{"type":"MultiPolygon","arcs":[[[-19,24]]],"properties":{"postal_code":"61434","realtor_list_price":139675,"realtor_list_price_yoy":0.0689,"realtor_list_price_base":1.2655,"realtor_active_listings":7.667,"realtor_active_listings_yoy":1.0909,"realtor_active_listings_base":-0.5907,"realtor_new_listings":2.667,"realtor_new_listings_yoy":0.3333,"realtor_new_listings_base":-0.3151,"realtor_days_on_market":30,"realtor_days_on_market_yoy":0.0227,"realtor_days_on_market_base":-0.6296,"zhvi":114752.676,"zhvi_yoy":0.0136,"zhvi_base":0.4171,"zori":"NA","zori_yoy":"NA","zori_base":"NA"}},{"type":"MultiPolygon","arcs":[[[25,-10,26,27]]],"properties":{"postal_code":"61428","realtor_list_price":427885.714,"realtor_list_price_yoy":0.1862,"realtor_list_price_base":0.3745,"realtor_active_listings":8,"realtor_active_listings_yoy":-0.3143,"realtor_active_listings_base":-0.8301,"realtor_new_listings":4.667,"realtor_new_listings_yoy":0.1667,"realtor_new_listings_base":-0.2955,"realtor_days_on_market":49,"realtor_days_on_market_yoy":0.1136,"realtor_days_on_market_base":-0.4348,"zhvi":357230.696,"zhvi_yoy":0.1691,"zhvi_base":0.6977,"zori":"NA","zori_yoy":"NA","zori_base":"NA"}},{"type":"MultiPolygon","arcs":[[[-17,28,-2,29]]],"properties":{"postal_code":"61488","realtor_list_price":"NA","realtor_list_price_yoy":"NA","realtor_list_price_base":"NA","realtor_active_listings":1.333,"realtor_active_listings_yoy":-0.3333,"realtor_active_listings_base":-0.7002,"realtor_new_listings":0,"realtor_new_listings_yoy":"NaN","realtor_new_listings_base":-1,"realtor_days_on_market":"NA","realtor_days_on_market_yoy":"NA","realtor_days_on_market_base":"NA","zhvi":143607.061,"zhvi_yoy":0.2092,"zhvi_base":0.7634,"zori":"NA","zori_yoy":"NA","zori_base":"NA"}},{"type":"MultiPolygon","arcs":[[[-7,30,31,-24,32]]],"properties":{"postal_code":"61410","realtor_list_price":121075,"realtor_list_price_yoy":0.9732,"realtor_list_price_base":"NA","realtor_active_listings":8.667,"realtor_active_listings_yoy":-0.1034,"realtor_active_listings_base":-0.3705,"realtor_new_listings":2,"realtor_new_listings_yoy":-0.5,"realtor_new_listings_base":-0.507,"realtor_days_on_market":43,"realtor_days_on_market_yoy":-0.5132,"realtor_days_on_market_base":"NA","zhvi":93826.543,"zhvi_yoy":0.1697,"zhvi_base":0.3601,"zori":"NA","zori_yoy":"NA","zori_base":"NA"}},{"type":"MultiPolygon","arcs":[[[33,-27,-9,-22,-32,34]]],"properties":{"postal_code":"61436","realtor_list_price":"NA","realtor_list_price_yoy":"NA","realtor_list_price_base":"NA","realtor_active_listings":1,"realtor_active_listings_yoy":0.5,"realtor_active_listings_base":-0.3988,"realtor_new_listings":0,"realtor_new_listings_yoy":"NaN","realtor_new_listings_base":-1,"realtor_days_on_market":"NA","realtor_days_on_market_yoy":"NA","realtor_days_on_market_base":"NA","zhvi":"NA","zhvi_yoy":"NA","zhvi_base":"NA","zori":"NA","zori_yoy":"NA","zori_base":"NA"}},{"type":"MultiPolygon","arcs":[[[-15,35,-28,-34,36]]],"properties":{"postal_code":"61448","realtor_list_price":218300,"realtor_list_price_yoy":0.7987,"realtor_list_price_base":0.6601,"realtor_active_listings":7,"realtor_active_listings_yoy":0.05,"realtor_active_listings_base":-0.4465,"realtor_new_listings":4,"realtor_new_listings_yoy":-0.1429,"realtor_new_listings_base":0.3885,"realtor_days_on_market":32.333,"realtor_days_on_market_yoy":0.1317,"realtor_days_on_market_base":-0.634,"zhvi":168911.264,"zhvi_yoy":0.2121,"zhvi_base":0.5905,"zori":"NA","zori_yoy":"NA","zori_base":"NA"}}]}},"arcs":[[[312811,536466],[-1707,52],[-63,-1107],[-3271,1116]],[[307770,536527],[-2049,16],[1035,870],[139,7358],[-10474,7822],[-2512,3447],[-2704,6239],[9113,-56],[39793,-402],[-280,-18629],[-19657,5],[-3532,12],[-69,-6759],[-3762,16]],[[698399,229860],[81578,-1398],[-21,25989],[-27499,718],[-46,5391],[13412,-94],[40,6991],[10014,30],[4253,-1557],[4243,-1761],[9217,-4301],[8532,-4054]],[[802122,255814],[26109,-12099],[5798,-1565],[-34,-1732],[211,-3652],[-152,-84968],[0,-73],[-56,-12861],[-130,-25465],[-432,-51067],[-232,-37779],[113,-13251],[-27325,149],[92,25538],[43,19134],[-4953,1559],[-4080,2736],[-54,3172],[-2144,2470],[1880,5168],[2848,4083],[-33784,1313],[-13093,304],[-81612,-235]],[[671135,76693],[-18,23720],[-47,14472],[-54,12462],[-44,25166],[29,5955],[1332,-1441],[2969,475],[4247,-1082],[3149,1639],[-2,2436],[4502,1278],[3383,3190],[7720,1919],[98,62978]],[[349981,413690],[1195,40],[848,525],[9,475],[1636,1440],[1857,318],[344,6201],[2310,-5],[6789,3760],[734,-3234],[5339,-23],[2134,-6792],[2075,-2247],[3279,-47],[-48,-2132],[13388,-1989],[-382,-25948],[-6692,1958],[857,-1941],[-21067,203],[-217,202],[99,6289],[1897,-29],[-545,4910],[5576,-81],[34,1577],[-6663,103],[-163,3],[-86,-4117],[-85,4115],[-3253,46],[143,5714],[-2017,1433],[-4702,-430],[-2739,814],[48,2834],[29,1783],[16,933],[17,999],[-629,62],[-85,639],[-299,440],[-896,879],[-85,320]],[[167336,205622],[-6428,73],[-690,-25398],[-74070,620],[-6439,86],[-27005,2]],[[52704,181005],[706,51205],[-26156,88],[572,25318],[-27826,1885],[754,49364],[28249,-734],[24924,-417],[17396,-37],[5408,2497],[46,4166],[4065,-46],[141,18549],[-24134,79],[-2135,-189],[-655,578],[-300,13022],[2851,-52],[0,12155],[24712,-470],[-497,3840],[-17028,3282],[-7161,264],[-1,6226],[13490,-72],[68,14601],[6094,1781],[2591,1487],[2563,138],[75,7269],[382,37559],[218,26120],[40785,-246],[-173,-25703],[40692,463],[-23,-25596],[-27166,-499],[-267,-25436],[13516,163],[-570,-38053],[1314,12],[24279,12726],[14674,28],[-305,-25376],[-27,-2530],[-13345,-8384],[-4,-1812],[-5966,-2090],[-7496,-4852],[-472,-5964],[-241,-758],[6,-11720],[-1092,-1477],[1056,-2705],[-97,-18218],[1107,-2396],[-1137,-1524],[-69,-11906],[-301,-25432],[6746,-629],[-204,-24925]],[[671699,277300],[4782,2700],[2521,1160],[375,2344],[3541,3463],[3820,1511],[-9213,5250],[-5135,1983],[743,7928]],[[673133,303639],[5275,1401],[1353,112],[72522,-327],[559,1487],[-44,24207],[40514,87],[-61,23297],[-3,678],[-1540,1803],[-18594,23],[-20212,84],[176,39173],[-6796,121],[-3027,919],[-4605,2797],[-3070,4755],[-2005,1199],[1452,2916],[-3242,2478]],[[731785,410849],[1280,919],[-938,2556],[3199,-599],[214,5793],[-2304,-159],[-980,1997],[1877,3037],[-2716,4547],[-3819,1350],[-7888,380],[-4032,-1248],[-2171,1345],[-4782,-665],[-2958,3042],[-650,3000],[-3079,1643],[-220,1719],[3017,2523],[-1500,1122],[2973,3443],[1957,520],[-1588,3002],[1481,2562],[-900,1120],[888,3680],[8902,-89],[-1278,25794],[-54,25057],[41590,-480],[-224,38313],[27562,-204],[6265,-44],[2663,-2516],[6,2499]],[[793578,545808],[40623,-229],[-195,-51687]],[[834006,493892],[-13,-10514],[-145,-26796],[1011,313],[15661,295],[-466,-7121],[-3113,-2319],[1626,-9666],[2689,-4433],[-4704,-1887],[97,-1033],[-3076,-1001],[-3295,-2885],[-6464,709],[28,-22043],[28,-24565],[19253,323],[420,-1847],[-5834,112],[-38,-38777],[-13733,-10],[7,-3747],[13,-12737],[-15,-6675],[-24,-12768],[6074,-28],[72,-12821],[6299,-1177],[-5434,0],[46,-3937],[-7005,-75],[-7,-2022],[25,-4870],[-7680,126],[129,-2438],[-6387,-3360],[-2258,718],[-1915,-2238],[-551,-3118],[-2949,-919],[-2899,-3035],[467,-1438],[-6886,-4568],[-938,-3806]],[[698399,229860],[-88,25617],[-26906,44],[294,21779]],[[552566,534989],[-26512,179],[-106,25629],[-10249,-51],[-981,-80674],[-4285,-10330],[-7384,2914],[-1538,4276],[-3032,3196]],[[498479,480128],[1704,9230],[1750,1639],[-257,7311],[-5679,2373],[-181,1767],[-5123,1756],[-5467,4431],[-3290,5274],[-3076,2196],[341,2277],[-8541,4790],[-2778,479],[-3501,-883],[-1666,1438],[-4263,233],[-1151,1958],[-1362,6155],[-4181,4917],[-1580,741],[-895,578],[-1485,2759]],[[447798,541547],[-504,941],[-948,1328],[-3135,1773],[-464,634],[-1364,3675],[-1376,2132],[-2274,1251],[-2058,292],[-1260,737],[-10498,556],[-350,-105],[5121,4412],[1445,871],[2846,573],[1550,-23],[27009,-372],[362,38292],[-3932,-3],[-51943,813],[-31,13336],[-26194,33],[-286,-51087],[-25215,-170],[161,11914],[24,2216],[279,26940],[-1170,478],[-5017,6871],[-4247,2702],[-2009,54]],[[342320,612611],[-19,5057],[-1562,16548],[187,4031],[12350,-77],[1794,147],[417,51150],[0,66],[1286,390],[10742,108],[485,12672],[-12430,-99],[173,13199],[12405,41],[10839,21],[233,32216],[1818,-550],[1800,2158],[2912,-3839],[2698,-1677],[3296,1597],[2015,-360],[16317,-565],[3330,1517],[7581,-531],[1776,-589],[3149,38],[4724,755],[1659,479],[1275,1239],[1070,496],[-9,-870],[12509,66],[13,-5780],[-12585,26],[-179,-25823],[55117,-150],[-128,-12969],[27929,-378],[-331,-29627],[3697,164],[1768,-1675],[3044,-596],[239,-15814],[637,-484],[27127,20652],[-451,-37562],[41105,-771],[-365,-25569],[-112,2],[-151,-25516],[-163,-25542],[-138,-24580],[-797,-1142],[-6558,298],[-33292,380]],[[766405,614753],[55,7432],[41260,105],[-51,25384],[-11045,-61],[3876,4283],[3712,2743],[-729,2613],[-2351,-345],[-1324,3946],[-4317,2663],[-939,1480],[1327,4217],[-3164,-280],[300,1618],[-2023,2577],[-10656,324],[-15,-25864],[-13652,34],[365,38357],[528,11414],[40605,257],[-57,8597],[3449,659],[4712,2007],[279,2274],[-5878,131],[-2803,543],[65,24920],[27163,-68],[52,25487],[55611,-43],[27562,50],[-8,-5203],[24547,-636],[2819,582],[-3,-7560],[-42,-12046]],[[945635,737344],[-336,-31943],[-13844,-3343],[-2702,-2048],[-10588,380],[-119,-51598],[-27466,-629],[-291,-38383],[-1374,12],[-133,-24460],[4187,-72],[343,-12785],[-3985,-49],[564,-6457],[1966,-2576],[-3030,-2137],[-4653,-223],[-981,-1517],[3246,-4035],[-940,-5195],[-3799,-3196],[-4568,-80],[-1025,1517],[-4913,2037],[-1280,-281],[-4397,-5314],[-512,-2277],[1010,-9312],[-4790,743],[-9458,8653],[-4123,2378],[-50,-41186],[-959,-4161],[68,-4546],[-7212,-14],[-5485,-1355]],[[793578,545808],[169,25447],[7424,-54],[-73,12461],[-6279,111],[-1289,-47],[130,10088],[7746,-895],[2276,-484],[3219,-201],[485,4397],[136,12672],[-13755,35],[-27405,-14],[43,5429]],[[363874,153953],[11021,-51],[3942,9],[3993,-6008],[5257,30],[-110,-7779],[7409,-10995],[18979,-192],[10902,-66],[103,2289],[2816,99],[68,20485],[789,2308],[54021,-192],[-2415,3488],[-3070,618],[373,3750],[-1588,5316],[2459,2464],[2678,299],[335,2095],[2974,258],[-941,1937],[2335,1698],[-184,4440],[6282,498],[5021,4157],[-2767,2955],[83,4756],[2427,-1677],[-1120,6560],[1731,1609],[2405,-183],[6436,1466],[4546,-1369],[2,-367],[3710,-1878],[6726,3117],[3277,6913],[-4001,10268],[20151,-285],[-4076,7592],[-4614,5176],[12893,-138],[20058,-38411],[35550,-30],[10,4984],[3690,5207],[-659,5520],[594,47124],[13625,-98],[393,22278],[21460,-7766],[4556,-1207],[908,-1145],[-207,-11625],[8591,-56],[1798,-3215],[6086,-757],[3365,402],[1574,2558],[-2003,1877],[-2728,5871],[-1665,8391],[-386,5234],[594,2717],[6578,963],[4785,-939]],[[671135,76693],[-6,-17980],[12324,-240],[10261,-4660],[3966,-2990],[-240,-29368],[-4078,-371],[-10219,-4622],[-4945,-314],[-1391,-1133],[-5852,-1716],[-5,-3335],[329,-3333],[-58,-805],[-321,-1802],[-35,-3895],[-26701,-129],[-27201,442],[-26824,-136],[-229,12693],[-27032,150],[-15,-12712],[-26592,201],[-359,12600],[-27054,131],[83,17771],[-7633,-1483],[-5810,3282],[339,19155],[-15690,166],[2700,-7402],[2979,-5122],[-297,-1160],[-1402,-364],[-1489,2555],[-1914,115],[-4973,-2963],[-2891,118],[-1998,-1838],[-13021,-400],[-19811,29197],[-10048,-164],[-40147,666],[-13849,241],[-13455,98],[-58,-12898],[-12977,121],[256,25259],[-959,-476],[-12570,124]],[[334223,77967],[297,25467],[12532,-292],[956,524],[12562,483],[402,49816],[2902,-12]],[[766405,614753],[-2092,-708],[-3033,2957],[215,3556],[-1581,2397],[-3032,1479],[-5656,639],[-4996,-318],[-5680,2198],[-2009,-838],[-7344,2399],[-4314,2558],[599,2957],[-896,2996],[-64,5150],[-2713,4],[430,2769],[-6229,2745],[-1892,1957],[-8840,-42],[-1621,2436],[-5584,3168],[173,31859],[28,12087],[1,61],[395,63542],[-1546,21],[-22035,268],[-54527,1370],[99,12740],[999,74336],[13428,-271],[-214,-9995],[13431,-755],[32,1861],[6930,-292],[167,17240],[11755,-797],[3481,-3171],[544,-2072],[4710,-1940],[853,61030],[-19111,169],[653,26115],[-26988,164],[517,26047],[26637,-273],[143,12473],[838,542],[13737,-393],[13484,-437],[310,21825],[12870,-561],[4456,500],[4101,-1370],[5848,-68],[47,1753],[13305,52],[25,1127],[12986,-302],[-51,-4585],[-129,-12996],[-123,-6502],[-604,-51136],[-6863,110],[3,-12765],[34112,-360],[-107,-4620],[-2344,-3246],[4617,-885],[10368,-52],[-165,-38252],[27224,8],[-259,-25578],[16350,-411],[11249,14427],[-228,-27359],[12843,42],[-19,-24866],[19124,-437],[21948,12702],[1225,-1],[34,25351],[14991,-147],[-969,-5646],[-377,-4924],[1449,-1461],[-1479,-7161],[4373,-9801],[-855,-999],[2340,-1659],[-993,-6371],[-2305,1763],[-3308,193],[-7175,-1540],[-5739,18],[19,-12994],[5515,54],[6012,2419],[10458,7728],[2513,2193],[2623,4862],[322,7824],[27141,803],[54603,-420],[-208,-30106],[-17,-6656],[19,-13885],[-307,0],[-43720,-118],[-3751,-3418],[76,-6757],[4221,-5031],[2994,-1679],[639,-3076],[5648,795],[1068,-2196],[-1369,-3595],[-19657,46]],[[552083,458555],[41140,-331],[2752,-14],[2370,4463],[7024,1370],[6181,-557],[4553,1651],[8039,-3093],[1323,-1808],[271,-2192],[14751,-111],[16163,73],[10363,-157],[1459,-3499],[-4821,-3998],[-1961,-3274],[2471,-4108],[3796,-2469],[-727,-3350],[1109,-5547],[1577,-1076],[-2362,-2895],[2516,1303],[3396,-2165],[-395,-36868],[3870,2561],[2730,-2795],[4267,-9749],[3028,-2076],[1024,-2078],[-382,-3397],[4733,-1557],[-641,5795],[2430,1398],[1877,-240],[1749,-2357],[1279,2198],[-2730,4554],[-1068,6233],[1450,4236],[3112,3916],[2175,1198],[6226,41],[6354,7711],[3838,2518],[7082,6392],[597,-1798],[-1835,-1557],[384,-1679],[2687,-600],[768,2478],[2133,1678],[1577,-2078]],[[673133,303639],[-1272,215],[-5,1344],[-70,2325],[594,29414],[-5340,-426],[-27574,6647],[14,13319],[-21530,14],[-35,-12805],[-20319,396],[-6464,39],[259,24878],[-1096,2409],[-4327,4082],[-1029,3528],[-2139,1901],[-2810,1279],[-3027,2],[-3748,1438],[-3965,-2796],[-3069,638],[-7075,-3115],[-2087,-2197],[-4859,-1078],[-2301,839]],[[549859,375929],[-3964,5808],[-2591,2008],[691,2371],[-294,5181],[1274,4180],[166,7218],[6817,2050],[125,53810]],[[447798,541547],[-65,-3765],[-6781,113],[-2233,1309],[-7190,168],[-3066,1022],[-1032,-1029],[807,-4564],[3782,-528],[8280,-3324],[-20161,-14821],[-63,-5988],[13586,-208],[-147,-12702],[-27221,397],[-6968,1],[5,3228],[-21612,-15260],[-15142,-12992],[-6669,77],[31026,37887],[-1551,140],[-25086,-30723],[-2605,-2621],[-4958,-2829],[13,1850],[251,1160],[534,33098],[4,328],[-26840,28],[-9815,76],[-3780,5714],[-290,19677]],[[307770,536527],[-4636,-828],[8,882],[-2986,42],[8731,-13366],[-1465,-1232],[-3032,2473],[-3246,154],[-2565,2195],[-3288,433],[-5765,1988],[-1962,-962],[-6554,-173],[-2304,1156],[-6267,-2081],[-7822,-82],[-4707,-1520],[-2679,1080],[-42,1712],[2864,1947],[986,4180],[-840,2084],[-14727,175],[623,38057],[12923,103],[731,1700],[126,11545],[5991,-105],[0,9525],[7539,51],[7,606],[11489,-23217],[1810,-13],[259,25635],[13807,-362],[12375,-294],[14738,-218],[121,12576],[14309,238]],[[167336,205622],[12636,-198],[-1094,7785],[2725,4716],[5792,1358],[-95,-16148],[6277,6],[3831,1501],[2838,690],[26912,449],[202,-9156],[2549,-2807],[4815,-131],[191,-6441],[5620,-17],[-6,-7156],[14301,-33],[4208,-9],[8446,-19],[146,38368],[52,12829],[22923,-465],[562,-620],[830,-1875],[2533,-1297],[2676,-2123],[3718,3149],[3825,563],[2236,858],[143,851],[34999,302]],[[342127,230552],[-70,-5782],[1159,-13595],[5947,56],[-22,-9312],[343,-5043],[-500,-2586],[106,-15131],[4388,-21],[2007,287],[1826,61],[4456,-35],[11837,-17661],[-5058,-40],[-14,4283],[-2149,-42],[-1588,-4930],[-921,-7108]],[[334223,77967],[-13534,262],[-13229,-208],[-67252,465],[3,192],[-54503,689],[-13297,107],[457,24916],[-67384,2002],[60,41908],[291,6036],[232,964],[-14352,138],[-12615,119],[-10415,101],[-4506,5912],[-4603,-161],[-5287,-2997],[-2028,-199],[443,22792]],[[349952,281686],[1986,184],[51949,-364],[-436,-51197],[22775,886],[10688,93],[4383,3973],[2092,3743],[2388,-1364],[7360,576],[1021,1354],[8003,2344],[2070,2415],[3,12422],[-18483,227],[805,7173],[-81,5641],[-1827,25363],[-181,11311],[29,3740],[504,22918],[13404,-4473],[109,10102],[9514,-1789],[3309,-1718],[3619,-3563],[7584,-10752],[5655,-1772],[24283,-35],[140,12112],[11239,-46],[397,22262],[-2259,4694],[-1258,7779],[507,3175],[4621,627],[2290,-2044],[4479,-993],[3668,-3110],[2772,243],[2130,1904],[806,5386],[1750,2020],[6100,2796]],[[342127,230552],[34,2857],[-5539,-38],[20,2130],[5544,-7],[79,6612],[425,29417],[2586,1653],[4493,-10938],[18,6175],[165,13273]],[[552566,534989],[-322,-51808],[-161,-24626]],[[349952,281686],[269,25226],[26265,-201],[3192,1317],[8191,-38],[2574,3542],[-2428,2581],[-468,5635],[2995,3072],[198,15931],[103,10402],[-3513,2291],[-295,2593],[1768,876],[2103,-420],[-11038,4998],[-197,89],[65,53],[3326,2035],[1946,334],[1710,-140],[8151,-2845],[1947,6],[-715,1565],[1161,1949],[1081,-4428],[6412,19],[88,4538],[6674,-758],[9,498],[7,435],[180,6972],[-525,4400],[1356,3484],[-957,3560],[465,3393],[-21,10675],[-618,2778],[687,4185],[487,20571],[-7050,92],[135,12852],[21194,175],[94,23235],[19586,35],[475,21417],[5909,106],[-55,3271],[11424,528],[7372,-287],[131,-5245],[24142,1177],[-12,710],[2547,-797]]],"bbox":[-90.57503,40.713203,-89.868006,41.285481],"transform":{"scale":[7.070247070247111e-7,5.722785722785694e-7],"translate":[-90.57503,40.713203]}}
