{"type":"Topology","objects":{"foo":{"type":"GeometryCollection","geometries":[{"type":"MultiPolygon","arcs":[[[0,1,2,3]]],"properties":{"postal_code":"87045","realtor_list_price":"NA","realtor_list_price_yoy":"NA","realtor_list_price_base":"NA","realtor_active_listings":0.667,"realtor_active_listings_yoy":-0.7143,"realtor_active_listings_base":-0.5408,"realtor_new_listings":0,"realtor_new_listings_yoy":-1,"realtor_new_listings_base":"NA","realtor_days_on_market":"NA","realtor_days_on_market_yoy":"NA","realtor_days_on_market_base":"NA","zhvi":"NA","zhvi_yoy":"NA","zhvi_base":"NA","zori":"NA","zori_yoy":"NA","zori_base":"NA"}},{"type":"MultiPolygon","arcs":[[[4]]],"properties":{"postal_code":"87013","realtor_list_price":"NA","realtor_list_price_yoy":"NA","realtor_list_price_base":"NA","realtor_active_listings":4.333,"realtor_active_listings_yoy":3.3333,"realtor_active_listings_base":1.2198,"realtor_new_listings":0,"realtor_new_listings_yoy":"NaN","realtor_new_listings_base":-1,"realtor_days_on_market":"NA","realtor_days_on_market_yoy":"NA","realtor_days_on_market_base":"NA","zhvi":240050.002,"zhvi_yoy":0.0944,"zhvi_base":"NA","zori":"NA","zori_yoy":"NA","zori_base":"NA"}},{"type":"MultiPolygon","arcs":[[[5,6,-2,7,8],[9],[10]]],"properties":{"postal_code":"87020","realtor_list_price":208185.714,"realtor_list_price_yoy":0.0815,"realtor_list_price_base":0.7549,"realtor_active_listings":29.333,"realtor_active_listings_yoy":-0.2479,"realtor_active_listings_base":-0.3935,"realtor_new_listings":4.667,"realtor_new_listings_yoy":-0.3,"realtor_new_listings_base":-0.3105,"realtor_days_on_market":95.143,"realtor_days_on_market_yoy":-0.2156,"realtor_days_on_market_base":-0.1726,"zhvi":162768.286,"zhvi_yoy":0.071,"zhvi_base":0.7173,"zori":"NA","zori_yoy":"NA","zori_base":"NA"}},{"type":"MultiPolygon","arcs":[[[11,12]]],"properties":{"postal_code":"87316","realtor_list_price":"NA","realtor_list_price_yoy":"NA","realtor_list_price_base":"NA","realtor_active_listings":0.667,"realtor_active_listings_yoy":"NA","realtor_active_listings_base":"NA","realtor_new_listings":0,"realtor_new_listings_yoy":"NA","realtor_new_listings_base":"NA","realtor_days_on_market":"NA","realtor_days_on_market_yoy":"NA","realtor_days_on_market_base":"NA","zhvi":"NA","zhvi_yoy":"NA","zhvi_base":"NA","zori":"NA","zori_yoy":"NA","zori_base":"NA"}},{"type":"MultiPolygon","arcs":[[[13,14,-6,15]]],"properties":{"postal_code":"87321","realtor_list_price":362500,"realtor_list_price_yoy":0.0859,"realtor_list_price_base":"NA","realtor_active_listings":9.667,"realtor_active_listings_yoy":-0.275,"realtor_active_listings_base":-0.4243,"realtor_new_listings":0.667,"realtor_new_listings_yoy":-0.75,"realtor_new_listings_base":-0.7417,"realtor_days_on_market":46,"realtor_days_on_market_yoy":-0.4356,"realtor_days_on_market_base":"NA","zhvi":"NA","zhvi_yoy":"NA","zhvi_base":"NA","zori":"NA","zori_yoy":"NA","zori_base":"NA"}},{"type":"MultiPolygon","arcs":[[[-4,16],[17]]],"properties":{"postal_code":"87323","realtor_list_price":"NA","realtor_list_price_yoy":"NA","realtor_list_price_base":"NA","realtor_active_listings":5.667,"realtor_active_listings_yoy":1.8333,"realtor_active_listings_base":0.0519,"realtor_new_listings":0,"realtor_new_listings_yoy":"NaN","realtor_new_listings_base":"NA","realtor_days_on_market":"NA","realtor_days_on_market_yoy":"NA","realtor_days_on_market_base":"NA","zhvi":"NA","zhvi_yoy":"NA","zhvi_base":"NA","zori":"NA","zori_yoy":"NA","zori_base":"NA"}},{"type":"MultiPolygon","arcs":[[[18,19]]],"properties":{"postal_code":"87375","realtor_list_price":"NA","realtor_list_price_yoy":"NA","realtor_list_price_base":"NA","realtor_active_listings":1.667,"realtor_active_listings_yoy":0.6667,"realtor_active_listings_base":"NA","realtor_new_listings":0,"realtor_new_listings_yoy":-1,"realtor_new_listings_base":"NA","realtor_days_on_market":"NA","realtor_days_on_market_yoy":"NA","realtor_days_on_market_base":"NA","zhvi":"NA","zhvi_yoy":"NA","zhvi_base":"NA","zori":"NA","zori_yoy":"NA","zori_base":"NA"}},{"type":"MultiPolygon","arcs":[[[-12,20,-14,21]]],"properties":{"postal_code":"87347","realtor_list_price":"NA","realtor_list_price_yoy":"NA","realtor_list_price_base":"NA","realtor_active_listings":1.333,"realtor_active_listings_yoy":1,"realtor_active_listings_base":0.0272,"realtor_new_listings":0,"realtor_new_listings_yoy":"NaN","realtor_new_listings_base":"NA","realtor_days_on_market":"NA","realtor_days_on_market_yoy":"NA","realtor_days_on_market_base":"NA","zhvi":"NA","zhvi_yoy":"NA","zhvi_base":"NA","zori":"NA","zori_yoy":"NA","zori_base":"NA"}},{"type":"MultiPolygon","arcs":[[[-19,22]]],"properties":{"postal_code":"87301","realtor_list_price":305611.357,"realtor_list_price_yoy":0.2843,"realtor_list_price_base":1.0739,"realtor_active_listings":38.333,"realtor_active_listings_yoy":-0.0336,"realtor_active_listings_base":-0.4642,"realtor_new_listings":9.333,"realtor_new_listings_yoy":0.1667,"realtor_new_listings_base":-0.3906,"realtor_days_on_market":75.857,"realtor_days_on_market_yoy":0.0171,"realtor_days_on_market_base":-0.0979,"zhvi":224337.822,"zhvi_yoy":-0.0126,"zhvi_base":0.3798,"zori":"NA","zori_yoy":"NA","zori_base":"NA"}}]}},"arcs":[[[445850,576379],[1210,738],[1735,2017],[1086,469],[1132,-572],[1459,323],[628,-109],[1612,-835],[343,-1772],[630,-1054],[1570,-192],[345,248],[3393,0],[4013,-215],[8,-4708],[2219,-122],[396,-1721],[1998,-53],[328,273],[1383,-2201],[180,-754],[2371,-292],[15988,161],[-574,-1240],[-2142,-2875],[-1181,-2264],[-257,-1195],[-594,327],[-506,3054],[-926,953],[-547,121],[-2827,-864],[-334,-585],[-1444,-1105],[-1695,-716],[-3319,-1844],[-2314,2],[-1322,-1145],[-925,-394],[3527,-118],[5058,100],[269,-4399],[-4916,-13],[-4051,-252],[250,-4029],[-4094,-1],[-3721,0],[-16,-6808],[950,-511],[118,-2076],[2211,-748],[286,16],[0,-139],[2500,-566],[1402,-772],[-642,-1491],[-1008,-113],[-78,-1352],[-658,-541],[-1,-3212],[-355,-935],[-121,-1846],[1751,1181],[2092,491],[645,-177],[82,-1552],[2275,1945],[674,-414],[908,682],[1709,-170],[-43,-1408],[306,-512],[1125,-145],[856,399],[525,-467],[-451,-709],[478,-341],[-259,-843],[-683,-186],[-233,-913],[38,-4171],[7931,66],[206,-4183],[1918,-523],[1604,-1177],[-160,-3813],[-2035,-22],[-11,-5177],[-881,-9],[-1413,-16],[2,-4594],[56,-480],[-60,-1777],[45,-5560],[1252,258],[2149,-924],[453,446],[1414,247],[-393,-1108],[1295,-784],[-1049,-1229],[-576,4],[-1268,-1358],[-851,201],[-1234,2118],[-969,94],[-551,-1822],[-1169,-1137],[-39,-861],[-785,-83],[-566,-1182],[-1596,-1519],[-14,-2552],[-3963,62],[-4,-2500],[-64,668],[-921,479],[-1836,-1141],[-1840,617],[-1282,1729],[-45,1527],[-648,-320],[-294,1122],[-1019,265],[-844,849],[215,268],[-78,2354],[1480,2642],[566,2528],[463,902],[-223,2399],[-850,964],[-1548,-730],[-628,1190],[1439,1814],[1750,348],[188,793],[-684,2147],[-120,3037],[-2006,1274],[-2024,247],[-166,1452],[532,1174],[1247,244],[1153,-384],[468,668],[25,5835],[-648,-263],[-448,21],[-521,484],[-159,382],[5,241],[806,1188],[746,854],[234,616],[-15,353],[-3016,-4],[-1269,624],[-261,-376],[-2389,14],[-1083,643],[-63,-697],[-1103,-1688],[-3294,-276],[-2025,-1920],[-2645,-540],[-2266,-840],[1499,-6766],[308,-512],[-1513,-9013],[-764,-1324],[-1632,-746],[-1102,684],[-623,2219],[-1089,1713],[-1985,1043],[-1477,1476],[-597,-2443],[1191,-1220],[574,-1444],[-1031,-777],[-1365,736],[-640,-199],[-81,-5139],[-649,-2413],[141,-3828],[529,-3918],[1489,-1312],[2733,-91],[762,700],[-149,-4810],[572,-6],[8,-3758],[-1211,-1214],[-247,-1400],[-1282,-88],[-1994,597],[-492,-74],[194,-1356],[1448,-2890],[25,-2622],[-170,-1384],[3976,126],[14,-377],[-643,-20],[62,-9575],[4165,-18],[5,-4761],[257,-185],[542,-3],[270,1302],[1642,1242],[1416,472],[2614,524],[1709,745],[621,1370],[1320,760],[790,1],[1942,1177],[983,954],[376,984],[777,-849],[401,-1028],[-660,-1668],[146,-655],[12291,174],[4,-2187],[480,-962],[466,-6370],[568,144],[5562,33],[1638,1933],[959,1107],[967,1730],[847,2272],[801,1061],[308,1266],[686,2173],[2387,3493],[891,1748],[436,598],[1617,1022],[6376,127],[-164,-8997],[-1345,-32],[234,-556],[-1253,201],[619,-5542],[-196,-3412],[1492,-745],[633,2],[-110,-9068],[4622,10],[916,-7567],[2913,147],[-266,-1657],[1059,-2333],[577,128],[-11,-1861],[-1600,-2814],[-892,-953],[625,-913],[2186,-1005],[2429,-7]],[[513262,415332],[333,-334],[1954,-3534],[2930,-1517],[2497,1263],[838,-382],[28,-658],[1300,-3179],[4182,-1321],[470,-1241],[-1557,-2012],[-5058,-4876],[-738,-1033],[-69961,151]],[[450480,396659],[-1758,6],[-172,-2],[-26333,342],[-8278,130],[-17,-9373],[-8337,26],[-7754,31],[-3074,6],[-1646,-26],[-11,-211],[-729,684]],[[392371,388272],[379,1329],[168,3427],[424,1640],[-228,876],[-996,298],[-399,-867],[-92,-1645],[-583,-926],[-1280,-346],[-38,5141],[-2752,43],[-5,2404],[-1289,259],[-297,1400],[-2017,717],[-762,805],[-595,1222],[-387,1684],[-699,542],[170,978],[-1705,2928],[-862,762],[-2670,1641],[-838,1141],[-22,2679],[470,550],[944,2105],[343,1935],[-175,770],[-438,1236],[9,308],[412,258],[571,593],[430,520],[24,402],[229,1050],[941,-46],[237,878],[763,120],[27,2608],[43,4452],[-8536,0],[0,-8022],[-480,-376],[-16081,99],[1385,2960],[-168,1803],[868,1102],[1372,2578],[1255,1758],[-129,1891],[531,1327],[272,2551],[1422,1562],[171,1222],[890,0],[1,925],[2567,3355],[1495,649],[714,-463],[1138,827],[1862,332],[32,572],[773,-159],[-54,2103],[72,-15],[5701,-1095],[1049,28],[1483,-298],[2821,-567],[-42,2052],[675,1078],[-119,1015],[1833,-379],[760,-1108],[1694,37],[793,-711],[1752,280],[721,-647],[1485,-238],[1411,-1358],[762,-150],[1211,605],[1445,5],[299,-880],[1494,333],[867,-797],[2032,19],[438,-458],[944,154],[802,-546],[193,-708],[712,-286],[1382,611],[425,666],[817,75],[1585,733],[466,-232],[1883,322],[1451,-204],[2227,-1265],[1224,-215],[880,454],[1789,-39],[1404,-991],[963,272],[1104,-186],[-1856,11216],[-122,931],[-57,1606],[108,9842],[-73,2719],[602,3809],[-141,2973],[668,1747],[-43,468],[-923,1599],[-123,2902],[57,11069],[-123,989],[115,3151],[-131,2669],[136,2015],[-559,1165],[66,324],[373,342],[-288,402],[-794,389],[-1539,-180],[-4122,1501],[1271,2090],[998,-164],[-146,4591],[-396,1991],[-519,1299],[140,1081],[670,1483],[-330,2037],[-637,1393],[669,-110],[1512,-235],[2076,-3],[974,-1116],[1504,-366],[2103,-1102],[1569,1444],[2048,863],[505,-1623],[713,1282],[1750,52],[577,-1249],[548,-83],[23,1681],[612,4205],[-1070,-319],[-1036,579],[310,986],[-182,1594],[-12,3471],[-958,3963],[-142,1743],[1076,4763],[2355,-24],[39,1151],[3762,6760],[-152,1113],[254,941],[1835,3808],[1429,3892],[724,1056],[2213,3199],[915,56],[0,1705],[1287,2483],[1810,524],[-48,970],[-38,771]],[[442908,682060],[-128,246],[33,25679],[25196,-140],[2049,51],[1645,414],[3889,1522],[2114,743],[4939,1324],[4546,1840],[5595,1722],[5669,1106],[3890,2688],[977,568],[5888,2638],[9747,2],[769,2845],[1028,2391],[442,2086],[1627,209],[1418,746],[1211,-120],[1054,388],[3007,-983],[508,0],[1744,-1593],[676,-1803],[-780,-1967],[-240,-2081],[5629,-588],[1997,-268],[2717,912],[237,23089],[8613,-558],[-58,9545],[8337,-3],[-43,10375],[-4439,25],[13,3438],[1440,717],[1628,-166],[-442,1565],[-312,2518],[241,509],[-891,504],[-1902,181],[-1289,1088],[-599,2369],[-924,1787],[-784,2908],[30,1648],[-111,4388],[7858,-245],[87,-4291],[8050,-174],[9,-9226],[7972,9],[4439,-6],[1574,2229],[1572,2740],[4743,12969],[-3855,-146],[41,10061],[5446,20],[3804,4460],[174,284],[-708,0],[144,4328],[54,9289],[-8680,-12],[0,9565],[-52,959],[39,8366],[25,6722],[860,486],[5,483],[21,1972],[7641,-81],[4773,-39],[3810,-32],[359,-3],[8086,-59],[8435,-64],[59,19616],[3401,-88],[5507,-2862],[-1236,-2441],[518,-635],[8286,-10529],[263,-241],[509,-459],[1892,-2376],[3819,-3],[6662,-3],[2516,0],[5276,-24],[3812,-23],[2645,-27],[7261,-74],[584,-3],[6202,-66],[2139,-20],[22929,-217],[-13,298],[3005,0],[178,8456],[-3040,29],[-71,7629],[514,338],[563,173],[1413,1808],[-817,-80],[-1165,167],[-490,946],[-656,5452],[-1725,-90],[-2660,209],[-1266,-408],[-1435,-947],[-901,997],[-2364,3128],[-1,703],[-784,884],[-866,2694],[-1072,228],[-261,1610],[-718,1026],[-1820,1078],[-63,1698],[-520,-4],[276,879],[5457,5442],[2117,1971],[665,2592],[-1067,3175],[-3009,42],[-11,4836],[3795,146],[389,-678],[1246,594],[1966,-88],[8788,-41],[-15,-2519],[1690,-337],[826,-1108],[96,-1588],[292,-812],[1240,12],[4677,746],[1564,717],[594,922],[1323,-779],[84,-5305],[204,6],[67,-8658],[-123,-629],[95,-401],[554,331],[487,-459],[1248,-173],[196,-985],[2185,-559],[1394,-1418],[2638,-1617],[1111,-58],[2114,-516],[75,-11805],[461,-216],[1066,461],[1066,1255],[1961,585],[473,-550],[169,-1681],[-410,-1074],[1191,116],[872,492],[1590,1574],[3,-1579],[2323,-183],[1610,127],[45,757],[-43,17614],[24,907],[-49,3240],[1076,1],[18275,-209],[-1548,-2556],[-694,-3225],[1385,-961],[1764,-601],[1496,885],[438,-386],[1245,76],[2205,-2482],[317,-2857],[383,-570],[994,-3095],[1038,-753],[3045,-1575],[1640,-184],[1242,1369],[78,1206],[449,1115],[-229,933],[546,541],[-206,680],[1356,1065],[2845,-1104],[1389,-158],[714,271],[2366,-94],[-132,-1386],[253,-1160],[2077,-1965],[2109,-434],[713,-1010],[-104,-858],[492,738],[1095,-628],[1905,1145],[1181,-800],[2528,-950],[1924,-78],[1361,554],[1736,2113],[375,1899],[4155,-525],[1408,1114],[1109,509],[94,4544],[1207,2508],[2877,3825],[875,1007],[-780,1380],[-616,1788],[-300,1955],[-422,1507],[-2674,4908],[-394,1790],[851,-393],[-97,1334],[-678,1369],[2035,24],[1983,67],[1212,1370],[5001,10021],[-1251,166],[-844,841],[-629,1318],[-1010,67],[-460,772],[-103,1450],[-981,974],[-495,225],[-1074,-469],[-1111,596],[-716,2670],[-1568,2333],[-725,2538],[-739,1111],[-348,2452],[-63,2978],[-22444,9579],[-26401,15870],[-1205,834],[-6173,5672],[1475,3430],[575,867],[1294,7181],[465,1311],[2202,3399],[1102,1437],[610,1767],[104,917],[-201,1995],[-3019,166],[1178,10540],[883,-320],[155,-814],[4734,-511],[7316,-1319],[1926,-2551],[1855,-3077],[184,-1397],[545,45],[445,-896],[15515,771],[26361,11],[357,-9003],[384,-872],[-4199,-1036],[-1688,-30],[-4851,-778],[-360,-155],[-260,-399],[-35,-7737],[72,-1691],[619,-238],[1330,-2600],[2557,-2270],[14657,-7224],[6579,820],[8373,6877],[5682,735],[686,-80],[203,-2773],[294,-598],[-174,-1919],[276,-1179],[4672,-2271],[-480,-1175],[199,-1063],[-327,-992],[-357,-2442],[1086,-1458],[1292,-1102],[1314,-460],[1545,-1019],[2662,162],[1312,456],[1424,211],[568,-369],[-66,-329],[-59,-30199],[66,-1331],[-23,-9429],[38756,49],[610,-25],[1660,-3],[45,-71],[4180,0],[-170,-2073],[-1446,-5018],[-563,-1103],[-608,-1238],[5945,-45],[875,-209],[1627,-834],[1635,-1686],[2240,3100],[815,1299],[400,806],[216,-974],[953,-471],[334,-345],[381,668],[1890,694],[574,730],[1370,466],[801,-169],[1545,1056],[1571,770],[1332,-11],[1488,1355],[998,-271],[1296,1210],[626,-233],[479,580],[1895,513],[586,894],[1155,569],[-1038,-1293],[-80,-1209],[1440,1779],[864,-156],[3432,3302],[1217,64],[1000,2272],[137,695],[1357,1286],[161,520],[2142,2854],[2072,710],[1587,798],[741,-13],[1405,589],[1219,-266],[399,-1347],[1383,-245],[481,-404],[639,-1132],[927,-1049],[1888,-1166],[266,-57848],[1368,523],[1176,-197],[1287,504],[2557,1676],[1391,417],[580,635],[672,1600],[1164,489],[937,824],[270,787],[1089,127],[30,-736],[1092,466],[73,746],[909,4],[1709,2074],[210,1074],[621,787],[-79,1755],[568,29],[-294,-917],[-31,-1502],[540,-1191],[720,-676],[436,-948],[1561,-675],[1664,-1774],[-19,-840],[997,-190],[444,-475],[183,-1105],[-348,-408],[270,-1456],[629,-322],[-9,-1395],[1645,-3094],[218,-1768],[490,-462],[-2286,-16],[-4056,-22],[-693,-1183],[-173,-994],[1101,-132],[-87,-411],[-822,-1795],[-1315,-498],[-3288,-1601],[-1009,-1285],[702,-630],[3705,-330],[2517,267],[224,-1809],[739,-851],[2637,-1839],[974,-1132],[345,-893],[120,-2876],[283,-1638],[1035,-1865],[168,-2694],[908,-2407],[326,-2951],[-449,-1002],[-745,-3022],[71,-3082],[-409,-3178],[-330,-586],[-1019,337],[-1229,-473],[-378,-504],[-1123,-263],[242,-1090],[1337,-1177],[752,-1557],[607,-56],[-735,-2565],[262,-954],[-227,-1828],[258,-378],[1700,-1196],[1202,-1982],[4182,-1084],[1616,-1137],[2410,-626],[531,-388],[354,-2015],[1420,-455],[-312,-2412],[620,-1119],[-497,-1246],[-39,-2257],[-26865,6650],[1224,-40370],[-1143,-1548],[-756,-90],[66,-1446],[-521,-119],[-90,-1282],[-469,-1223],[197,-1669],[-950,-1998],[44,-2371],[-464,-8],[-115,-4453],[-4315,3],[-45962,-311],[-665,-1269],[-199,1354],[1048,464],[-145,1570],[416,514],[582,-410],[50,946],[-934,1758],[-60,778],[809,964],[1162,409],[-884,2133],[1197,755],[-162,1956],[-555,1525],[169,867],[-355,655],[746,1589],[598,701],[531,1603],[-203,1034],[-1422,1569],[774,916],[-799,791],[-794,1414],[261,1725],[415,638],[-542,2198],[-336,4220],[-345,2990],[-637,2955],[131,409],[-476,246],[-2155,-595],[-1553,-934],[-2235,-475],[-1117,245],[-758,-359],[-1532,-62],[-2607,-1358],[-1025,-1247],[-864,-542],[-1585,-342],[-1508,205],[-1232,-868],[-794,-209],[-2520,-63],[-5647,63],[-354,-3093],[-968,-1579],[-2812,-2914],[-1011,-1594],[-788,-460],[-574,-1545],[-1161,-2384],[-1497,-2765],[-813,-1865],[-421,-1379],[-202,-2467],[-383,-2457],[-337,-1164],[-230,-2585],[-249,-940],[-838,-1537],[-829,-511],[-1237,-1581],[-25,-1175],[-496,-1011],[-781,-685],[-1589,-129],[-1793,-723],[-470,-408],[-1413,-139],[-2005,-843],[-2842,-242],[-3387,-120],[165,-2511],[406,-865],[-186,-2700],[519,-1342],[88,-1820],[-312,-2286],[-724,-726],[309,-1363],[60,-1870],[828,-1173],[-1061,-2179],[-115,-1313],[-1355,-1377],[-234,-919],[-581,-82],[-1829,-2262],[-162,-1030],[-943,-1167],[-1237,-347],[-34,-491],[-1123,-1231],[-1621,-637],[-1133,-1463],[-2016,-997],[-832,-963],[-932,-3047],[-1215,-1383],[-372,-930],[-962,-600],[-765,-1399],[-1062,-146],[-905,-854],[-422,-1337],[599,-1282],[-175,-768],[-1065,-1491],[83,-633],[-1742,-1022],[-494,-2539],[-774,-798],[-309,-955],[-784,-690],[87,-1359],[-425,-1108],[-684,-390],[100,-608],[-631,-1280],[6,-891],[-1345,-1172],[-437,-762],[-518,-672],[-634,847],[-830,201],[-2247,-1169],[-1814,-2543],[-864,-340],[-1763,-1992],[-447,-1273],[-995,-976],[-774,218],[-3379,-658],[93,-5553],[-6278,-184],[32,4861],[-2051,-87],[-210,-1123],[-591,-736],[-3225,-368],[-1577,-455],[116,-868],[-1405,-2459],[401,-1010],[-899,-434],[-858,-1342],[-1947,989],[-385,-1341],[-792,-4],[-507,-1030],[-2142,571],[-1207,1003],[-826,-708],[-1639,-152],[-642,1170],[-529,22],[-1464,-3191],[-1387,116],[218,-994],[-1190,617],[169,2355],[-1026,1789],[-3106,-504],[-1290,-645],[-752,-1336],[-871,-477],[-365,-879],[-196,-2384],[-807,-765],[-17,-4231],[-8052,-59],[-8266,-60],[2,-4714],[-49601,43],[-205,-5014],[-2244,-24],[-680,329],[-2651,-2047],[-1290,199],[180,844],[-326,1104],[-883,173],[-669,717],[-289,-602],[-1792,225],[-1056,535],[15,1408],[-513,480],[343,2986],[-743,-193],[-2833,2168],[-456,758],[-594,-261],[-679,298],[-616,-272],[-1536,166],[-156,681],[-1145,383],[-1177,1081],[-718,-98],[-920,812],[-792,9],[-1106,809],[-2517,2612],[-742,5],[-188,217],[-210,17],[-301,287],[-121,-39],[-217,-230],[-267,93],[-155,-302],[-261,105],[-240,-148],[-723,1],[-172,204],[-331,68],[-129,737],[-290,278],[-293,-107],[-28,232],[19,190],[-368,410],[-43,1681],[-689,1309],[570,2454],[-236,1552],[-7839,31],[-113,9699],[1102,-493],[3329,57],[-84,2892],[2922,-1111],[1079,-2537],[201,-1753],[1109,-804],[2033,3282],[1944,2894],[942,-613],[845,-1117],[1047,39],[12,8213],[8736,-145],[-28,-4793],[4437,-95],[-1,360],[2817,-282],[4291,2129],[3221,1098],[1161,726],[4338,25],[5,4131],[1027,1081],[451,-1601],[651,-1358],[718,-347],[1534,45],[676,-552],[182,-1282],[-326,-1773],[-481,-924],[2171,119],[1509,655],[884,-403],[832,134],[1353,1414],[482,894],[871,432],[1404,-314],[1241,609],[1230,71],[4263,1],[5403,146],[12,4191],[-5386,-79],[-33,3170],[-830,815],[387,5618],[9833,44],[-802,2347],[720,1838],[-56,3433],[886,-761],[850,-1775],[698,-110],[2083,-1503],[923,126],[302,776],[1517,-1928],[-3,2252],[2069,4],[852,1239],[2197,-90],[452,1107],[-363,1768],[830,405],[2239,2711],[7,11987],[4,7883],[-4414,1],[10,5731],[-4276,6],[31,1860],[-693,128],[-443,-222],[-997,175],[31,454],[-509,729],[-825,579],[-1775,612],[-657,43],[-1598,27],[-21,-1124],[373,-1840],[-38,-606],[-304,-563],[-716,-6],[299,-5673],[-8489,71],[142,16238],[-2245,-851],[-3241,-911],[-1395,-13],[-2227,-684],[-4271,-1622],[-1080,-43],[-1882,-681],[1,-1128],[-8382,-52],[-15869,126],[-1575,-454],[66,1999],[-850,-611],[-18,-936],[-491,-829],[-579,620],[-365,-720],[-865,999],[-34,-732],[-2697,-1270],[-626,-936],[851,686],[2206,809],[2063,-910],[277,-774],[-646,-622],[799,-2283],[-2927,-1675],[2967,300],[1411,-1631],[-2747,-2112],[-57,-594],[1287,323],[1629,-466],[-566,-775],[-1336,-653],[-3367,605],[-250,-565],[-1556,-251],[-493,-1054],[-730,9],[-12,-1444],[-72,-8345],[-3678,-8],[-2718,2359],[-1319,444],[30,2318],[-4379,98],[58,-1847],[-3257,48],[-713,186],[0,1151],[-4491,-19],[-1647,147],[-2187,761],[-6403,1263],[-1409,619],[-1564,690],[-714,507],[-1451,399],[-4377,1088],[-1320,232],[-810,-510],[-1843,-85],[-1522,518],[-2995,727],[-1778,635],[-2657,529],[-3133,1129],[-2686,724],[-2844,269],[-1543,154],[-1502,-128],[-3292,-50],[-3649,301],[-1068,381],[-239,185],[-2021,864],[-6283,1445],[-41,10],[-646,191],[-94,130],[-614,-82],[-3136,805],[-1991,-327],[-690,-506],[-1278,-56],[11,-740],[2086,-2467],[937,-179],[299,-834],[-326,-2906],[-404,-596],[-65,-1578],[-1640,-1713],[-1067,-641],[-1405,-178],[-1744,-685],[-5985,-1326],[-2460,-268],[-1899,1222],[-1044,-33],[-604,3007],[222,615],[-267,1526],[-869,960],[-2602,-828],[-1557,33],[-538,-539],[25,-2672],[-663,-2532],[374,132],[-1011,-2413],[486,-1243],[-67,-2738],[-324,-1658],[422,-777],[262,-1532],[-420,-966],[1131,-517],[1483,-276],[542,407],[752,-353],[307,-2160],[782,-3252],[2023,-661],[787,610],[2151,880],[1065,48],[1216,-608],[-889,-2112],[-1303,-4723],[-1171,-1762],[-93,-2224],[-567,-682],[2279,688],[927,-1116],[731,-159],[2038,-2804],[2051,-1286],[1610,-1700],[2179,-1623],[1754,-1871],[0,-8524],[-8171,14],[-9,-8734],[-2040,1],[43,2640],[-689,1282],[-1443,387],[-1689,-238],[-676,-403],[-1157,30],[-1053,-1058],[-3505,-1117],[16,3393],[-4317,142],[-70,-453],[236,-4813],[-3408,0],[-12,982],[-1857,3849],[-312,2545],[145,2118],[-2959,-57],[-24,-2727],[-2601,-2765],[-40,-1296],[-2302,187],[-3342,49],[-3790,-556],[-2272,115],[-4039,-763],[-3415,-1170],[-12678,-12508],[-2748,-3709],[-4307,-5742],[-5146,-5497],[-740,-1215],[-184,-768],[-20,-6230],[-490,0],[-302,-168],[-969,-2585],[-817,-1441],[-624,-889],[-1306,-2202],[-1603,-5445],[-4076,-4780],[-2181,-1235],[-1097,1835],[-2449,967],[-837,149],[-1591,2553],[-215,4536],[-1207,2473],[-2309,3742],[-3064,2564],[-1012,1685],[-1051,2384],[-2349,7017],[-468,1042],[1651,-265],[771,1697],[1379,565],[912,-224],[1471,729],[768,-328],[1458,311],[885,-358],[2747,875],[1858,73],[1494,-729],[635,1475],[1650,1237],[922,-43],[818,685],[-416,730],[-1909,267],[-1457,3038],[1584,418],[1364,2354],[181,1699],[-573,1340],[-1326,1623],[-1586,1504],[-2330,6523],[-2531,6336],[-1351,820],[-766,1594],[-741,358],[-676,-477],[-1183,-1593],[-2288,-1354],[-2562,-2115],[-3483,-1339],[-3627,-3396],[-974,-566],[-1521,-2115],[-2989,-3232],[-2988,-2920],[-1469,-1162],[-5570,7904],[89,29230],[-16251,-70],[-8496,315],[128,2438]],[[325618,142852],[729,-1258],[1350,-1684],[1999,-1741],[310,-3024],[-153,-1773],[1081,-2279],[1649,-1370],[618,-1355],[181,-2564],[798,-490],[1018,-2161],[2148,-654],[1147,-1713],[180,-2056],[1042,806],[758,2845],[335,194],[1672,91],[2522,-387],[708,1445],[745,3666],[926,1222],[2509,1371],[1043,1416],[1686,1534],[4980,1133],[849,-15],[1159,1013],[1969,2116],[631,1459],[-103,939],[1159,1907],[218,865],[-257,1489],[760,2012],[219,1385],[-116,984],[117,2116],[618,834],[-799,-254],[-1944,388],[-1158,879],[-1815,3353],[-798,551],[258,1624],[-631,1639],[-219,1386],[-798,1668],[399,3711],[-1043,3262],[-804,2026],[-255,1365],[-1208,1929],[-193,1967],[1275,1415],[1507,1147],[515,983],[2345,2055],[1649,1788],[400,2548],[90,1729],[-218,1340],[-915,2921],[-25,2399],[722,551],[219,1803],[-194,599],[-1344,1182],[-1077,369],[476,1003],[411,1952],[-402,2044],[117,1355],[-2255,208],[-761,1103],[-721,417],[-864,2743],[335,775],[-516,1803],[567,1684],[-155,566],[129,478],[1611,209],[901,2802],[426,447],[353,-151],[139,966],[2023,700],[2321,343],[1366,908],[1070,1177],[542,1311],[399,-1713],[245,745],[1148,1593],[1663,1281],[400,2429],[-437,998],[-1406,45],[78,1251],[-1134,1773],[26,730],[529,835],[696,208],[825,1236],[1199,223],[2115,1012],[1354,194],[1728,2025],[1033,700],[307,1364],[1383,2459],[546,334],[720,180],[1120,-376],[1431,520],[401,536],[2076,491],[2820,-177],[2063,448],[709,462],[761,-118],[1599,373],[2015,-1162]],[[394288,245235],[3193,-4104],[3219,-3474],[809,-1277],[2014,-1422],[1200,-550],[842,-704],[1896,-138],[153,1229],[1111,2734],[589,2339],[1521,3748],[264,537],[1501,1703],[1274,2797],[1954,2179],[263,913],[799,743],[345,979],[618,3310],[1040,1804],[1734,2570],[-586,382],[796,1557],[-897,496],[-555,883],[-1309,1168],[-431,1617],[391,1188],[-325,2233],[-408,1163],[1349,6569],[1248,698],[448,679],[-123,1633],[1100,1348],[1428,784],[2852,767],[818,-982],[1892,448],[1069,552],[1522,-153],[1884,-587],[-305,-1793],[1836,-8602],[-402,-1149],[-106,-1897],[771,-2567],[513,-1143],[2457,-1723],[958,-285],[1089,101],[2136,2104],[2975,1253],[801,-775],[901,999],[560,61],[762,-1322],[181,-1889],[-410,-1038],[170,-1163],[-748,-1764],[845,-752],[1215,2472],[241,7017],[1612,1371],[658,-416],[1161,983],[929,-371],[1033,-1341],[840,758],[278,2016],[1312,1039],[893,270],[2062,1959],[888,1296],[1149,-274],[1213,526],[891,756],[1713,843],[1826,-49],[1177,2290],[1097,544],[2050,2019],[1366,655],[1172,1159],[1932,2430],[689,453],[499,1912],[984,2286],[-204,1087],[99,1317],[732,-78],[107,8074],[1312,-567],[1820,539],[801,2401],[1359,1934],[1285,512],[1293,-334],[665,-769],[142,-4050],[3559,-249],[-1,-4793],[2566,-86],[-40,3785],[82,306],[1115,-215],[1413,634],[356,280],[123,73],[168,0],[152,-46],[112,7],[157,47],[98,-21],[64,-72],[875,5],[-779,1169],[163,-31],[547,-119],[-538,1632],[-1893,2761],[-197,731],[580,296],[1050,-691],[1605,1205],[440,927],[-63,1421],[1185,-628],[318,-753],[1243,-900],[2700,-782],[2013,341],[2649,1527],[523,1248],[307,2570],[408,726],[-1583,2008],[-767,1639],[-930,2840],[-2825,4633],[-1820,4129],[-437,990],[-1424,2028],[1404,1680],[1053,1933],[-26,2676],[-46,5445],[4014,-100],[5,1583],[-4030,274],[-12,3657],[-3996,49],[69,3264],[-4145,0],[-103,-3040],[-614,628],[-1000,-465],[-1947,324],[-2087,-1133],[365,-1007],[-2145,-88],[-249,-25],[880,-1948],[3084,-2642],[1134,-1370],[27,-3297],[-1594,11],[-2442,18],[-4261,-89],[688,-1885],[-3,-143],[2176,-6060],[288,-28],[47,-929],[539,-16],[5323,-109],[21,-2579],[1028,667],[959,1821],[82,-3479],[-1850,-4533],[-138,71],[-195,84],[-220,76],[-1791,669],[-250,-1629],[79,-1710],[235,-1115],[-829,2393],[-582,-80],[-2733,160],[-6191,9214],[-6093,9014],[-5365,7934],[-1208,1804],[-4736,7045],[1115,93],[3304,-837],[174,218],[282,251],[-119,110],[2178,57],[304,234],[119,2218],[11443,15],[-3646,3234],[-8900,4866],[-3071,3910],[-2397,2839],[-414,312],[-3875,5040],[-140,509],[-949,-745],[-995,88],[-1250,-642],[-285,-701],[-1042,-586],[-2072,-334],[-2171,6900],[-74,4364],[-569,5674],[-428,3086]],[[513262,415332],[5304,-16],[-56,6136],[1473,1035],[2355,225],[1656,1117],[1721,45],[841,-446],[0,1519],[323,1296],[647,805],[181,924],[-298,1251],[104,1430],[-272,775],[220,1072],[211,3903],[-21,1735],[-334,2378],[1100,417],[927,1137],[1730,1353],[1580,2117],[-498,1633],[106,600],[770,38],[839,1811],[-14835,34064],[-559,1867],[-208,1543],[24,24986],[273,3790],[-78,1933],[-417,2186],[274,2862],[0,2321],[-249,4644],[156,7745],[1004,2186],[130,1004],[-1121,3730],[-352,4060],[417,1633],[-52,868],[-1161,1633],[-366,1004],[-130,2546],[2053,318],[27,3938],[985,1496],[365,1124],[365,2711],[-143,1813],[836,397],[3772,74],[1562,307],[1190,622],[2656,1917],[1149,329],[3615,337],[1227,431],[2557,1750],[1599,416],[1710,-181],[1146,-492],[5216,-3111],[2570,-621],[1939,176],[8840,3668],[2184,167],[1476,-636],[1042,-940],[908,-1709],[193,-1258],[717,-572],[1220,-610],[1765,-164],[3582,-1666],[1765,-89],[1829,537],[908,-134],[2584,-1711],[5111,-1029],[545,-2339],[766,-850],[1297,-625],[-292,-1477],[914,-490],[1298,-104],[908,357],[2167,-477],[1932,-1208],[896,-71],[2711,-1342],[1815,-1491],[960,-356],[1205,148],[4294,-507],[946,-1610],[3182,-2605],[4010,-984],[31,-7742],[283,-2742],[-376,-164],[22,-8950],[-190,-4827],[-1783,-4390],[-1257,-7174],[10,-1956],[-697,-2409],[-1628,-3607],[-1,-599],[-1920,2434],[-4903,2925],[-2513,3351],[-637,662],[-1874,255],[-1835,-369],[-5553,1611],[-2004,1586],[-487,0],[-1568,-879],[-1050,-1058],[-2683,-1416],[-518,-1267],[-1154,328],[-921,-223],[-635,-1073],[-1347,-1535],[-609,-2250],[-1309,178],[-1088,-790],[-2734,-3368],[-1659,-343],[-1114,207],[-2177,-880],[-2099,-1178],[-1166,14],[-1283,-924],[-194,-805],[-958,-701],[-2281,-344],[-1361,-1399],[-1347,150],[-4899,-2009],[-752,-818],[363,-507],[1476,-582],[649,89],[1218,878],[2915,371],[363,-313],[1507,326],[52,476],[1425,-982],[1284,-74],[1088,329],[1308,880],[1192,373],[-1049,-641],[-739,-909],[-452,-1282],[-2839,-2440],[-1175,-727],[-1123,-1343],[-1767,-372],[-355,-520],[907,-591],[5,-575],[-1670,-723],[-646,-1141],[10,-1668],[-739,-1668],[-583,-611],[-287,-1623],[480,-687],[142,-1817],[522,-646],[356,-1841],[-156,-3488],[-2461,-2025],[-2591,-967],[-1139,15],[143,-1543],[-352,-297],[1580,-1528],[89,-5169],[-208,-4574],[271,-655],[-803,-209],[725,-1728],[-209,-2891],[90,-2383],[-363,-2161],[38,-17183],[2817,615],[2252,170],[3565,-176],[6193,-1018],[2404,-994],[31734,-53],[16467,167],[-110,-18516],[-56,-5240],[-1657,-466],[-1494,977],[-1065,1822],[-1529,1286],[-1043,1481],[-424,-131],[-201,-1773],[232,-1530],[-2212,-960],[-799,-1107],[-1385,-434],[-267,-1764],[-762,-1138],[935,-2306],[335,-1667],[-1945,-1884],[-1548,157],[-456,-972],[-657,-150],[-620,670],[-315,1521],[-1094,419],[-1015,-1355],[-1631,-359],[-422,885],[-483,339],[-107,-1876],[-427,-849],[-924,-178],[-270,-1769],[-882,-67],[-1160,548],[587,-2616],[-775,-1953],[-1728,-1059],[-339,-1030],[512,-1375],[-415,26],[-512,-2100],[1040,-646],[806,-3477],[73,-4004],[-1096,-1546],[-67,-1054],[667,-3938],[-633,-2789],[-540,-1426],[235,-705],[-1510,-2773],[114,-689],[-602,-2013],[-2803,-1787],[-2275,-543],[-1092,-614],[4340,121],[2649,-1110],[844,137],[2450,-804],[3124,-2802],[899,-1290],[835,-296],[1462,1263],[1098,145],[1859,-300],[1078,685],[3697,679],[-1965,786],[98,1177],[1599,-319],[3355,1050],[1585,-642],[2162,271],[-724,-1583],[-186,-1989],[421,-856],[-695,-1774],[913,-554],[228,-658],[1223,-641],[1683,-41],[1046,-391],[966,1278],[1006,858],[1448,-588],[559,1760],[571,-656],[193,-1891],[930,-1366],[-221,-1092],[398,-592],[864,-423],[799,205],[237,920],[821,-568],[-219,-2190],[234,-774],[-568,-984],[-2286,-939],[155,-924],[2249,76],[-400,-1088],[-1188,-611],[-775,-940],[-335,-1267],[1280,-1100],[2158,-521],[1316,1279],[388,-10],[-734,-2043],[-749,-1416],[130,-1563],[891,104],[634,-967],[1305,-1265],[1537,-923],[2313,-149],[307,-1563],[1289,-1131],[-767,-2071],[-248,-1385],[542,-567],[1185,-431],[488,-1042],[514,1073],[1250,150],[758,1194],[1624,597],[386,-492],[-16,-1400],[755,-3933],[658,-1318],[-5787,3],[-35,-4240],[-843,-255],[-789,-1382],[-801,179],[503,1773],[-348,834],[-284,-670],[-1227,-239],[-1420,-925],[-994,-134],[-1576,312],[-2079,818],[-1175,59],[-658,-611],[-1214,655],[-723,-45],[-2506,2516],[-1084,-2322],[-2360,-1695],[-1147,-1667],[-1471,-728],[-954,791],[-580,-476],[375,-1087],[-1380,31],[-2372,-2321],[-1405,106],[-573,-416],[-640,268],[-644,-551],[-890,940],[183,-1936],[-580,-1236],[104,-833],[-476,-1325],[-569,-328],[5,-1524],[-371,-521],[-166,-1839],[315,-1702],[-360,-565],[-196,-204],[130,-1128],[245,-1186],[527,-760],[-460,-604],[1515,-1713],[-142,-1544],[457,-1956],[-799,-461],[536,-2650],[919,-844],[-1347,-1377],[312,-965],[833,-712],[-120,-1932],[423,-443],[-740,-629],[-240,-1596],[46,-9285],[-1372,-4097],[-350,-2033],[-395,-653],[-28559,3500],[-13122,5139],[-83,-4750],[-101,-6144],[-16,-1086],[-124,-8844],[1398,-364],[-152,-1165],[2962,-2149],[374,-768],[1078,1246],[705,2088],[1282,831],[1037,1427],[1006,-204],[348,791],[664,6],[937,-1922],[340,-759],[-38,-2280],[-425,-2160],[-3466,-3593],[-541,-1595],[-90,-1117],[555,-983],[1728,-1072],[27,-3055],[494,-2536],[1131,-2171],[-1365,-1089],[-1546,-1892],[-566,-1789],[-631,-1087],[-1791,-1536],[-2370,-3309],[-2590,-1323],[-335,-31950],[-9849,-62],[-745,-2150],[63,-1079],[642,-1877],[-2047,-2957],[-2639,-3261],[-380,-1692],[-7886,998],[-28,-4497],[-15884,-212],[-825,-1161],[-386,-1224],[126,-772],[-354,-2262],[-938,-1926],[1571,-72],[1341,-1395],[418,-861],[1688,1189],[883,1352],[800,581],[1692,2456],[7,-6920],[-1583,99],[-551,-1603],[-1814,-1584],[-2379,-2610],[-56,4080],[-1413,-543],[-404,-794],[-30,-1826],[-508,-858],[-371,-1419],[-321,-2342],[996,-1831],[161,-824],[-294,-1696],[563,-1924],[589,-1121],[1146,-1313],[237,-436],[199,-3161],[-441,-542],[244,-2248],[-278,197],[611,-1455],[143,-1992],[621,-1500],[969,18],[-45,-2400],[2030,-26],[-59,-2338],[1985,-31],[-73,-2512],[1979,100],[-101,-2538],[2115,5],[28,-2319],[6333,-304],[98,-7141],[-7659,51],[-793,-6215],[204,-343],[0,-1606],[627,-1326],[-1250,751],[-2968,1056],[-1162,178],[-1653,1011],[-1160,-86],[-1438,1117],[-4681,40],[-972,-614],[-1438,-1316],[-768,-1],[-2390,2124],[-1317,-123],[-872,2668],[-1110,2651],[-2220,2375],[-1349,455],[-236,2011],[1034,4022],[-633,5118],[-3498,5596],[-1101,12],[7,1589]],[[498041,115690],[-772,-415],[-1489,-224],[-908,543],[-955,2127],[-1441,137],[-1491,-951],[-1971,-2029],[-374,-680],[-824,-2594],[-3539,-9327],[-1439,-2524],[-276,-847],[-400,-4602],[309,-672],[1592,-733],[717,-1406],[1829,-5603],[-143,-5315],[-434,-2925],[-34,-2416],[-249,-497],[-9096,-11576],[-3375,-6769],[-2576,-4360],[-1791,-1957],[-5971,-10741],[-892,-2751],[-484,-3904],[-1053,-4679],[-250,-2872],[-224,-897],[-608,-789],[-2181,-1778],[-687,-784],[-882,-1739],[-1129,-1466],[-5053,-7570],[-784,-704],[-1969,-298],[-8,-914],[2313,48],[318,495],[-975,-8732],[-117672,679],[-13110,117],[-105,9680],[7998,-184],[96,23615],[4055,-9],[-4,3469],[4,1400],[-4396,35],[-109,18896],[-7891,-56],[79,7484],[81,2130],[8506,55],[-89,4748],[6265,-320],[29,4844],[-6204,253],[115,10298],[-527,27647],[20,9449],[85,18622]],[[479364,246260],[4052,-81],[-38,3170],[1974,-2055],[2030,514],[907,-305],[981,790],[787,1743],[968,596],[155,1221],[1780,1951],[2438,2190],[-322,-2344],[51,-1201],[-736,-1051],[-1471,-3719],[-245,-2039],[-2011,-4061],[-1193,-15],[311,-1765],[-1449,-2924],[-980,-26],[72,-7208],[4052,-10],[1,2458],[4153,-63],[-134,-4530],[2471,498],[39,-844],[1599,83],[-42,1083],[2209,446],[1489,-107],[-111,-1338],[-2596,-7845],[-2945,-7582],[-3208,-9594],[-2564,-6197],[-4036,-10608],[-259,-575],[-2038,-2544],[-503,-1246],[-145,-718],[-264,-3835],[-299,-1674],[-861,-1605],[-880,-2068],[10528,-307],[2543,307],[-34,18592],[15657,6],[262,9327],[19415,-110],[-886,3699],[-176,2375],[-370,2347],[154,3683],[499,2487],[2250,8406],[2933,8496],[938,4486],[478,1316],[3256,7132],[548,675],[6267,5402],[1959,1856],[1196,423],[617,1175],[-536,593],[-21743,20223],[-517,65],[-1449,1345],[11,-1067],[-6161,43],[7,7056],[-1348,1259],[-1066,1161],[-5445,6812],[-1431,1250],[-569,-2282],[-1388,-1478],[-631,-1758],[-994,-1267],[-761,-433],[-1018,-1446],[-1677,-910],[-353,504],[-10,681],[-221,1520],[-277,-90],[-80,-1067],[-2036,-369],[-2058,-1936],[-844,-134],[1,-1177],[-1710,-1254],[-1274,7],[-189,-924],[-1885,-201],[-548,-2039],[-1425,-1699],[-1360,725],[-1867,-27],[-522,-239],[51,-1634],[1240,-501],[753,396],[2226,-1459],[609,-34],[371,-923],[1307,-739],[2320,-2348],[287,-821],[-812,206],[-2419,-1708],[-953,-295],[-418,-595],[-857,-127],[-369,629],[-751,33],[-10,763],[-1088,156],[-1026,-743],[-1396,595],[-1129,-393],[-1743,930],[-913,-155],[-1511,-2339],[988,-311],[-639,-1075],[44,-817],[-702,-1354],[-603,-512],[-799,75],[93,-13086]],[[498041,115690],[202,141],[1,641],[-205,-4],[2,-778]],[[244663,522792],[-8165,-232],[-1264,-121],[-327,-714],[-1132,-154],[-40,-626],[-1982,1079],[-562,-670],[-666,120],[728,-808],[359,-4132],[492,-1377],[136,-1554],[-897,85],[-1066,-2983],[-19092,-850],[-2812,78],[-871,-4035],[-1415,-3054],[-999,-2756],[-857,-3173],[-248,-4082],[-194,-1237],[-1168,-2905],[-79,-1594],[-751,-1952],[-2255,-402],[-1503,493],[-1063,-700],[324,-805],[803,-745],[1632,-463],[1140,-1342],[713,-2520],[2017,-2817],[-787,-635],[-142,-3837],[-983,-2809],[193,-1057],[628,-1072],[676,-2722],[53,-1712],[343,-3160],[479,-1838],[580,-955],[-20,-2019],[-713,-2471],[-98,-1438],[209,-2836],[889,-1070],[206,-1348],[2037,20],[-17,-265],[10,-514],[145,-8744],[-8544,104],[-109,9337]],[[198634,444803],[1398,14],[-1274,2646],[-587,1844],[-1252,3076],[-724,2641],[-530,2963],[-200,2579],[-1072,4351],[-1324,1864],[-475,2218],[-2994,3898],[-1123,-1734],[-796,-279],[-1368,-1217],[-2099,-544],[-216,-891],[-2151,-246],[-927,-562],[-911,-1574],[-330,-1158],[-398,449],[-977,-890],[-1571,-813],[444,-854],[-327,-1436],[684,-2],[870,-834],[114,-807],[-2665,-165],[-2512,-1491],[-1996,2742],[-414,1282],[-65,1326],[-816,104],[25,1683],[362,2221],[-272,2176],[246,1267],[-661,804],[-2150,-1521],[-868,506],[-648,-447],[-1373,715],[-1192,193],[-1231,655],[-1347,1386],[-972,267],[-117,2265],[-273,923],[-959,1102],[-1479,3978],[285,462],[-547,5440],[-519,44],[-1663,-966],[-152,9429],[-206,12474],[-518,712],[-1005,1389],[-1403,1937],[-2468,3443],[-897,1250],[783,1119],[100,202],[898,891],[1090,2071],[2342,1361],[352,962],[573,391],[2038,2091],[348,930],[-15,3723],[-471,2639],[-38,1492],[376,1141],[865,1091],[2004,1300],[2938,1024],[1551,712],[388,1270],[-93,1216],[2091,-282],[975,-306],[22605,-9613],[3622,-1738],[263,25],[20,1145],[64,251],[-36,759],[-237,980],[35,2100],[189,1874],[494,1673],[-281,120],[1589,3064],[-56,2007],[1098,1588],[235,274],[144,362],[186,125],[315,71],[168,93],[62,100],[-124,676],[-2,182],[223,336],[844,1960],[738,293],[830,1363],[753,1054],[679,-83],[844,1237],[1530,-541],[1117,546],[666,1001],[843,2461],[613,-414],[250,-2253],[1025,-223],[1128,1487],[749,-1247],[942,286],[926,1461],[209,7],[658,21],[129,-530],[183,-41],[100,15],[23,263],[311,-157],[219,236],[18,177],[404,-2],[599,-1019],[846,803],[159,1359],[723,-341],[156,-1809],[326,-477],[-768,-924],[284,-1049],[145,1265],[1852,1506],[-676,-1721],[499,-724],[-425,-540],[965,-314],[668,614],[-203,2104],[906,1600],[-32,-1747],[559,-288],[-96,-740],[983,1585],[142,-457],[-987,-1736],[594,-325],[800,588],[-1174,-1469],[252,-949],[-640,-1103],[-984,-37],[-754,-1312],[293,-451],[2351,1916],[388,908],[627,147],[744,1745],[-561,-2509],[751,228],[-11,6781],[31,114],[-19,126],[230,2656],[-210,5890],[8245,-35],[7676,-34],[-32,4288],[905,1391],[1574,522],[944,-488],[1148,-1013],[1845,-684],[908,501],[3661,772],[2561,-362],[845,1762],[353,-2698],[-215,-1413],[-783,-1376],[-702,-1107],[-855,-1974],[-1080,-2072],[-975,-1573],[-3782,-4777],[-455,-769],[-1608,-2153],[-2047,-1324],[-18,-819],[1253,-786],[-1454,-834],[376,-1217],[164,-58],[-14,-262],[-155,-236],[-151,-157],[242,-58],[307,37],[169,125],[123,237],[559,345],[123,64],[311,78],[183,-162],[1385,-1348],[494,-1269],[874,-929],[612,-194],[479,102],[49,-6310],[214,-6649],[-80,-2491],[-4686,78],[1390,-6732]],[[181736,397690],[12723,3],[-13,-9802],[582,1505],[1554,1675],[1502,-49],[1350,735],[955,-144],[618,317],[868,-125],[707,1605],[1306,-1117],[605,-53],[428,721],[1123,102],[1202,-703],[1628,-2183],[1233,715],[184,-1161],[596,-199],[16,-670],[1205,-1033],[-92,-1417],[328,-1072],[912,-1364],[763,-293],[808,159],[746,-808],[628,58],[1040,-1315],[611,-2114],[1808,-1156],[1261,-1239],[2593,1173],[501,801],[876,450],[2197,2168]],[[227088,381860],[-27,-12498],[1290,-672],[2170,-2434],[475,-1240],[-73,-764],[588,-2262],[1037,-1227],[646,-2098],[129,-1364],[1608,-2826],[1580,-1075],[2372,-2076],[870,-1017],[2493,-4887],[1435,-1535],[749,-1594],[206,-2339],[-1188,-1878],[1008,238],[3333,-75],[956,-496],[2310,-706],[1173,-987],[2098,-793],[530,507],[1408,-61],[2893,-1849],[1034,-909],[219,-924],[-556,-1043],[-1176,165],[-930,-715],[1950,-1298],[1640,-552],[3409,-2504],[3656,-301],[1395,-746],[869,62],[1524,-744],[562,-929],[7116,-5972],[3015,-2715],[1971,-629],[368,-1150],[-173,-1030],[2194,-1319],[1020,-354],[518,1122],[1300,443],[-568,2348],[633,358],[3251,-1131],[2339,-1149],[2876,-14],[1971,651],[2036,-154],[4310,-1318],[1426,-113],[2254,-567],[2097,-36],[1783,1310],[357,790],[2148,312],[1329,-492],[891,252],[3086,-478],[1666,192],[1691,-850],[1286,-66],[148,-1052],[580,-194],[1262,1776],[1587,211],[2120,-448],[3489,-2451],[1485,-1933],[1846,-1695],[2053,-1485],[1382,-774],[2362,-729],[2105,-2742],[3512,-5616],[2723,-3694],[4131,-3278],[1175,-298],[2335,-3025],[2852,-2503],[4300,-3442],[1650,-2414],[1071,-789],[2257,-2252],[2523,-2719],[2567,-2267],[2140,-2849],[1831,-3581],[1073,-1385],[76,-1594],[-265,-1005],[168,-2470],[232,-565],[2029,-1673],[1353,-1920],[1599,-809],[651,-816],[2695,-1753],[2247,-2187]],[[325618,142852],[16,12399],[-201,4306],[-853,543],[-2190,-1652],[-1699,-252],[-1339,358],[-373,820],[-1638,562],[-1189,-813],[-668,319],[-1736,-1707],[-2857,2942],[-1994,1518],[-140,2627],[-33,6959],[-1486,107],[47,4810],[982,82],[-5,26058],[-4100,-1906],[-374,-1068],[-8450,-37],[-299,231],[-366,531],[1927,1645],[86,459],[-706,1120],[-376,2135],[-1894,357],[-1625,611],[-2513,2130],[-2292,63],[-578,-630],[-578,679],[-2388,37],[-120,-9350],[233,-5600],[124,19],[-42,-3866],[-9,-6384],[-6607,6255],[-1743,-55],[-8094,-43],[-58,8705],[-1859,510],[-6291,236],[-9,-96],[45,-9575],[-4092,151],[-15,4621],[-4173,17],[-35,-40],[-1235,866],[-1181,2402],[-1196,1453],[-1346,1233],[-2501,1469],[-1348,41],[-1603,-614],[-1809,-1198],[-1527,384],[-2306,-783],[-224,6],[-8206,-9],[139,-9592],[-121,-9782],[223,-9299],[-12109,37],[-399,-1005],[2702,-2120],[2168,-502],[506,698],[1048,-157],[1718,970],[789,-168],[-134,-648],[-1034,-1394],[-144,-923],[1502,-800],[542,373],[2418,-1176],[641,609],[3405,79],[112,-2817],[1679,-541],[53,4834],[-599,2466],[35,1895],[2714,531],[1841,-192],[936,51],[3854,-25],[-1091,-2716],[-212,-1055],[424,-1002],[5795,-8583],[-2015,-3186],[309,-2213],[-920,-983],[-1375,-6],[-144,-1281],[-845,-472],[-1128,-25],[-363,-608],[-674,-3786],[-50,-1630],[2983,1109],[-264,-1151],[545,-1885],[-213,-2745],[160,-1629],[187,-63],[1075,-1010],[1570,332],[-1011,-1542],[74,-1062],[1452,-937],[-121,-1216],[192,-1962],[1119,-315],[2309,1815],[453,-1185],[-1243,-728],[-1788,-2411],[-88,-1125],[924,-2702],[-248,-689],[2597,-1175],[-1475,-4284],[-5863,-17121],[-1557,-2544],[-285,-903],[-273,-2714],[-1627,-4777],[-1927,1983],[-2002,-178],[-1879,-1216],[-2905,-295],[424,-511],[-3258,-4113],[-1347,-2981],[-1685,-2871],[-366,-1320],[-683,-1198],[-825,-2],[-2322,-1960],[19,-7425],[-156,-9243],[-3479,102],[-73,-4813],[-4329,-141],[-47,4851],[-7246,-15],[-9237,83],[158,9203],[-1373,-51],[-584,52],[-741,17],[-4567,2256],[1018,3450],[-747,3738],[-1006,3804],[14,5793],[-2379,69],[-1738,2358],[-1902,1575],[358,3863],[616,1207],[-352,246],[-358,36],[-1779,1054],[-517,160],[-201,8104],[172,2952],[1222,1728],[1221,442],[109,1094],[-556,829],[-1046,-25],[-1593,-40],[1006,423],[367,1105],[1204,962],[1109,-179],[491,1070],[988,139],[625,1879],[494,43],[883,1674],[34,740],[-1559,100],[-714,2210],[494,1886],[-497,2071],[-1340,582],[692,135],[1701,2029],[1031,90],[1520,656],[1944,254],[1532,447],[1249,2563],[1755,1699],[-1099,1735],[-229,2487],[-797,1120],[-753,2200],[-736,1184],[-1723,4092],[-1288,1988],[39,2846],[8091,-94],[-181,9372],[8320,55],[-117,9902],[7563,7],[-29,9456],[-8133,28],[-110,4569],[-685,6394],[-17,91],[-8347,-592],[307,9724],[103,17574],[-315,995],[160,7325],[545,29924],[65,20636],[-2288,-1624],[-3384,-3323],[-1096,-941],[-6740,-4719],[-587,-152],[-3145,209],[368,1931],[-1755,1311],[-64,775],[-3146,1571],[-1476,1218],[-1734,218],[-3699,2027],[-770,-606],[-681,920],[-1326,439],[173,648],[-1140,1566],[-617,161],[-703,-752],[-1013,632],[-1487,-419],[248,-565],[-845,139],[-1669,1469],[-220,893],[-1106,1159],[-697,-329],[-1728,974],[-707,-396],[-455,562],[-976,-404],[-1066,-1555],[-434,329],[-1893,87],[-662,580],[-1357,-468],[-1181,101],[521,902],[2470,-283],[505,675],[1753,1447],[273,788],[1474,6463],[-624,1809],[-2098,2882],[-202,1429],[567,1295],[2153,3665],[-1519,1010],[-1025,2471],[-212,2325],[569,2015],[761,1862],[530,685],[1291,580],[1046,-60],[1834,2158],[929,312],[1841,2138],[1397,2613],[-136,1974],[-726,6563],[-2067,5725],[-155,2296],[256,809],[511,943],[10064,11728],[1768,2213],[499,1193],[3997,11462],[2027,2880],[2885,2705],[1804,2132],[947,790],[561,1204],[-125,1069],[2713,3082],[-1705,1657],[-711,1535],[-725,3532],[-582,1326],[-918,2891],[0,1505],[-402,2429],[-751,2593],[0,1169],[2771,2],[2702,2]],[[392371,388272],[-229,-557],[-1161,-4306],[-1375,26],[0,-3387],[10,-998],[-94,-502],[77,-196],[34,-247],[73,-149],[245,-161],[-394,-274],[-2,-112],[620,-819],[-577,-1705],[866,-1772],[966,-727],[-677,-568],[-292,-1539],[-2687,-28],[414,-1062],[-557,-1459],[257,-2176],[-249,-223],[-933,-189],[12,-1390],[-501,-1241],[-151,-373],[26,-1009],[-210,-1893],[-1515,-5674],[-553,-1433],[-678,-206],[-411,-1771],[-1219,-1616],[-1361,-598],[-535,-646],[-21,-855],[-741,-122],[-339,-1315],[-1157,115],[-477,-771],[-1921,-294],[-1448,217],[-165,-622],[-888,-340],[-1203,-1997],[-1735,-528],[-3136,-1347],[-868,672],[-1929,401],[-1640,591],[-1546,248],[-546,-367],[-444,1658],[-210,1866],[-1064,1331],[-886,246],[-1156,-859],[-518,91],[1346,1174],[-390,377],[-1080,-445],[-1479,258],[-3291,-752],[-902,-369],[-2160,199],[-1530,-309],[-1081,-891],[-1731,-462],[-3076,-46],[-1692,-716],[-529,-551],[-1719,88],[-1292,685],[-1550,-254],[-2559,951],[-92,1625],[-827,834],[115,3546],[-1474,2457],[-1191,2292],[-708,659],[-596,1353],[-728,839],[-856,3628],[47,1355],[786,3991],[960,2260],[-511,166],[-619,1107],[41,1215],[579,1374],[858,3077],[-170,1287],[-914,-1258],[-267,746],[-1660,-616],[-1167,1081],[-274,1188],[-597,549],[84,2880],[-780,1839],[-975,-23],[-497,-482],[1128,1371],[719,2875],[1739,2294],[379,1744],[1077,879],[2177,-582],[557,148],[1594,2180],[507,2549],[513,807],[277,966],[1789,3210],[388,1232],[479,2720],[-23,1055],[-642,1682],[-323,2875],[153,317],[-535,887],[-1681,1652],[-1153,218],[189,-1149],[-1346,41],[-1378,2123],[-832,226],[-863,-374],[-1565,463],[-1488,75],[156,1624],[-1901,910],[-893,-133],[-1101,-1772],[-1889,-1162],[-1410,2221],[-232,745],[-38,5230],[397,1746],[532,3022],[1074,2005],[427,3335],[841,3068],[907,1533],[1760,2262],[2794,2603],[854,669],[1858,1013],[3102,-31],[839,2459],[215,1561],[2135,3023],[1302,1436],[-3393,1682],[211,2090],[927,1608],[-1958,563],[980,-56],[-10080,2910],[-1845,701],[-1991,1068],[-4967,3063],[37,93],[-3346,2069],[83,138],[786,297],[1115,843],[608,895],[2670,1539],[242,396],[152,828],[319,3989],[177,4828],[124,571],[779,2055],[1484,2595],[742,1155],[150,2290],[795,2405],[914,4283],[-420,434],[-28,219],[4,170],[-31,200],[-82,194],[-82,211],[-169,791],[-126,286],[-127,662],[32,292],[-59,486],[-176,2033],[-870,1840],[-237,1416],[426,1449],[-1271,-1194],[-239,-645],[298,-1151],[-698,587],[-66,-733],[-859,-606],[-157,636],[-638,-1321],[-838,-138],[554,-1425],[1456,-22],[179,-842],[-1446,-433],[-1456,1401],[-894,-858],[-289,525],[-1971,173],[1883,1795],[964,-177],[657,909],[-616,439],[-1474,-140],[1294,598],[-773,182],[221,532],[-717,760],[20,730],[661,940],[26,751],[-1545,-1200],[-745,-125],[138,-927],[-407,-1076],[-1310,-312],[556,1320],[-606,-6],[-1344,-994],[738,922],[-437,180],[-1715,-505],[-2348,1183],[-344,-681],[-702,307],[544,765],[-159,1135],[-346,-203],[-2091,940],[-1265,64],[-1544,2934],[-1027,2802],[-2130,490],[-5206,6508],[-2764,2919],[-2568,2381],[-964,1578],[-7,1259],[-42,7288],[1115,22],[957,-63],[5682,71],[4341,-191],[4064,-162],[71,4874],[1441,-326],[2476,439],[531,2095],[1237,2371],[760,649],[1347,2235],[650,1633],[-122,1156],[347,2421],[-511,1704],[16,3308],[-157,5490],[314,593],[217,1670],[4226,-1353],[371,381],[-422,698],[452,1070],[1194,928],[-1128,412],[-6373,5541],[-373,182],[-1101,40],[-109,190],[3104,3486],[1323,366],[2441,1757],[1233,492],[1389,1027],[793,1431],[1164,1233],[636,1413],[1430,-1821],[1811,-575],[718,-837],[1506,-1126],[658,516],[1151,70],[635,1628],[1494,442],[-732,1614],[-132,1573],[333,1704],[1883,148],[2129,833],[1368,-1192],[1099,33],[2436,-1132],[588,-1474],[702,-715],[2258,225],[1194,1878],[571,343],[1665,2825],[-639,-3466],[-25,-2532],[532,-864],[524,-636],[7042,-60],[1,-882],[507,388],[1297,2980],[-1090,2160],[-208,1147],[-662,596],[-299,834],[636,1371],[207,2071],[-1025,1236],[-585,2354],[571,968],[545,1699],[2655,3595],[1708,-503],[2047,1712],[589,-640],[1966,-911],[764,-837],[1767,-361],[1483,222],[1133,-143],[1403,907],[238,873],[1799,797],[2182,1877],[1413,-670],[1300,1668],[598,461],[740,-149],[2351,-1357],[1571,268],[598,-298],[-339,-2473],[1742,-2182],[1143,238],[1676,-275],[1154,-18],[-1150,-423],[74,-7463],[-1239,461],[-2790,1998],[-1090,-371],[-1000,224],[-247,-1386],[206,-4172],[-247,-744],[142,-2071],[-481,-2860],[272,-968],[1844,1652],[784,-2],[-1436,-904],[-414,-586],[7,-1047],[2018,-2],[1004,-2],[2584,-15],[-1988,-588],[-953,93],[494,-430],[-536,-1557],[1034,1017],[2001,9],[3,-1250],[254,-92],[376,-27],[139,-271],[-39,-195],[-200,-239],[-534,-92],[-8,-1402],[-1170,-535],[290,-180],[324,72],[383,-389],[179,106],[406,-2716],[314,210],[331,1348],[1006,2336],[478,247],[681,-947],[-166,-1442],[1016,969],[740,-369],[1001,159],[-298,685],[-1351,561],[-1604,2009],[316,1071],[1763,1493],[1067,497],[2192,-535],[342,-1004],[274,83],[323,943],[1120,40],[-376,1086],[-1703,855],[-923,986],[762,1570],[465,321],[1987,534],[930,-1143],[1014,380],[-99,3198],[-682,537],[1152,1109],[223,303],[148,322],[-227,333],[-426,63],[-106,186],[7,288],[3003,3420],[-74,-3661],[-618,-1298],[1782,-65],[1275,-41],[-989,-1594],[606,-3229],[-857,-859],[10,-1186],[-15,-237],[-642,103],[-748,-1058],[-28,-1246],[-621,-1484],[1368,-765],[-448,-1820],[1214,1366],[242,151],[595,-181],[579,-738],[182,65],[-471,907],[-568,707],[-589,211],[-27,1585],[678,282],[1099,1576],[1312,372],[991,1391],[212,-727],[1346,-686],[15,1296],[-368,242],[770,701],[-629,832],[-1050,344],[-332,840],[473,672],[1011,379],[719,1629],[-221,753],[134,274],[385,-111],[539,-20],[467,-104],[327,-264],[-177,-573],[-217,-800],[866,-3182],[240,-198],[-28,-1412],[723,-2084],[855,-351],[2054,1817],[1761,713],[451,131],[2259,552],[928,-1],[2641,870],[2178,-348],[1030,1192],[1390,-652],[395,-675],[61,-820],[159,-1260],[2027,-413],[1321,-656],[413,579],[992,-395],[646,736],[1056,432],[1014,1013],[113,573],[2646,1303],[821,-311],[1019,993],[694,-1010],[1507,-529],[975,-1201],[964,-158],[800,-525],[1599,-24],[1053,-2349],[634,-439],[228,-553],[1,-63],[164,-994],[464,-856],[2293,-328],[736,411],[1,-2055],[212,-288],[137,-1014],[-279,-461],[305,-673],[185,-1291],[-403,-744],[-153,-77],[0,-565],[769,457]],[[379741,545305],[395,56],[23,1380],[1742,-68],[-898,689],[-1402,327],[140,-2384]],[[77478,560539],[-34,-450],[404,-1046],[51,-3577],[259,-2309],[-1622,-969],[-2417,-2994],[-762,-268],[-3491,-3412],[-1569,-865],[-908,-1088],[480,-1878],[79,-553],[-1206,-3663],[-713,-451],[-1395,72],[-881,-665],[-619,-1274],[-584,1386],[-1535,-791],[-334,785],[-1345,-257],[-330,844],[-1454,225],[44,615],[-972,-211],[-952,-737],[-630,293],[-513,-1374],[632,501],[-264,-1020],[-557,-479],[-25,-948],[-1074,-150],[-613,-430],[-443,445],[-1224,-726],[-2636,394],[-963,665],[-677,-689],[-3613,-308]],[[43072,533182],[-313,3328],[593,1708],[247,741],[-1646,824],[700,1865],[602,1086],[2137,7754],[563,2747],[-16,1870],[-1106,4917],[-582,1121],[-1975,1889],[-1888,2737],[-2147,69],[-2703,70],[4,500],[-69,2487],[-1496,712],[-3713,-155],[-1888,296],[-1234,758],[0,330],[-428,15],[-4062,3269],[-2599,1529],[-1556,382],[-16,2025],[3,7125],[5016,-18],[2066,-44],[1554,41],[11,1063],[85,8128],[269,9680],[8,5860],[1,85],[7457,1637],[1155,76],[-2,2017],[4368,-38],[-647,1073],[-1078,3593],[-228,1725],[-468,762],[-107,1437],[338,1345],[-346,2475],[-1636,-1359],[0,2595],[-4036,46],[-2504,27],[-5583,51],[-2508,22],[-14208,178],[-2303,44],[-5158,23],[1273,1931],[250,1001],[804,652],[1463,1795],[134,1288],[789,801],[480,1374],[112,2006],[995,1181],[35,1742],[-493,543],[1385,3194],[1179,977],[334,1495],[973,755],[581,1398],[742,372],[524,1309],[-327,2157],[1245,2525],[297,515],[1136,461],[2322,1770],[927,419],[1146,1452],[51,129],[275,-364],[1379,610],[1131,1162],[-172,909],[828,1294],[1939,1315],[1786,662],[630,668],[1342,450],[2737,-803],[1214,414],[840,597],[337,665],[1159,690],[1473,-98],[993,794],[1523,367],[263,389],[1908,182],[159,680],[437,-355],[2247,1687],[1308,-375],[590,408],[443,-933],[157,-1145],[752,423],[670,859],[675,-422],[702,1084],[412,-479],[996,-279],[377,418],[1099,119],[290,1109],[868,-239],[112,615],[1008,1281],[577,97],[75,1466],[1074,-100],[425,583],[-478,286],[536,558],[584,-100],[649,1302],[628,-329],[1280,197],[611,404],[2033,29],[861,648],[1128,-68],[2077,986],[1582,-308],[3591,-56],[3104,-853],[3985,-1694],[1646,535],[5213,1333],[875,135],[-234,7841],[200,2271],[785,7138],[1097,9939],[1805,16375],[2886,-4321],[216,-2519],[2433,-524],[2487,-759],[1952,2713],[2370,-1578],[625,-2294],[1394,-2041],[4972,-2784],[547,-433],[3207,1730],[1201,266],[380,690],[1029,-2013],[-1821,-3412],[-3355,-6173],[-7450,-13711],[-197,-241],[2193,-481],[5241,3024],[1867,1325],[2565,2509],[941,781],[1312,566],[1571,218],[1973,-10],[981,-1314],[578,-786],[501,-713],[8552,-2623],[510,-1748],[-189,-919],[2,-1403],[-528,-1703],[-172,-2606],[-874,-6314],[-2118,-3101],[-445,-2537],[583,-2109],[887,-1134],[1410,178],[-118,-1016],[374,-686],[1429,-512],[1723,701],[973,-229],[677,-2418],[1476,-222],[646,-641],[-921,-2489],[49,-2467],[-818,-186],[-1493,-4915],[1132,-3356],[1379,-2442],[2494,-8227],[-3426,-2127],[142,-1550],[559,-909],[545,-2072],[1364,-343],[-26,-134],[-1258,-1952],[3481,6],[4502,39],[-148,-243],[-639,-430],[69,-754],[1420,-2843],[-2323,-2377],[-2196,-1535],[-260,-610],[-1806,-1907],[-1277,57],[-1309,-1830],[-1442,-2413],[-650,-552],[-1286,805],[-1052,-164],[-610,-1698],[-741,-447],[169,-1476],[-1130,-2071],[-662,-1624],[-14,-1376],[-1785,-3022],[-464,-1386],[172,-1597],[-231,-1660],[294,-1824],[-90,-330],[-446,-623],[824,-1770],[-2671,-794],[-1086,-1165],[-1771,-1247],[-657,-314],[-1031,-21],[-1969,492],[15,2076],[-842,227],[-1129,-3022],[-318,-1673],[316,-906],[839,27],[-209,-792],[-716,-552],[-330,-1161],[489,-770],[-165,-838],[458,-477],[524,517],[237,-1978],[-380,-735],[468,-500],[-3348,-214],[274,6932],[-3924,-153],[-7121,15],[-186,173],[-71,172],[352,1229],[-253,203],[-672,652],[-197,247],[-59,2993],[21,3877],[-3169,459],[-2325,-435],[-2755,-89],[718,-249],[121,-3385],[95,-3993],[878,-299],[-1231,-1398],[-958,-12],[-6879,-41],[-96,1],[-871,5285],[1,551],[-600,3596],[-120,756],[-1374,236],[-1414,-601],[-1232,65],[-311,-354],[-855,-1459],[-2079,-811],[-28,-7194],[-47,-9099],[582,-9569],[-5381,134],[2786,-2498],[1272,-1952],[1420,-1396]],[[244663,522792],[446,-9],[2745,-123],[263,-2091],[456,97],[853,-883],[372,-1578],[-158,-2712],[226,-1022],[863,-225],[685,-1089],[-271,-708],[-1167,-810],[513,-760],[-396,-1256],[455,-1093],[-655,-1195],[110,-1206],[4313,-4580],[521,-457],[556,-423],[8384,-5468],[4068,-2326],[-1650,-2928],[130,-344],[5834,-3376],[-758,-1799],[284,-33],[-845,-1727],[-934,-2714],[-195,-1312],[-739,-1578],[-752,-2146],[-791,-744],[-493,-1341],[-1529,-2055],[-481,-1669],[-1737,-2889],[-751,-1534],[90,-1043],[-274,-3949],[-414,-1472],[-480,-132],[-647,688],[-297,-476],[375,-431],[1270,-237],[-169,-1205],[-1320,-70],[-78,-580],[841,46],[285,-1502],[-340,-2287],[-1093,-1420],[-1109,-843],[-1788,-1976],[-687,-1100],[-234,-1458],[906,-907],[-700,-1204],[1063,-1043],[-414,-586],[-439,-2208],[-1488,-2778],[78,-1583],[681,-1038],[754,-3642],[1066,-1749],[238,-1959],[662,-2685],[787,-1543],[1058,-1251],[473,-1683],[-18,-862],[1413,-3015],[1669,-1522],[1079,13],[1958,-1036],[1156,-60],[91,-787],[1018,-254],[-509,-226],[-1591,597],[-3928,954],[-1591,-1555],[-1423,-261],[-310,-1084],[77,-1767],[-763,-1380],[-1992,-914],[-880,-1112],[-181,-2285],[-92,-5222],[-16478,-19],[-12731,-25],[15,-4827],[12,-4099],[-7,-6772]],[[181736,397690],[-660,2076],[-168,2309],[-928,2763],[-612,2716],[-143,1450],[-1099,2591],[10,1314],[-1207,2160],[-1510,4761],[-718,4347],[-760,2451],[-774,1672],[89,534],[277,514],[567,-236],[-136,783],[436,1294],[-538,1056],[715,-481],[-533,1865],[1865,-454],[657,-686],[920,1751],[1212,852],[2706,1455],[947,229],[2153,2121],[1136,601],[869,107],[806,508],[862,1309],[451,255],[1778,2368],[954,589],[896,97],[6378,72]],[[77478,560539],[1943,-1319],[2325,667],[1283,-292],[1825,-23],[3055,614],[1661,580],[1943,920],[-50,925],[-791,2408],[115,4136],[1716,761],[209,1303],[84,-19],[-204,-1318],[1532,-674],[424,1487],[661,1251],[1355,1228],[3505,-5561],[2466,-1051],[1150,-471],[3217,-1384],[9864,-4194],[4123,-1579],[3705,-1540],[1804,-1247],[-2007,-82],[590,-8203],[4680,-89],[3882,57],[378,37],[3121,1635],[285,288],[7,-1890],[4159,41],[2890,49],[10,-148],[5577,47],[-24,-2219],[0,-242],[-21,-923],[0,-55],[2,-380],[-6831,523],[-2329,-417],[-7,-118],[-4124,-1628],[-520,-382],[-1099,-53],[-236,-1108],[-407,-2248],[85,-153],[1589,-2000],[-916,-1201],[-558,530],[-953,-2],[-150,-3],[-556,-107],[12,-2386],[-1711,1845],[-380,1252],[-1471,2027],[-639,-18],[-313,-8],[-1249,-44],[-980,-14],[502,-1017],[491,-3432],[596,-1463],[567,-1146],[-1047,-1621],[-544,495],[545,950],[-1082,832],[-1146,-688],[-20,-2296],[-3045,-22],[-1052,-9],[37,6280],[40,3081],[-637,35],[-387,1],[-3084,13],[-29,-1246],[-89,-814],[18,-544],[-160,-5017],[-161,-532],[-687,-902],[-549,-317],[-57,-25],[-634,-220],[-12,403],[-1637,-110],[-2104,-7],[20,-1491],[-13,-3181],[1202,-19],[997,-10],[1623,-22],[134,-3325],[16,-1421],[-1140,-4],[92,-2252],[-468,-2028],[-1771,3281],[-1403,598],[274,537],[-1572,89],[-6506,-328],[-72,-746],[-1136,140],[-89,585],[-538,911],[-1304,-155],[-214,1536],[-1943,430],[-1984,-5113],[-118,-1639],[-752,-104],[-414,373],[-233,1922],[-427,880],[-882,776],[10,170],[-1839,-43],[-6474,-143],[3,176],[12,4539],[-8165,-154],[43,-4613],[-6229,-38],[365,-443],[-35,-2507],[582,-734],[1662,-876],[993,336],[2878,-1267],[1649,-233],[-15,-1063],[2029,640],[881,-82],[610,-1369],[70,-1310],[1092,-2035],[-318,-1264],[266,-1225],[1486,-566],[595,-1053],[520,33],[1068,-2825],[394,270],[1642,-841],[-447,-65],[-1549,-19],[-2033,0],[-4104,300],[-61,9194],[-3235,-23],[-2446,-126],[-6529,51],[-68,4502],[-4176,92],[138,-4726],[-1862,213],[-2073,-169],[164,4133],[272,4470],[-8501,99],[-2,-114],[-222,-8574],[-8180,34],[-2557,122],[840,2130],[1702,2123],[47,4191],[6684,-19],[0,1833],[-4254,-95],[-3,921],[8,2218],[-2433,-322],[-146,-38],[-5839,-1456],[-2062,-592],[-504,-209],[58,528],[18,234],[202,2550],[-2670,53],[116,973],[1130,-111],[934,662],[41,1083],[2215,3429],[576,329],[1497,496],[1656,1612],[1142,583],[1617,-37]]],"bbox":[-108.958857,34.695992,-106.800289,36.232033],"transform":{"scale":[0.000002158570158570147,0.0000015360425360425405],"translate":[-108.958857,34.695992]}}
