{"type":"Topology","objects":{"foo":{"type":"GeometryCollection","geometries":[{"type":"MultiPolygon","arcs":[[[0,1,2,3]]],"properties":{"postal_code":"82727","realtor_list_price":"NA","realtor_list_price_yoy":"NA","realtor_list_price_base":"NA","realtor_active_listings":1,"realtor_active_listings_yoy":-0.8333,"realtor_active_listings_base":-0.8727,"realtor_new_listings":0,"realtor_new_listings_yoy":-1,"realtor_new_listings_base":-1,"realtor_days_on_market":"NA","realtor_days_on_market_yoy":"NA","realtor_days_on_market_base":"NA","zhvi":447749.304,"zhvi_yoy":-0.0357,"zhvi_base":0.4199,"zori":"NA","zori_yoy":"NA","zori_base":"NA"}},{"type":"MultiPolygon","arcs":[[[4,-1,5,6]]],"properties":{"postal_code":"82716","realtor_list_price":313070.455,"realtor_list_price_yoy":0.0582,"realtor_list_price_base":0.6402,"realtor_active_listings":20.667,"realtor_active_listings_yoy":-0.4312,"realtor_active_listings_base":-0.8286,"realtor_new_listings":14.667,"realtor_new_listings_yoy":-0.12,"realtor_new_listings_base":-0.4868,"realtor_days_on_market":56.364,"realtor_days_on_market_yoy":0.2503,"realtor_days_on_market_base":-0.3033,"zhvi":296183.86,"zhvi_yoy":-0.0379,"zhvi_base":0.3927,"zori":1161.278,"zori_yoy":0.0623,"zori_base":"NA"}},{"type":"MultiPolygon","arcs":[[[-6,-4,7],[8,9]]],"properties":{"postal_code":"82718","realtor_list_price":460155,"realtor_list_price_yoy":0.0588,"realtor_list_price_base":0.9476,"realtor_active_listings":49,"realtor_active_listings_yoy":-0.3926,"realtor_active_listings_base":-0.773,"realtor_new_listings":33.333,"realtor_new_listings_yoy":-0.0196,"realtor_new_listings_base":-0.4608,"realtor_days_on_market":41.84,"realtor_days_on_market_yoy":-0.0865,"realtor_days_on_market_base":-0.4416,"zhvi":371494.721,"zhvi_yoy":-0.0354,"zhvi_base":0.3644,"zori":1425.667,"zori_yoy":"NA","zori_base":"NA"}},{"type":"MultiPolygon","arcs":[[[10,-10]]],"properties":{"postal_code":"82732","realtor_list_price":307400,"realtor_list_price_yoy":0.1389,"realtor_list_price_base":0.6511,"realtor_active_listings":3,"realtor_active_listings_yoy":-0.7,"realtor_active_listings_base":-0.863,"realtor_new_listings":1.333,"realtor_new_listings_yoy":-0.5,"realtor_new_listings_base":-0.696,"realtor_days_on_market":131,"realtor_days_on_market_yoy":1.701,"realtor_days_on_market_base":0.812,"zhvi":277100.041,"zhvi_yoy":-0.0739,"zhvi_base":0.3737,"zori":"NA","zori_yoy":"NA","zori_base":"NA"}},{"type":"MultiPolygon","arcs":[[[11,-2,-5]]],"properties":{"postal_code":"82731","realtor_list_price":"NA","realtor_list_price_yoy":"NA","realtor_list_price_base":"NA","realtor_active_listings":1,"realtor_active_listings_yoy":0,"realtor_active_listings_base":"NA","realtor_new_listings":0,"realtor_new_listings_yoy":"NaN","realtor_new_listings_base":"NA","realtor_days_on_market":"NA","realtor_days_on_market_yoy":"NA","realtor_days_on_market_base":"NA","zhvi":"NA","zhvi_yoy":"NA","zhvi_base":"NA","zori":"NA","zori_yoy":"NA","zori_base":"NA"}}]}},"arcs":[[[649091,529905],[11621,-1975],[5801,-492],[3131,39],[21706,1636],[6584,932],[6419,1281],[-3011,676],[-4341,1449],[-3306,1726],[-1581,1704],[1380,1508],[1304,1245],[4405,744],[25,1451],[-281,459],[-1435,798],[-140,239],[30,2900],[-2262,1135],[-284,2785],[1733,2284],[3843,3266],[402,1044],[-584,3417],[-620,2129],[802,1563],[382,1975],[1836,1723],[3543,1808],[190,1011],[-1134,718],[-491,1264],[-994,512],[111,3106],[411,711],[2529,1124],[1405,2042],[542,2567],[4556,1995],[1244,951],[-20,1350],[2961,565],[1796,1956],[-2522,1562],[-142,1326],[1263,3411],[-604,1446],[4994,410],[6081,1597],[-1343,2281],[-9316,1598],[-3264,912],[-2624,1475],[-1377,1673],[-2145,395],[-2689,1065],[-8426,358],[-2430,1194],[-937,2488],[-4642,2231],[-1174,881],[-2328,624],[-3680,165],[-1338,-384],[-3732,2139],[-697,2349],[572,1257],[2499,1583],[793,2528],[70,484],[803,1078],[30,944],[893,984],[1756,1324],[311,459],[-597,739],[1659,-84],[438,1366],[1215,-504],[606,1989],[1245,460],[-1161,668],[99,1894],[-1123,4],[914,1383],[2861,501],[-1516,2551],[1422,65],[-2762,1993],[454,1558],[-1392,-241],[-2547,376],[2515,952],[-316,435],[-3177,770],[-1546,-1],[-3147,1536],[-2777,350],[-155,1252],[-4378,740],[-1970,1193],[-172,1588],[-2060,-596],[-1681,2861],[-1923,288],[692,628],[-2001,383],[-942,2029],[-2416,430],[-1224,1047],[622,767],[939,-613],[673,2861],[1300,738],[-955,1116],[1947,-254],[3008,606],[791,1908],[1769,1314],[360,1248],[3417,-247],[-1418,1522],[-2563,558],[2216,920],[2586,468],[-971,1197],[2947,409],[1693,613],[-3579,22],[-16,726],[-1633,890],[-2103,-38],[-1036,335],[532,1769],[-402,4103],[382,2707],[-2539,964],[-1425,7608],[-2128,412],[-3472,3193],[-2288,1163],[-7105,552],[-8831,-831],[-13633,-213],[-1803,403],[4016,2817],[2826,985],[32337,6502],[3352,878],[11561,4615],[3924,2208],[2679,2926],[9333,16021],[442,1283],[94,3105]],[[694937,741902],[43723,95]],[[738660,741997],[3469,-2209],[3493,-425],[893,-506],[4125,-851],[1736,-1017],[7908,-2661],[2338,-1177],[421,-1429],[1626,-2674],[3302,-2480],[532,-1151],[-994,-2507],[1234,-3910],[1265,-426],[3803,-432],[4837,-2241],[-461,-1503],[802,-1071],[-130,-2022],[-1666,-1243],[2619,-1430],[693,-2049],[2549,-538],[3833,73],[1767,-419],[2840,-1623],[2539,-2986],[-452,-1443],[502,-758],[1656,-239],[5148,-3432],[1104,-492],[2117,-379],[4275,2993],[1827,2487],[4696,3943],[7898,4875],[994,339],[4325,193],[3532,-313],[3513,-724],[8098,-2255],[3462,-1456],[1847,-233],[2770,1629],[1304,393],[7246,1223],[1435,-13],[6874,-1789],[3763,-2613],[2228,-646],[4486,-2108],[5791,-1449],[1956,226],[4717,3318],[-2549,632],[-1716,2216],[-2457,1784],[-1781,2027],[-2236,1251],[-283,884],[308,2697],[1917,2954],[472,2911],[-408,1462],[745,747],[4317,915],[649,792],[-81,2088],[1006,1188],[840,58],[3460,-1850],[1303,-882],[3418,-588],[2178,-1362],[2019,-501],[544,-633],[2660,-1103],[3448,236],[-1425,-911],[321,-1663],[-1265,-871],[703,-1310],[-452,-685],[-4164,-2354],[-2539,-2135],[-191,-885],[1264,-1895],[241,-1190],[914,-160],[1374,-1530],[1877,-1137],[2980,-2421],[552,-1975],[4627,-2400],[3121,-566],[1595,-778],[3583,-106],[4014,299],[1024,559],[2719,498],[2088,7],[923,-572],[3172,804],[83,-1835],[-506,-9418],[3465,-67],[-378,-14117],[1367,-32],[6134,1053],[5644,-485],[2585,8],[3251,487],[1235,699],[1585,-7],[3904,-1317],[4396,-565],[2990,-831],[4235,119],[4556,-924],[4486,-166],[3964,731],[508,-3991],[-1752,-2247],[1365,-552],[1485,273],[2137,-831],[1997,-2142],[2399,572],[2037,-1396],[853,-2122],[-903,-977],[-1887,-991],[-160,-725],[-3804,-233],[-2509,751],[-2117,-1975],[-1917,-931],[-371,-1104],[-30,-4535],[732,-1603],[-441,-1629],[1676,-738],[1957,-1424],[1595,-2181],[-291,-565],[-2569,-140],[-3813,-3072],[-91,-2215],[-712,-1277],[-1616,-1296],[-3793,-951],[-4035,-2415],[-4626,-1715],[-492,-1290],[843,-2428],[-411,-818],[-3201,-1290],[-1215,-1323],[-1977,-725],[472,-1244],[1495,-1057],[372,-1164],[5890,-1277],[2389,-1150],[2117,-2348],[-903,-1988],[-3552,-1457],[1957,-1257],[-1686,-73],[3652,-1343],[-491,-2248],[-924,-406],[130,-7805],[-151,-1135],[-5152,-683],[3487,-2799],[735,-1217],[-510,-685],[-5938,-3656],[-440,-1963],[-1979,-1096],[-980,-2569],[2329,-1503],[-2770,-4762],[2358,-2081],[-2258,851],[-3510,416],[-1707,-212],[-1289,-2039],[627,-2799],[-1544,-2100],[-3657,-1824],[-852,-1666],[-4814,1501],[-3774,716],[-3008,150],[-2635,-585],[195,-34549],[298,-2304],[88,-3556],[-651,-923],[442,-762],[-438,-40558],[673,-5005],[1621,-21901],[2910,5],[-1501,-139634],[-13295,-951],[-2271,-691],[-4825,186],[-1633,-719],[-1978,874],[-6334,-317],[-2770,450],[-36,812],[-1349,123],[-4035,1378],[-3398,309],[-3448,648],[-4972,-196],[-2895,-1077],[-2287,762],[1779,30],[-3023,1881],[-955,1116],[-2608,1103],[-2323,1606],[-69,2444],[-6332,3259],[-3596,1227],[-1209,185],[-3504,-819],[-4657,1529],[-2488,-452],[-1285,-1563],[-1917,-472],[783,-565],[-4074,-526],[-5108,-312],[-2720,405],[-3231,-26],[-1646,-745],[-5710,-885],[-4044,865],[1694,2123],[315,2389],[2146,1702],[194,1363],[1478,1731],[3757,2033],[456,949],[4332,1131],[1338,748],[2419,2505],[3086,1651],[1097,1192],[4904,1106],[1906,1276],[3914,453],[3001,2440],[-1405,1763],[3804,2161],[7616,7083],[1034,1150],[4024,1722],[1485,1829],[502,2295],[1234,1622],[-1314,2009],[120,5067],[-1239,1429],[274,3037],[2043,2502],[1011,2484],[-43,1165],[-3138,907],[-3245,1521],[-3976,2815],[-6345,2499],[-1931,1399],[-461,1590],[-1766,2134],[-502,1464],[-5267,404],[2284,-1072],[-391,-1336],[-2103,-1526],[-512,-1734],[-1437,-91],[-351,1249],[-3424,44],[-344,-887],[1597,-581],[-1797,-1324],[-2529,-570],[-259,-565],[4041,-1219],[924,-738],[-1283,-569],[-2797,-456],[-2682,423],[-1727,1107],[-2751,-698],[1039,-1350],[-3385,-1756],[1612,-919],[-374,-687],[-7052,460],[687,978],[-1092,712],[-2480,-48],[-8449,299],[-954,1610],[201,5858],[-238,985],[-2968,1745],[-4140,5430],[-3422,1503],[-5078,2820],[-5168,1709],[-4566,2594],[-2931,1084],[-1113,977],[-5379,1457],[-5831,-73],[-632,1981],[1997,1457],[1074,2554],[-61,884],[-1425,545],[-7747,2089],[-2579,1888],[441,2188],[-1194,1975],[2007,606],[1536,1130]],[[772828,432112],[5840,1443],[5460,2255],[4435,1070],[4476,-199],[2835,860],[1264,1383],[-347,1621],[1576,1056],[-218,1156],[-1606,1103],[-289,1447],[1274,989],[7488,-1899],[3518,456],[1188,1598],[4205,2375],[3422,-308],[1815,864],[-1894,3116],[884,1355],[-3075,3009],[491,1966],[-1188,980],[-237,1579],[1979,880],[1881,3135],[-698,1820],[1143,1113],[-1183,1297],[-2179,159],[-1075,-788],[-6107,259],[-6123,-853],[-2296,-1110],[-2615,-579],[-3636,-365],[-2776,59],[-1952,506],[-2198,1243],[158,1322],[-2937,2159],[-5011,1352],[-3829,-122],[-5931,-47],[-6252,1341],[-6093,184],[-2714,-882],[-4372,-2097],[-3830,-805],[-2394,-2783],[571,-2722],[-926,-1369],[-1882,-319],[-1451,-828],[-2525,-191],[228,829],[2043,3093],[-320,1589],[-2140,2812],[-1054,866],[-5713,2415],[-1213,1323],[-992,2447],[-1661,1353],[-3671,1898],[-3066,2218],[-3067,1140],[-7580,1706],[-1794,1225],[-565,1297],[101,722],[1315,1612],[1003,1293],[-408,3693],[417,889],[4002,3769],[1337,414],[-3375,1214],[-2680,-725],[-772,-2041],[-1476,19],[-1796,1869],[-2007,-113],[-5369,200],[-3482,1064],[-3954,1835],[-5751,326],[-2980,-106],[-7557,2095],[-742,791],[-2108,-1097],[-2699,379],[-3232,-1251],[4155,-3006],[1656,-6996],[3362,-3325],[-61,-7189],[-9794,-26],[-8330,177],[-3704,428],[-5863,3067],[-4040,1116],[-14793,-107],[1827,3951],[-422,4402],[-2549,293],[-2940,2131],[23,1234],[-738,1579],[543,3633],[4,2005],[457,517],[598,3055],[630,1276],[879,3292],[2022,322],[458,-1033],[1274,280],[2554,1446],[1344,2642],[105,3485],[1327,953],[4387,432],[2223,-106],[1104,-581],[2405,448],[529,3209],[2690,326],[1655,1157]],[[649389,999911],[425,-3181],[7065,-12137],[943,-2148],[90,-612],[-802,-10734],[-2830,-15049],[-8601,-23675],[-261,-1091],[181,-15103],[100,-585],[3523,-8340],[90,-1144],[-20,-21899],[-572,-1955],[-1335,-1856],[-1244,-1104],[-16478,-11697],[-1204,-1111],[-1526,-2314],[-1144,-5493],[20,-2301],[833,-1829],[3082,-3229],[-1265,-3088],[1168,-811],[-495,-1345],[518,-2700],[-3656,-5429],[-2828,-1226],[-5274,-570],[-3600,6],[-5207,-404],[-16328,1664],[-9924,854],[-1829,-93],[-982,-382],[1301,-851],[50,-1583],[1579,-1613],[1062,-3384],[-4214,-1266],[-2963,111],[-2414,997],[-4120,1029],[-2743,261],[-4121,-950],[-2239,-170],[-2403,-1235],[-2128,-17],[-1564,-1039],[-3889,-3916],[-2844,-1732],[-1443,284],[-4895,-1451],[-3539,-203],[452,-806],[3671,-1276],[-1319,-1354],[1417,-1080],[-288,-1125],[1189,-1182],[-1612,-2546],[31,-636],[-1644,-2330],[2585,-111],[1616,-672],[4987,-2793],[1646,-80],[9484,825],[6372,13],[7035,-200],[12163,360],[3813,472],[663,-1790],[-711,-2258],[-1630,-992],[-2004,-2198],[-3067,-1680],[-2744,-1893],[-2802,-2565],[-2441,-2939],[-447,-1871],[-966,-1540],[-258,-3643],[-2376,-3822],[-1594,-1994],[2263,-1147],[-241,-2447],[-1500,-1420],[-378,-1103],[-4001,-2020],[-3071,-1205],[-701,-1119],[-1955,-1333],[-2876,-285],[-1230,-570],[-1778,159],[1006,-2177],[-8757,-4282],[-1419,-1526],[-3155,-1482],[-14212,-3363],[-544,-4656],[606,-3844],[7143,1802],[5016,503],[2894,670],[931,806],[2251,396],[3019,1338],[2174,44],[4441,787],[10700,2656],[5049,-400],[4509,130],[-477,943],[-2497,1521],[202,1933],[-862,1019],[2774,1553],[2921,817],[4777,1810],[2099,92],[4916,1124],[540,1086],[-1592,2601],[314,1147],[-810,1102],[-2971,1640],[1098,969],[2069,19],[3521,3058],[4501,15],[2442,-1034],[900,-1521],[2379,-974],[2604,335],[2699,-548],[3923,684],[3215,-898],[3955,90],[2573,1125],[708,1110],[2671,1323],[6301,13],[7297,-1493],[-2,-1189],[2503,243],[1754,569],[1692,1613],[1623,3967],[-533,416],[1150,1979],[2248,2214],[890,1562],[2775,-1000],[9013,-4640],[2661,-597],[7479,1209],[2506,-8819],[1174,-1882],[18786,-20410],[1164,-2460],[-36,-3812]],[[649091,529905],[-15996,1330],[-2409,113],[-52685,-412],[-7061,121],[-305,5],[10,-166],[-8340,179],[-3081,-312],[-3091,-1024],[-2536,-1878],[-263,-211],[-5711,-4688],[-1445,-831],[-1525,-612],[-3231,-732],[-2228,-199],[-12936,-27],[-9293,-7],[-2308,207],[-2077,399],[-2248,705],[-17171,6657],[-3893,897],[-2740,419],[-5677,382],[-7128,356],[-28430,513],[-1234,24],[-6965,89],[-4988,-626],[-4185,-1389],[-2920,-1969],[-4234,-4452],[-3543,-2571],[-9353,-5346],[-11862,-8327],[-3442,-1749],[-1777,-631],[-12363,-3565],[-2921,-652],[-16337,-2407],[-191,326],[-10146,-1437],[-3111,-199],[-3482,26],[-40463,2507],[-4465,-113],[-3603,-598],[-3051,-958],[-1897,-917],[-3462,-2381],[-4174,-1936],[-8711,-2427],[-10708,-3372],[-1515,-325],[-10882,-1646],[-8543,-940],[-2997,-599],[-9639,-2349],[-3645,-219],[-2599,206],[-5159,818],[-3442,7],[-3131,-466],[-7928,-1902],[-4626,-711],[-7597,-546],[-3593,-438],[-3586,-771],[-10182,-3436],[-4907,-2005],[-6082,-3345],[-3733,-2554],[-2539,-2301],[-3472,-2021],[-2619,-852],[-17301,-5021],[-3553,-758],[-3282,-399],[-5298,-133],[-4175,299],[-6192,7],[-4666,-472],[-4958,-732],[-4104,-79],[-2469,212],[-4215,925],[-3141,1343],[-12374,7123],[-4847,1935],[-3081,751],[-25158,4602],[-3262,679],[-35356,8699]],[[1857,478625],[0,131],[33911,-8338],[7898,-1610],[-852,848],[-1407,3314],[5515,3438],[1020,1825],[-768,2099],[319,1613],[-831,1688],[94,1505],[1562,1232],[2457,700],[-1534,2356],[2967,1142],[4941,-435],[2652,25],[4847,-1822],[1941,-1076],[3928,-1161],[2205,-1152],[4880,-794],[990,-1946],[1514,-1814],[5317,737],[1028,-158],[204,1045],[-1186,2340],[163,659],[1064,544],[4252,70],[428,1666],[1458,1211],[-175,1606],[2379,1029],[4873,-497],[3136,-1072],[2504,1089],[1370,871],[-69,1363],[-2681,1339],[-2137,2144],[-863,3556],[-61,2833],[-2236,2067],[-2587,1002],[-1085,1171],[-1948,866],[-162,3616],[-1150,1748],[1085,881],[798,2052],[-1055,2354],[1021,1262],[-3752,1524],[-2279,332],[-3742,2716],[-4141,1706],[-3730,953],[-2581,177],[3336,1108],[1481,877],[794,2244],[-1641,1998],[212,631],[-2115,2069],[-635,2349],[-1747,946],[-1798,1719],[3438,1893],[-1104,1601],[-2343,418],[-2981,1596],[-4796,971],[-3764,1582],[-4004,313],[-1535,1410],[-40,1410],[-3784,5320],[1817,718],[261,2088],[-532,1869],[1525,1496],[-241,606],[1074,2613],[713,4502],[1073,705],[944,2687],[-1917,2201],[1746,2115],[30,1250],[3633,1576],[-60,1051],[-2519,1889],[-2409,771],[-2117,1650],[-3464,1973],[589,1038],[-2830,1078],[-1116,2371],[1064,1601],[-286,679],[2502,599],[3972,1979],[1084,2454],[0,1310],[1004,1756],[3362,2261],[602,1789],[1656,1097],[-322,885],[4135,1124],[4837,2567],[2720,958],[2328,332],[1947,818],[67,1123],[-4801,901],[-1665,-833],[-3810,1252],[-2369,-651],[-4225,1237],[-5378,2013],[-5059,1177],[-2339,1387],[-2241,291],[-4619,-409],[-1219,-2224],[-9593,1958],[-2668,792],[-935,-1244],[-4994,-2188],[-1366,-4282],[-786,-269],[-2697,822],[-446,-1052],[-3307,-407],[-2725,207],[-1485,-296],[-2441,279],[-570,-1056],[-2035,-1846],[1249,-1335],[-2399,298],[1450,69435],[6021,67],[-1203,28530],[-919,47984],[-72,31196],[601,-131],[2091,-2503],[1947,-879],[2203,246],[3400,-2731],[2802,-452],[2144,-953],[5016,433],[4246,1636],[1299,1177],[1290,-793],[3492,485],[-150,9304],[8128,153],[3653,791],[13106,5028],[1365,-318],[4370,-1956],[2241,-75],[3520,-1501],[734,-1184],[-1142,-1971],[-5928,207],[-5211,-94],[-2205,-1882],[1651,-2135],[4032,-2169],[8318,-2630],[4673,-890],[2287,73],[2194,-1313],[6541,-1167],[1905,1348],[3866,-569],[1838,650],[1454,1560],[1355,665],[3611,40],[6532,-2271],[4693,-1430],[3053,-1430],[-1287,-745],[674,-2038],[-1384,-1216],[-322,-1232],[866,-1551],[4049,-1111],[1412,-2950],[4649,-1835],[1648,-65],[4113,1493],[2489,-372],[652,-978],[3525,-1135],[3598,59],[1984,535],[1714,-383],[5447,-2936],[4578,-1330],[101,1416],[-974,845],[502,1549],[1796,27],[2590,2580],[3652,1443],[3643,2547],[893,1197],[-1254,785],[-80,1536],[682,2700],[-271,2900],[773,2015],[1194,525],[261,2135],[-1465,2846],[-923,499],[-723,3292],[672,898],[2258,272],[2871,858],[-924,1217],[-4486,-738],[-3522,160],[-993,572],[3572,2726],[813,1650],[-301,7448],[823,718],[7286,-1822],[3622,-585],[22530,-20],[4947,572],[3623,93],[16408,-885],[3302,-193],[7948,-837],[22318,-3937],[3914,-419],[7667,-2361],[13999,-5813],[1847,-1190],[12775,3578],[973,432],[322,479],[-51,13666],[-1103,1916],[-4215,4356],[-121,7268],[191,1018],[3402,3232],[727,2414],[6348,-1284],[4345,-465],[3472,3046],[7637,2746],[693,3678],[1254,1649],[2218,1729],[713,1922],[4275,7462],[4987,4163],[2318,1157],[48512,406],[1154,1037],[-643,11186],[4657,13],[2759,313],[7166,1729],[11601,472],[15294,1616],[1344,47],[3131,-1350],[884,-1051],[4756,-1643],[2860,47],[2991,1077],[10527,-2886],[2659,-984],[2529,-506],[3603,-159],[2760,-386],[10105,-898],[5650,-2314],[1134,-173],[1726,200],[8641,1762],[120,33],[-2488,2866],[-1114,4416],[813,1656],[3582,-233],[1907,2660],[-1004,1730],[613,1017],[2378,1244],[-1505,1110],[-4556,898],[-823,366],[-3443,3884],[-3442,2493],[-3211,1490],[-341,905],[-171,4096],[-2499,4210],[-1043,3405],[-1626,3903],[120,559],[2981,2388],[3332,1463],[843,758],[622,1842],[-331,2221],[-4185,10335],[160,545],[4406,4841],[140,1769],[-4977,3691],[-281,2035],[-17682,1510],[-13066,2115],[-7166,2607],[-7988,4389],[-6673,2913],[-5119,1197],[-7205,2886],[-7205,2028],[-3944,253],[130,2068],[2348,3226],[302,2693],[5238,8147],[2158,2094],[6402,4290],[1425,1842],[1450,-759],[3112,-1],[4016,-1173],[7815,-770],[3880,296],[1864,-319],[3215,214],[7909,-256],[2025,258],[2810,2784],[-3674,943],[-522,1530],[-954,332],[-3101,27],[-1093,1742],[-1696,685],[230,1802],[894,1291],[-1325,1037],[181,1290],[-1496,1363],[-4834,1469],[-794,1319],[-1831,632],[-2206,2929],[101123,-42],[110718,-46],[4,0]],[[772828,432112],[-1164,439],[-8390,-86],[-1786,139],[-2278,-332],[-6413,259],[-6653,2474],[-2373,275],[-3046,383],[-3964,-592],[-7517,-186],[-6132,625],[0,-4548],[2569,-1038],[2479,40],[552,-572],[70,-1775],[-1967,-1025],[-2559,-665],[-61,-715],[2404,-1755],[2611,-3039],[-135,-1155],[2580,-781],[5062,-2967],[-804,-2141],[2114,-875],[3290,-58],[6452,-2738],[-1038,-534],[1498,-1218],[3186,-1217],[4109,-2726],[6285,-5014],[1064,-1517],[331,-1183],[-602,-2102],[-1526,-2820],[-9353,566],[-2197,272],[-6543,1390],[-4496,2388],[-4085,904],[-4425,506],[-11260,1064],[-3332,1682],[-2087,1669],[-3834,1157],[-4255,7],[-14079,-306],[-4589,-128],[-3736,-6331],[-290,-1651],[522,-1883],[4959,-5080],[3301,-1040],[7967,-3826],[4403,-2901],[3275,-2753],[2373,-2923],[509,-4652],[1546,-1604],[-1441,-4317],[-2906,-1472],[-5800,-1928],[1227,-219],[60,-1616],[2780,-1104],[1816,-2727],[-361,-1310],[5700,-193],[4004,-1183],[2489,1197],[642,997],[4195,1171],[1911,1254],[24,-1822],[4816,-220],[1219,-1189],[3037,-1505],[3908,24],[3717,-403],[8501,-292],[2580,-1038],[1903,-274],[2226,-1260],[3755,-1610],[4766,-1339],[3121,-525],[2949,-911],[4624,-373],[4798,-1332],[1952,-1078],[-2515,-1649],[-652,-1989],[-2349,-631],[-9453,-838],[-3161,439],[-994,-306],[-1174,-1929],[-3763,-1729],[401,-871],[-2187,-1603],[-2600,-60],[10819,-3351],[863,-632],[3964,-945],[4074,-1682],[3924,-2141],[3191,-965],[3472,-1769],[-2448,-299],[-4617,-40],[-1094,-2427],[-3090,1789],[-1937,698],[-4857,426],[-3292,618],[-4426,1377],[121,-918],[-1756,-1197],[90,-1822],[1355,-2514],[-341,-878],[1053,-2580],[2479,-1630],[1234,-2247],[-3227,-2261],[-5050,777],[-3725,-78],[769,-1286],[1599,-5645],[-542,-578],[522,-2029],[-401,-1662],[-1756,-1483],[-2549,-539],[-281,-984],[3552,-1583],[-1314,-1669],[1946,-958],[2610,-3139],[1793,-1360],[987,-96],[1545,-1344],[1686,-2188],[-642,-538],[5720,-3758],[602,-798],[4594,547],[1406,2398],[1478,265],[5243,-2767],[2731,-1337],[-1231,-947],[-3695,-1094],[-1081,-631],[-1033,-1999],[-3300,651],[-5975,-1304],[2960,-645],[984,-765],[1575,-6497],[4857,-7787],[196,-3961],[5525,-2562],[9292,-1742],[6069,-2041],[1554,216],[1811,1664],[4953,1471],[3304,1636],[3429,1224],[3366,279],[4509,-144],[1394,203],[1170,600],[1295,2525],[3621,1075],[511,1318],[1811,1378],[4032,-149],[5494,-514],[2255,1],[3333,610],[3650,-454],[805,-1142],[3136,-1344],[4602,-1084],[4668,-1894],[4998,-2780],[2380,-2242],[92,-1298],[1678,-283],[5072,-2916],[1942,173],[1054,-479],[3522,-2927],[1555,-773],[4707,-930],[2079,-885],[-106,-812],[2978,-3210],[3341,-1709],[773,-964],[1696,-332],[1646,-2009],[2569,-1955],[131,-1869],[3171,-2687],[3733,-1629],[1465,-299],[3081,-3684],[1505,-679],[-90,-798],[1947,-598],[1455,-1290],[-5197,-1442],[-2725,-2577],[-5140,-979],[-2376,-1038],[-2759,316],[-4087,-57],[-3581,-1211],[-7125,-1126],[-3647,-207],[-2789,492],[-1108,687],[-5602,588],[-2942,787],[-6250,864],[-4187,-606],[-3317,-2009],[-2778,-1013],[227,-813],[-1614,-582],[-2689,-252],[-4367,508],[-6565,137],[-3138,-1169],[-1932,-1534],[-5703,-2582],[-2788,-1778],[-2803,-2963],[3000,-113],[5229,-745],[5018,-1204],[5228,-625],[3231,-758],[7196,133],[3332,-718],[6693,-379],[1104,-1091],[4436,-1955],[1766,-465],[3542,-1969],[5359,-359],[6142,-1589],[5379,-1191],[4004,-539],[3231,-871],[4737,33],[9173,-2035],[4927,-2859],[953,-831],[1485,-27],[6906,-3321],[2959,-4526],[853,-2594],[2258,-4974],[1195,-1170],[515,-1600],[2457,-794],[4161,-2416],[-430,-45278],[-9536,-278],[-900,268],[-4441,117],[-5075,574],[-5698,-1083],[20,1091],[-944,5852],[-251,2826],[-1013,1796],[-11942,598],[-12183,1131],[-13106,239],[-8571,818],[-9083,1289],[-4796,-52],[-5529,-751],[-2118,-120],[-6613,107],[-4038,1231],[-1261,697],[-511,2827],[1726,1941],[-239,2191],[-1046,1055],[-3683,2008],[-1455,1064],[-3673,2062],[-100,811],[-1632,2602],[-626,2186],[-321,4975],[1786,2361],[1990,67],[1355,-503],[3315,-259],[6287,-885],[6321,-2522],[1726,4341],[1485,931],[-331,1616],[1355,1117],[6573,1497],[-191,252],[6142,-691],[6041,126],[2409,512],[3402,-93],[-673,1370],[-9463,4655],[-1957,1610],[-4626,1556],[-3653,1609],[-5479,-339],[-1285,805],[100,991],[-2257,2480],[-1466,545],[-3261,14],[-3101,425],[-1806,-498],[-2158,-1417],[-12514,851],[-3292,1131],[-6392,3804],[-1626,685],[-9965,2015],[-2650,173],[-2930,-1763],[-40,-871],[-2499,-964],[-6101,-293],[-1927,898],[-128,10558],[-5582,5469],[-2050,2704],[-2848,774],[-1435,-518],[-3592,-153],[-5018,545],[-14300,213],[-4958,-512],[-171,-645],[-7285,532],[-3934,126],[-30,-3943],[351,-2760],[4004,-2108],[5791,-745],[331,-9736],[-19188,53],[-29966,-240],[-1645,293],[-101,3114],[-1372,1188],[-7670,307],[944,-286],[-362,-1663],[-2109,-3558],[-2906,-1279],[-1570,274],[-2713,-260],[-760,-1369],[-1583,-944],[-410,-5309],[856,-4350],[-3578,1231],[-1583,912],[-1903,1961],[-1615,183],[-1768,-133],[159,-7512],[-5709,-1092],[-1226,-858],[-17265,37],[-811,9404],[-3344,-532],[-9576,103],[-3145,592],[-6414,-1792],[-311,-5434],[-803,-2267],[-12396,20],[-18,-11219],[2620,-592],[3351,-2760],[-170,-2195],[1405,-1636],[702,-312],[4034,46],[11250,1131],[2961,60],[9844,-2042],[5961,-1536],[2148,631],[1606,-1163],[1696,259],[-61,-838],[1355,-545],[1596,-2567],[2479,-1616],[1144,-1211],[2669,-1203],[4104,-113],[1365,-4419],[-1772,-24242],[15782,44],[4455,-59],[-94,-10651],[-291,-650],[-1874,-1670],[-12518,-5223],[-1432,-767],[-1481,-1254],[-635,-1193],[-1190,-7294],[-1127,-2065],[-1338,-963],[-12827,-6494],[-1990,-1177],[-1512,-1669],[475,-1746],[153,-5618],[-2505,134],[-8174,-22],[-1844,-206],[-7402,-58],[-12624,382],[-2524,974],[-7955,776],[-1618,-317],[-5011,-424],[-3294,1478],[-8862,303],[-3524,256],[-2463,-125],[-8175,206],[-5301,784],[-2183,-276],[665,-986],[8882,-21035],[2458,-9796],[3282,-6989],[1114,-9335],[-47008,86],[-2428,7514],[-637,2616],[-183,2867],[-1549,1486],[-5537,2946],[-1115,1106],[1469,1788],[-96,3311],[-2918,3630],[-5470,5530],[-702,1826],[-1101,572],[-2161,3649],[-2121,803],[-4152,2280],[-1963,619],[-2915,1601],[-4797,503],[-3504,46],[-4165,-258],[-2968,198],[786,4665],[778,758],[385,1771],[-1483,351],[-1082,4441],[-99,2182],[-1183,1205],[173,1516],[-4206,-1182],[-7089,-514],[-4690,1004],[-3521,3214],[-4507,1785],[-1428,822],[-4884,3950],[-1356,1486],[-4182,3102],[-997,1290],[1064,821],[-613,1424],[-4973,79],[-2418,451],[-14131,-920],[-3695,-624],[-5369,-412],[-3663,-1111],[-10044,-384],[-2544,-836],[-5719,-333],[-5393,595],[1330,-3348],[1021,-6530],[-841,-1036],[-119,-1754],[1080,-863],[-521,-3379],[-2344,-2458],[-664,-2736],[-1824,-2611],[-1374,-699],[-1151,-2260],[1216,357],[10917,-113],[3636,-721],[3117,603],[2715,0],[4229,-470],[2426,-1285],[-208,-2944],[2045,-3592],[3541,-4243],[5226,-3602],[7949,-1900],[4203,955],[3910,476],[5228,1054],[-1447,-2286],[-2132,-1373],[-2670,-1205],[-2647,-2227],[2309,-1745],[-281,-1250],[6804,1729],[7477,-958],[7857,-2321],[4536,-1828],[4648,-2121],[2824,-4771],[1500,-1439],[3699,-4486],[1018,-2229],[-125,-428],[-4205,-3289],[-3354,7],[-979,868],[2535,-172],[719,872],[-1264,-186],[-1299,1259],[-3521,-1686],[-2187,825],[1401,1599],[-3321,1054],[-2528,373],[-1187,-1866],[-3285,-547],[-863,1135],[-2400,1022],[-839,-266],[-2127,405],[-967,-610],[-4496,769],[-3301,1387],[-1354,-708],[-4639,433],[-1105,376],[1127,822],[294,1004],[1824,-810],[2059,515],[612,1445],[-1038,351],[-2095,-461],[-388,1011],[1953,-90],[-841,780],[-2656,-409],[-1119,-716],[-962,1650],[-1779,-814],[-2475,931],[2133,354],[613,716],[-1703,-217],[-1470,1402],[267,-1354],[-931,-157],[-2067,1503],[-1750,47],[-97,-1131],[-1740,-731],[-651,361],[1210,1180],[-3914,360],[819,-967],[-1741,-413],[-403,1157],[-3852,189],[-493,657],[-2173,-34],[-485,671],[-1437,-383],[-236,1019],[-2356,535],[2791,1877],[-3051,707],[2005,344],[-3039,1802],[-1535,-737],[-2884,26],[-2512,1045],[33,1482],[-1961,-682],[-962,690],[-961,-327],[-3149,365],[-400,1125],[-1545,-11],[-671,1391],[-3514,-203],[-815,548],[289,541],[1715,-381],[-186,2223],[1279,-242],[-211,1136],[1143,240],[-1135,691],[-2006,69],[-1706,582],[237,-742],[-947,-898],[-1614,-412],[-1082,646],[-1205,-824],[2136,-395],[-1553,-375],[-2112,967],[461,-876],[-2477,56],[706,1160],[-2324,-87],[-8,-861],[-5104,373],[273,565],[2855,-171],[-1749,828],[811,796],[1953,-128],[-2073,1771],[-1030,-807],[-2310,70],[-1121,697],[-363,-777],[-2022,343],[-1348,-431],[-94,1686],[-2651,609],[-1704,820],[-252,1461],[-1578,745],[-2746,2114],[-315,699],[-2204,1142],[885,2735],[-3192,53],[-4054,1397],[-933,538],[-492,-3591],[271,-5520],[-181,-2706],[181,-8180],[-512,-1124],[-1957,-326],[-6683,-2128],[-4356,-1796],[-5469,-1064],[-1124,-990],[-722,-1929],[-101,-2587],[-5078,-1171],[-1766,-1143],[-3322,359],[-2468,-1131],[-2529,-625],[-5068,-53],[-1455,1809],[-3242,2121],[-522,851],[-2187,1191],[-2599,2055],[-5540,-915],[-4344,-880],[-11072,-1281],[-4690,804],[-3137,2503],[-5077,148],[-3191,-998],[-2429,-1097],[-1585,-1756],[-1847,-558],[552,-826],[-4702,-113],[-4949,1199],[-2320,1557],[-8303,568],[-2603,14],[-2934,421],[-2087,1137],[-4837,618],[-2349,1184],[-1746,286],[-4897,1756],[-2178,1130],[-4024,-386],[-763,446],[-1696,2427],[-6091,1277],[-4094,1184],[-2820,259],[-2616,692],[-8092,240],[-1740,516],[-2803,92],[-4222,-345],[-5981,480],[-1384,320],[-4954,75],[-3256,-517],[-2272,-759],[-6289,-1473],[-3942,-282],[-8286,816],[-3038,-394],[-3044,-936],[-4939,-1931],[-2161,-1486],[-2212,-784],[-4318,-777],[-4555,-1794],[-3153,154],[-4011,-1018],[-7878,-2400],[-1686,-798],[-4355,-752],[-2148,-625],[-1003,-1124],[-1907,-791],[-1411,-1755],[-1841,-213],[-6967,-2358],[-3058,-746],[-662,-1065],[-2364,-867],[-1797,15],[-3006,757],[-3095,-371],[-4427,2118],[-2588,694],[-2682,-280],[-2879,-1069],[-2903,39],[-2429,2181],[-1746,2175],[-1274,2307],[-71,1011],[-2418,945],[-2680,-705],[-3191,-67],[-953,319],[-703,1996],[-1423,589],[-7210,1630],[-1113,103],[-1269,-111],[-3375,-1086],[-208,19463],[-305,3003],[6725,-887],[4004,133],[9132,1702],[18786,-226],[4456,452],[7848,1503],[4847,93],[14902,-1642],[6162,126],[11119,1616],[3372,140],[8761,-107],[13939,1789],[6252,1164],[7537,2122],[4606,977],[25590,3525],[4998,971],[-3332,439],[-6774,4775],[-3211,1429],[191,1796],[-2660,2633],[-2167,885],[-3473,4256],[331,911],[-843,3565],[643,1430],[2047,1263],[331,1011],[1827,865],[-1737,3810],[-451,5008],[2418,4416],[3384,1161],[3328,1670],[3363,2773],[1528,3367],[2351,1169],[2248,1590],[7288,-1513],[6119,-1546],[3896,33],[3992,704],[8807,-297],[7003,2181],[953,807],[674,2178],[4090,703],[5164,536],[1428,1036],[133,1279],[1271,884],[-1790,2361],[-3339,1874],[-558,2605],[-2245,958],[-4521,350],[-13284,6006],[-413,3757],[-3069,2037],[-1203,1399],[1802,1583],[537,2463],[-1299,2099],[-214,3299],[-1097,767],[-3633,562],[-4337,1395],[-3142,-455],[-849,-992],[-2089,-854],[-8829,-2160],[-2830,1642],[-2751,-1068],[-6733,-587],[-7644,-1841],[-2911,-1051],[-4567,-1076],[-5139,-665],[-1657,-599],[-1882,141],[-2872,1348],[-4076,437],[-3854,1995],[-2659,586],[-1756,-67],[-5259,745],[-3181,13],[-1094,-592],[-4365,-1110],[-1335,-2760],[-3111,-1430],[-171,-878],[-3532,-1602],[-291,-719],[-2168,-1616],[-6513,1184],[-853,-1603],[-1997,-1004],[-1635,386],[-2931,-326],[-4124,-1024],[-3332,-7],[-3231,-1217],[-4707,-931],[-1736,-1862],[-2559,-732],[1094,-2573],[-504,-919],[-4331,-1914],[-2061,-3222],[-143,-1527],[-2655,-2536],[-2228,-553],[115,-1008],[-2608,-554],[-798,-612],[106,-1953],[-492,-1619],[-1012,-198],[-4015,881],[-1044,1064],[-3099,592],[-2845,121],[-567,1319],[-1969,1062],[-2339,293],[-1522,1137],[-600,1273],[-1464,606],[-564,1362],[716,1823],[-422,2163],[1444,1033],[643,1214],[89,1907],[1789,700],[314,1916],[-798,4502],[-2647,1673],[1817,-571],[1702,500],[-884,153],[652,1783],[-1626,1283],[-3532,-352],[-4737,-785],[-201,1190],[-2428,579],[-4011,-1234],[-3307,-337],[90,9300],[3518,3020],[3652,1132],[3833,608],[4078,3768],[3138,244],[958,428],[1680,1849],[3257,1606],[1769,1178],[921,53],[-930,1608],[-1546,1556],[-602,1177],[-1345,439],[-2338,1682],[-632,1058],[-402,1110],[2941,1364],[-703,2021],[612,1829],[-1956,2873],[-2028,2015],[422,838],[1907,984],[1314,1357],[241,3551],[1024,2501],[1736,858],[-2730,3651],[-1134,3318],[-1154,-26],[-5349,951],[-1274,-1277],[-2228,226],[-783,-2807],[-722,-79],[-1917,1582],[-4265,1091],[-2421,960],[162,9718],[3604,1984],[1505,2082],[4215,1556],[4225,3385],[30,1789],[3542,4216],[803,612],[1435,466],[3221,20],[9203,2174],[5871,2773],[4567,1578],[178,1418],[2427,3241],[-761,599],[3391,1846],[395,637],[-2480,1162],[-1335,1124],[-1244,67],[-2680,1177],[-3793,725],[1525,1669],[-2448,3564],[813,1783],[-783,2114],[-2088,1696],[-381,1104],[1736,4695],[-1325,3545],[-1033,539],[-121,1203],[-1083,379],[-2007,2634],[-4567,3405],[-682,1543],[1074,1237],[-201,2267],[733,1277],[-994,705],[-5018,273],[-2930,-173],[-4666,1742],[-3966,2206],[-167,18249],[1804,3577],[3817,3344],[-135,3277],[-2505,1149],[211,3626],[-918,3287],[2796,2483],[3109,3179],[662,3285],[3066,1808],[-245,1857],[-2295,1489],[-3860,961],[-1087,685],[-2163,-121],[-2520,404],[-36,4374],[265,22643],[-1455,70983],[-1,95],[6,21541],[-5145,-4],[-48,31032]],[[493128,178622],[2344,638],[1965,2372],[2568,1475],[5496,2493],[3977,902],[3633,1491],[1763,1947],[522,3119],[1634,2211],[2962,1369],[4137,3216],[230,793],[-2293,633],[-1126,1080],[977,1950],[-1579,2197],[-1117,709],[464,1269],[4064,173],[2297,485],[2126,2173],[-1442,481],[-1484,1284],[-2085,1081],[-4380,760],[-6538,3734],[-3604,0],[-4940,-964],[-3985,86],[-14340,2388],[3502,3591],[3272,1463],[5690,60],[1626,758],[3813,13],[512,519],[-181,1995],[1054,931],[12705,-858],[8991,-305],[-2438,3079],[30,1310],[-2055,941],[87,2380],[841,3900],[2533,959],[1516,1461],[3514,1896],[-3534,881],[-1636,1014],[-3577,1514],[-4366,4206],[-3322,4050],[-111,3290],[-4888,4818],[-910,1625],[-2465,1598],[-2626,955],[-3632,2932],[-2467,1001],[-3510,1890],[-1977,-1237],[-2780,759],[-2729,-506],[-2981,-1090],[-451,-572],[-3148,-989],[-386,-763],[-1654,-49],[-4800,-1754],[-3340,46],[-3821,-570],[413,-1308],[-5618,-2327],[-4284,-2068],[-1746,-381],[-3807,-60],[-2567,-1034],[-1737,-242],[-1551,305],[-3940,-348],[-3097,-1265],[-5956,-1647],[-5454,-3758],[-2777,1258],[-3201,-803],[-6649,76],[-1048,1879],[-11701,-26],[-4115,346],[-5929,65],[-762,-453],[255,-1877],[-1089,-2103],[-3007,-1880],[-502,-3095],[-1808,-1070],[-1556,-288],[2951,-1051],[-2574,-713],[-2102,-1368],[-369,-870],[151,-3292],[-1619,-1359],[-2898,-1857],[-3017,-274],[-3042,-1255],[-2145,-2405],[3289,-933],[1459,-964],[-1347,-1139],[-3007,-602],[844,-1051],[1050,-223],[-3118,-686],[489,-633],[2147,332],[3553,-931],[1324,-1543],[4426,-2301],[-231,-1263],[-1726,-1344],[532,-2573],[-2569,-506],[-351,-1569],[-1977,-2707],[1274,-4150],[-1355,-2321],[2650,-1037],[6432,-732],[2128,-911],[1641,-1610],[3991,-868]],[[388926,198496],[2276,-3316],[819,-3028],[853,-1673],[-2789,-775],[3071,-1096],[188,-639],[-3996,-3877],[-3581,-1900],[-1901,-455],[282,-2282],[-194,-3042],[982,-106],[3352,-2359],[822,-1049],[-3638,-1269],[-6391,-429],[-10761,-5759],[-2752,-149],[-4170,-704],[-3910,-2447],[-1905,-354],[-2977,-2099],[-16719,-27],[-2228,872],[391,-33164],[10366,-74],[6291,1270],[-1274,-2317],[-399,-2189],[1133,-845],[821,-1397],[4133,-3109],[2209,-1096],[4146,-1314],[5007,-163],[1648,-335],[4065,-5],[2455,336],[2568,-681],[-860,-1496],[-3793,-8652],[-1967,-2082],[-1766,-877],[-2559,-739],[401,-385],[21446,53],[2137,199],[3342,1191],[17522,7162],[5509,1383],[20653,3671],[7196,765],[32193,931],[13558,-53],[7757,113],[31000,2873],[2147,93],[19800,60],[-140,984],[-2991,10654],[-2293,31768],[-186,2478],[-638,9073],[1081,-9],[574,-8965],[1543,-105],[354,16089],[-3132,0],[266,-4395],[-857,2],[67,-1140],[-8360,180],[-1786,-140],[-1556,-299],[-2665,-764],[-6078,-1789],[-64,-19],[-190,-53],[-64,-18],[-11355,-3532],[-6820,-2297],[-7145,-2508],[-1937,-592],[-61,370],[-1793,736],[-254,1477],[2184,4076],[0,1005],[-1503,1781],[206,1801],[-968,919],[-1246,2193]],[[388926,198496],[5311,-10],[5756,618],[3611,913],[1138,1917],[-572,1460],[-1967,1171],[1013,867],[4370,2145],[1584,594],[4297,129],[4857,-405],[2482,598],[625,638],[3928,610],[4069,-116],[6798,668],[2781,-137],[504,502],[2656,289],[1722,2157],[2338,609],[1584,-196],[1461,-474],[2016,-2325],[64,-2480],[-1489,-1536],[4721,-3315],[1934,-2981],[-236,-1879],[1164,-786],[643,-1805],[2339,-1003],[2926,-609],[791,-1122],[1796,-746],[1479,1925],[8235,77],[3230,-883],[5797,-153],[2313,-365],[2818,-1172],[-3358,-683],[-2146,-1795],[130,-986],[3594,-3866],[2246,-3058],[569,-1962],[2280,-913]],[[649389,999911],[202847,-84],[8369,0],[61173,0],[23356,-4],[-95,-85815],[1912,-2],[-2077,-56445],[-2806,260],[-5815,144],[-135,-38620],[14,-28752],[14,-40242],[206,-2899],[-39,-4321],[-121954,-286],[-9981,-641],[-65718,-207]]],"bbox":[-106.018402,43.496687,-105.02193,45.0003763],"transform":{"scale":[9.964729964729936e-7,0.0000015036908036908014],"translate":[-106.018402,43.496687]}}
