{"type":"Topology","objects":{"foo":{"type":"GeometryCollection","geometries":[{"type":"MultiPolygon","arcs":[[[0,1,2,3]]],"properties":{"postal_code":"49901","realtor_list_price":"NA","realtor_list_price_yoy":"NA","realtor_list_price_base":"NA","realtor_active_listings":1,"realtor_active_listings_yoy":-0.4,"realtor_active_listings_base":-0.6475,"realtor_new_listings":0,"realtor_new_listings_yoy":"NaN","realtor_new_listings_base":"NA","realtor_days_on_market":"NA","realtor_days_on_market_yoy":"NA","realtor_days_on_market_base":"NA","zhvi":"NA","zhvi_yoy":"NA","zhvi_base":"NA","zori":"NA","zori_yoy":"NA","zori_base":"NA"}},{"type":"MultiPolygon","arcs":[[[4,5,6,7,8,9]]],"properties":{"postal_code":"49945","realtor_list_price":152033.333,"realtor_list_price_yoy":-0.3742,"realtor_list_price_base":"NA","realtor_active_listings":6.667,"realtor_active_listings_yoy":-0.5122,"realtor_active_listings_base":-0.7376,"realtor_new_listings":2,"realtor_new_listings_yoy":-0.4,"realtor_new_listings_base":-0.0717,"realtor_days_on_market":68.667,"realtor_days_on_market_yoy":-0.1523,"realtor_days_on_market_base":"NA","zhvi":213470.952,"zhvi_yoy":0.1021,"zhvi_base":0.5944,"zori":"NA","zori_yoy":"NA","zori_base":"NA"}},{"type":"MultiPolygon","arcs":[[[10,11]]],"properties":{"postal_code":"49958","realtor_list_price":260000,"realtor_list_price_yoy":0.0828,"realtor_list_price_base":"NA","realtor_active_listings":3.667,"realtor_active_listings_yoy":-0.4211,"realtor_active_listings_base":-0.6185,"realtor_new_listings":1.333,"realtor_new_listings_yoy":0,"realtor_new_listings_base":1.4107,"realtor_days_on_market":72,"realtor_days_on_market_yoy":0.2973,"realtor_days_on_market_base":"NA","zhvi":163907.748,"zhvi_yoy":0.0479,"zhvi_base":"NA","zori":"NA","zori_yoy":"NA","zori_base":"NA"}},{"type":"MultiPolygon","arcs":[[[12,13,14,-8,15,16,-1,17]]],"properties":{"postal_code":"49950","realtor_list_price":446458.333,"realtor_list_price_yoy":"NA","realtor_list_price_base":"NA","realtor_active_listings":13,"realtor_active_listings_yoy":2,"realtor_active_listings_base":-0.5251,"realtor_new_listings":4,"realtor_new_listings_yoy":"Inf","realtor_new_listings_base":-0.0673,"realtor_days_on_market":48.5,"realtor_days_on_market_yoy":"NA","realtor_days_on_market_base":"NA","zhvi":252007.656,"zhvi_yoy":0.1488,"zhvi_base":0.6215,"zori":"NA","zori_yoy":"NA","zori_base":"NA"}},{"type":"MultiPolygon","arcs":[[[18,19,20,21,22,23,24],[25]]],"properties":{"postal_code":"49931","realtor_list_price":358361.364,"realtor_list_price_yoy":-0.1923,"realtor_list_price_base":0.8135,"realtor_active_listings":27,"realtor_active_listings_yoy":0.62,"realtor_active_listings_base":-0.0534,"realtor_new_listings":7.333,"realtor_new_listings_yoy":0,"realtor_new_listings_base":-0.1512,"realtor_days_on_market":47.455,"realtor_days_on_market_yoy":-0.1621,"realtor_days_on_market_base":-0.2154,"zhvi":279341.988,"zhvi_yoy":0.0891,"zhvi_base":0.6165,"zori":"NA","zori_yoy":"NA","zori_base":"NA"}},{"type":"MultiPolygon","arcs":[[[-26]]],"properties":{"postal_code":"49921","realtor_list_price":"NA","realtor_list_price_yoy":"NA","realtor_list_price_base":"NA","realtor_active_listings":1.333,"realtor_active_listings_yoy":0.3333,"realtor_active_listings_base":-0.145,"realtor_new_listings":0,"realtor_new_listings_yoy":-1,"realtor_new_listings_base":"NA","realtor_days_on_market":"NA","realtor_days_on_market_yoy":"NA","realtor_days_on_market_base":"NA","zhvi":"NA","zhvi_yoy":"NA","zhvi_base":"NA","zori":"NA","zori_yoy":"NA","zori_base":"NA"}},{"type":"MultiPolygon","arcs":[[[26,-14]]],"properties":{"postal_code":"49918","realtor_list_price":"NA","realtor_list_price_yoy":"NA","realtor_list_price_base":"NA","realtor_active_listings":2,"realtor_active_listings_yoy":-0.1429,"realtor_active_listings_base":-0.5903,"realtor_new_listings":0,"realtor_new_listings_yoy":-1,"realtor_new_listings_base":"NA","realtor_days_on_market":"NA","realtor_days_on_market_yoy":"NA","realtor_days_on_market_base":"NA","zhvi":279909.789,"zhvi_yoy":0.1527,"zhvi_base":"NA","zori":"NA","zori_yoy":"NA","zori_base":"NA"}},{"type":"MultiPolygon","arcs":[[[27]]],"properties":{"postal_code":"49961","realtor_list_price":"NA","realtor_list_price_yoy":"NA","realtor_list_price_base":"NA","realtor_active_listings":0.667,"realtor_active_listings_yoy":-0.5,"realtor_active_listings_base":-0.8984,"realtor_new_listings":0,"realtor_new_listings_yoy":"NaN","realtor_new_listings_base":-1,"realtor_days_on_market":"NA","realtor_days_on_market_yoy":"NA","realtor_days_on_market_base":"NA","zhvi":"NA","zhvi_yoy":"NA","zhvi_base":"NA","zori":"NA","zori_yoy":"NA","zori_base":"NA"}},{"type":"MultiPolygon","arcs":[[[-2,-17,28]]],"properties":{"postal_code":"49917","realtor_list_price":31000,"realtor_list_price_yoy":"NA","realtor_list_price_base":"NA","realtor_active_listings":1,"realtor_active_listings_yoy":0,"realtor_active_listings_base":-0.2194,"realtor_new_listings":0.667,"realtor_new_listings_yoy":"Inf","realtor_new_listings_base":"NA","realtor_days_on_market":4,"realtor_days_on_market_yoy":"NA","realtor_days_on_market_base":"NA","zhvi":"NA","zhvi_yoy":"NA","zhvi_base":"NA","zori":"NA","zori_yoy":"NA","zori_base":"NA"}},{"type":"MultiPolygon","arcs":[[[-25,29,30,31]]],"properties":{"postal_code":"49905","realtor_list_price":479900,"realtor_list_price_yoy":-0.0329,"realtor_list_price_base":"NA","realtor_active_listings":5,"realtor_active_listings_yoy":0.0714,"realtor_active_listings_base":-0.3444,"realtor_new_listings":0.667,"realtor_new_listings_yoy":-0.75,"realtor_new_listings_base":-0.679,"realtor_days_on_market":90,"realtor_days_on_market_yoy":2,"realtor_days_on_market_base":"NA","zhvi":226307.712,"zhvi_yoy":0.0707,"zhvi_base":0.3755,"zori":"NA","zori_yoy":"NA","zori_base":"NA"}},{"type":"MultiPolygon","arcs":[[[-21,32]]],"properties":{"postal_code":"49922","realtor_list_price":173650,"realtor_list_price_yoy":-0.359,"realtor_list_price_base":"NA","realtor_active_listings":1.333,"realtor_active_listings_yoy":-0.3333,"realtor_active_listings_base":-0.8114,"realtor_new_listings":0.667,"realtor_new_listings_yoy":0,"realtor_new_listings_base":-0.5853,"realtor_days_on_market":13,"realtor_days_on_market_yoy":-0.5357,"realtor_days_on_market_base":"NA","zhvi":191302.058,"zhvi_yoy":0.0781,"zhvi_base":"NA","zori":"NA","zori_yoy":"NA","zori_base":"NA"}},{"type":"MultiPolygon","arcs":[[[33,34,35,-5,36,-22,-33,-20]]],"properties":{"postal_code":"49930","realtor_list_price":302230,"realtor_list_price_yoy":-0.075,"realtor_list_price_base":1.3431,"realtor_active_listings":31,"realtor_active_listings_yoy":0.8235,"realtor_active_listings_base":-0.1023,"realtor_new_listings":13.333,"realtor_new_listings_yoy":0.8182,"realtor_new_listings_base":0.5492,"realtor_days_on_market":46.3,"realtor_days_on_market_yoy":-0.1637,"realtor_days_on_market_base":-0.293,"zhvi":235144.908,"zhvi_yoy":0.1057,"zhvi_base":0.6711,"zori":"NA","zori_yoy":"NA","zori_base":"NA"}},{"type":"MultiPolygon","arcs":[[[-24,37,38,-30]]],"properties":{"postal_code":"49963","realtor_list_price":182000,"realtor_list_price_yoy":0.103,"realtor_list_price_base":"NA","realtor_active_listings":3.333,"realtor_active_listings_yoy":1.5,"realtor_active_listings_base":0.4471,"realtor_new_listings":0.667,"realtor_new_listings_yoy":-0.5,"realtor_new_listings_base":4.1667,"realtor_days_on_market":48,"realtor_days_on_market_yoy":5.8571,"realtor_days_on_market_base":"NA","zhvi":166393.667,"zhvi_yoy":0.096,"zhvi_base":"NA","zori":"NA","zori_yoy":"NA","zori_base":"NA"}},{"type":"MultiPolygon","arcs":[[[39,-18,-4,40]]],"properties":{"postal_code":"49805","realtor_list_price":742185.5,"realtor_list_price_yoy":"NA","realtor_list_price_base":"NA","realtor_active_listings":5,"realtor_active_listings_yoy":2.75,"realtor_active_listings_base":0.3896,"realtor_new_listings":1.333,"realtor_new_listings_yoy":"Inf","realtor_new_listings_base":3.5,"realtor_days_on_market":69,"realtor_days_on_market_yoy":"NA","realtor_days_on_market_base":"NA","zhvi":202106.17,"zhvi_yoy":0.1022,"zhvi_base":"NA","zori":"NA","zori_yoy":"NA","zori_base":"NA"}},{"type":"MultiPolygon","arcs":[[[-31,-39,41,42]]],"properties":{"postal_code":"49955","realtor_list_price":"NA","realtor_list_price_yoy":"NA","realtor_list_price_base":"NA","realtor_active_listings":1.333,"realtor_active_listings_yoy":0.3333,"realtor_active_listings_base":-0.3375,"realtor_new_listings":0,"realtor_new_listings_yoy":"NaN","realtor_new_listings_base":-1,"realtor_days_on_market":"NA","realtor_days_on_market_yoy":"NA","realtor_days_on_market_base":"NA","zhvi":"NA","zhvi_yoy":"NA","zhvi_base":"NA","zori":"NA","zori_yoy":"NA","zori_base":"NA"}},{"type":"MultiPolygon","arcs":[[[43,-41,-3,-29,-16,-7,44,-35],[45]]],"properties":{"postal_code":"49913","realtor_list_price":180277.778,"realtor_list_price_yoy":0.0457,"realtor_list_price_base":1.5228,"realtor_active_listings":28.333,"realtor_active_listings_yoy":0.2143,"realtor_active_listings_base":-0.4217,"realtor_new_listings":6,"realtor_new_listings_yoy":-0.3571,"realtor_new_listings_base":-0.4509,"realtor_days_on_market":58,"realtor_days_on_market_yoy":0.4872,"realtor_days_on_market_base":-0.0433,"zhvi":147419.096,"zhvi_yoy":-0.0312,"zhvi_base":0.2474,"zori":"NA","zori_yoy":"NA","zori_base":"NA"}},{"type":"MultiPolygon","arcs":[[[-42,-38,-23,-37,-10,46,-11,47]]],"properties":{"postal_code":"49916","realtor_list_price":441242.857,"realtor_list_price_yoy":0.1266,"realtor_list_price_base":"NA","realtor_active_listings":16.333,"realtor_active_listings_yoy":0.4848,"realtor_active_listings_base":-0.3011,"realtor_new_listings":4.667,"realtor_new_listings_yoy":1.3333,"realtor_new_listings_base":0.4438,"realtor_days_on_market":54.286,"realtor_days_on_market_yoy":0.7143,"realtor_days_on_market_base":"NA","zhvi":292351.876,"zhvi_yoy":0.1398,"zhvi_base":0.7502,"zori":"NA","zori_yoy":"NA","zori_base":"NA"}},{"type":"MultiPolygon","arcs":[[[-6,-36,-45]]],"properties":{"postal_code":"49934","realtor_list_price":182391.667,"realtor_list_price_yoy":"NA","realtor_list_price_base":"NA","realtor_active_listings":4,"realtor_active_listings_yoy":1.4,"realtor_active_listings_base":-0.3992,"realtor_new_listings":2,"realtor_new_listings_yoy":"Inf","realtor_new_listings_base":0.015,"realtor_days_on_market":31,"realtor_days_on_market_yoy":"NA","realtor_days_on_market_base":"NA","zhvi":135312.251,"zhvi_yoy":0.0722,"zhvi_base":"NA","zori":"NA","zori_yoy":"NA","zori_base":"NA"}}]}},"arcs":[[[418118,829641],[513,189],[12521,900],[235,-773],[-2293,-3917],[-7692,-4832],[-1315,-2177],[-155,-2249]],[[419932,816782],[-1747,12]],[[418185,816794],[-10048,110]],[[408137,816904],[-1610,767],[2134,1844],[2455,2700],[-800,411],[2330,2739],[-53,876],[-20,808],[-1815,134],[20,3213],[4633,41],[-21,-1694],[1425,-266],[1303,1164]],[[324981,610709],[10826,5363],[18618,6577],[33374,10943],[2875,2323],[759,1020],[-215,3403],[2915,1594],[2111,1555],[2407,2885],[3892,8297],[750,2156],[1648,5280],[194,3988],[-236,6358],[1825,3043],[-1917,2366],[-691,2042],[116,1474],[-2135,4226],[-1312,3986],[-2730,4506],[-2706,1839],[-1912,597],[-3373,531],[-6725,-579]],[[383339,696482],[1094,797],[1277,1433],[444,-141],[698,-57],[525,67],[212,98],[367,394],[174,751],[-145,465],[-172,243],[-445,319],[2936,4660],[-263,743],[-797,764],[-2392,1184],[2596,-41],[-1040,774],[-1858,1353],[964,905],[-284,491],[3680,2773],[80,3810]],[[390990,718267],[70,3356],[-2147,31],[-37,3434],[3678,12],[-8236,2429],[-546,645],[607,2513],[-231,3136],[1806,1433],[2757,337],[-1072,131],[-1194,487],[-737,628],[-690,1425],[529,237],[1377,-685],[1771,-467],[-45,4568],[3239,-932],[2354,237],[7830,-2016],[1669,696],[3046,186],[1294,4611],[2231,1861],[1297,3812],[5007,7767],[1334,3873],[734,472],[6075,-71],[9147,-135],[-42,4762],[965,1708],[1159,5035],[38,2180],[2465,-234],[-7,-3144],[4591,-45],[6,-3429],[22489,102],[65,-3388],[31678,77],[-58,4615]],[[497256,770517],[1336,-466],[4373,-3973],[1033,-1384],[532,-2396],[2904,-2384],[1424,-1883],[1867,1720],[-2350,1483],[-518,2332],[421,2391],[-8,4041],[1374,2824],[1943,1634],[4675,3004],[455,2476],[-625,1355],[787,2832],[-245,2776],[735,2150],[2027,273],[4093,-647],[1216,183],[798,558],[386,2074],[227,5786],[1813,323],[2815,1607],[3208,-3],[3200,2713],[-5358,2908],[628,2368],[1310,874],[-1991,3388],[398,1988],[1263,1771],[1572,3465],[-396,2989],[1168,-128],[1152,1495],[2796,1359],[1335,1480],[2256,245],[2068,1644],[6062,516],[2158,-720],[1582,215],[-1082,1944],[546,3956],[728,1489],[3220,654],[3613,3297],[1670,941],[2287,3515],[2068,1177],[15060,-421],[20975,-32],[120,13536],[54516,573],[1595,-63394],[7504,3766],[5905,5187],[3829,2548],[2036,1870],[10720,13359],[1468,989],[4548,1940],[3536,3853],[3013,632],[2851,-321],[4732,720],[3267,1234],[3088,574],[4338,-948]],[[721306,830411],[-230,-154],[-3038,-237],[-3314,282],[-9071,-1934],[-4480,-2305],[-9732,-8516],[-3714,-4641],[-5227,-5623],[-587,-631],[-2866,-2564],[-2664,-1925],[0,-1],[-2517,-3937],[-4113,-4654],[-4016,-1874],[-1252,293],[-1889,-642],[-1740,181],[-106,-5],[-1239,-47],[-7370,-3733],[-4259,-3966],[-4206,-5575],[-2716,-2855],[-1201,-2338],[-744,-1737],[-3624,-2506],[-3276,-1421],[-2749,-1595],[-4229,-1758],[-3759,-2360],[-3249,-1448],[-7783,-9833],[-4712,-2500],[-2234,-914],[-2438,76],[-2031,913],[-12400,-3511],[-3548,-296],[-999,761],[-4552,268],[-3528,-107],[-2880,-455],[-3416,-2353],[-3126,-4118],[-3149,-1102],[-2813,-1381],[-1706,-838],[-6757,-9250],[-1812,-2828],[-2559,-10821],[-125,-3435],[-434,-11979],[1117,-3330],[1610,-3546],[2349,-1745],[2674,478],[1535,-175],[-314,-3427],[-6608,-6169],[-6609,-3259],[-1661,236],[-238,2055],[-800,1697],[-1165,1386],[-2696,1851],[-2040,1033],[-4515,414],[-4136,-386],[-3595,-1183],[-4725,-2461],[-3552,-2537],[-3551,-3655],[-2722,-4385],[-430,-2910],[1430,-1160],[596,-4674],[-1004,-5540],[-7930,-15132],[-4708,-2784],[-3477,-1565],[-5644,-1915],[-3286,-2057],[-3541,-2647],[-1985,-4],[-8025,-3166],[-1450,-145],[-1904,-1715],[-2243,-992],[-1790,-733],[-3900,-325],[-2772,-2825],[-1580,-3053],[-1188,-3847],[-803,-6098],[153,-4293],[194,-3026],[-283,-1014],[-963,-1624],[-1124,-2950],[-2185,-8656],[-120,-203],[-5754,-9754],[-1095,-1856],[-356,-7549],[-3627,-3402],[-1794,-3155],[-9949,-7301],[-9262,-10557],[-6058,-7996],[-5607,-4588],[-4672,-2173],[-8614,-31],[-4876,-2202],[-934,275],[-894,5965],[-1516,0]],[[380515,529997],[-35,6387],[-1072,5279],[-292,493],[-5708,4813],[-23998,18942],[-2209,2483],[-1668,2745],[-3280,9247],[-4225,5526],[-3140,3596],[-2166,2483],[-3646,6446],[-4008,10031],[-87,2241]],[[99929,424761],[2074,-263],[3961,-1200],[3516,702],[2539,-1283],[2772,66],[1132,-1492],[2830,-1171],[-539,5155],[1571,2077],[3533,2072],[1552,1752],[13737,22358],[2989,3278],[2000,1449],[20662,10287],[3127,-1130],[-102,-5402],[8978,-131],[2488,346],[3010,-333],[35868,-110],[4756,-26],[17,13725],[22381,-58],[-31,-13649],[6319,-58],[848,31],[968,2633],[4020,4441],[1219,2523],[1676,753],[3593,3477],[2506,800],[665,1337],[1245,359],[3781,196],[-1523,-1465],[902,-918],[2851,2211],[2021,-2702],[4900,-38],[-171,13696],[86636,476]],[[367206,489532],[-1247,-4721],[-1269,-1962],[293,-1732],[-1447,-5482],[-245,-928],[-2456,-6522],[-6718,-12803],[-2945,-7577],[-296,-456],[-5069,-7808],[-199,-3759],[104,-346],[153,-507],[-3400,-243],[-679,2706],[885,4094],[-873,9],[2743,10131],[-283,2561],[-3982,13565],[-464,1107],[-27059,-40],[86,-6661],[-6430,-963],[-2920,306],[2380,906],[666,1344],[-271,925],[-1844,1179],[-117,1119],[2232,303],[864,1001],[-2677,-744],[-998,-875],[2507,-3086],[-777,-1063],[-2345,-567],[1586,-2730],[3450,1737],[1156,-758],[-1146,-1925],[281,-1592],[-2794,-516],[-1942,718],[-1120,-1723],[3159,-146],[-1587,-2615],[2492,-1211],[-437,-1223],[-3050,-301],[-322,-867],[1543,-1657],[42,-1637],[-2584,-616],[-1802,-2562],[-2325,-685],[-804,-1639],[867,-770],[2513,907],[-1043,-3253],[-1712,-1220],[-1701,-76],[-582,1185],[-2167,1212],[-2795,677],[-2105,-1819],[-483,-1257],[-2598,-2554],[-1991,-1271],[-512,-1121],[-1811,-944],[-8,-22455],[-10068,-203],[-5766,-116],[-44465,315],[-1499,-896],[1199,-743],[1214,-5092],[-1390,-2191],[-1388,93],[-1349,-1306],[9,-1141],[1323,-377],[3757,745],[-10,-2921],[5529,67],[2564,-710],[6253,566],[10336,-186],[-2436,-210],[-4811,-5596],[-3074,-541],[145,-1136],[-4235,-3718],[-3361,1454],[-2412,-204],[-2248,911],[-1499,1618],[-1210,-348],[-316,-1403],[1608,-2086],[-871,-1961],[-3610,-2114],[-34,-3229],[-2237,-744],[-1799,1403],[-1323,-589],[1192,-1376],[-976,-3346],[-2966,-51],[-164,-615],[2584,-1925],[-1221,-1354],[545,-1072],[2931,-2245],[1983,41],[-35,-2426],[3100,-822],[10119,60],[38,-13592],[5074,-316],[-2820,-621],[-8269,-2898],[-1054,-2164],[1022,-2612],[-1378,-190],[-755,-1377],[2119,-183],[279,-1093],[-1294,-696],[598,-1041],[-706,-2071],[1940,-410],[-943,-1148],[1131,-2274],[-1615,-1562],[-2480,-1286],[2424,603],[1459,-1315],[-1340,-1854],[-1366,575],[-122,-3321],[1418,-2440],[-802,-511],[-1636,1378],[-992,-1194],[-2911,581],[-158,-1170],[1261,-615],[1463,934],[2367,-1872],[-2670,1503],[-844,-874],[876,-1232],[-1457,-509],[-1229,1397],[-960,-352],[1578,-1160],[-453,-1480],[-2225,-629],[900,-992],[2517,-806],[-1188,-1464],[1291,-3689],[1423,-1137],[1951,-283],[2514,-1410],[1397,369],[3140,-1635],[-322,-1367],[-1945,-1878],[-1554,-203],[-1746,-2161],[-3153,-1802],[-1508,-2095],[-1130,-166],[-2369,-2117],[475,-780],[-1111,-2007],[-2817,-1686],[-5262,-1130],[-6454,-4060],[-469,-529],[-936,-1399],[1187,-3485],[3031,-3099],[-120,-2943],[-1755,-3312],[-1160,-907],[-3548,-8419],[-4992,-3302],[-1729,-2155],[-430,-3309],[-916,-2838],[2215,-3883],[-2834,-3520],[-456,-1983],[564,-1272],[-2036,1547],[-2832,-98],[-3712,-1650],[-2955,117],[-1877,2105],[-1236,307],[-408,1609],[82,44191],[-1014,-1228],[-95,-2324],[-2672,-2139],[-5753,1142],[-1354,-1530],[53,-3257],[444,-909],[-5707,-61],[-1108,2306],[-1031,710],[-4296,-6331],[-739,-1808],[-6935,1541],[-2018,2932],[-3095,925],[-882,2415],[-3124,-66],[-2352,-4736],[1816,100],[1761,-1357],[2016,-128],[966,-797],[-27,-1919],[881,-1595],[-935,-3126],[1526,-2346],[-2034,-762],[-3243,-317],[-1706,-613],[-1245,-2252],[41,-3748],[-408,-2298],[-6250,-390],[-2376,584],[-2478,1583],[-1547,-306],[916,-1234],[-1903,658],[-2177,-1293],[-698,463],[-4255,-2542],[-386,-1204],[-2532,-482],[-1570,-1262],[-4057,-52],[17,1445],[-2348,949],[920,1469],[2211,235],[-152,57894],[574,2180],[-578,3664],[-258,4305],[-17981,-239],[421,12783],[-10718,3],[121,4361],[-4660,138],[-6226,-1918],[-4491,-690],[-20637,1077],[-3185,839],[-3725,2564],[-2934,832],[-15491,2740],[-846,350],[-7858,1302],[-2065,1414],[-1219,3652],[104,7085],[206,659],[2662,2938],[1245,2205],[-827,2223],[-422,3408],[-1241,2948],[520,2814],[2263,14],[4335,-151],[295,-1108],[3755,-2450],[-614,-1636],[1818,-1177],[2647,644],[3772,-1208],[2325,145],[3912,-1709],[1308,48],[2980,-982],[5108,1723],[1307,-283],[2685,1817],[3234,788],[3059,82],[1649,911],[-24,3443],[456,1357],[14789,-256],[1113,-330],[35516,279],[94,13627],[-65,27148],[-35,17750]],[[493000,935791],[171,80],[3635,2579],[326,231],[2963,2102],[3912,2375],[4764,2323],[4612,1068],[2884,504],[6673,471],[4893,486],[8462,1507],[6258,1290],[5565,1821],[914,442],[9099,4392],[1409,1119],[6302,5005],[1237,3686],[177,2467],[-529,531],[-651,102],[-816,-171],[-238,390],[1052,481],[868,180],[1173,416],[1789,-215],[827,132],[10555,1905],[529,-221],[-104,-476],[462,-167],[678,7],[1255,320],[1094,785],[326,1001],[-504,367],[2,338],[541,104],[1255,81],[1334,651],[8974,2466],[3103,267],[1687,-789],[7661,1468],[5819,1413],[974,-7],[892,-1229],[-1957,-554],[-171,-851],[380,-1333],[875,-722],[1273,42],[3154,511],[1426,198],[550,-680],[913,56],[1729,879],[1788,375],[2089,264],[247,226],[266,242],[665,113],[912,-56],[722,311],[38,737],[-285,738],[-456,426],[-760,84],[-437,213],[-741,100],[-798,-171],[-780,256],[-1444,-284],[-741,-795],[-741,-496],[-779,554],[-364,792],[2452,1071],[2935,590],[1706,-193],[772,566],[1469,419],[2230,284],[1358,-337],[2633,774],[1438,185],[1890,243],[871,-358],[1372,-53],[890,571],[6508,719],[2067,-108],[4499,500],[3301,1003],[752,107],[3665,523],[4372,319],[438,32],[3782,677],[5215,19],[4864,-561],[3511,177],[3321,1040],[2880,-199],[1218,-603],[14127,1736],[940,210],[128,4684],[6655,967],[26143,1609],[23485,1445],[2815,173],[2638,724],[8774,-686],[1057,-23],[9055,-199],[1503,-33],[185,-4],[6450,584],[5064,-48],[7723,-959],[7894,-549]],[[820882,998082],[135,-5910],[-190,-23268],[3216,-532],[4063,-2413],[5157,463],[-1094,-1518],[-609,-3457],[457,-1980],[2494,-1376],[3832,-571],[-335,-603],[-3741,-1008],[-5170,-671],[-2068,-2349],[943,-2350],[-2919,-336],[-2008,-1208],[369,-3177],[3826,-330],[2373,724],[3407,-142],[3376,578],[925,1235],[2780,1684],[3345,712],[4205,-42],[8581,1050],[2222,-251],[2801,861],[5712,-56],[2339,-426],[6840,-2032],[-663,-4311],[1426,-67],[2016,-1102],[4625,-734],[3145,-3422],[3164,-395],[4169,-2213],[1240,-1351],[731,-2003],[1953,-1646],[-114,-1140],[-1539,-395],[329,-1410],[-1636,-769],[1764,-426],[820,-2483],[-4669,107],[-1041,-1462],[732,-2100],[-1374,-809],[1936,-383],[-75,-2030],[-3084,670],[-2419,-2831]],[[887582,916678],[-1139,1477],[-4208,1359],[-7221,493],[-4480,-499],[-3819,-968],[-3198,854],[-4863,-77],[-5474,880],[-3944,-772],[-847,-670],[-7416,-2231],[-6537,1379],[-5119,-153],[-26879,-2756],[-3975,-799],[-9227,-1854],[-4317,-6050],[-2525,-6053],[-457,-5457],[2591,-5756],[88,-72],[6554,-5337],[1434,-288],[4890,-983],[361,-2218],[3222,-1769],[3776,-4205],[459,-4224],[-4368,-6037],[-2557,-1552],[-10286,171],[-8733,-1748],[-5287,-3031],[-4912,-3456],[-4054,-2301],[-3294,-597],[-12724,-8400],[-4582,-2343],[-1058,-818],[-5008,-3869],[-9122,-2393],[-5944,-1749],[-2077,-1395]],[[497256,770517],[-326,19002],[49,27395],[-18646,106]],[[478333,817020],[-54417,-272],[-3984,34]],[[418118,829641],[370,819],[11279,12845],[1975,3073],[11106,7499],[10403,9249],[2766,2693],[4077,5302],[2713,5224],[6917,7625],[3086,4053],[6953,6282],[17416,11138],[-216,14025],[-16,9907],[-13,1181],[-966,3730],[-924,459],[-2044,1046]],[[160611,743783],[17213,9967],[4632,2068],[1948,-48],[9388,4271],[11964,411],[10102,2543]],[[215858,762995],[2754,-4839],[3180,-4936],[1703,-3425],[285,-2266],[-354,-11867],[-208,-3191],[-741,-2822],[-977,-1774],[-7107,-8951],[-8063,-7341],[-1874,-2010],[-429,-4363],[2541,-2741],[2836,-1375],[2595,-1867],[256,-1982],[523,-7012],[931,-3727],[4498,-8264],[368,-1420],[958,-3698],[196,-1476],[1089,-1599],[5467,-3168],[2087,-1742],[6124,-686],[5909,-1939],[847,-87],[4093,-417],[7977,442],[-14,156],[8743,562],[10980,1024],[8892,-1724],[8513,-1756],[5195,-1398]],[[295631,659316],[13598,-3228],[4868,-1331],[421,-309],[2487,-48],[73,-110]],[[317078,654290],[1863,-5339],[499,-3174],[397,-5947],[864,-6102],[1517,-5792],[689,-3711],[-17,-2870]],[[322890,621355],[-12410,719],[464,3325],[-1917,655],[-29,1210],[-10710,-25],[-5,5124],[-4968,34],[-2452,-354],[-89,-798],[-2776,-662],[1582,-1021],[-2304,-1780],[-5282,-1403],[-1997,-1405],[-2507,198],[930,-778],[-1324,-3338],[-3894,-1270],[-1184,746],[-537,-1915],[-3590,79],[664,-1129],[-1864,-657],[-294,886],[-2042,-372],[568,-849],[-3905,-832],[-349,1145],[-3263,-1304],[-275,-2169],[-1419,32],[-246,1144],[-2761,-625],[664,-253],[-1078,-3369],[712,-700],[-769,-1660],[-2685,2047],[-597,-977],[-2721,-256],[643,-399],[-1105,-2065],[-2274,-784],[89,-2136],[1548,-2584],[-364,-1815],[-1951,-16],[-134,-1601],[-23,-4004],[1228,-8536],[36,-13943],[-17738,-3],[-50,7048]],[[226136,577960],[281,7137],[-1986,7036],[-386,2832]],[[224045,594965],[2103,1271],[-113,1864],[2611,1470],[361,1071],[3385,1387],[2328,-181],[402,1211],[2121,2421],[1766,415],[3839,-283],[14,3633],[-4577,20],[563,33015],[3368,-18],[241,2594],[711,223],[-65,123],[-2404,-713],[-1875,42],[224,5106],[-4337,-73],[-272,-2825],[-4999,-102],[495,6317],[2652,55],[-5244,18],[2400,4439],[910,590],[-1552,2546],[1293,2315],[-6929,1980],[-3190,2005],[-1840,87],[303,995],[-302,236],[-109,-690],[-1798,-512],[-40,3302],[544,-3],[-528,1335],[-84,2346],[-731,831],[180,-1446],[-1356,-357],[-1479,-1501],[-2507,-1174],[-1708,156],[-134,8079],[-1113,-4],[1,1659],[-9171,7],[-248,12568],[-4562,-23],[-409,-594],[-3142,1688],[-7441,445],[2383,1226],[3924,947],[-1148,3319],[-8576,1883],[-1161,920],[-44,1490],[1662,1414],[-604,955],[2501,1381],[-1298,978],[-3183,1468],[-2121,-644],[-4023,1240],[-4392,2596],[-1633,2046],[-1554,276],[-1198,1180],[-129,4831],[508,6942],[8932,169],[143,5754],[-6049,2910],[-1094,-945],[-1603,1613],[1201,1564],[-3434,3939]],[[249298,630620],[36,-4149],[8639,-405],[212,2703],[1096,-287],[1618,12886],[-702,-936],[-76,6],[-2851,-42],[-1765,-2269],[-2808,-257],[-3076,-1261],[2366,-1834],[129,-1464],[-2988,-2156],[170,-535]],[[820882,998082],[15058,-1047],[786,-430],[2958,-1620],[1359,-53],[6843,-267],[4579,997],[3951,-237],[-386,-774],[-2321,-66],[-1786,-167],[-1607,-699],[-3079,100],[-6473,266],[-3215,-732],[-1472,-932],[3615,-333],[4822,-600],[11293,-3130],[3080,-200],[2188,200],[1785,200],[669,999],[2099,233],[1741,-333],[-179,-500],[357,-499],[1340,-200],[1740,533],[937,485],[4331,-152],[2321,-500],[893,-66],[2678,1199],[1072,33],[133,766],[-625,1365],[-1472,1165],[-1518,599],[-2679,34],[-1339,-932],[-2321,399],[-1555,1234],[1820,1212],[2056,570],[4768,-557],[3023,-1637],[8754,-587],[17079,-1147],[6060,553],[547,1258],[6875,-582],[285,-1586],[5195,-126],[32508,-10158],[490,-242],[12662,-6253],[9015,-4452],[2783,-1626],[7122,-4162],[2798,-2981],[150,-761],[1872,-9499],[469,-2380],[-2213,140],[-1038,-4495],[1168,-3162],[240,-3541],[2869,-3041],[1159,-4971],[-1667,-4528],[-5911,-271],[-1656,-76],[-9309,1480],[-8762,3039],[-4179,-1682],[-516,144],[-2966,824],[-5645,-1666],[-916,-270],[-5096,-4114],[279,-2435],[-1945,-1683],[-352,-305],[-5029,-1556],[-4992,-34],[-848,144],[-7683,1305],[-9580,-1571],[-242,-130],[-7444,-4010],[-5201,-2801],[-10038,1292],[-1441,892],[610,1037],[-2173,1650],[-1652,-153],[-1931,647],[-212,-679],[-2905,246],[-2900,1585],[-115,150]],[[28250,162719],[13505,80],[36008,-84],[33256,102],[84,-117],[107,-59],[-43,-152],[282,34],[104,-9],[135,23],[67,38],[177,196],[5263,-320],[55124,257],[-475,-162653],[-87320,-55],[-1529,2321],[-6589,1563],[-6844,-1081],[-3595,980],[-3733,-1128],[-2551,4],[478,1729],[2570,2824],[170,1294],[-1073,3556],[-5228,5605],[-7001,537],[-36,1763],[-1224,788],[-2046,3354],[-1455,940],[-3827,193],[-3584,1427],[-204,2626],[1002,1351],[-1158,1514],[874,1452],[-377,4298],[1891,989],[-240,1152],[2294,1417],[997,1352],[-433,3138],[-3403,681],[-2058,820],[31594,103],[1225,214],[-659,5108],[2812,1290],[2670,683],[3047,-94],[1765,796],[2185,4019],[3385,2563],[1091,3257],[-344,1151],[-2315,1296],[566,2449],[-66,2592],[1966,3380],[-315,961],[3608,1898],[434,-739],[4727,154],[3088,-449],[2235,-1996],[4032,-833],[-172,1820],[1584,2633],[-848,1483],[14704,68],[358,3714],[-1300,1357],[-4786,4],[-128,1767],[922,1168],[-671,1124],[-1551,254],[-342,1109],[-2526,-398],[-4351,3387],[-1355,1884],[-7434,4378],[-4509,3574],[-3656,4431],[-120,1213],[-3384,2160],[-10274,2927],[-2407,1032],[-2961,2192],[-1837,2839],[-545,2299],[-19,3116],[-559,2102],[-1479,1831],[-2139,1256],[-9176,4294],[-3924,2781],[-4973,6228],[-1550,2995],[-3471,3204],[-1304,1815],[-1487,3730],[-2133,1950],[-5314,2305],[24,1431]],[[478333,817020],[-8232,-4371],[-2474,-549],[-3893,-1600],[-862,-713],[-3786,-133],[-1440,-1001],[-3132,-620],[-5022,256],[-1973,1297],[-2729,-491],[-2005,-3296],[1540,-2593],[-6015,284],[-3885,1893],[-3494,3171],[-6184,3234],[-203,1701],[-6424,9],[-22,1154],[87,2142]],[[224045,594965],[-342,3394],[-195,305],[-6470,-72],[-182,2993],[-2340,1206],[-31,2205],[-3138,1644],[-252,2033],[2333,114],[6,1767],[2059,25],[619,1803],[-248,2933],[-3503,-4748],[-1285,4],[-1110,-4],[-160,137],[21,1489],[-2243,-43],[-291,701],[886,312],[-1054,1918],[-336,3312],[-1698,-10],[203,2910],[1180,920],[-6507,-7],[-1975,336],[2552,-5435],[-6,-640],[-1286,-7],[-1523,-53],[95,-640],[101,-1088],[-4516,-866],[91,-1712],[5012,110],[181,-3647],[6356,43],[-388,-3172],[-2099,-1924],[-2350,-691],[-3510,444],[-705,-2752],[220,-611],[-3539,-3295],[-4916,-4334],[-2908,1747],[-3743,794],[-2912,-2429],[-438,-562]],[[177761,591822],[-3215,-764],[2056,-1237],[870,-2175],[-912,-2218],[1220,-287],[-448,-1105],[-4602,-1428],[-1626,-406],[-2208,-867],[-11580,-7612],[-1473,-664]],[[155843,573059],[-2760,-252],[-2078,557],[-6591,3090],[-2733,492],[-1783,-149],[-1728,-543],[-9307,-3990],[-2727,-1961],[-2944,-3472],[-2153,-1448],[-1446,1552],[-3000,1464],[-1029,970],[-173,1315],[-2829,1486],[-3498,-537],[-3369,2071],[-2483,2609],[-1855,1360],[-2537,84],[-23,19435],[-1451,1219],[830,2996],[2688,1077],[975,3341],[1969,592],[-1070,1333],[-255,1724],[-2212,2117],[-1744,425],[405,856],[-1099,2214],[2102,703],[-282,1091],[-1806,-169],[-1636,1031],[1306,1021],[-1546,787],[673,1042],[-454,2539],[3670,4572],[-506,528],[-5361,-697],[-1316,-1637],[-1174,-3189],[-1658,-668],[-2745,303],[-973,-2457],[-1345,-1143],[-3945,152],[-2002,-1422],[-1944,195],[-2315,1013],[-6862,777],[-4317,-1120],[-139,7743],[1101,975],[-1040,4453],[-160,4692],[-2857,-78],[-2362,447],[-2465,-1468],[-1663,1624],[-1648,-119],[-5447,1526],[500,824],[-1730,-78],[-399,820],[-2888,-727],[-3425,2370],[-667,1426],[-1717,-213],[-2103,1208],[-1382,1498],[-2295,482],[349,1074],[-1766,1244],[849,2749],[1180,866],[-502,1132],[-2069,791],[-213,1815],[1152,-223],[4305,2792],[4444,3932],[1690,1763],[-129,1203],[1096,768],[1609,963],[3802,5267],[3636,4587],[6035,3954],[2800,843],[3339,864],[2226,118],[1927,1765],[1796,1468],[9298,3928],[5364,-231],[1592,214],[1706,67],[1416,-484],[2397,-93],[5440,2536],[1264,589],[5180,2897],[6196,5488],[3143,5217],[17692,16730],[15001,10473],[8590,5998],[2074,1448],[6091,3528]],[[295631,659316],[118,2876],[27,685],[11003,-3061],[2770,-347],[4557,412],[2259,904],[272,4095],[-295,653],[-50,1687],[-2,13500],[8780,20],[2188,-181],[905,-1278],[-54,-2683],[1266,-1026],[-213,-2833],[2786,-3244],[-2940,-963],[-3021,-2088],[701,-845],[6199,2973],[2167,1737],[1928,1067],[194,70],[9749,3284],[406,179],[-348,-1666],[-1898,-1201],[-930,-5252],[2010,-1640],[6540,-383],[-231,-11034],[-13396,-207],[-20352,-146],[-902,243],[-746,667]],[[215858,762995],[1950,490],[5703,3704],[5072,4676],[17436,2233],[7561,1767],[1416,331],[3960,926]],[[258956,777122],[-10,-513],[-218,-585],[10910,382],[2234,-1182],[5892,-1917],[2278,-1725],[-42,-12582],[471,-1675],[2115,-2704],[2123,-255],[1130,-1186],[5422,-1919],[2771,-725],[1652,-1936],[-6562,218],[141,-13373],[1111,-356],[7924,-59],[-83,-6854],[257,-7334],[2211,-1691],[878,-1373],[-1446,-1408],[5502,-3120],[5534,-2276],[536,-1184],[1759,-837],[-2362,-1757],[-3418,-2029],[-1528,1014],[-556,1681],[-2291,-885],[397,-889],[-2335,-587],[-1723,496],[-352,-1455],[-2159,-1470],[-35,-3130],[-1957,-1140],[-2970,-2544],[13,-2359],[-1323,-2046],[-2001,-1185],[-191,-1094],[2841,-1277],[512,-825],[10088,78],[3287,2659],[190,1382],[6287,7938],[2928,3371],[6556,4981],[4034,-11],[-542,-1624],[-1315,-441],[-2017,-2787],[-202,-1709],[1762,-2544],[3562,-807],[1542,-777],[-272,-1764],[-1699,-5026],[2490,-2279],[4,-848],[634,-294],[159,-3135],[4797,-5],[9144,-2],[189,6311],[1021,-561],[1796,121],[5390,-2491],[2723,-2130],[3263,-1454],[1690,1520],[682,1004]],[[360179,686148],[9168,-1190],[507,3147],[517,1351],[1161,1336],[5108,2544],[2439,1914],[1071,1005],[642,222],[632,77],[1915,-72]],[[324981,610709],[-1166,3453],[-925,7193]],[[226136,577960],[-7630,17],[-3883,35],[-4807,594],[-2157,-448]],[[207659,578158],[-7350,-1388],[-5602,1476],[-2252,1051],[-2415,242],[-2760,748],[-4282,2038],[-1077,858],[-391,541],[1624,2123],[3965,5959],[-9358,16]],[[353084,859346],[3394,4088],[3515,4235],[3529,2575],[5451,4214],[2733,1785],[7668,6988],[4960,6041],[630,767],[2001,2765],[1571,1673],[4965,3095],[1225,-544],[3801,694],[11009,6227],[5832,3578],[4287,2145],[1833,41],[5304,1766],[3199,2189],[1640,1668],[2197,1460],[5302,1387],[1714,-539],[4359,129],[3816,678],[4674,1631],[4639,1118],[2898,1289],[4691,1709],[9612,3502],[11726,5432],[5741,2659]],[[408137,816904],[-3357,47],[-3307,-3538],[-857,-1646],[-1543,-9],[163,5196],[-28738,-221],[-77,7121],[-3486,82],[-147,677],[1400,1],[5792,3177],[2584,4661],[-111,1464],[5215,6390],[-485,973],[-3021,1088],[-1226,1399],[-2438,1311],[-1619,1731],[-1081,-246],[-1338,1770],[-3847,1012],[-1551,-630],[-2871,-133],[-1681,614],[-2484,-899],[-2460,396],[-1955,-586],[-1021,2889],[818,2191],[-161,3570],[837,603],[-1000,1987]],[[207659,578158],[-32,-715],[-35,-6444],[-35391,106],[2,-41322],[-25835,90],[-3895,-290],[-1836,240],[-14677,158]],[[125960,529981],[-1866,4198],[-2557,277],[-887,2540],[-3239,2674],[792,837],[1591,-950],[269,-952],[3189,1982],[1584,2002],[4847,4275],[3992,1641],[2256,1502],[2180,827],[2008,1688],[654,1336],[1629,621],[3250,2534],[325,1459],[-1206,2553],[52,1911],[4241,943],[2171,2233],[-143,1551],[2633,3248],[2118,2148]],[[258956,777122],[363,84],[12849,8830],[8147,7645],[269,170],[23305,14751],[11030,8184],[9588,7114],[1730,1653],[9949,9508],[6978,6669],[1042,995],[5667,12246],[528,1143],[2683,3232]],[[390990,718267],[-8102,-2],[-3035,8],[-48,-7690],[-1918,-2478],[-5363,-55],[-459,155],[-574,99],[-294,-26],[-332,1],[-3,358],[-2774,2258],[-4583,993],[-1548,1121],[-117,-4780],[2343,-2260],[7037,-3534],[425,-838],[204,-231],[-3489,-5198],[-129,-1072],[-6495,-6698],[-1557,-2250]],[[385861,790751],[4868,-2187],[-1975,-1311],[777,-1039],[1207,-91],[2406,2],[31,3409],[6071,-42],[2511,4543],[3246,176],[1238,1111],[2246,702],[-5831,1987],[-515,262],[-809,2209],[-2061,-1370],[116,-3030],[-3933,-371],[-681,1965],[130,1740],[1701,2474],[-3054,-351],[-1430,-1171],[-2685,-4355],[733,402],[69,-415],[122,-1950],[-334,-400],[-954,-752],[-263,-754],[-1373,222],[-1574,-1615]],[[380515,529997],[-2994,0],[-6582,-11105],[-1334,-16292],[-473,-5775],[-1926,-7293]],[[99929,424761],[492,63921],[17227,-8],[201,41382],[8111,-75]]],"bbox":[-88.880445,46.420081,-87.710471,47.480187],"transform":{"scale":[0.0000011699751699751662,0.0000010601070601070576],"translate":[-88.880445,46.420081]}}
