{"type":"Topology","objects":{"foo":{"type":"GeometryCollection","geometries":[{"type":"MultiPolygon","arcs":[[[0,1,2,3,4]]],"properties":{"postal_code":"57350","realtor_list_price":236886.364,"realtor_list_price_yoy":0.0139,"realtor_list_price_base":0.5059,"realtor_active_listings":42.667,"realtor_active_listings_yoy":-0.1579,"realtor_active_listings_base":-0.5988,"realtor_new_listings":14.667,"realtor_new_listings_yoy":-0.2143,"realtor_new_listings_base":-0.4096,"realtor_days_on_market":43.455,"realtor_days_on_market_yoy":-0.1953,"realtor_days_on_market_base":-0.3516,"zhvi":182523.213,"zhvi_yoy":0.0347,"zhvi_base":0.3634,"zori":"NA","zori_yoy":"NA","zori_base":"NA"}},{"type":"MultiPolygon","arcs":[[[5,6]]],"properties":{"postal_code":"57381","realtor_list_price":"NA","realtor_list_price_yoy":"NA","realtor_list_price_base":"NA","realtor_active_listings":1.667,"realtor_active_listings_yoy":-0.2857,"realtor_active_listings_base":"NA","realtor_new_listings":0,"realtor_new_listings_yoy":"NaN","realtor_new_listings_base":"NA","realtor_days_on_market":"NA","realtor_days_on_market_yoy":"NA","realtor_days_on_market_base":"NA","zhvi":"NA","zhvi_yoy":"NA","zhvi_base":"NA","zori":"NA","zori_yoy":"NA","zori_base":"NA"}},{"type":"MultiPolygon","arcs":[[[7,-5,8,-6]]],"properties":{"postal_code":"57384","realtor_list_price":179700,"realtor_list_price_yoy":-0.2812,"realtor_list_price_base":"NA","realtor_active_listings":2.333,"realtor_active_listings_yoy":1.3333,"realtor_active_listings_base":-0.2324,"realtor_new_listings":0.667,"realtor_new_listings_yoy":-0.5,"realtor_new_listings_base":1.3333,"realtor_days_on_market":35,"realtor_days_on_market_yoy":"NA","realtor_days_on_market_base":"NA","zhvi":"NA","zhvi_yoy":"NA","zhvi_base":"NA","zori":"NA","zori_yoy":"NA","zori_base":"NA"}},{"type":"MultiPolygon","arcs":[[[9,10,-3]]],"properties":{"postal_code":"57324","realtor_list_price":"NA","realtor_list_price_yoy":"NA","realtor_list_price_base":"NA","realtor_active_listings":1.667,"realtor_active_listings_yoy":-0.1667,"realtor_active_listings_base":-0.1841,"realtor_new_listings":0,"realtor_new_listings_yoy":"NaN","realtor_new_listings_base":"NA","realtor_days_on_market":"NA","realtor_days_on_market_yoy":"NA","realtor_days_on_market_base":"NA","zhvi":"NA","zhvi_yoy":"NA","zhvi_base":"NA","zori":"NA","zori_yoy":"NA","zori_base":"NA"}},{"type":"MultiPolygon","arcs":[[[-10,-2,11]]],"properties":{"postal_code":"57386","realtor_list_price":"NA","realtor_list_price_yoy":"NA","realtor_list_price_base":"NA","realtor_active_listings":1,"realtor_active_listings_yoy":0,"realtor_active_listings_base":-0.1676,"realtor_new_listings":0,"realtor_new_listings_yoy":"NaN","realtor_new_listings_base":"NA","realtor_days_on_market":"NA","realtor_days_on_market_yoy":"NA","realtor_days_on_market_base":"NA","zhvi":"NA","zhvi_yoy":"NA","zhvi_base":"NA","zori":"NA","zori_yoy":"NA","zori_base":"NA"}}]}},"arcs":[[[500784,745036],[88,31326],[38723,-544],[-172,-15144],[131,-16006],[38879,-34],[10,-31219],[77397,319],[212,95714],[32701,-198],[14,51848],[6783,-546],[1529,-4234],[2733,1129],[2766,-3124],[-219,-2738],[5243,-497],[199,-3574],[2817,-2136],[-1734,-3556],[-787,1123],[-409,-1442],[374,-1497],[3811,-258],[15389,159],[-25,30616],[-46,4021],[-143,981],[209,1278],[-10,9976],[-35,1792],[-35,13687],[4831,-34],[4919,-50],[-66,30941],[9526,114],[32,-31087],[19413,-149],[-2,-7428],[11,-15910],[9629,702],[3960,-2879],[1273,-4660],[1378,-1151],[22246,-167]],[[804327,870500],[14,-62287],[5772,-36],[-124,-65041],[19204,-658],[-78,-45828],[-36,-16310],[29039,-602],[9424,-213],[-37,-8386],[-64,-22734],[10439,-215],[8787,-181],[-43,-14534],[-39,-16613],[-145,-31690]],[[886440,585172],[-19220,553],[-57,-15658],[-185,-48356],[674,-6863],[-742,-6305],[-19197,-502],[-79,-15223],[-8572,30],[226,-15986],[-10983,-63],[-173,-45809],[-10,-4569],[-18366,-76],[-183,-41125],[10047,180],[46,-16815],[17695,-563],[9946,-271],[-141,-93413],[-38129,1067],[-19238,284],[-83,-31197],[-38441,497],[-10775,385],[-3729,-5578],[1475,-4621],[3112,-2066],[2253,-3793],[250,-3319],[-826,-4359],[824,-3588],[1671,-1375],[5711,-1906],[1523,-4763],[-1117,-2554],[-2992,-3778],[396,-1327],[1702,-2896],[1883,-587],[3224,4976],[2218,103],[1698,-2751],[228,-3197],[2468,-9940],[703,-5458],[-417,-5410],[1407,-2754],[2740,-192],[795,1418],[2312,-94],[5024,-8442],[4463,-16865],[10353,-153],[91,-62394],[-11055,230],[-499,-6277],[-874,-2812],[-1745,-1188],[-5642,-383],[-1501,-2226],[-1255,-10740],[569,-7637]],[[767941,56678],[422,-4438],[-1063,-3154],[-3784,-2081],[-830,-15128],[-193,-13],[-786,-144],[-6549,-237],[13,-31186],[-19249,-297],[-21,57564],[-2704,230],[-34284,646],[-3390,11],[-19714,2],[-243,93625],[19379,-39],[-4,42707],[-3132,469],[-2072,1728],[-492,-3195],[-1981,1725],[-2465,349],[-1190,-3046],[-859,3007],[-2166,2612],[-324,-2298],[-1805,-1065],[79,-3416],[-3019,361],[16,22484],[-77561,276],[81,31025],[-19338,-50],[-38778,7]],[[539935,245719],[-141,47248],[140,14950],[-69,15257],[3,15834],[-12509,13],[-6982,-101],[-31,16383],[-42,14851],[12,15279],[9823,-153],[77,16195],[19844,-116],[36,16983],[8919,15],[44,14477],[-31,44284],[7331,-2556],[12002,-4976],[3,10735],[-14,14776],[16,15382],[3,15823],[9220,123],[20144,127],[9266,-13],[-40,16841],[-56,14418],[19483,91],[-21,31181],[-38801,-116],[-9096,-146],[20,15929],[-2831,6],[-2956,15109],[-4301,22854],[0,39605],[-3535,254],[-5240,-125],[-10712,-476],[-97,15587],[-1,727],[-34,14821],[-58085,607],[88,31330]],[[346381,811606],[49,-66656],[-19106,-45],[162,-62409],[-38639,-106],[131,-62402],[19241,23],[154,-124697],[-38613,30],[105,-62332],[19175,-81],[242,-30967],[9675,-26],[9671,-17],[19109,-78],[83,-31201],[19261,-239],[170,-62254]],[[347251,308149],[36,-62390],[-57608,209],[-340,-31171],[-38509,-125],[-182,-62478],[18141,142],[1108,-1469],[-171,-92102],[-27675,-86],[-10468,-35],[-102266,-135],[-12089,-226],[-2236,-456],[-98160,490],[-16596,-189],[54,156198],[-73,29364],[-217,1663],[11,475],[17115,-430],[1184,-252],[84912,-112],[6929,248],[4403,-349],[-36,31096],[20255,168],[-15,31272],[-20273,-243],[-78,52173],[20277,13203],[-100,59520],[-20235,-155],[101,187827],[514,96982],[19316,-16482],[-9,43716],[19280,103],[-34,69171],[15071,-84],[-7,15759],[-9502,56],[4,15462],[5429,0],[-183,16219],[4317,-17],[-58,43507],[1330,2807],[17993,-165],[-33,62363],[19255,-307],[95,31115],[2128,-30],[17193,-23523],[-22,23275],[18667,-204],[19343,-181],[-95,-30796],[19314,-222],[30,-31212],[19379,-331],[161,-31161],[9,-17478],[42,-13650],[38691,-561],[47,-62270],[4266,-49]],[[346381,811606],[74040,-736],[13105,-69],[9089,-101],[75,-18243],[202,-47927],[19164,177],[38728,329]],[[539935,245719],[-19533,-18],[9,4127],[2,27470],[-4021,11],[-4181,15978],[-4662,14546],[-6462,17],[-15862,168],[2914,-24003],[1475,-7074],[-7944,-96],[-19114,75],[-19203,-50],[-26,31107],[-96076,172]],[[886440,585172],[-111,-31040],[38550,-510],[17621,-368],[69,-31151]],[[942569,522103],[23,-31137],[-17945,258],[-184,-62353],[-6,-1444],[-19230,-258],[-95,-29525],[-7856,196],[20,-16245],[-11523,51],[-20,-6323],[-20,-8343],[11531,-296],[37,-15914],[7678,60],[-42,-15531],[-82,-31076],[19187,-334],[-234,-62383],[-9412,226],[-9787,239],[118,31152],[-19284,434],[-29,-15257],[8198,-63],[1635,84],[142,-16096],[39,-16432],[9165,19],[-194,-139891],[-19136,398],[14,-31147],[-28349,736],[-19262,490],[-20359,342],[-4702,239],[-3630,-204],[-11680,64],[-7326,-75],[-22028,-86]],[[804327,870500],[-13,31128],[29184,-712],[175,31788],[9103,-125],[42,-49505],[5,-12815],[30427,-327],[8130,5776],[-7,-5854],[19352,-209],[-29,-28785],[340,-2388],[18776,-86],[19370,-142],[39,-31145],[28728,-108],[12581,-95],[201,-35942],[19168,10],[100,-62277],[-38484,273],[90,-62276],[19209,-144],[56,-31137],[40,-15589],[-4159,-193],[-15081,-7560],[20,-70064],[-19121,106]]],"bbox":[-98.943628,44.169468,-97.893575,44.634288],"transform":{"scale":[0.0000010500540500540554,4.6482046482046083e-7],"translate":[-98.943628,44.169468]}}
