{"type":"Topology","objects":{"foo":{"type":"GeometryCollection","geometries":[{"type":"MultiPolygon","arcs":[[[0,1,2,3,4,5],[6]]],"properties":{"postal_code":"67501","realtor_list_price":107707.895,"realtor_list_price_yoy":-0.0986,"realtor_list_price_base":0.5948,"realtor_active_listings":35.667,"realtor_active_listings_yoy":0.1146,"realtor_active_listings_base":-0.614,"realtor_new_listings":25.333,"realtor_new_listings_yoy":0.1176,"realtor_new_listings_base":-0.0841,"realtor_days_on_market":42.263,"realtor_days_on_market_yoy":0.1955,"realtor_days_on_market_base":-0.2685,"zhvi":98395.736,"zhvi_yoy":0.0715,"zhvi_base":0.7343,"zori":732.907,"zori_yoy":0.0427,"zori_base":"NA"}},{"type":"MultiPolygon","arcs":[[[7]]],"properties":{"postal_code":"67512","realtor_list_price":175000,"realtor_list_price_yoy":"NA","realtor_list_price_base":"NA","realtor_active_listings":0.667,"realtor_active_listings_yoy":0,"realtor_active_listings_base":"NA","realtor_new_listings":1.333,"realtor_new_listings_yoy":"Inf","realtor_new_listings_base":"NA","realtor_days_on_market":1,"realtor_days_on_market_yoy":"NA","realtor_days_on_market_base":"NA","zhvi":"NA","zhvi_yoy":"NA","zhvi_base":"NA","zori":"NA","zori_yoy":"NA","zori_base":"NA"}},{"type":"MultiPolygon","arcs":[[[8,9]]],"properties":{"postal_code":"67035","realtor_list_price":"NA","realtor_list_price_yoy":"NA","realtor_list_price_base":"NA","realtor_active_listings":"NA","realtor_active_listings_yoy":"NA","realtor_active_listings_base":"NA","realtor_new_listings":"NA","realtor_new_listings_yoy":"NA","realtor_new_listings_base":"NA","realtor_days_on_market":"NA","realtor_days_on_market_yoy":"NA","realtor_days_on_market_base":"NA","zhvi":195932.822,"zhvi_yoy":0.0291,"zhvi_base":0.8335,"zori":"NA","zori_yoy":"NA","zori_base":"NA"}},{"type":"MultiPolygon","arcs":[[[10,11,12,13,14]]],"properties":{"postal_code":"67514","realtor_list_price":"NA","realtor_list_price_yoy":"NA","realtor_list_price_base":"NA","realtor_active_listings":1.333,"realtor_active_listings_yoy":0,"realtor_active_listings_base":-0.6362,"realtor_new_listings":0,"realtor_new_listings_yoy":"NaN","realtor_new_listings_base":-1,"realtor_days_on_market":"NA","realtor_days_on_market_yoy":"NA","realtor_days_on_market_base":"NA","zhvi":145813.34,"zhvi_yoy":0.1481,"zhvi_base":0.7599,"zori":"NA","zori_yoy":"NA","zori_base":"NA"}},{"type":"MultiPolygon","arcs":[[[-7]]],"properties":{"postal_code":"67505","realtor_list_price":305000,"realtor_list_price_yoy":0.1847,"realtor_list_price_base":1.9784,"realtor_active_listings":4.667,"realtor_active_listings_yoy":0.0769,"realtor_active_listings_base":-0.4184,"realtor_new_listings":1.333,"realtor_new_listings_yoy":0,"realtor_new_listings_base":-0.4212,"realtor_days_on_market":86,"realtor_days_on_market_yoy":0.303,"realtor_days_on_market_base":-0.0488,"zhvi":149393.343,"zhvi_yoy":0.0309,"zhvi_base":0.524,"zori":"NA","zori_yoy":"NA","zori_base":"NA"}},{"type":"MultiPolygon","arcs":[[[-2,15]]],"properties":{"postal_code":"67502","realtor_list_price":285035.87,"realtor_list_price_yoy":0.1626,"realtor_list_price_base":0.6672,"realtor_active_listings":44,"realtor_active_listings_yoy":-0.0075,"realtor_active_listings_base":-0.6614,"realtor_new_listings":30.667,"realtor_new_listings_yoy":0.0455,"realtor_new_listings_base":-0.2825,"realtor_days_on_market":36.913,"realtor_days_on_market_yoy":-0.1576,"realtor_days_on_market_base":-0.4112,"zhvi":216438.37,"zhvi_yoy":0.0652,"zhvi_base":0.5699,"zori":910,"zori_yoy":0.0569,"zori_base":"NA"}},{"type":"MultiPolygon","arcs":[[[-6,16,-13,17]]],"properties":{"postal_code":"67566","realtor_list_price":"NA","realtor_list_price_yoy":"NA","realtor_list_price_base":"NA","realtor_active_listings":"NA","realtor_active_listings_yoy":"NA","realtor_active_listings_base":"NA","realtor_new_listings":"NA","realtor_new_listings_yoy":"NA","realtor_new_listings_base":"NA","realtor_days_on_market":"NA","realtor_days_on_market_yoy":"NA","realtor_days_on_market_base":"NA","zhvi":213790.871,"zhvi_yoy":0.0929,"zhvi_base":0.8484,"zori":"NA","zori_yoy":"NA","zori_base":"NA"}},{"type":"MultiPolygon","arcs":[[[18,19]]],"properties":{"postal_code":"67578","realtor_list_price":135000,"realtor_list_price_yoy":0.0016,"realtor_list_price_base":"NA","realtor_active_listings":12.333,"realtor_active_listings_yoy":1.6429,"realtor_active_listings_base":1.2521,"realtor_new_listings":0.667,"realtor_new_listings_yoy":-0.75,"realtor_new_listings_base":2.3,"realtor_days_on_market":85,"realtor_days_on_market_yoy":0.0119,"realtor_days_on_market_base":"NA","zhvi":94850.186,"zhvi_yoy":0.0914,"zhvi_base":0.5858,"zori":"NA","zori_yoy":"NA","zori_base":"NA"}},{"type":"MultiPolygon","arcs":[[[20,-4]]],"properties":{"postal_code":"67543","realtor_list_price":"NA","realtor_list_price_yoy":"NA","realtor_list_price_base":"NA","realtor_active_listings":2.667,"realtor_active_listings_yoy":-0.2,"realtor_active_listings_base":-0.6813,"realtor_new_listings":0,"realtor_new_listings_yoy":-1,"realtor_new_listings_base":-1,"realtor_days_on_market":"NA","realtor_days_on_market_yoy":"NA","realtor_days_on_market_base":"NA","zhvi":182219.812,"zhvi_yoy":0.1002,"zhvi_base":0.6909,"zori":"NA","zori_yoy":"NA","zori_base":"NA"}},{"type":"MultiPolygon","arcs":[[[-11,21,22]]],"properties":{"postal_code":"67568","realtor_list_price":"NA","realtor_list_price_yoy":"NA","realtor_list_price_base":"NA","realtor_active_listings":1,"realtor_active_listings_yoy":0,"realtor_active_listings_base":"NA","realtor_new_listings":0,"realtor_new_listings_yoy":"NaN","realtor_new_listings_base":"NA","realtor_days_on_market":"NA","realtor_days_on_market_yoy":"NA","realtor_days_on_market_base":"NA","zhvi":"NA","zhvi_yoy":"NA","zhvi_base":"NA","zori":"NA","zori_yoy":"NA","zori_base":"NA"}},{"type":"MultiPolygon","arcs":[[[-19,23,-22,-15,24,-9,25]]],"properties":{"postal_code":"67583","realtor_list_price":"NA","realtor_list_price_yoy":"NA","realtor_list_price_base":"NA","realtor_active_listings":3,"realtor_active_listings_yoy":-0.1818,"realtor_active_listings_base":-0.4269,"realtor_new_listings":0,"realtor_new_listings_yoy":"NaN","realtor_new_listings_base":-1,"realtor_days_on_market":"NA","realtor_days_on_market_yoy":"NA","realtor_days_on_market_base":"NA","zhvi":96342.836,"zhvi_yoy":0.0516,"zhvi_base":0.2106,"zori":"NA","zori_yoy":"NA","zori_base":"NA"}}]}},"arcs":[[[624637,653313],[36070,-82],[-26,9474],[84,37573],[17896,-122],[0,17784]],[[678661,717940],[1372,-1077],[3716,-938],[1253,441],[4484,-2193],[4686,-654],[2409,269],[1470,-1856],[246,1304],[1191,64],[1396,4801],[8755,-22],[6241,302],[6993,-6362],[2507,-2261],[471,-424],[6018,-5400],[-44,5331],[-446,9027],[-107,9065],[2997,-3324],[469,1076],[1653,68],[440,-3986],[-148,-2823],[-1728,375],[89,-1687],[1351,-497],[-2829,-1026],[2243,-2101],[-1389,-1698],[1560,-587],[-792,-904],[600,-1966],[1803,-1036],[807,-2358],[1300,909],[3366,-826],[356,-5026],[6356,-17],[3244,-86],[1116,-28],[2,2411],[2370,-70],[8,-1772],[1121,-44],[114,-559],[3372,18],[3453,-42],[3002,-28],[0,157],[1212,850],[3575,-815],[3777,156],[6804,275],[4,1181],[2773,-1061],[8719,93],[741,10],[-663,760],[-121,1739],[1297,-380],[65,-2111],[7676,115],[30,4464],[2,358],[8947,-203],[-22,-3202],[-3055,-1406],[2545,14],[8302,7198],[1344,2231],[1459,-125],[-2112,-4509],[115,-678],[354,-4024],[8651,-98],[800,-122],[-117,6682],[-1863,2008],[-1209,140],[2,644],[11740,-70],[7,-2699],[10056,-101],[-34,-6086],[3884,-31],[4039,4945],[2486,-3480],[57,-2067],[33312,53],[0,-79],[17389,179]],[[910546,700628],[71622,124],[-46,-9676],[-26,-9129],[-17866,-214],[-17843,-196],[8,-9363],[-6700,209],[0,-4733],[-11094,-1],[10,-4659],[-1,-4823],[1,-3563],[8608,-1235],[9300,-1343],[-11,-7729],[-39,-9450],[-40,-9449],[-67,-18569],[-17857,-4],[11,-18312],[-35297,-520],[-25,-18235],[-321,-3926]],[[892873,565832],[-2596,1847],[-3233,140],[-3744,2206],[-2565,2289],[-4958,284],[-4155,1741],[-2144,1963],[-2605,3446],[-2337,1523],[-9739,3961],[-5495,-1540],[-2789,-66],[-1523,308],[-4475,2528],[-1050,1053],[52,-37219],[-17843,-231],[-14,-10462],[2275,-1479],[10310,-6587],[4418,-2438],[987,-995],[4,-5260],[-4,-9901],[-18090,-316],[119,-18284],[17883,-1],[22,-93917]],[[839584,400425],[-35986,29],[-11,-2860],[-1454,-1463],[-1590,307],[-629,-2241],[2177,-1832],[-1769,-1802],[-623,2887],[-1265,574],[-3716,-1002],[407,7173],[-9653,401],[115,8056],[-4934,-2916],[-2709,1690],[-2354,305],[-3411,-661],[-240,3946],[-3477,8149],[-547,3592],[-45,15293],[-17895,-12],[278,-7169],[-2486,40],[-21,4218],[-2815,-58],[-130,-2397],[-3687,403],[36,-7300],[-4951,3782],[-716,1737],[-3443,-174],[-3370,1676],[-1449,29],[-2045,1480],[-2276,679],[-1528,2937],[-24844,-164],[-2,18787],[-17726,-105],[-45,-18789],[-17839,436],[29,-13508],[-2013,4083],[-1985,2025],[-2289,335],[-915,2147],[-1853,-669],[-1505,1558],[-1936,655],[-2865,3344],[-1402,-1827],[-2256,893],[-383,-1904],[-2484,-783],[-2110,918],[-2177,-1235]],[[634772,434118],[-229,8629],[-1916,260],[2765,1331],[2585,4412],[3009,2599],[2105,293],[-90,5010],[17842,201],[114,37287],[17870,-199],[11281,-31],[1139,660],[-473,4701],[2147,4202],[2580,1516],[-370,2207],[763,3148],[-1336,1950],[-15770,427],[-18180,317],[-80,18778],[18288,-403],[-46,18749],[-18261,55],[4,18876],[-17626,-337],[21,37775],[-528,18151],[-7939,691],[-9731,190],[-73,27750]],[[741169,641248],[8406,85],[619,424],[-19,1878],[4394,-21],[54,-4648],[4436,-4],[470,-4762],[4196,-18],[-606,-7803],[270,1],[4768,7],[1,-1695],[8975,58],[8672,-474],[-62,650],[-7215,7984],[1899,1995],[15,2276],[1136,177],[54,4077],[-1910,2829],[-1153,1641],[-2217,8761],[-877,1039],[-2159,1590],[-291,588],[-145,269],[-267,247],[-263,21],[-61,37],[-2484,1446],[-571,152],[205,682],[77,256],[-596,617],[-2460,1010],[-826,-176],[-3583,-469],[-8598,1696],[-345,-968],[-1144,-2910],[-645,-946],[-679,-732],[-450,-535],[-88,-4478],[33,-3863],[-8896,45],[-32,-5554],[-38,-2482]],[[330687,878394],[8456,21],[348,28723],[681,-418],[10760,-86],[6320,308],[139,18405],[35075,-196],[-1,18554],[-5066,-6],[127,56170],[35984,130],[18118,-103],[-133,-37388],[8863,39],[-435,-18653],[-3629,7],[-17998,-177],[-99,-56471],[-30410,-42],[508,-17504],[-626,-794],[12550,-263],[200,-37221],[-17911,12],[-9811,-35],[-25565,294],[-770,-37997],[-18185,186],[243,9477],[9343,-75],[-74,9427],[448,18684],[223,235],[-298,37582],[-17354,13],[-21,9162]],[[167932,225329],[17969,45],[-12,9269],[35770,-71],[-79,9417],[35611,83],[-3,18748],[53367,-227],[298,6575],[2796,-1353],[752,1073],[4813,-2032],[1156,371],[2871,4002],[2501,472],[1573,1805],[1280,2993],[19,1615],[1487,979],[3088,98],[1233,2160],[11416,-149],[-34,-18604],[17808,89],[247,56133],[17312,74],[16,-18916],[17798,30],[-54,37589],[35862,47],[-119,-18820],[17735,-4],[12,-18744],[8823,90],[43,9897],[8982,38],[-8,-9884],[115,-1247],[-253,-17487],[8554,-177],[24,-18315]],[[478701,262991],[-8691,-189],[287,-74811],[-183,-18366],[89,-650],[-6111,-28],[-3504,2241],[-8118,-39],[-8813,-2200],[-9132,-24],[20,-8660],[-4317,-5456],[-2466,-2921],[-1139,-723],[-215,-975],[8196,257],[25736,-410],[1685,-3560],[1633,-1747],[4624,-3697],[2061,-934],[4,-716],[-5950,1275],[-11788,1919],[429,-48287],[17839,-173],[-105,-37503],[-35576,-56],[-168,-18690],[-35679,-313],[150,-18183],[-35609,-445],[-17785,-216],[-195,-18613],[-17996,235],[-2659,798],[-3778,3250],[-1596,-974],[-1203,2982],[-1840,2187],[-1373,-469],[-1787,-2619],[-3195,-79],[-25,13520],[-35760,261],[50,18332],[-17557,-56],[51,-37340],[-17816,-126],[-17881,37],[-33,18756],[-35774,-130],[-21,18695],[17856,72],[8,18849],[2,18810],[-35771,-12],[-14,9307],[-149,57062],[-127,5143],[-645,3958],[-16802,-13],[128,18763],[1221,109],[905,-1206],[1237,511],[2016,-490],[1345,-1680],[1623,-839],[2759,-267],[3553,1377],[2683,123],[387,58394]],[[410549,494073],[30,18656],[35788,487]],[[446367,513216],[18047,-316],[-91,-18792],[17744,69],[381,32360],[4900,2507],[2785,-1284],[2610,994],[1275,-2040],[1735,-264],[789,1202],[1222,-367],[-845,-1288],[1275,-418],[1840,-3155],[1603,-257],[508,-1516],[1866,0],[913,2165],[1425,-987],[-927,-2300],[2342,-1787],[-726,-2790],[2588,257],[-126,-848],[2678,254],[1853,-1382],[1094,2222],[-430,2387],[1386,3335],[-2164,3559],[715,3388],[198,3576],[3037,26],[100,-18698],[17719,24],[-131,18752],[17923,168]],[[553478,531972],[17979,-110],[24,-9328],[17,-28179],[17882,-104],[75,-74911],[2432,20],[-1257,-1465],[2037,450],[1848,-3137],[366,-3408],[652,-498],[3189,1409],[3975,1846],[4662,-569],[-50,-13391]],[[607309,400597],[65,-18923],[-13154,35],[-114,-24276],[-17671,-425],[-55,-18796],[-35711,-332],[64,-18744],[-53469,-127]],[[487264,319009],[-8369,41],[-102,18808],[-8362,-10],[34,9423],[125,34478],[-5875,-38],[-222,18729],[17868,132],[135,15013],[-4532,2581],[-5937,184],[-2242,-632],[-989,1375],[-4346,-2306],[-132,21082],[-10890,39],[-954,241],[-6019,-1817],[-17765,-6385],[-253,45340],[-17874,2],[-14,18784]],[[678661,717940],[-552,473],[-3268,6606],[-7419,7679],[-2878,5022],[-2239,1848],[-1476,4832],[-2462,5851],[14774,4436],[4486,1717],[1026,-21],[-157,37515],[17368,-224],[7305,-120],[-489,4221],[-1272,1577],[-19,2017],[1135,1557],[-1704,-493],[-650,1181],[-1278,-613],[-1250,2008],[1333,635],[606,2074],[-2549,1429],[-1482,3328],[9637,-227],[-224,18759],[9033,-71],[33,18476],[17809,40],[33,-18638],[641,-56],[17327,160],[17960,661],[17855,38],[17783,23],[35899,-21],[17557,-289],[391,259],[12,-25175],[1539,-3393],[3763,-3212],[1962,-734],[9139,17],[1314,-883],[1189,-3005],[567,-728],[-426,-591],[-369,-4295],[-728,-1734],[-8,-12593],[-30049,242],[-597,-2526],[-2326,-16314],[8367,-245],[2211,304],[40332,-90],[49,-23461],[-9021,92],[69,-7073],[4453,-68],[53,-2350],[1083,-22],[45,-2215],[2198,-141],[-6,-2314],[1106,-10],[17424,102],[-83,-18546]],[[634772,434118],[-6,-1500],[-9540,509],[-17,-2373],[58,-11563],[17827,-102],[-60,-18712],[-35725,220]],[[553478,531972],[-71,18609],[18030,4],[-19,18763],[-97,37508],[103,18685],[-35685,178],[-399,37700],[4575,-53],[3845,-45],[222,-47],[503,-2591],[1376,-659],[690,-2522],[3635,2128],[-939,-2363],[1403,-1838],[-2008,-1655],[-970,-2518],[1579,-253],[1537,1090],[3347,-2660],[423,-1346],[1182,1308],[1582,-951],[-1556,-2373],[2452,-709],[622,-1023],[3002,-348],[673,1992],[1881,-2336],[7195,720],[14355,-704],[2899,93],[1574,-128],[29547,22],[-16,9688],[4687,-25]],[[250191,437499],[-17838,-102],[-69,18595],[-35726,-119],[43,18684],[-31099,-94],[-120,-18656],[-4261,-20],[-225,-4798],[-217,-51316],[-17848,-71],[-113,-18608],[-73153,101],[-17760,135],[-8722,61],[-7463,80],[-1291,19],[-16511,169]],[[17818,381559],[-18,8731],[24,10044],[-17824,171],[382,56391],[17810,-267],[229,37545],[-22,18770],[18153,-155],[-23,18735],[-235,37512],[-7,340],[17880,5930],[-414,31155],[-165,37353],[17915,-126],[-141,18761],[-380,56186],[-83,15749],[-24,2953],[17852,-123],[-55,37429],[17990,75],[-236,18673],[35616,-59],[26752,-1078],[-1299,-73],[-3593,-2404],[-803,-1302],[-536,-4327],[643,-3149],[-481,-1415],[1103,-938],[957,-3488],[-381,-2332],[3662,-353],[2633,993],[6974,347],[295,-56396],[122,-18420],[56114,333],[250,6746],[2881,948],[1479,2739],[2243,274],[890,1088],[1170,6734],[6569,119],[189,-112120],[362,-112294],[-46,-56065]],[[892873,565832],[7863,-5172],[2322,-3750],[853,-2204],[577,-3857],[3743,-5755],[2142,-1548],[2580,-942],[4508,-4256],[1251,-333],[3877,1179],[6187,-508],[4588,-373],[1340,-581],[5557,-1164],[5009,-371],[3738,-2555],[1114,-2866],[1968,-6858],[5643,-3696],[1853,-2927],[4106,-3698],[1159,-2569],[937,-534],[7664,523],[2663,-952],[5928,-4970],[4524,-3498],[3077,-6166],[3645,-3172],[6567,-3640],[143,-12648],[0,-27541],[-24,-9957],[-17346,166],[-344,-37622],[-147,-17083],[1099,-1784],[-15386,-31],[-1279,-530],[64,-22052],[109,-8982],[-8975,-152],[61,-9908],[-38396,-537],[-6013,-90],[-16848,-182],[-18043,94],[-342,41956],[-3204,-4],[459,18467],[-35860,226]],[[410549,494073],[-17813,-383]],[[392736,493690],[46,18703],[-17738,0],[215,28056],[-526,9443],[17896,23],[114,18799],[-17798,-33],[-106,37475],[-228,18866],[17825,74],[35,18765],[-17921,-132],[-68,18890],[-17860,-221],[-70,18799],[-18465,-145],[520,37486],[17939,192],[-186,37749],[36123,-40],[-98,-37566],[17977,29],[17973,50],[-2,-18618],[17969,-18],[9173,-86],[8832,-77],[-1,-28364],[11,-46564],[-17964,82],[118,-18672],[17856,-135],[-6,-33510],[-17944,525],[23,-3984],[17916,-519],[79,-18738],[-8919,630],[-9043,-152],[-66,-37536]],[[250191,437499],[17732,163],[53281,-102],[7,18752],[17588,184],[100,18707],[17845,109],[36045,-478],[-53,18856]],[[487264,319009],[222,-18821],[612,-9774],[304,-27381],[-9701,-42]],[[167932,225329],[-51583,76],[70,18876],[-17812,-119],[-80,-18767],[-17818,55],[171,25439],[-5097,-3151],[-1406,-1279],[-7594,-8870],[-1960,-2029],[-7468,-6416],[-11760,-12047],[80,27412],[17328,-168],[87,18746],[-17420,121],[-12,27598],[-1019,6002],[-1054,4369],[-17978,98],[-380,54421],[-408,1882],[-17454,82],[80,23982],[1826,-20],[8547,-63]]],"bbox":[-98.728903,37.528888,-97.702031,38.304274],"transform":{"scale":[0.0000010268730268730242,7.753867753867729e-7],"translate":[-98.728903,37.528888]}}
