{"type":"Topology","objects":{"foo":{"type":"GeometryCollection","geometries":[{"type":"MultiPolygon","arcs":[[[0]]],"properties":{"postal_code":"58475","realtor_list_price":"NA","realtor_list_price_yoy":"NA","realtor_list_price_base":"NA","realtor_active_listings":1,"realtor_active_listings_yoy":0,"realtor_active_listings_base":"NA","realtor_new_listings":0,"realtor_new_listings_yoy":"NaN","realtor_new_listings_base":"NA","realtor_days_on_market":"NA","realtor_days_on_market_yoy":"NA","realtor_days_on_market_base":"NA","zhvi":"NA","zhvi_yoy":"NA","zhvi_base":"NA","zori":"NA","zori_yoy":"NA","zori_base":"NA"}},{"type":"MultiPolygon","arcs":[[[1]]],"properties":{"postal_code":"58486","realtor_list_price":"NA","realtor_list_price_yoy":"NA","realtor_list_price_base":"NA","realtor_active_listings":1,"realtor_active_listings_yoy":0,"realtor_active_listings_base":"NA","realtor_new_listings":0,"realtor_new_listings_yoy":"NaN","realtor_new_listings_base":"NA","realtor_days_on_market":"NA","realtor_days_on_market_yoy":"NA","realtor_days_on_market_base":"NA","zhvi":"NA","zhvi_yoy":"NA","zhvi_base":"NA","zori":"NA","zori_yoy":"NA","zori_base":"NA"}},{"type":"MultiPolygon","arcs":[[[2,3]]],"properties":{"postal_code":"58420","realtor_list_price":"NA","realtor_list_price_yoy":"NA","realtor_list_price_base":"NA","realtor_active_listings":0.333,"realtor_active_listings_yoy":-0.6667,"realtor_active_listings_base":"NA","realtor_new_listings":0,"realtor_new_listings_yoy":"NaN","realtor_new_listings_base":"NA","realtor_days_on_market":"NA","realtor_days_on_market_yoy":"NA","realtor_days_on_market_base":"NA","zhvi":"NA","zhvi_yoy":"NA","zhvi_base":"NA","zori":"NA","zori_yoy":"NA","zori_base":"NA"}},{"type":"MultiPolygon","arcs":[[[-3,4],[5],[6]]],"properties":{"postal_code":"58401","realtor_list_price":255668.182,"realtor_list_price_yoy":-0.1914,"realtor_list_price_base":0.254,"realtor_active_listings":31.333,"realtor_active_listings_yoy":-0.2419,"realtor_active_listings_base":-0.6565,"realtor_new_listings":14.667,"realtor_new_listings_yoy":0.1,"realtor_new_listings_base":-0.3694,"realtor_days_on_market":51.682,"realtor_days_on_market_yoy":-0.1637,"realtor_days_on_market_base":-0.1952,"zhvi":234571.075,"zhvi_yoy":0.0619,"zhvi_base":0.2527,"zori":1098.25,"zori_yoy":0.046,"zori_base":"NA"}}]}},"arcs":[[[0,484329],[17179,-33],[-38,11443],[3381,5701],[724,581],[26839,31],[3354,998],[-64,34685],[-17222,47],[-133,17900],[-43,35626],[-17214,117],[-52,70828],[34891,42],[7069,-339],[951,339],[8867,-14],[12196,35],[5039,-241],[34480,441],[-2,17507],[8077,-38],[997,419],[5402,-479],[9493,89],[1829,576],[817,-561],[7462,-24],[267,211],[292,-17918],[4,-139],[16098,-33],[16,-8872],[18,-8931],[17344,-18],[16595,-129],[-11,-18520],[17727,366],[1,-17450],[-17040,-381],[-57,-17327],[34481,-153],[-56,-26096],[149,-977],[332,-576],[207,-489],[102,-420],[-2,-412],[-728,-2342],[-36,-4489],[9,-17804],[-17202,-50],[-17238,56],[8,-35650],[-34376,105],[-20,5473],[-1399,4581],[245,7748],[-15533,217],[-59,-71385],[26,-53523],[-102547,416],[-167,2892],[-12,14986],[-9689,63],[-1373,-702],[-2410,-4140],[-2747,-2250],[-3986,-193],[-1817,761],[-1028,2224],[-4178,-1714],[-4365,-617],[-488,1521],[-2305,1661],[-568,1633],[-2631,-83],[-3123,1808],[-11003,85],[48,35681],[-54,35619]],[[111406,946799],[9851,65],[55,17897],[17036,49],[56,17338],[-4,17851],[25361,-85],[10,-15571],[2159,-1322],[770,-817],[6490,-56],[16720,33],[35264,-323],[69082,274],[17301,-42],[-66,-35072],[-17442,-26],[86,-35718],[17377,-4],[8,-17881],[-34704,-48],[61,-17912],[84,-53665],[51828,7],[107,-53614],[13273,53],[469,-186],[-159,-409],[20,-16753],[-5104,51],[-3011,1038],[-2387,-925],[-1241,671],[-2896,-697],[-2572,-81],[170,-53183],[-2138,-288],[-66202,162],[-80,35645],[-17227,-22],[84,-35643],[-17300,-129],[-1,16699],[130,1195],[2304,5010],[-206,1980],[-2181,5329],[-37,5417],[-51880,227],[-43,17865],[-9756,-237],[-1776,-2447],[-516,-4598],[-1850,-3048],[-2119,-798],[-87,28137],[1611,-24],[-185,53638],[-17294,5],[5,53715],[-17300,-35],[-34,17643],[-39,18390],[-108,26107],[-9825,-53],[-2,9221]],[[865448,465014],[-9,-17693],[-8628,-23],[-32,17276],[-34366,305],[-5,-17609],[-17220,-24],[91,-53466],[-17187,-52],[62,-8904],[-17550,-278],[-55,-14859],[-6065,2472],[-2409,1791],[-2379,1768],[-1532,1139],[-66,4884],[393,6131],[-2946,6339],[-3106,2026],[-5197,2620],[-3390,5994],[-998,8083],[1625,19436],[-2142,1175],[-22866,228],[56,-4432],[-34327,-163],[3,-17786],[-9609,59],[-882,-4168],[-1037,-189],[-246,-7270],[181,-6223],[-5243,5],[-34,-17889],[-61,-17865],[-7416,-77],[-485,-3856],[-1704,-5574],[-846,-1443],[171,-2498],[1143,-4451],[-70199,-96],[36,-16911],[-17008,55]],[[571964,323001],[-251,16958],[-6188,102],[-51441,14],[-17056,1],[-59,17866],[-16834,59],[-39,2516],[623,1533],[-763,1466],[-176,30174],[-16822,16],[7,24745],[184,15467],[-21,5204],[-32,8335],[-219,17648],[-12,35736],[33783,40],[106,-10854],[1417,-2113],[-65,-1377],[-1394,-2501],[351,-18892],[2874,-11],[1131,-1135],[-268,-938],[-4032,-7133],[10,-8644],[53344,181],[854,-164],[14589,-67],[10,16088],[-197,2520],[337,33617],[-121,1335],[35993,-205],[46,-6671],[261,-1865],[1615,-4616],[1498,-983],[279,-3389],[45890,-158],[17,-17868],[17200,0],[712,1835],[-850,10539],[142,5566],[16450,-87],[14,71500],[17882,11],[-7,-8013],[1041,-813],[6559,90],[664,-431],[46,-5804],[1163,-2302],[729,-279],[9451,-225],[1421,547],[-1197,2260],[-4620,15027],[1537,5],[1647,7],[49922,-77],[16761,13],[39,-18013],[17184,-30],[7,-17838],[34494,70],[40,-17852],[17196,-629],[30,-17118],[8587,-125],[11,-17858]],[[865448,465014],[3071,-53],[506,315],[5054,37],[21,2290],[2219,-482],[2148,-2086],[4054,87],[10372,214],[2383,-1],[-47,-18010],[12953,41],[-10,-17701],[17230,5],[7,-17878],[-51693,-193],[341,-8741],[-98,-62590],[22897,30],[96,-36535],[193,-15991],[-66,-15511],[-231,-3998],[99,-11608],[51158,-80],[-20,12019],[5463,184],[28682,-111],[359,-5682],[46,-5595],[420,-1832],[16666,-1262],[54,-21000],[74,-54095],[150,-17895],[-17401,63],[-127,35831],[-34142,30],[124,-36007],[-15438,-89],[-1442,560],[-616,-633],[-7734,43],[-8423,-78],[-572,24],[30,-12609],[-1462,58],[-6186,-2792],[-804,-2344],[-8186,-260],[-144,11838],[-784,-928],[-3784,-1680],[1589,-2073],[-1370,-834],[-214,-1412],[-3530,-4717],[-43304,-220],[137,-17980],[-34238,120],[16,-17552],[-16891,-219],[-12,-17882],[-255,-71155],[9,-484],[177,-17567],[-85570,-358],[-298,17909],[-16962,-69],[-17171,304],[-83,17923],[-34375,66],[127,-17910],[-17143,-113],[-17103,4],[-164,17930],[-16724,88],[-17401,-166],[-16962,-44],[141,35719],[-34191,-149],[-646,35780],[-31689,-243],[130,16425],[-148,1114],[402,36033],[48330,588],[-131,53893],[13148,299],[2032,1247],[662,-1342],[1337,67],[-14,17017],[-82,36642],[-34573,-394],[22,35949],[51851,499],[-14,15080],[-1231,807],[1273,721],[162,1327]],[[786186,259069],[1103,285],[2655,-1988],[722,-1701],[546,21],[3620,2001],[-3,1435],[-10,4286],[-8628,-111],[11,-1183],[-16,-3045]],[[796653,217905],[3931,1511],[-1292,1247],[-816,2600],[-1689,-1230],[-414,-2605],[280,-1523]]],"bbox":[-99.67164,46.703178,-98.438957,47.515278],"transform":{"scale":[0.0000012326842326842271,8.121008121008131e-7],"translate":[-99.67164,46.703178]}}
