{"type":"Topology","objects":{"foo":{"type":"GeometryCollection","geometries":[{"type":"MultiPolygon","arcs":[[[0,1,2,3,4]]],"properties":{"postal_code":"03447","realtor_list_price":335505.556,"realtor_list_price_yoy":0.3381,"realtor_list_price_base":0.7558,"realtor_active_listings":10.667,"realtor_active_listings_yoy":-0.1111,"realtor_active_listings_base":-0.5887,"realtor_new_listings":6,"realtor_new_listings_yoy":0,"realtor_new_listings_base":-0.2809,"realtor_days_on_market":48.333,"realtor_days_on_market_yoy":0.2572,"realtor_days_on_market_base":-0.3519,"zhvi":409860.666,"zhvi_yoy":0.0114,"zhvi_base":1.1458,"zori":"NA","zori_yoy":"NA","zori_base":"NA"}},{"type":"MultiPolygon","arcs":[[[5,6,7,-2,8,9]]],"properties":{"postal_code":"03452","realtor_list_price":731341.091,"realtor_list_price_yoy":0.0449,"realtor_list_price_base":1.6894,"realtor_active_listings":19,"realtor_active_listings_yoy":-0.1094,"realtor_active_listings_base":-0.3653,"realtor_new_listings":7.333,"realtor_new_listings_yoy":-0.0833,"realtor_new_listings_base":-0.3588,"realtor_days_on_market":95.455,"realtor_days_on_market_yoy":0.6458,"realtor_days_on_market_base":0.5532,"zhvi":409839.581,"zhvi_yoy":0.0289,"zhvi_base":1.0763,"zori":"NA","zori_yoy":"NA","zori_base":"NA"}},{"type":"MultiPolygon","arcs":[[[10,11,12,13]]],"properties":{"postal_code":"03450","realtor_list_price":517000,"realtor_list_price_yoy":-0.2405,"realtor_list_price_base":"NA","realtor_active_listings":4,"realtor_active_listings_yoy":0,"realtor_active_listings_base":-0.534,"realtor_new_listings":1.333,"realtor_new_listings_yoy":1,"realtor_new_listings_base":-0.3489,"realtor_days_on_market":41,"realtor_days_on_market_yoy":-0.1458,"realtor_days_on_market_base":"NA","zhvi":529407.951,"zhvi_yoy":0.0142,"zhvi_base":0.9568,"zori":"NA","zori_yoy":"NA","zori_base":"NA"}},{"type":"MultiPolygon","arcs":[[[14,15,16,17,18]]],"properties":{"postal_code":"03466","realtor_list_price":459500,"realtor_list_price_yoy":-0.0755,"realtor_list_price_base":0.4931,"realtor_active_listings":3.333,"realtor_active_listings_yoy":0.25,"realtor_active_listings_base":-0.6831,"realtor_new_listings":0.667,"realtor_new_listings_yoy":0,"realtor_new_listings_base":-0.8055,"realtor_days_on_market":41,"realtor_days_on_market_yoy":0.3226,"realtor_days_on_market_base":-0.4111,"zhvi":440971.522,"zhvi_yoy":0.0228,"zhvi_base":"NA","zori":"NA","zori_yoy":"NA","zori_base":"NA"}},{"type":"MultiPolygon","arcs":[[[19,-3,-8]]],"properties":{"postal_code":"03461","realtor_list_price":670411.111,"realtor_list_price_yoy":0.126,"realtor_list_price_base":1.1806,"realtor_active_listings":22.667,"realtor_active_listings_yoy":-0.0145,"realtor_active_listings_base":-0.4423,"realtor_new_listings":12,"realtor_new_listings_yoy":0.2,"realtor_new_listings_base":-0.3042,"realtor_days_on_market":38.111,"realtor_days_on_market_yoy":-0.1219,"realtor_days_on_market_base":-0.378,"zhvi":476753.087,"zhvi_yoy":0.0418,"zhvi_base":1.1456,"zori":"NA","zori_yoy":"NA","zori_base":"NA"}},{"type":"MultiPolygon","arcs":[[[20,-9,-1,21,22]]],"properties":{"postal_code":"03465","realtor_list_price":395600,"realtor_list_price_yoy":"NA","realtor_list_price_base":"NA","realtor_active_listings":4.333,"realtor_active_listings_yoy":5.5,"realtor_active_listings_base":-0.1725,"realtor_new_listings":1.333,"realtor_new_listings_yoy":"Inf","realtor_new_listings_base":-0.4608,"realtor_days_on_market":71.5,"realtor_days_on_market_yoy":"NA","realtor_days_on_market_base":"NA","zhvi":351138.047,"zhvi_yoy":0.1022,"zhvi_base":1.1343,"zori":"NA","zori_yoy":"NA","zori_base":"NA"}},{"type":"MultiPolygon","arcs":[[[23,24,25,-15,26]]],"properties":{"postal_code":"03467","realtor_list_price":"NA","realtor_list_price_yoy":"NA","realtor_list_price_base":"NA","realtor_active_listings":2.333,"realtor_active_listings_yoy":0,"realtor_active_listings_base":-0.7874,"realtor_new_listings":0,"realtor_new_listings_yoy":-1,"realtor_new_listings_base":-1,"realtor_days_on_market":"NA","realtor_days_on_market_yoy":"NA","realtor_days_on_market_base":"NA","zhvi":445707.777,"zhvi_yoy":0.0199,"zhvi_base":0.8743,"zori":"NA","zori_yoy":"NA","zori_base":"NA"}},{"type":"MultiPolygon","arcs":[[[27,28,29]]],"properties":{"postal_code":"03456","realtor_list_price":388329.167,"realtor_list_price_yoy":-0.1867,"realtor_list_price_base":"NA","realtor_active_listings":4,"realtor_active_listings_yoy":2,"realtor_active_listings_base":0.1508,"realtor_new_listings":4,"realtor_new_listings_yoy":5,"realtor_new_listings_base":4.4,"realtor_days_on_market":19.333,"realtor_days_on_market_yoy":1.4167,"realtor_days_on_market_base":"NA","zhvi":356943.764,"zhvi_yoy":0.0466,"zhvi_base":1.0752,"zori":"NA","zori_yoy":"NA","zori_base":"NA"}},{"type":"MultiPolygon","arcs":[[[-28,30,31,32,33]]],"properties":{"postal_code":"03464","realtor_list_price":492474.5,"realtor_list_price_yoy":-0.1375,"realtor_list_price_base":0.8569,"realtor_active_listings":11.667,"realtor_active_listings_yoy":1.0588,"realtor_active_listings_base":-0.3462,"realtor_new_listings":5.333,"realtor_new_listings_yoy":1.6667,"realtor_new_listings_base":0.4146,"realtor_days_on_market":52.75,"realtor_days_on_market_yoy":0.1385,"realtor_days_on_market_base":0.2961,"zhvi":429263.211,"zhvi_yoy":0.0657,"zhvi_base":0.9625,"zori":"NA","zori_yoy":"NA","zori_base":"NA"}},{"type":"MultiPolygon","arcs":[[[34,35]]],"properties":{"postal_code":"03609","realtor_list_price":375000,"realtor_list_price_yoy":"NA","realtor_list_price_base":"NA","realtor_active_listings":0.667,"realtor_active_listings_yoy":-0.6667,"realtor_active_listings_base":-0.7463,"realtor_new_listings":1.333,"realtor_new_listings_yoy":"Inf","realtor_new_listings_base":"NA","realtor_days_on_market":1,"realtor_days_on_market_yoy":"NA","realtor_days_on_market_base":"NA","zhvi":289629.847,"zhvi_yoy":0.0289,"zhvi_base":1.3436,"zori":"NA","zori_yoy":"NA","zori_base":"NA"}},{"type":"MultiPolygon","arcs":[[[-35,36,37,-24,38]]],"properties":{"postal_code":"03608","realtor_list_price":747250,"realtor_list_price_yoy":-0.1312,"realtor_list_price_base":"NA","realtor_active_listings":9,"realtor_active_listings_yoy":0.35,"realtor_active_listings_base":-0.6507,"realtor_new_listings":2.667,"realtor_new_listings_yoy":-0.4286,"realtor_new_listings_base":-0.3506,"realtor_days_on_market":106.5,"realtor_days_on_market_yoy":2.9444,"realtor_days_on_market_base":"NA","zhvi":484734.991,"zhvi_yoy":-0.006,"zhvi_base":0.9357,"zori":"NA","zori_yoy":"NA","zori_base":"NA"}},{"type":"MultiPolygon","arcs":[[[-38,39,40,41,42,43,44,45,-25]]],"properties":{"postal_code":"03431","realtor_list_price":395213.333,"realtor_list_price_yoy":-0.0524,"realtor_list_price_base":0.8944,"realtor_active_listings":28,"realtor_active_listings_yoy":0.0909,"realtor_active_listings_base":-0.724,"realtor_new_listings":20,"realtor_new_listings_yoy":-0.0625,"realtor_new_listings_base":-0.4613,"realtor_days_on_market":39.8,"realtor_days_on_market_yoy":0.0998,"realtor_days_on_market_base":-0.3025,"zhvi":359690.455,"zhvi_yoy":0.0374,"zhvi_base":0.964,"zori":1811.806,"zori_yoy":0.0308,"zori_base":"NA"}},{"type":"MultiPolygon","arcs":[[[46,47]]],"properties":{"postal_code":"03441","realtor_list_price":322500,"realtor_list_price_yoy":1.9032,"realtor_list_price_base":"NA","realtor_active_listings":1,"realtor_active_listings_yoy":0,"realtor_active_listings_base":-0.5627,"realtor_new_listings":0.667,"realtor_new_listings_yoy":-0.6667,"realtor_new_listings_base":"NA","realtor_days_on_market":26,"realtor_days_on_market_yoy":-0.4222,"realtor_days_on_market_base":"NA","zhvi":274760.091,"zhvi_yoy":0.034,"zhvi_base":0.9991,"zori":"NA","zori_yoy":"NA","zori_base":"NA"}},{"type":"MultiPolygon","arcs":[[[48,-45,49,-23,50]]],"properties":{"postal_code":"03446","realtor_list_price":393607.143,"realtor_list_price_yoy":-0.2025,"realtor_list_price_base":0.7551,"realtor_active_listings":9,"realtor_active_listings_yoy":-0.2703,"realtor_active_listings_base":-0.6323,"realtor_new_listings":4.667,"realtor_new_listings_yoy":-0.3,"realtor_new_listings_base":-0.4823,"realtor_days_on_market":53.571,"realtor_days_on_market_yoy":0.1374,"realtor_days_on_market_base":-0.2601,"zhvi":396467.088,"zhvi_yoy":0.0493,"zhvi_base":1.0777,"zori":2218.75,"zori_yoy":"NA","zori_base":"NA"}},{"type":"MultiPolygon","arcs":[[[51,-29,-34,52,-41]]],"properties":{"postal_code":"03448","realtor_list_price":499952,"realtor_list_price_yoy":0.1513,"realtor_list_price_base":"NA","realtor_active_listings":2,"realtor_active_listings_yoy":0,"realtor_active_listings_base":-0.5203,"realtor_new_listings":1.333,"realtor_new_listings_yoy":1,"realtor_new_listings_base":0.1782,"realtor_days_on_market":52,"realtor_days_on_market_yoy":1,"realtor_days_on_market_base":"NA","zhvi":377386.045,"zhvi_yoy":0.1306,"zhvi_base":1.2294,"zori":"NA","zori_yoy":"NA","zori_base":"NA"}},{"type":"MultiPolygon","arcs":[[[53,-32,54,-11,55,-43]]],"properties":{"postal_code":"03457","realtor_list_price":874116.667,"realtor_list_price_yoy":"NA","realtor_list_price_base":"NA","realtor_active_listings":4,"realtor_active_listings_yoy":-0.0769,"realtor_active_listings_base":-0.3642,"realtor_new_listings":2,"realtor_new_listings_yoy":"Inf","realtor_new_listings_base":"NA","realtor_days_on_market":42.667,"realtor_days_on_market_yoy":"NA","realtor_days_on_market_base":"NA","zhvi":501183.154,"zhvi_yoy":0.0273,"zhvi_base":0.8885,"zori":"NA","zori_yoy":"NA","zori_base":"NA"}},{"type":"MultiPolygon","arcs":[[[-13,56,-6,57]]],"properties":{"postal_code":"03444","realtor_list_price":"NA","realtor_list_price_yoy":"NA","realtor_list_price_base":"NA","realtor_active_listings":2.667,"realtor_active_listings_yoy":-0.5294,"realtor_active_listings_base":-0.8608,"realtor_new_listings":0,"realtor_new_listings_yoy":-1,"realtor_new_listings_base":-1,"realtor_days_on_market":"NA","realtor_days_on_market_yoy":"NA","realtor_days_on_market_base":"NA","zhvi":549709.7,"zhvi_yoy":0.0844,"zhvi_base":1.0453,"zori":"NA","zori_yoy":"NA","zori_base":"NA"}},{"type":"MultiPolygon","arcs":[[[-33,-54,-42,-53]]],"properties":{"postal_code":"03445","realtor_list_price":"NA","realtor_list_price_yoy":"NA","realtor_list_price_base":"NA","realtor_active_listings":2,"realtor_active_listings_yoy":-0.3333,"realtor_active_listings_base":0.7748,"realtor_new_listings":0,"realtor_new_listings_yoy":-1,"realtor_new_listings_base":-1,"realtor_days_on_market":"NA","realtor_days_on_market_yoy":"NA","realtor_days_on_market_base":"NA","zhvi":392461.653,"zhvi_yoy":0.0905,"zhvi_base":1.0488,"zori":"NA","zori_yoy":"NA","zori_base":"NA"}},{"type":"MultiPolygon","arcs":[[[-18,58,59,-48,60,61]]],"properties":{"postal_code":"03451","realtor_list_price":415025,"realtor_list_price_yoy":0.3037,"realtor_list_price_base":1.5389,"realtor_active_listings":7.667,"realtor_active_listings_yoy":0.6429,"realtor_active_listings_base":-0.6122,"realtor_new_listings":4,"realtor_new_listings_yoy":0,"realtor_new_listings_base":-0.3426,"realtor_days_on_market":40.333,"realtor_days_on_market_yoy":0.0614,"realtor_days_on_market_base":-0.414,"zhvi":294970.325,"zhvi_yoy":0.0261,"zhvi_base":1.0411,"zori":"NA","zori_yoy":"NA","zori_base":"NA"}},{"type":"MultiPolygon","arcs":[[[62,63,-59,-17]]],"properties":{"postal_code":"03443","realtor_list_price":781225,"realtor_list_price_yoy":0.3477,"realtor_list_price_base":"NA","realtor_active_listings":1.667,"realtor_active_listings_yoy":0.6667,"realtor_active_listings_base":-0.7542,"realtor_new_listings":0.667,"realtor_new_listings_yoy":-0.6667,"realtor_new_listings_base":-0.1852,"realtor_days_on_market":51,"realtor_days_on_market_yoy":4.2759,"realtor_days_on_market_base":"NA","zhvi":462171.714,"zhvi_yoy":0.0122,"zhvi_base":"NA","zori":"NA","zori_yoy":"NA","zori_base":"NA"}},{"type":"MultiPolygon","arcs":[[[-64,64,-51,-22,-5,65,-61,-47,-60]]],"properties":{"postal_code":"03470","realtor_list_price":474712.5,"realtor_list_price_yoy":0.2048,"realtor_list_price_base":1.261,"realtor_active_listings":10.667,"realtor_active_listings_yoy":-0.1795,"realtor_active_listings_base":-0.5809,"realtor_new_listings":4,"realtor_new_listings_yoy":0,"realtor_new_listings_base":-0.3694,"realtor_days_on_market":55.833,"realtor_days_on_market_yoy":-0.3595,"realtor_days_on_market_base":-0.1287,"zhvi":343283.182,"zhvi_yoy":0.0195,"zhvi_base":1.0904,"zori":"NA","zori_yoy":"NA","zori_base":"NA"}},{"type":"MultiPolygon","arcs":[[[-44,-56,-14,-58,-10,-21,-50]]],"properties":{"postal_code":"03455","realtor_list_price":534158.333,"realtor_list_price_yoy":1.2538,"realtor_list_price_base":"NA","realtor_active_listings":4.667,"realtor_active_listings_yoy":0.75,"realtor_active_listings_base":-0.4589,"realtor_new_listings":2,"realtor_new_listings_yoy":0.5,"realtor_new_listings_base":-0.2965,"realtor_days_on_market":65,"realtor_days_on_market_yoy":1.5,"realtor_days_on_market_base":"NA","zhvi":378670.193,"zhvi_yoy":0.0277,"zhvi_base":0.9962,"zori":"NA","zori_yoy":"NA","zori_base":"NA"}},{"type":"MultiPolygon","arcs":[[[-16,-26,-46,-49,-65,-63]]],"properties":{"postal_code":"03462","realtor_list_price":769000,"realtor_list_price_yoy":0.4428,"realtor_list_price_base":0.9741,"realtor_active_listings":4.333,"realtor_active_listings_yoy":2.25,"realtor_active_listings_base":-0.7218,"realtor_new_listings":1.333,"realtor_new_listings_yoy":1,"realtor_new_listings_base":-0.6584,"realtor_days_on_market":78,"realtor_days_on_market_yoy":1.6,"realtor_days_on_market_base":-0.1139,"zhvi":476436.315,"zhvi_yoy":0.0131,"zhvi_base":0.8178,"zori":"NA","zori_yoy":"NA","zori_base":"NA"}}]}},"arcs":[[[539151,167262],[35634,-797],[-1387,8982],[16080,488],[-1529,14065],[30118,-937],[2746,-87],[-2017,20595],[7371,38],[49782,-168]],[[675949,209441],[4323,-35261],[61476,-1592]],[[741748,172588],[20109,-164061]],[[761857,8527],[-4364,177],[-12668,514],[-34592,1403],[-21437,870],[-2511,83],[-30716,1017],[-92593,3065]],[[562976,15656],[-23825,151606]],[[667958,333270],[120999,-6089],[9931,321],[60502,-1132],[42449,-913]],[[901839,325457],[10299,-66656],[12131,-75771],[3001,-18757]],[[927270,164273],[-62196,2578],[-31805,1545],[-73774,3381],[-17747,811]],[[675949,209441],[-10341,69061],[-1076,7179]],[[664532,285681],[-7772,47978],[11198,-389]],[[620763,533174],[48336,-3085],[923,2989],[121,10069],[-1844,2730],[83504,-1933],[-71,-1350],[37792,-2778]],[[789524,539816],[-1554,-44728],[89191,-2144],[4324,-28878],[3595,-22952],[-1118,30]],[[883962,441144],[-199862,6510]],[[684100,447654],[-45822,-57],[-24,143],[2582,1837],[1886,4449],[2512,3574],[-1689,2202],[-169,2463],[-3862,2793],[-3559,-2595],[-1393,9007],[-4035,29106],[487,16780],[-11150,454],[899,15364]],[[48945,472683],[115449,-7491]],[[164394,465192],[-1684,-8528],[-96,-11113],[-5991,253]],[[156623,445804],[-6697,288],[-6648,-6559],[-1802,-11726],[-2745,302],[-8390,-20908],[1291,-2380],[-6467,-2029],[985,-2712],[-912,-5716],[-3141,-12358],[-5186,-10640],[-5509,-3049],[-6563,-7370],[-3645,-142],[-4333,-2087],[1665,-3623],[3673,-4460],[-914,-3051],[1722,-3970],[-6082,-5661],[-984,-13608],[-3691,-8164],[3234,-2274],[-1314,-2889],[-542,-6031],[1479,-2750]],[[95107,302237],[-91621,8322]],[[3486,310559],[1313,4089],[-1432,12120],[-1560,1109],[-34,309],[-70,643],[-59,534],[148,749],[412,2092],[1164,5905],[-378,7786],[-74,1517],[4109,20309],[1287,1412],[8809,3212],[9205,4767],[5446,5303],[7179,8954],[41,78],[2041,3911],[-190,19616],[2181,9393],[1635,2433],[6240,3500],[1338,2580],[300,6229],[-4545,21466],[953,12108]],[[927270,164273],[48433,-2112],[5076,-26051],[73,-228],[9930,-70194],[9217,-65688],[-42735,1152],[-40646,1096],[-43,1],[-54599,2216],[-98600,4000],[-1519,62]],[[552925,331471],[7747,-10853],[-218,-2877],[3376,-1979],[6036,-9010],[205,-2280],[3401,-1428],[1895,-3136],[5782,-4711],[1892,-2678],[1094,-3432],[-268,-1652],[11278,1882],[54109,9033],[3038,-15788],[12240,3119]],[[539151,167262],[-2403,24833],[-23562,1235],[-5246,25482]],[[507940,218812],[2769,-129],[315,9096],[3450,12182],[-1422,15074],[9024,2808],[-2453,21080],[13117,-551],[-1871,33492],[218,18515],[20962,2290],[876,-1198]],[[155387,656323],[79152,-2535],[53898,-6660],[25723,-1918]],[[314160,645210],[-5344,-82556],[-25179,-6618],[-6009,-1552],[23269,-96713],[438,-1859]],[[301335,455912],[-136941,9280]],[[48945,472683],[243,3077],[-443,8907],[-1285,6913],[-1781,4623],[-1931,1704],[-3072,830],[-2352,2965],[-1162,1465],[-1040,2774],[696,4767],[3074,5986],[17959,14353],[3950,3157],[5701,726],[11046,1405],[5850,3500],[18510,3902],[9113,8816],[8224,4675],[3917,-826],[4016,-3941],[4608,637],[12483,13678],[6937,9444],[48,2433],[-3867,4381],[-2083,7347],[988,8567],[2824,7155],[4758,6678],[4799,2610],[8180,-1552],[4907,1260],[5949,6913],[1934,3894],[-100,5790],[-1290,3408],[-13289,10996],[-6449,3308],[-3124,4477],[-915,2223],[-89,215]],[[602886,893338],[-15617,-67128],[-9207,-51421],[-948,-5307]],[[577114,769482],[-2382,2056],[-415,2704],[-74247,-10870]],[[500070,763372],[-20985,140591],[-9886,70455],[68075,10315],[100370,15266],[-26330,-70279],[-8428,-36382]],[[602886,893338],[148865,-5442],[-174,-1356],[3088,-4074],[-807,-6164],[1350,-953],[287,5441],[1736,5401],[-2036,-779],[-1491,2531],[72585,-1117],[6472,-130],[-14988,-99532],[2431,522],[-15716,-83348],[-9716,-51445]],[[794772,652893],[-111633,4656],[5039,6034],[209,5662],[4122,6168],[6896,5567],[-1988,7200],[-14901,-3453],[-872,14657],[1560,3559],[3457,3911],[4236,8878],[435,3291],[-3351,7083],[-1664,11745],[3295,4343],[-733,4770],[1407,3798],[-659,5970],[840,2284],[-2276,3936],[-9442,5970],[-6108,-2506],[-6100,-1337],[-2306,-2535],[-4217,-437],[-8632,-10953],[-7185,-2823],[-3063,13],[-3535,-5407],[-7138,-1865],[-2814,-4765],[261,-6951],[2848,-8883],[-1116,-9370],[-3157,-1145],[-1423,-2733],[-8554,-1859],[-7711,2244]],[[608799,707610],[742,16422],[-40149,2242]],[[569392,726274],[7722,43208]],[[180446,954771],[-1145,-5120],[6580,-20803],[2947,-20099],[-968,-4952],[3150,-12884],[17776,-13644],[-2932,-4132],[-5073,-73],[-7068,6149],[-4099,12605],[-1170,1586],[-2169,-10460]],[[186275,882944],[-1183,1329],[-3129,5501],[297,2044],[3130,681],[248,1556],[-395,6756],[-52,887],[-1591,1750],[-3677,1607],[-2972,-178],[-3536,-211],[-911,574],[-4952,3123],[-7806,16252],[-398,4120],[960,2203],[5947,5214],[1590,3212],[396,3553],[-860,13173],[9295,-936],[1899,-202],[1871,-181]],[[180446,954771],[18776,-1922],[729,-51487],[58006,-4558],[2167,-2376],[1299,-2436],[2288,26],[2301,2142],[2268,-901],[1095,-1490],[1694,-1031],[1873,1870],[1067,2897],[9638,-792],[11154,-839],[14134,-106024],[5637,-43694]],[[314572,744156],[12389,-99774],[-12801,828]],[[155387,656323],[-4407,10702],[-944,6325],[3319,15817],[1040,10027],[-3178,7543],[-5806,7006],[-1490,3602],[-846,7347],[1388,4430],[4265,5695],[3735,3338],[10753,9612],[6377,7055],[8758,9689],[8487,12115],[5858,9978],[1391,3845],[62,2057],[137,4513],[-6404,17520],[-6107,12750],[993,5938],[2929,5354],[9140,8030],[2731,5791],[745,3065],[-495,11875],[-4718,7932],[-3206,3603],[-516,580],[-3103,3487]],[[314572,744156],[81539,7554]],[[396111,751710],[21317,-160580],[1431,428],[62119,18051],[5847,2039],[2542,3639]],[[489367,615287],[487,-2608],[6378,-42505],[45275,-17753],[1191,30128],[24136,-752],[-5471,-11547],[1041,-7857],[-1555,-3713],[4107,434],[5412,-3576],[3614,-401]],[[573982,555137],[6751,530],[4075,-1358],[-695,-11264],[-2302,-8688],[-6154,-3751],[-3177,-4400],[-7028,-3543],[-1738,-2989],[9637,-1196],[-53,-1407],[3661,-10217]],[[576959,506854],[-1966,-6848],[-1647,-2023],[-8031,-5733],[-3298,-1345],[-4911,-12693],[-3269,-2997],[-5501,-2189],[463,-6216],[5496,-473],[2401,-1739],[5463,-351],[4963,-1620],[-33335,-3587],[-24,-8190],[-67,-21046],[-9,-4914],[-1089,-91],[-9350,-775],[-4062,-337],[-4738,-8834]],[[514448,414853],[-3229,-6059],[-7022,5686],[-12191,2459],[-833,941],[-563,1273],[469,2408],[-50,406],[-510,315],[-878,-440],[-758,242],[-621,1273],[-1423,-10],[166,-2772],[-3050,-10945],[-147,-3172],[1874,-7368],[3384,-4928],[6408,-8028],[4457,-4092],[-635,-1803],[-9912,12201],[-1862,2126],[-2256,3677],[-5077,8509],[1507,-3779],[-4702,-2433],[-503,-9454],[-3951,408],[-1507,-3287],[-4467,756],[1078,5267],[-3084,9278],[884,8460],[-4879,683],[99,7038],[-4739,-4053],[-3973,-428],[-7709,3579],[-3948,-6251],[241,-3195],[6391,-11168],[904,-3766],[-6361,419],[-2738,4679],[-5886,19246],[-94,4302],[-425,0],[-3096,-28],[-5937,-51],[-28044,-147],[-59934,-196]],[[335316,422631],[-26038,-161],[-7943,33442]],[[146885,172677],[3949,1985],[6424,-2249],[1805,3251],[14446,-7706],[19905,3302],[10340,227],[2028,-1877],[5039,340],[3213,-2143],[5668,800],[-3086,-4984],[-1199,-5420],[-689,-12273],[-2146,-6561],[415,-234],[1737,-3521],[3042,-20],[-3897,-2356],[-2166,-3236],[-831,-8511],[2426,-3287],[3018,-1827],[746,-4692],[-3347,-7732],[-17104,3134],[-21102,223],[-6611,-9237],[-7545,-2746],[-1381,4643],[-1832,-1135]],[[158150,98835],[-10614,69600],[-651,4242]],[[267452,289140],[67864,133491]],[[514448,414853],[4470,-2745],[5611,-129],[-1015,-2193],[-11907,-25696],[20792,-6463],[-1129,-33813],[11617,-2140],[3917,-2354],[6412,-6410],[-291,-1439]],[[507940,218812],[-83921,4224],[-12630,-24331],[-16184,2925],[-18719,3183],[-36288,8428],[-8382,60307],[-1158,8215],[-418,2977],[-62788,4400]],[[396111,751710],[103959,11662]],[[569392,726274],[-90478,-12441],[-1651,-2874],[-3426,730],[15530,-96402]],[[573982,555137],[2186,2463],[8532,1586],[11060,-1630],[6711,1671],[367,21455],[2429,-81],[656,63977],[801,17540],[2075,45492]],[[794772,652893],[-1357,-29412],[-3891,-83665]],[[620763,533174],[-5004,213],[3,-3213],[-3266,-1684],[647,-5039],[-1980,-1109],[-538,4158],[-3564,943],[-1531,-3681],[1495,-7692],[-2425,-330],[-1286,-4453],[-2424,-4158],[-3683,106],[-8665,-4924],[-2596,-4138],[-2537,-613],[-2106,4662],[-4344,4632]],[[883962,441144],[2795,-11636],[-2209,-3732],[-261,-4490],[3663,-1024],[3720,-28169],[3264,-25266],[6905,-41370]],[[667958,333270],[-4810,34432],[-11974,715],[-10986,67437],[6212,1390],[-226,6721],[27112,366],[9587,2067],[1227,1256]],[[95107,302237],[27982,-2135],[4209,-288]],[[127298,299814],[18553,-120426],[1034,-6711]],[[158150,98835],[10660,-68194]],[[168810,30641],[-11657,472],[49,4771],[-4000,8760],[-10865,17031],[-8347,10021],[-2630,10246],[-1934,14845],[-2670,7543],[-2768,3989],[-8793,5154],[-2422,3066],[-2176,5109],[-5341,6568],[-6719,1748],[-4148,-784],[-1332,-1995],[-737,-6231],[-2294,-2974],[-11612,-6904],[-4594,-1409],[-3556,149],[-4738,4528],[-1034,5793],[3017,5888],[7453,3800],[2836,2957],[516,4843],[-1289,6459],[-4597,8931],[-12,16],[-6502,9449],[-4005,4452],[-12060,10765],[-21759,19424],[-2961,8763],[-1840,16507],[-1908,4894],[-1525,3123],[-949,7523],[-477,3784],[-607,4333],[-1900,13577],[-252,7228],[-1827,9439],[-2486,3197],[-5276,6783],[-4563,10079],[-452,998],[-1067,2357],[1555,4840],[1931,6013]],[[156623,445804],[-700,-16816],[4213,-325],[-2367,-4369],[231,-5482],[-3628,-11789],[-1964,-4316],[2623,-887],[16766,-5005],[3845,-3939],[-2235,-4258],[-481,-4670],[10063,6201],[2238,2237],[4419,729],[7082,-326],[7392,-19416],[-891,-6035],[-398,-16060],[-6531,1801],[-2028,-4186],[108,-3783],[4007,-6376],[1185,-3697],[-988,-2387],[1334,-7883],[5787,-4577],[2670,-5987],[1584,-1215],[2521,-6572],[-3957,-3406],[-4355,-1363],[-2572,-4913],[857,-2640]],[[202453,294094],[-75155,5720]],[[202453,294094],[64999,-4954]],[[562976,15656],[-126488,4186],[-4650,154],[-64194,2598],[-136496,5524],[-27358,1108],[-13771,557],[-21209,858]]],"bbox":[-72.557247,42.7122382,-71.9290194,43.181968],"transform":{"scale":[6.282282282282307e-7,4.697302697302658e-7],"translate":[-72.557247,42.7122382]}}
