{"type":"Topology","objects":{"foo":{"type":"GeometryCollection","geometries":[{"type":"MultiPolygon","arcs":[[[0,1]]],"properties":{"postal_code":"99371","realtor_list_price":"NA","realtor_list_price_yoy":"NA","realtor_list_price_base":"NA","realtor_active_listings":2.333,"realtor_active_listings_yoy":1.3333,"realtor_active_listings_base":0.3803,"realtor_new_listings":0,"realtor_new_listings_yoy":"NaN","realtor_new_listings_base":"NA","realtor_days_on_market":"NA","realtor_days_on_market_yoy":"NA","realtor_days_on_market_base":"NA","zhvi":"NA","zhvi_yoy":"NA","zhvi_base":"NA","zori":"NA","zori_yoy":"NA","zori_base":"NA"}},{"type":"MultiPolygon","arcs":[[[2,3]]],"properties":{"postal_code":"99344","realtor_list_price":415604.8,"realtor_list_price_yoy":0.0507,"realtor_list_price_base":0.6502,"realtor_active_listings":37.667,"realtor_active_listings_yoy":-0.0583,"realtor_active_listings_base":0.9127,"realtor_new_listings":6.667,"realtor_new_listings_yoy":-0.375,"realtor_new_listings_base":0.0029,"realtor_days_on_market":122.2,"realtor_days_on_market_yoy":0.2863,"realtor_days_on_market_base":0.9274,"zhvi":335086.202,"zhvi_yoy":-0.0158,"zhvi_base":0.7533,"zori":"NA","zori_yoy":"NA","zori_base":"NA"}},{"type":"MultiPolygon","arcs":[[[4,5,6,7,8,9,10,11]]],"properties":{"postal_code":"98944","realtor_list_price":435929.688,"realtor_list_price_yoy":0.0221,"realtor_list_price_base":1.0242,"realtor_active_listings":50.667,"realtor_active_listings_yoy":0,"realtor_active_listings_base":1.3612,"realtor_new_listings":10.667,"realtor_new_listings_yoy":0.6,"realtor_new_listings_base":0.0323,"realtor_days_on_market":79.125,"realtor_days_on_market_yoy":0.1916,"realtor_days_on_market_base":0.8059,"zhvi":322195.198,"zhvi_yoy":0.0092,"zhvi_base":0.8581,"zori":1900,"zori_yoy":"NA","zori_base":"NA"}},{"type":"MultiPolygon","arcs":[[[12,13,14,15,16,17,18,19,20,-6]]],"properties":{"postal_code":"99301","realtor_list_price":494820.713,"realtor_list_price_yoy":0.0067,"realtor_list_price_base":0.6654,"realtor_active_listings":236,"realtor_active_listings_yoy":0.1328,"realtor_active_listings_base":0.2496,"realtor_new_listings":104.667,"realtor_new_listings_yoy":0.163,"realtor_new_listings_base":0.0754,"realtor_days_on_market":57.197,"realtor_days_on_market_yoy":0.161,"realtor_days_on_market_base":0.5255,"zhvi":416788.914,"zhvi_yoy":0.0032,"zhvi_base":0.6968,"zori":1650.262,"zori_yoy":-0.0073,"zori_base":"NA"}},{"type":"MultiPolygon","arcs":[[[21,22,23,24,-9]]],"properties":{"postal_code":"99320","realtor_list_price":447473.043,"realtor_list_price_yoy":-0.0958,"realtor_list_price_base":0.6261,"realtor_active_listings":39.667,"realtor_active_listings_yoy":0.6081,"realtor_active_listings_base":0.3231,"realtor_new_listings":15.333,"realtor_new_listings_yoy":0.5333,"realtor_new_listings_base":0.0388,"realtor_days_on_market":48.696,"realtor_days_on_market_yoy":-0.2922,"realtor_days_on_market_base":0.0697,"zhvi":431498.553,"zhvi_yoy":0.0108,"zhvi_base":0.7185,"zori":"NA","zori_yoy":"NA","zori_base":"NA"}},{"type":"MultiPolygon","arcs":[[[-8,25,26,-22]]],"properties":{"postal_code":"99353","realtor_list_price":472296.053,"realtor_list_price_yoy":-0.0015,"realtor_list_price_base":0.2301,"realtor_active_listings":107.667,"realtor_active_listings_yoy":0.2423,"realtor_active_listings_base":0.725,"realtor_new_listings":38,"realtor_new_listings_yoy":0.1875,"realtor_new_listings_base":0.0804,"realtor_days_on_market":50.737,"realtor_days_on_market_yoy":-0.0243,"realtor_days_on_market_base":0.4646,"zhvi":494430.143,"zhvi_yoy":-0.001,"zhvi_base":0.5558,"zori":2034.878,"zori_yoy":"NA","zori_base":"NA"}},{"type":"MultiPolygon","arcs":[[[-1,27,-16,28]]],"properties":{"postal_code":"99335","realtor_list_price":"NA","realtor_list_price_yoy":"NA","realtor_list_price_base":"NA","realtor_active_listings":1.333,"realtor_active_listings_yoy":-0.2,"realtor_active_listings_base":"NA","realtor_new_listings":0,"realtor_new_listings_yoy":"NaN","realtor_new_listings_base":"NA","realtor_days_on_market":"NA","realtor_days_on_market_yoy":"NA","realtor_days_on_market_base":"NA","zhvi":"NA","zhvi_yoy":"NA","zhvi_base":"NA","zori":"NA","zori_yoy":"NA","zori_base":"NA"}},{"type":"MultiPolygon","arcs":[[[29,-19,30,31]]],"properties":{"postal_code":"99336","realtor_list_price":393697.196,"realtor_list_price_yoy":0.0101,"realtor_list_price_base":0.6482,"realtor_active_listings":118.333,"realtor_active_listings_yoy":0.1873,"realtor_active_listings_base":0.296,"realtor_new_listings":61.333,"realtor_new_listings_yoy":0.122,"realtor_new_listings_base":-0.1151,"realtor_days_on_market":49.543,"realtor_days_on_market_yoy":0.0511,"realtor_days_on_market_base":0.841,"zhvi":371291.203,"zhvi_yoy":0.0093,"zhvi_base":0.6614,"zori":1536.014,"zori_yoy":0.0136,"zori_base":"NA"}},{"type":"MultiPolygon","arcs":[[[32,-32,33,34,35,-24]]],"properties":{"postal_code":"99338","realtor_list_price":559017.073,"realtor_list_price_yoy":0.0487,"realtor_list_price_base":0.3987,"realtor_active_listings":157.333,"realtor_active_listings_yoy":-0.0268,"realtor_active_listings_base":0.3934,"realtor_new_listings":54.667,"realtor_new_listings_yoy":0.0933,"realtor_new_listings_base":0.1602,"realtor_days_on_market":59.024,"realtor_days_on_market_yoy":0.0747,"realtor_days_on_market_base":0.2169,"zhvi":558426.68,"zhvi_yoy":0.0021,"zhvi_base":0.5527,"zori":1892.25,"zori_yoy":"NA","zori_base":"NA"}},{"type":"MultiPolygon","arcs":[[[-11,36]]],"properties":{"postal_code":"98930","realtor_list_price":374734.375,"realtor_list_price_yoy":0.0164,"realtor_list_price_base":0.5321,"realtor_active_listings":59,"realtor_active_listings_yoy":0.0057,"realtor_active_listings_base":1.4706,"realtor_new_listings":16,"realtor_new_listings_yoy":0.0435,"realtor_new_listings_base":0.672,"realtor_days_on_market":73.333,"realtor_days_on_market_yoy":0.3365,"realtor_days_on_market_base":0.3101,"zhvi":336600.557,"zhvi_yoy":0.0036,"zhvi_base":0.7755,"zori":"NA","zori_yoy":"NA","zori_base":"NA"}},{"type":"MultiPolygon","arcs":[[[-35,37,38]]],"properties":{"postal_code":"99346","realtor_list_price":"NA","realtor_list_price_yoy":"NA","realtor_list_price_base":"NA","realtor_active_listings":1.667,"realtor_active_listings_yoy":0.6667,"realtor_active_listings_base":0.313,"realtor_new_listings":0,"realtor_new_listings_yoy":-1,"realtor_new_listings_base":"NA","realtor_days_on_market":"NA","realtor_days_on_market_yoy":"NA","realtor_days_on_market_base":"NA","zhvi":"NA","zhvi_yoy":"NA","zhvi_base":"NA","zori":"NA","zori_yoy":"NA","zori_base":"NA"}},{"type":"MultiPolygon","arcs":[[[-27,39,-20,-30,-33,-23]]],"properties":{"postal_code":"99352","realtor_list_price":555191.667,"realtor_list_price_yoy":-0.0255,"realtor_list_price_base":0.4026,"realtor_active_listings":280.333,"realtor_active_listings_yoy":0.1648,"realtor_active_listings_base":0.7126,"realtor_new_listings":104,"realtor_new_listings_yoy":0.6082,"realtor_new_listings_base":0.3705,"realtor_days_on_market":53.128,"realtor_days_on_market_yoy":-0.2196,"realtor_days_on_market_base":0.2816,"zhvi":499335.634,"zhvi_yoy":0.0015,"zhvi_base":0.5356,"zori":1756.718,"zori_yoy":-0.0088,"zori_base":"NA"}},{"type":"MultiPolygon","arcs":[[[-21,-40,-26,-7]]],"properties":{"postal_code":"99354","realtor_list_price":499305,"realtor_list_price_yoy":-0.0478,"realtor_list_price_base":0.5925,"realtor_active_listings":83.667,"realtor_active_listings_yoy":0.1357,"realtor_active_listings_base":0.2844,"realtor_new_listings":34,"realtor_new_listings_yoy":0.275,"realtor_new_listings_base":-0.1935,"realtor_days_on_market":46.843,"realtor_days_on_market_yoy":-0.1018,"realtor_days_on_market_base":0.3532,"zhvi":418669.429,"zhvi_yoy":0.0059,"zhvi_base":0.6028,"zori":1679.169,"zori_yoy":-0.0114,"zori_base":"NA"}},{"type":"MultiPolygon","arcs":[[[40,-14,41]]],"properties":{"postal_code":"99330","realtor_list_price":"NA","realtor_list_price_yoy":"NA","realtor_list_price_base":"NA","realtor_active_listings":3.333,"realtor_active_listings_yoy":0.6667,"realtor_active_listings_base":"NA","realtor_new_listings":0,"realtor_new_listings_yoy":"NaN","realtor_new_listings_base":"NA","realtor_days_on_market":"NA","realtor_days_on_market_yoy":"NA","realtor_days_on_market_base":"NA","zhvi":706105.236,"zhvi_yoy":0.0587,"zhvi_base":0.8618,"zori":"NA","zori_yoy":"NA","zori_base":"NA"}},{"type":"MultiPolygon","arcs":[[[-34,-31,-18,42,-38]]],"properties":{"postal_code":"99337","realtor_list_price":492249.265,"realtor_list_price_yoy":-0.0129,"realtor_list_price_base":0.6451,"realtor_active_listings":134.667,"realtor_active_listings_yoy":0.2132,"realtor_active_listings_base":0.2222,"realtor_new_listings":45.333,"realtor_new_listings_yoy":0.0303,"realtor_new_listings_base":-0.3068,"realtor_days_on_market":54.662,"realtor_days_on_market_yoy":0.0744,"realtor_days_on_market_base":0.5613,"zhvi":432174.623,"zhvi_yoy":0.0089,"zhvi_base":0.6067,"zori":2057.056,"zori_yoy":"NA","zori_base":"NA"}},{"type":"MultiPolygon","arcs":[[[43,-3,44,-42,-13,-5]]],"properties":{"postal_code":"99343","realtor_list_price":"NA","realtor_list_price_yoy":"NA","realtor_list_price_base":"NA","realtor_active_listings":1.667,"realtor_active_listings_yoy":0.6667,"realtor_active_listings_base":-0.1239,"realtor_new_listings":0,"realtor_new_listings_yoy":"NaN","realtor_new_listings_base":"NA","realtor_days_on_market":"NA","realtor_days_on_market_yoy":"NA","realtor_days_on_market_base":"NA","zhvi":562677.959,"zhvi_yoy":0.0349,"zhvi_base":0.7029,"zori":"NA","zori_yoy":"NA","zori_base":"NA"}}]}},"arcs":[[[933246,630360],[-440,6205],[-491,1163],[-1543,1404],[-154,1034],[437,1524],[-751,2001],[363,1606],[1153,1277],[105,2335],[-403,866],[-2665,3011],[-971,2057],[-1064,6227],[-980,1678],[-1983,1922],[-800,1395],[-316,4809],[-1396,2561],[-387,1794],[92,3018],[-1253,2833],[-3132,2491],[-1474,4208],[-1123,2176],[-3574,3523],[-3734,5488],[-1154,1158],[-3830,2509],[-1316,1115],[-4196,1034],[-5728,-728],[-2263,1422],[-2994,1353],[-1810,1315],[-1195,1954],[-942,75],[-1159,-619],[-444,1099],[-826,361],[-1247,1322],[-2070,108],[-1965,-607],[-2840,533],[-4557,-26],[-2497,-594],[-1215,-965],[-836,-99],[-1677,765],[-1349,1328],[-2085,-493],[-566,989],[-215,2180],[-2102,2042],[-613,1992],[-1318,2242],[-720,2094],[-318,2430],[-51,2561],[-335,1590],[-1421,1294],[-2067,303],[-1799,-115],[-2230,247],[-1123,778],[-949,100],[-766,1327],[-1358,-1378],[-3709,-2635],[-1790,2691],[-752,1628],[-361,1807],[-778,1922],[-1021,1624],[-173,2381],[683,6248],[48,2665],[-335,1616],[201,4846],[1877,7367],[300,2463],[-27669,41],[-10265,-177]],[[794872,767449],[252,41390],[10310,47],[53,13105],[-141,477],[15,177],[131,683],[39,261],[246,26369],[-53,13543],[9676,96],[63,13665],[10198,-131],[20431,-252],[72,13713],[240,27458],[20452,-180],[11343,775],[216,12038],[96,2041],[34598,184],[2027,457],[2868,-300],[2002,268],[920,-277],[14888,-41],[9746,157],[3351,-5187],[935,-1688],[613,-1389],[1688,-5470],[-649,-109],[-499,-9088],[1934,-1182],[3169,-2712],[181,-757],[-909,-855],[-363,-9619],[103,-2976],[3038,-119],[593,-3185],[4459,-11158],[628,-1262],[8500,-13643],[563,-1924],[1106,-6582],[1159,-3747],[14642,-673],[-332,-13842],[10529,-870],[-1198,-12705],[19,-1206],[906,-4823],[-209,-2084],[-755,-1842],[-1408,-2009],[-174,-1225],[595,-972],[1326,-729],[262,-982],[-3122,1673],[-1453,113],[-1050,-374],[-1094,-963],[-2367,-3403],[-1580,-1017],[-5477,-2843],[-6350,-2898],[-1946,-243],[-1249,281],[-2235,1195],[-2297,775],[3277,10662],[-5076,435],[-8392,216],[-1017,1673],[-24,6122],[-2643,-1178],[-1031,-701],[-2672,-888],[-1917,-4655],[-818,-392],[-977,-2384],[-141,-1421],[-1387,-3266],[-2034,-1072],[-1501,-1139],[-1201,-1599],[-1539,-1065],[-1921,-2290],[-804,-1449],[-4191,-3814],[-1133,-757],[-2038,-2786],[-1002,-1019],[-2889,-5103],[-2246,-3375],[-1375,-1561],[2822,-1187],[2778,-2197],[1133,-430],[774,-18],[9337,2374],[2306,-315],[-187,-498],[-1335,-3436],[-2310,-824],[-2916,-898],[-1929,-1035],[-3381,-185],[-1674,-1969],[-1355,-556],[-1362,863],[-879,2139],[-1069,878],[-2503,-3009],[-1750,-616],[-40,-1458],[720,-2152],[821,-1416],[1226,-5036],[788,-2335],[365,-1962],[796,-1688],[1631,-5385],[471,-2418],[669,-1765],[430,-3036],[1347,-2290],[1946,-6751],[1539,-3941],[975,-5053],[961,-3286],[653,-1433],[-213,-1950],[-1765,-1664],[-1007,-1374],[502,-1419],[-651,-288],[-198,-2503],[352,-2583],[-594,-142],[569,-2132],[-191,-667],[-1496,-828],[-457,-1574],[-38,-1689],[-1223,-1848],[13,-565],[1552,-3025],[-229,-2125],[1225,-4068],[1478,-1204],[229,-2206],[1223,-2143],[1995,-1022],[315,-797],[-914,-3022],[27,-2012],[515,-1127],[1108,-1151],[1661,-937],[2134,-2696],[2655,-2612],[723,-2080],[-154,-3240],[-483,-658],[184,-2868],[471,-2806],[-64,-1099],[-816,-2755],[-560,214],[-1350,2009],[-1153,346],[-902,-586],[223,-4404],[-728,-487],[-864,-3487],[-1346,-1086],[4,-1295],[756,223],[706,-1696],[-635,-2972],[-1382,-2067],[-309,-2166],[-542,196],[-1359,773]],[[503985,680385],[-3607,2522],[-20860,14587],[-2736,1914],[-6761,7549],[-86,-22777],[-909,-268],[-2344,-2853],[-1917,-799],[-2614,-181],[-4341,-2172],[283,-2830],[1563,-3435],[1779,-5327],[441,-2201],[1168,-2796],[-157,-2886],[-12585,170],[-316,130],[-256,640],[1,6160],[-228,6265],[-468,2185],[39,1485],[974,3091],[113,1383],[-561,4116],[-31,1699],[-10543,-145],[31,-5182],[-863,-1212],[-1684,-980],[-2014,-1965],[-1541,-2492],[-2035,-662],[-108,-3203],[-1950,-689],[-5747,-1590],[-5302,-2132],[-9451,-148],[184,24286],[369,1372],[1035,1689],[368,1371],[9,5391],[-462,1198],[-959,1007],[-351,1311],[-24,10061],[-31708,-221]],[[376823,712821],[-127,55632],[25,54118],[-41066,-99],[-46,17188],[110,8133],[255,21123],[-164,3250],[219,1482],[22,5280],[-3710,3088],[-2217,1146],[-17944,7619],[-1211,513],[20,5709],[2112,-25],[1863,665],[10644,-242],[203,7405],[-22,13223],[-9176,58],[-1186,-392],[145,14702],[-9586,118],[199,21814],[-265,1923],[268,1007],[101,8615],[-1182,-1232],[-2467,-1760],[-3328,-966],[-2162,657],[-860,-1114],[-2110,-240],[-741,-384],[-2431,455],[-1695,-490],[-1246,-1283],[-1693,-652],[-1044,-1224],[-2025,426],[217,1046],[1909,2406],[71,718],[91,16815],[775,-84],[6913,-1820],[14470,-132],[672,1833],[2721,1212],[984,1510],[4787,942],[570,-786],[1303,91],[1046,-1195],[2794,402],[5663,-483],[3262,3949],[4809,395],[1848,-877],[873,288],[335,1248],[1080,936],[9309,4127],[1393,302],[1609,1905],[3595,1712],[1381,-216],[3824,2264],[2273,-136],[1605,-441],[1940,599],[181,-1575],[1347,-15],[455,-691],[1541,832],[1330,-32],[750,768],[1820,173],[881,-563],[1473,735],[1446,1493],[1617,-583],[1993,719],[784,-460],[1354,1040],[4580,-662],[25199,626],[4435,976],[2,100],[411,-6],[3046,502],[4204,25],[893,-5711],[849,-708],[1394,-3328],[-322,-1471],[658,-2997],[-160,-1520],[-602,-1703],[-361,-618],[-409,-1743],[63,-1051],[2061,-3932],[-124,-5058],[1559,-3768],[1939,-1573],[1366,81],[857,-527],[1032,-1573],[962,-4166],[-136,-4429],[689,-4638],[578,-1307],[1487,-5412],[-735,-2989],[-22,-1958],[-526,-2005],[-944,-923],[43,-1272],[1278,-511],[981,-1594],[9773,-5],[25769,59],[4642,-66],[407,25],[28823,-332],[7230,-79],[46637,-426],[17,0],[20460,63],[172,-1],[10213,-85],[20370,164],[20675,164],[-256,-1945],[-247,-26350],[32843,133],[-2519,-5021],[-7092,-12565],[-2061,-5919],[-63,-3055],[-1225,-1688],[-723,-3163],[-1644,-2736],[-2577,-3740],[-611,-1432],[-327,-3114],[2127,-268],[3935,822],[10242,-177],[155,-13872],[-204,-26463],[-10201,-18],[-11683,-10],[-3281,-13531],[1098,7],[-38,-6654],[-1763,-27],[63,-1078],[-520,-2292],[-1110,-3405],[-13227,13],[72,-13180],[-20489,140],[102,-13554],[-10295,178],[-91,13684],[-10260,87],[51,-13677],[-10155,252],[-359,265],[-1324,2717],[-5723,13697],[-211,639],[-3188,5297],[55,-22718],[-46688,1160],[-14901,99],[2921,-978],[5994,-2280],[1580,-914],[-596,-3221],[643,-2466],[4021,-8698],[-1293,-1529],[-1598,-334],[-6542,202],[-2374,214],[-1119,-994],[401,-2080],[-401,-1478],[-131,-2288],[257,-2703],[-287,-1987],[1214,-3501],[60,-1386],[-425,-2426],[730,-105],[867,-2679],[1726,-3710],[161,-1270],[970,-1179],[350,-2478],[-204,-1004],[700,-1514],[-981,-1958],[-230,-5257],[-1554,-4767],[-624,-3445],[325,-1878],[-54,-3186],[489,-2852],[-378,-3901],[561,-1913],[-11,-1658],[-2682,-4628]],[[336153,713816],[-1840,-2817],[-226,-2929],[710,-1929],[3900,-4119],[2422,-2219],[4679,-3492],[4031,-1930],[2465,-1355],[1413,-1293],[1877,-2793],[2066,-5374],[661,-4121],[134,-1911],[-85,-4668],[-373,-4199],[36,-3897],[577,-6634],[736,-3400],[621,-1832],[2933,-5362],[9152,-13556],[2849,-5114],[744,-1793],[1430,-2035],[632,-1512],[1164,-1608],[1393,-1737],[3858,-3993],[3512,-3091],[7008,-4691],[1269,-1125],[1461,-1898],[2125,-3368],[3109,-6049],[2476,-5903],[873,-2580],[1823,-4427],[618,-814],[1706,-1689],[4249,-3602],[2257,-1730],[4839,-4334],[2710,-3734],[788,-1711],[4799,-22400],[629,-5283],[38,-2497],[-161,-1752],[-597,-1782],[-1862,-3537],[-83,-1836],[317,-2254]],[[428015,524107],[956,-5558],[152,-1936],[-104,-3522],[-974,-10079],[5,-1485],[894,-9849],[1124,-5488],[10,-1944],[-689,-6860],[-621,-4145],[-511,-4424],[-197,-2422],[-1051,-4071],[-666,-6459],[105,-2555],[540,-3178],[258,-4584],[-296,-10304],[-404,-2486],[-1459,-4056],[41,-3674]],[[425128,425028],[-884,16],[-3030,44],[-1473,-2],[2,-567],[-790,-74],[-8,640],[-627,1],[11,2203],[-708,30],[19,9568],[512,13772],[-10241,-549],[-193,-33689],[-14283,40],[-5084,608],[-6348,1076],[-101,1362],[-1863,900],[-1511,-3789],[-12699,5454],[-387,-253]],[[365442,421819],[-3076,3236],[-603,-1029],[-2964,1708],[-2712,3816],[-1517,1753],[-1746,2559],[-364,164],[-1023,195],[-1734,-748],[-1417,15]],[[348286,433488],[104,2911],[2161,468],[308,314],[-2575,2701],[-2439,2572],[-1378,1733],[-1227,2252],[-5230,13075],[-765,1579],[-21211,33429],[-570,719],[-1746,1765],[-25978,23621],[-2851,2600],[-27369,83],[-11803,223],[-68328,576],[-1013,123],[-2522,-51],[618,-27903]],[[174472,496278],[-10109,484],[-21279,-891],[-8711,1656],[-394,-4249],[-146,-11555],[-1144,-6999],[21,-86097]],[[132710,388627],[-34,-6689],[-9,-6873],[-23,-13693],[-13601,-304],[-11894,13],[-1435,-1505],[-673,-3251],[2190,-768],[51,-504],[-776,588],[-4216,-179],[-37,-7891],[-593,15],[-1892,1852],[-880,-101],[-1289,280],[-219,-352],[567,-877],[-306,-360],[-3948,5776],[-1469,1747],[-870,308],[-1967,-1337],[-2268,-2323],[-2485,-1041],[-268,-1150],[-2383,-593],[-3,-1463],[-2519,-140],[-110,-13720],[-2498,-50],[-42,-6828],[-4997,-113]],[[71814,327101],[-5075,70],[-4532,101],[-75,2363],[305,1400],[2619,2971],[-3241,42],[-10355,186],[-7345,46],[128,6790],[-2907,19],[791,-1233],[362,-2389],[-1148,-3137],[-10165,85],[-19,-6930],[9304,-16],[-603,-2607],[-260,-4095],[-4254,-5522],[-569,-504],[-2599,3309],[-558,149],[-1180,-598],[-143,-1496],[1594,-1152],[1217,-2508],[-676,-5447],[-523,-1246],[-703,-9],[-261,934],[451,1303],[-30,2450],[-966,2015],[344,323],[-1068,540],[-1291,1579],[-2041,854],[-1195,-513],[-653,-1111],[-660,-1672],[211,0],[-1617,-1641],[-847,466],[-1104,1897],[1384,4150],[-2009,3677],[-2135,1890],[-198,2687],[1237,1887],[1036,203],[1243,-1248],[83,-3329],[983,-3541],[1455,-958],[775,548],[527,998],[-204,2144],[-2258,2906],[-278,1703],[1423,861],[1474,-891],[1145,-142],[1222,1165],[-150,1470],[-1229,2069],[89,1488],[898,4771],[1844,747],[-114,957],[-1700,1452],[-492,1179],[185,2063],[-187,2701],[328,2304],[-2057,1095],[-786,975],[52,993],[1538,930],[145,1289],[-616,1374],[-1378,855],[-1407,-1276],[-194,-2357],[-1356,-713],[-643,1043],[149,3739],[-2836,3622],[-843,209],[-41,-2002],[959,-2605],[-1119,-899],[-2274,1964],[-1723,-287],[-739,431],[-895,2156],[143,2969],[-319,896],[-38,25],[-116,76],[-39,26],[-1213,1003],[-542,1346],[-971,3695],[-845,1753],[-1738,2542],[-942,-618],[-911,-2562],[-766,-148],[-1037,876],[-14,3374],[-255,982],[-399,684],[-788,810],[73,1518],[2157,-678],[4874,-2632],[3658,-168],[4840,-156],[281,-1702],[2407,-78],[2754,-789],[1,-1036],[4534,-5],[-31,-3409],[5643,-730],[-1,830],[3871,-344],[6,-1524],[1210,243],[6,-1523],[4984,-355],[32,-1535],[5119,132],[288,2922],[2122,1442],[2707,-2297],[25,2637],[-1122,-98],[-923,284],[-1321,1646],[-526,1564],[-1225,1524],[616,-36],[28,1751],[1924,141],[-5,1062],[-1272,-353],[-574,1837],[-693,-8],[1277,1619],[385,1944],[2,2382],[-354,1576],[-4911,-57],[-1534,175],[1,273],[3191,-97],[-88,3205],[-1580,137],[-219,6091],[989,514],[300,6935],[-2456,47],[21,6514],[-2940,-6105],[-2204,-32],[96,13145],[5063,-4],[-2,605],[-222,91447],[79,769],[-35,8894],[300,1873],[-920,-176],[-1121,-1024],[16,-2093],[-2480,-2798],[-3280,-1132],[-1857,-299],[-1248,-1494],[-1488,319],[-7160,-306],[1287,2802],[-961,3673],[750,3886],[-1601,3679],[144,1189],[895,1603],[2168,1849],[1833,-630],[945,-918],[1521,1],[977,-790],[3121,-598],[1233,22],[816,-983],[1696,1239],[3009,705],[1905,-1325],[4994,1131],[1761,-85],[1840,-1346],[752,491],[33,427],[929,1324],[4040,-3423],[2056,-1215],[1569,-65],[5506,956],[3633,-3],[24,188],[700,4957],[1821,811],[447,2136],[2224,643],[1798,1476],[1927,2070],[1981,367],[1715,726],[19,-3879],[291,2514],[4625,4317],[1072,-107],[1905,1283],[2578,662],[2161,1047],[1201,172],[1682,-1707],[2065,-150],[2876,-944],[62,10650],[-483,13643],[186,26742],[34,1],[161,6714],[10297,-28],[-48,6555],[18818,-126],[74,313],[795,13600],[361,47755],[143,-83],[3551,-1553],[4364,-302],[1793,-335],[8511,-445],[2009,165],[4755,411],[3642,1482],[4572,2082],[2391,618],[3690,1152],[2312,504],[2624,1028],[2927,294],[5416,1334],[1936,234],[5076,229],[3873,2128],[4592,4084],[3099,2295],[3885,2510],[3871,1280],[3192,101],[3918,-330],[2020,-333],[5359,-1603],[1935,-1061],[2936,-2256],[2671,-1436],[1824,-698],[1250,-315],[3496,-253],[2014,273],[1567,698],[1613,211],[1975,961],[2337,570],[3294,1593],[3409,2724],[5273,5914],[3122,3177],[2777,3552],[3096,3517],[3541,4706],[5066,8904],[4252,8122],[1934,3049],[2011,2665],[2106,3270],[2017,3530],[3047,4866],[2318,2739],[2603,7732],[1536,3035],[3714,5252],[907,801],[2514,45],[3084,-1429],[1887,-1358],[2927,-3481],[1715,-1303],[2790,-3663],[2074,-4685],[2255,-3843],[5783,-9003],[3037,-3809],[3054,-3405],[1143,-2762],[93,-1406],[-373,-2311],[-1300,-2824]],[[428015,524107],[8341,46],[2471,1331],[410,2104],[-2155,5],[-18,3437],[860,0],[27,3431],[-2553,0],[55,7028],[5066,-138],[-1,3397],[5111,2032]],[[445629,546780],[1287,528],[1798,62],[500,-415],[6628,-8592],[1259,-691],[3825,-56],[70,-12290],[5060,4438],[30,-4971],[545,-729],[4009,-50],[545,-734],[10,-14642],[20287,87],[-176,-6527],[-2426,-1414],[-475,-651],[-144,-1004],[1136,-1026],[671,-1838],[3247,-1007],[7907,-76],[-146,-6765],[19824,-337],[2272,-3487],[1569,481],[2718,40],[-33,-3364],[13732,117],[-846,-1359],[-943,86],[-752,-896],[236,-1169],[-201,-2002],[842,-2019],[2102,1929],[1092,2475],[637,2937],[197,-2],[-1186,-4587],[-849,-1326],[-1889,-1676],[341,-883],[-684,-2797],[990,-1092],[-135,-5727],[1539,-3587],[4461,-2817],[288,-551],[-1130,-8929],[5921,-1],[148,33944],[11906,114],[2174,-152],[649,178],[9258,-470],[-7570,16907],[1855,-678],[2906,-2209],[1477,-420],[1651,4],[1738,-546],[343,-1195],[1290,-1430],[3439,-482],[1686,-996],[2004,-12],[1248,-576],[1316,-1358],[359,3111],[1400,4857],[-382,1327],[949,1584],[422,2911],[-2534,6107],[-21889,606],[-1510,655],[-631,832],[-2073,3827],[-1008,569],[-52,5356],[2044,1725],[2846,5009],[1036,1313],[1565,892],[1855,338],[1386,628],[16034,10457],[1236,1177],[637,1062],[2847,6002],[1189,2393],[386,541],[734,754],[10411,8699],[1043,1256],[2456,5169],[629,2075],[1350,7898],[3532,11455],[4640,9393],[532,1618],[156,3814]],[[620302,603907],[23675,27],[561,411],[399,-1037],[-73,-14125],[102,-1232],[-868,-6112],[885,-552],[1468,672],[476,-248],[-1157,-5064],[478,-2769],[1167,-2156],[1255,-1622],[975,-2619],[-300,-6163],[-1139,-3255],[251,-1149],[1334,-1951],[149,-807],[36,-6388],[7075,-73],[582,773],[-10,2486],[570,3193],[1370,2294],[1739,1641],[3920,7747],[1005,1217],[2047,5293],[1283,1604],[952,1893],[1313,1343],[2161,244],[575,398],[1170,2378],[833,1029],[1753,1061],[1941,2924],[643,3816],[-298,2624],[299,1787],[3125,2898],[2288,1514],[1292,2300],[1249,906],[4371,664],[2413,1331],[2068,-850],[2683,-580],[8867,-271],[1204,507],[1150,778],[2566,1113],[1084,147],[5111,-50],[-229,7374],[192,822],[1564,2641],[1639,2233],[256,1146],[-89,2766],[1165,3483],[201,1273],[-46,11868],[-1092,1829]],[[723931,639282],[3523,2180],[5889,2507],[752,90],[6444,-1124],[1183,637],[2015,-352],[2702,-2787],[1937,2594],[1621,1126],[1589,252],[860,743],[1505,4447],[2126,4628],[2269,5590],[3205,4992],[2139,4188],[315,1794],[-366,2277],[964,1834],[1161,244],[2777,-2313],[1417,46],[273,-2248],[-936,-2662],[-1352,-2080],[944,-5225],[1060,-4478],[485,-2669],[1092,-4611],[285,-1842],[1228,-4809],[1652,-7529],[1734,-5780],[811,-3252],[1619,-5600],[1285,-3258],[565,-2510],[-696,-2299],[-1283,-1030],[-1642,-2552],[2445,-4607]],[[779527,603834],[-3597,-3480],[-1649,-1805],[-1694,-3296],[-1440,-4823],[-2802,-7499],[-2479,-3981],[-2270,-1253],[-5808,-2344],[-2963,-2260],[-2033,-2654],[-2141,-4891],[-3798,-6092],[-3198,-5564],[-2084,-3376],[-1134,-3166],[-950,-5728],[-374,-6055],[260,-2839],[719,-4641],[137,-1811],[-304,-3972],[-988,-3367],[-2453,-7655],[-2075,-5421],[-756,-2295],[-236,-2622],[631,-3339],[-79,-844],[-1561,-4747],[-1019,-3590],[-680,-4395],[160,-2901],[441,-2786],[561,-1702],[712,-3307],[149,-2955],[13,-4476],[-284,-1342],[-1440,-1787],[-3634,-2107],[-1280,-482],[-3703,-2026],[-1421,-1275],[-1283,-1747],[-796,-1988],[-1419,-5646],[-1053,-3143],[-1208,-2687],[-2187,-2668],[-2029,-1239],[-3610,-1146],[-2409,-1492],[-1567,-2707],[-458,-2067],[-847,-11867],[-479,-1265],[-1358,-1781],[-1935,-415],[-3431,861],[-4300,716],[-6260,-628],[-4175,226],[-1825,-1251],[-2027,-6469],[-616,-1295],[-2780,-7364],[-697,-3216],[-286,-2569],[-462,-8172],[-712,-2695],[-1158,-1928],[-1428,-1656],[-2515,-2441],[-652,-952],[-426,-2630],[147,-1963],[456,-750],[2256,-4298],[663,-1915],[353,-1969],[-135,-5295],[-599,-2423],[-1208,-1966],[-3193,-2845],[-3158,-725],[-4372,1025],[-2939,288],[-3860,-881],[-4315,-1790],[-2668,-1812],[-2825,-2457],[-1442,-1642],[-602,-1848],[-375,-3141],[-461,-1480],[-982,-1892],[-3857,-2989],[-1631,-1686],[-909,-1735],[-1156,-5621],[-1767,-3198],[-3099,-3676],[-1322,-996],[-2340,-792],[-3781,-81],[-3280,-559],[-15412,-5489],[-17558,-4352],[-4554,-374],[-4569,-62],[-1441,-148],[-1773,-1077],[-3354,-4367],[-3330,-3380],[-1533,-1211],[-3727,-2384],[-2521,-2864],[-1814,-1511],[-3074,-2066],[-2294,-987],[-1084,-800],[-4118,-8637],[-2544,-8712],[-1307,-1683],[-765,-3355]],[[535422,258991],[-2007,2449],[-4230,3164],[-3427,1960],[-1800,1313],[-4047,3347],[-2820,1983],[-4661,2864],[-1235,997],[-2424,2198],[-494,567]],[[508277,279833],[-1750,2018],[-1600,1276],[-4228,2876],[-2271,1168],[-916,455],[-2869,1098],[-4329,1158],[-265,59],[-93,17],[-277,61],[-1327,293],[-2456,421],[-3891,242],[-3481,-183],[-4334,676],[-2562,1078],[-3568,2121],[-265,167],[-2863,1676],[-1781,477],[-380,105]],[[462771,297092],[-3504,789],[-1183,512],[-1008,488],[-1775,1379],[-1655,1979],[-770,1497],[-2516,3987],[-2602,3810],[-2534,3852],[-650,1266],[-1782,3018],[-1894,3272],[-699,938],[-2071,2115],[-221,218],[-187,148],[-1786,1512],[-79,30],[-4645,1782],[-1539,990],[-769,976],[-2074,3356],[-213,628],[-515,1840],[-57,5627]],[[426043,343101],[133,1848],[152,1020],[1522,6037],[2996,6631],[1304,3749],[1427,4598],[234,1093],[582,5035],[-155,3294],[-1504,15510],[-1587,9849],[-1213,3005],[-1525,2448],[-39,86],[-551,1326],[-852,4986],[-793,5707],[-1046,5705]],[[348286,433488],[-1000,119],[-760,333],[-852,-1244],[-998,-4718],[-761,-5034],[-1257,-6145],[-1112,-1765],[-51,-486],[6636,-123],[-922,-44930],[114,-149],[882,835],[680,-236],[3397,-6535],[2555,-3263],[349,-26],[7277,-57],[15,-6868],[-2900,40],[6484,-8277],[1025,1493],[547,-1186],[106,-1925],[3615,-4650],[4921,-3937],[1020,-788],[-21,-1072],[-121,-6609]],[[377154,326285],[-7,-218],[-248,-13507],[1230,-1340],[1812,-3213],[826,-2472],[555,-2042],[2916,-11312],[175,-680],[1726,-6054],[627,-1510],[-22,-366],[510,-1555]],[[387254,282016],[-665,-980],[-438,-628],[-1542,-1270],[-1691,801],[-1218,-983],[-1108,481],[-472,-705],[1051,-3773],[2016,-2123],[31,-1238],[716,-4553],[1139,-554],[-285,-2022],[997,-791],[-477,-1229],[579,-601],[-111,-1049],[877,-481],[369,-2013],[817,-258],[-542,-938],[498,-2070],[651,-100],[65,-1955],[1534,-3440],[1169,-733],[101,-867],[1161,-1436],[581,-180],[-859,-1076],[-666,-60],[-1433,1196],[-2083,2573],[-907,1578],[19,-9546],[-111,-31756],[1239,-1764],[2734,-2184],[1779,180],[2074,-1062],[2292,224]],[[397135,204631],[144,-10353],[-381,-1459],[-1018,-1007],[-2137,-493],[-2554,-1949],[-3392,-1674],[-1727,-274],[-9534,142],[126,11114],[-266,1053],[-543,875],[-687,506],[-956,173],[-7851,-250],[-124,-165],[-10327,-902],[-10022,133],[-10271,298],[-80,25198],[232,1229],[48,17835],[-259,955],[406,4630],[3346,3178],[6765,-775],[111,13481],[-127,16],[939,3563],[-484,2388],[-999,561],[854,3078],[-668,748],[256,1932],[-172,68],[33,665],[-1160,-304],[-1149,3051],[794,2393],[19,1530],[-485,1374],[-2038,2285],[-2733,-168],[172,1318],[-1189,784],[-3724,3551],[-2159,946],[-4146,4783],[-1827,665],[-2020,2072],[-802,0],[-827,1569],[-2003,-2880],[-966,-948],[-588,83],[-3314,2027],[-919,355],[-264,401],[-504,109],[-461,689],[-97,748],[-220,370],[-310,148],[-7475,-625],[-9799,249],[-291,-26937],[-10484,122],[-73,26824],[-20369,264],[-9804,-312],[64,10148],[4,2117],[-19,1382],[271,1935],[-2948,-408],[-545,297],[-11,441],[3740,2892],[265,510],[37,171],[304,2241],[45,6805],[121,27257],[10082,-163],[396,13635],[-10379,130],[47,27436],[35,26964],[50,13540],[127,-5],[-111,9980],[-26,3420],[-1415,40],[-971,-43],[-1323,-58],[-6354,108],[-116,7035],[-12,6798],[-13,3092],[-19494,-136],[-11029,-186],[-67,-3210],[-4,-137],[-19634,-17],[-897,-107],[-32,3481],[-2536,-38],[-4576,153],[-3057,-98],[-156,3266],[162,3230],[2,3316],[-5096,85],[-80,8239],[-1596,1932],[-371,200],[-1643,-754],[-1293,64],[-77,3613]],[[365442,421819],[22491,-23695],[-158,-559],[272,-1155],[-203,-4374],[-1084,-1511],[706,-530],[442,-688],[523,-536],[1075,-258],[816,-715],[336,-574],[265,-876],[143,-865],[-866,-2404],[92,-1226],[9,-245],[766,-102],[981,-2044],[148,-1288],[-1333,-3242],[-274,-1523],[530,-2071],[1713,-1392],[2976,-1340],[421,-2061],[-241,-2624],[-687,-2301],[-743,-309],[-1205,155],[-653,-2110],[755,-1748],[539,-733],[548,-617],[1638,-1040],[1373,136],[1152,-1066],[141,-1715],[-431,-1270],[-1461,-1414],[-687,-2249],[1274,-1386],[3039,-4990],[678,-1584]],[[401258,339680],[593,-4016],[1403,-3117],[-5704,55],[0,-44],[-66,-6335],[-70,-5919],[-868,-84],[-661,-509],[-731,-552],[-295,1],[-1465,214],[-1070,-231],[-628,-3],[-544,-30],[-1367,-75],[-2538,64],[-2980,42],[-990,-631],[-1169,635],[20,3431],[-2538,38],[36,2641],[-1933,805],[-539,225]],[[933246,630360],[-2362,992],[-2017,2187],[-1958,1359],[-2181,2099],[-1707,2119],[-1716,1312],[-3301,402],[-3227,-1423],[-2121,-1418],[-3045,-2408],[-2635,-1618],[-2308,-538],[-2305,439],[-1827,1142],[-5911,6096],[-1179,1665],[-1870,2096],[-1708,887],[-2357,272],[-4096,89],[-1863,-470],[-5422,-2637],[-7300,-3170],[-2049,-585],[-2329,-1362],[-2192,-1988],[-3112,-3498],[-1651,-2293],[-1524,-1695],[-1526,-2765],[-1578,-2209],[-1974,-1827],[-3797,-147],[-3313,367],[-2400,456],[-2858,686],[-3825,1575],[-10347,8183],[-3910,4182],[-4708,1564],[-2410,-64],[-2083,-1230],[-2075,-1981],[-1720,-2739],[-2371,-6530],[-1137,-1967],[-2138,-2818],[-2599,-4275],[-2214,-1548],[-6485,-2245],[-3346,-1710],[-3189,-1853],[-973,-1950],[-1971,-1740],[-1499,-1994]],[[723931,639282],[-531,778],[133,2685],[840,2082],[320,682],[155,413],[66,228],[-110,9627],[70,660],[767,2246],[-623,3523],[-199,977],[-338,22117],[-20450,34],[-60,12335],[1799,38],[1526,710],[1137,1705],[1087,834],[3315,611],[3339,1757],[942,2303],[988,1113],[1201,2169],[581,1783],[420,2684],[1131,2988],[-421,2114],[273,3592],[582,1945],[2012,3431],[1485,3875],[-1223,2502],[-32,6192],[34,26766],[20374,301],[29903,313],[20448,54]],[[427694,264358],[826,2252],[1663,2814],[1710,1462],[6093,2889],[-22,547],[30,3319],[-760,2],[30,3183],[4,325],[19,1327],[146,8832],[-2516,-26],[86,6010],[2517,7],[10,1807],[5710,-5164],[362,-246],[824,-368],[2805,-171],[347,1582],[1651,1250],[3845,-288],[4510,-1435],[5428,-1686],[102,810],[-398,990],[55,2710]],[[508277,279833],[-953,-2215],[-1447,-2497],[-2225,-906],[59,-1736],[403,-927],[630,-514],[1904,-430],[2080,-2826],[1614,-2754],[-706,-860],[-5634,-24],[-376,2],[-7,-1679],[-1885,5],[45,1307],[365,371],[-3293,24],[-2006,71],[-2573,-316],[-471,257],[-7,-1997],[-4231,488],[6,1828],[-816,28],[-1699,1],[-840,1],[-1222,1],[-1318,1],[-2990,2],[-2225,12],[-463,-1545],[-1466,-2223]],[[476530,260783],[-44,100],[1886,3673],[-1566,105],[-2101,209],[-1319,111],[25,-855],[-1307,971],[-2961,243],[-501,43],[-427,37],[-2,-866],[-3842,-114],[-1081,820],[-1213,-40],[-3989,-130],[-5061,-8],[-799,-2],[-4270,1],[-2501,432],[-166,30],[-45,8],[905,-1229],[-267,-2029],[-1322,-35],[90,-497],[1326,-1005],[1373,-352],[-245,-205],[823,-222],[-15,-1644],[-3447,606],[-464,939],[-608,-753],[-4460,782],[-1295,700],[-913,2853],[1919,271],[866,839],[2299,-928],[1154,361],[33,1950],[-4177,769],[-1233,-100],[-583,-555],[-489,-409],[-586,560],[-2429,292],[-4291,-257],[-875,-826],[-621,-1029],[-20,-40]],[[387254,282016],[202,-477],[1105,-3221],[267,-7],[8375,-54],[26,-10561],[1087,245],[-11,-474],[6696,-100],[2240,-37],[64,3313],[-280,541],[-636,1888],[157,2594],[814,222],[87,2243],[-647,-17],[81,3693],[4276,102],[2271,-68],[-201,719],[1107,863],[571,-1146],[2098,-1190],[-45,-2977],[6107,-118],[1122,-56],[510,-1083],[-182,-1002],[621,-3],[-715,-1070],[-1673,-368],[-47,-1764],[-482,-729],[2430,207],[0,519],[3087,-27],[-10,-1591],[-2555,3],[-315,-1056],[487,-603],[2361,-1395],[-10,-3616]],[[476530,260783],[-1830,-2660],[-107,-150],[-4533,-6440],[-1842,-2598],[-2779,-3967],[-3079,-4371],[-1899,-2724],[-2279,-3219],[351,-328],[-385,-4290],[-71,-14842],[441,-3122]],[[458518,212072],[-1850,-444],[-1847,-990],[-7259,72],[-9529,1794],[-9870,183],[-496,-2013],[-1895,-57],[-940,-521],[-1453,-4363],[-3191,-3874],[-1528,-2863],[-1877,-912],[-3199,1111],[-1214,880],[-1941,-1896],[-1177,-555],[-997,-1539],[-1259,-4417],[149,1721]],[[407145,193389],[1463,3942],[1102,966],[-2906,2446],[406,1529],[-359,2950],[404,801],[50,6757],[-5579,-58],[-3898,-2776],[-606,-1436],[-87,-3879]],[[132710,388627],[197,107],[7955,-87],[388,191],[842,610],[613,-755],[1210,-96],[19320,-223],[-97,-54190],[-5234,-6],[126,11458],[-2186,1578],[-1350,540],[-1475,-20],[29,-13563],[129,-13854],[-4998,79],[-12,-827],[-941,-946],[-733,-1560],[-1147,-1751],[-79,-321],[-19,-1410],[-2207,22],[-55,-10114],[-60,-9528],[223,-834],[-241,-736],[-37,-12935],[-5077,4],[-1710,12],[-3401,26],[-1640,5],[-17,-11832],[406,-683],[4596,-4883],[-2,-591],[-672,622],[-1775,2082],[-2147,2205],[-2875,4803],[-1753,3278],[-2798,2894],[-1966,518],[-2098,1732],[-1516,799],[-4190,-127],[-1887,258],[-667,426],[-2071,1598],[-1817,2938],[-1420,209],[-4126,2171],[-2221,386],[-4509,-118],[-2666,571],[-3039,2677],[-3299,4078],[-1338,1174],[23,3294],[-3420,788],[-6,12868],[-19,3342],[-7510,-22],[16,1704],[-2484,1647],[38,6792]],[[458518,212072],[-434,-1921],[-121,-5193],[2025,135],[2981,-234],[4861,-141],[192,-389],[69,-6718],[6322,-398],[667,-2244],[234,-1837],[-285,-4047],[-487,-2405],[751,-3981],[607,-1344],[324,-3210],[2436,-2579],[402,-4470],[665,-1180],[-2,-3119],[520,-2156],[-191,-3823],[-455,-3034],[833,-1762],[2695,-130],[1082,-2962],[976,-1352],[261,-1118],[610,1378],[517,25],[-1565,-7673],[693,-2000],[1992,-134],[-32,-6766],[1179,-1129],[953,-79],[338,1437],[802,-1249],[2353,863],[4416,-92],[-224,-20351],[-30307,612],[-105,-14011],[-20294,1292],[-305,-4684],[-1313,-4304],[-1975,-3400],[-1689,-1811],[-4962,-4511],[-363,-63399]],[[436165,20474],[-5124,2269],[-4177,-832],[-22749,-4533],[-4709,-938],[-16659,-8893],[-3615,-1929],[-3777,-361],[-29018,-2775],[-8763,-838],[-2896,-1644],[18,4364],[-1949,-689],[-816,113],[-1619,1313],[-709,1902],[11,8019],[60,6471],[68,7378],[5069,435],[373,88815],[-215,390],[10359,-328],[31085,-767],[-453,9327],[-315,1721],[402,17526],[202,13882],[10384,-372],[6632,-617],[898,-1075],[1448,818],[1569,-90],[240,28148],[1357,2156],[-1367,-15],[59,3553],[5733,-150],[1443,-163],[357,-1313],[964,-458],[1179,3095]],[[401258,339680],[5686,-20],[135,4],[119,5],[4210,-3],[1352,115],[2315,1663],[642,-1],[884,-1],[585,-41],[1258,-373],[-808,3552],[-19,1401],[2617,-11],[2518,-6],[49,-371],[1348,-81],[-152,-929],[-84,-1369],[2130,-113]],[[601678,609524],[2249,-1541],[1910,50],[4084,-3870],[487,-235],[9894,-21]],[[445629,546780],[-1369,1090],[-1507,3333],[-878,1003],[-2158,838],[-536,829],[-201,1427],[569,3709],[790,487],[594,-1681],[-928,-2235],[-288,-1511],[241,-979],[320,-233],[2835,506],[833,882],[2258,1187],[3108,-347],[2435,866],[833,-81],[1089,1054],[881,260],[1298,1460],[3588,2733],[1842,-205],[2933,2472],[465,981],[16760,124],[1581,-115],[19,-1595],[549,-2127],[-236,-1753],[1655,-5065],[2450,-1325],[367,-2265],[711,-1645],[1226,-4490],[1324,-2287],[512,-325],[1025,-637],[2718,1088],[2033,131],[510,1794],[-421,6454],[912,1262],[1473,-2797],[1950,-1083],[-28,15194],[6054,-70],[1400,-614],[1546,-1483],[1731,24],[2917,1981],[16152,103],[57,7945],[476,2696],[-434,2960],[6960,1],[599,-442],[2471,637],[176,525],[120,12902],[9663,-86],[395,-252],[241,-267],[3578,9359],[1630,5184],[228,2],[1531,4549],[1296,-609],[687,185],[636,899],[564,1751],[777,1568],[910,238],[14190,-3004],[2367,1189],[3547,-1306],[783,-566],[954,-2389],[715,-73],[2221,1404],[587,17],[3906,-2173],[804,95],[4229,3517],[2410,335],[838,-371]],[[535422,258991],[6744,-7069],[4867,-6067],[1599,-2257],[2235,-4641],[1702,-2772],[590,-1033],[3984,-5926],[3714,-6958],[2100,-3965],[1730,-2414],[3350,-7260],[2936,-7436],[605,-3077],[82,-2303],[-20,-208],[-210,-1925],[-924,-3720],[568,-3002],[1824,-4890],[718,-2335],[754,-3591],[1432,-4763],[3583,-8949],[2019,-6059],[1701,-6066],[329,-1844],[293,-5939],[-121,-2563],[-422,-2516],[-1358,-6412],[-756,-4051],[-266,-3644],[334,-3655],[1429,-4677],[1396,-8051],[-215,-2837],[-1215,-1230],[-4119,-2219],[-3067,-2357],[-1302,-1342],[-10090,-14757],[-630,-1010],[-1650,-2440],[30,-60],[-10339,-19181],[-8954,-9475],[-16653,-9915],[-15372,-14752],[-15924,-9241],[-7391,-1729],[-13604,-3184],[-12601,250],[-4269,1325],[-10356,3213],[-10077,4462]],[[336153,713816],[10059,-735],[30611,-260]],[[503985,680385],[6340,-4434],[22602,4077],[19519,-466],[7,-7281],[337,38],[37200,-201],[3320,-317],[10412,47],[-146,-15108],[-182,-25739],[-1136,72],[674,-3940],[1739,-4644],[345,-2984],[-647,-3760],[-964,-2331],[-1441,-2278],[-286,-1612]]],"bbox":[-120.147688,45.9155951,-118.081675,46.985405],"transform":{"scale":[0.000002066015066015064,0.0000010698109698109726],"translate":[-120.147688,45.9155951]}}
