{"type":"Topology","objects":{"foo":{"type":"GeometryCollection","geometries":[{"type":"MultiPolygon","arcs":[[[0,1,2,3,4,5,6]]],"properties":{"postal_code":"63501","realtor_list_price":176825.532,"realtor_list_price_yoy":-0.0541,"realtor_list_price_base":0.5726,"realtor_active_listings":107.667,"realtor_active_listings_yoy":0.1619,"realtor_active_listings_base":-0.127,"realtor_new_listings":31.333,"realtor_new_listings_yoy":0.093,"realtor_new_listings_base":0.1341,"realtor_days_on_market":62.426,"realtor_days_on_market_yoy":0.0137,"realtor_days_on_market_base":-0.2706,"zhvi":181253.487,"zhvi_yoy":0.0401,"zhvi_base":0.4693,"zori":672.917,"zori_yoy":"NA","zori_base":"NA"}},{"type":"MultiPolygon","arcs":[[[7,8]]],"properties":{"postal_code":"63544","realtor_list_price":374975,"realtor_list_price_yoy":"NA","realtor_list_price_base":"NA","realtor_active_listings":4.667,"realtor_active_listings_yoy":1,"realtor_active_listings_base":1.9344,"realtor_new_listings":0.667,"realtor_new_listings_yoy":"Inf","realtor_new_listings_base":1.6,"realtor_days_on_market":71,"realtor_days_on_market_yoy":"NA","realtor_days_on_market_base":"NA","zhvi":226958.469,"zhvi_yoy":0.0828,"zhvi_base":1.0713,"zori":"NA","zori_yoy":"NA","zori_base":"NA"}},{"type":"MultiPolygon","arcs":[[[-5,9,10,11]]],"properties":{"postal_code":"63549","realtor_list_price":259450,"realtor_list_price_yoy":0.6374,"realtor_list_price_base":"NA","realtor_active_listings":9.667,"realtor_active_listings_yoy":1.6364,"realtor_active_listings_base":0.3855,"realtor_new_listings":2,"realtor_new_listings_yoy":2,"realtor_new_listings_base":0.7436,"realtor_days_on_market":82.333,"realtor_days_on_market_yoy":2.4306,"realtor_days_on_market_base":"NA","zhvi":205712.781,"zhvi_yoy":0.0653,"zhvi_base":0.7335,"zori":"NA","zori_yoy":"NA","zori_base":"NA"}},{"type":"MultiPolygon","arcs":[[[12,13,-11,14]]],"properties":{"postal_code":"63547","realtor_list_price":"NA","realtor_list_price_yoy":"NA","realtor_list_price_base":"NA","realtor_active_listings":3.333,"realtor_active_listings_yoy":2.3333,"realtor_active_listings_base":1.3588,"realtor_new_listings":0,"realtor_new_listings_yoy":"NaN","realtor_new_listings_base":"NA","realtor_days_on_market":"NA","realtor_days_on_market_yoy":"NA","realtor_days_on_market_base":"NA","zhvi":226994.262,"zhvi_yoy":0.1434,"zhvi_base":"NA","zori":"NA","zori_yoy":"NA","zori_base":"NA"}},{"type":"MultiPolygon","arcs":[[[15,16,-13,17,-3]]],"properties":{"postal_code":"63533","realtor_list_price":229900,"realtor_list_price_yoy":"NA","realtor_list_price_base":"NA","realtor_active_listings":4.667,"realtor_active_listings_yoy":1,"realtor_active_listings_base":0.5183,"realtor_new_listings":0.667,"realtor_new_listings_yoy":"Inf","realtor_new_listings_base":"NA","realtor_days_on_market":62,"realtor_days_on_market_yoy":"NA","realtor_days_on_market_base":"NA","zhvi":241469.711,"zhvi_yoy":0.0852,"zhvi_base":0.8224,"zori":"NA","zori_yoy":"NA","zori_base":"NA"}},{"type":"MultiPolygon","arcs":[[[18,19,20,21,22]]],"properties":{"postal_code":"63548","realtor_list_price":168500,"realtor_list_price_yoy":-0.178,"realtor_list_price_base":"NA","realtor_active_listings":2,"realtor_active_listings_yoy":-0.4545,"realtor_active_listings_base":-0.263,"realtor_new_listings":0.667,"realtor_new_listings_yoy":0,"realtor_new_listings_base":"NA","realtor_days_on_market":57,"realtor_days_on_market_yoy":-0.3667,"realtor_days_on_market_base":"NA","zhvi":"NA","zhvi_yoy":"NA","zhvi_base":"NA","zori":"NA","zori_yoy":"NA","zori_base":"NA"}},{"type":"MultiPolygon","arcs":[[[23,-22,24,25]]],"properties":{"postal_code":"63541","realtor_list_price":106000,"realtor_list_price_yoy":"NA","realtor_list_price_base":"NA","realtor_active_listings":2.333,"realtor_active_listings_yoy":0.1667,"realtor_active_listings_base":"NA","realtor_new_listings":0.667,"realtor_new_listings_yoy":"Inf","realtor_new_listings_base":"NA","realtor_days_on_market":29,"realtor_days_on_market_yoy":"NA","realtor_days_on_market_base":"NA","zhvi":"NA","zhvi_yoy":"NA","zhvi_base":"NA","zori":"NA","zori_yoy":"NA","zori_base":"NA"}},{"type":"MultiPolygon","arcs":[[[26,27,28,-16,-2,29]]],"properties":{"postal_code":"63546","realtor_list_price":730592,"realtor_list_price_yoy":"NA","realtor_list_price_base":"NA","realtor_active_listings":4,"realtor_active_listings_yoy":0.5,"realtor_active_listings_base":0.1419,"realtor_new_listings":0.667,"realtor_new_listings_yoy":"Inf","realtor_new_listings_base":0.4211,"realtor_days_on_market":26,"realtor_days_on_market_yoy":"NA","realtor_days_on_market_base":"NA","zhvi":272912.782,"zhvi_yoy":0.1038,"zhvi_base":0.8791,"zori":"NA","zori_yoy":"NA","zori_base":"NA"}},{"type":"MultiPolygon","arcs":[[[-8,30,-7,31]]],"properties":{"postal_code":"63557","realtor_list_price":"NA","realtor_list_price_yoy":"NA","realtor_list_price_base":"NA","realtor_active_listings":1,"realtor_active_listings_yoy":0,"realtor_active_listings_base":"NA","realtor_new_listings":0,"realtor_new_listings_yoy":-1,"realtor_new_listings_base":"NA","realtor_days_on_market":"NA","realtor_days_on_market_yoy":"NA","realtor_days_on_market_base":"NA","zhvi":296137.024,"zhvi_yoy":0.0596,"zhvi_base":1.6082,"zori":"NA","zori_yoy":"NA","zori_base":"NA"}},{"type":"MultiPolygon","arcs":[[[-25,-21,32,-27,33]]],"properties":{"postal_code":"63561","realtor_list_price":186200,"realtor_list_price_yoy":"NA","realtor_list_price_base":"NA","realtor_active_listings":3.333,"realtor_active_listings_yoy":0.6667,"realtor_active_listings_base":0.2866,"realtor_new_listings":0.667,"realtor_new_listings_yoy":"Inf","realtor_new_listings_base":"NA","realtor_days_on_market":74,"realtor_days_on_market_yoy":"NA","realtor_days_on_market_base":"NA","zhvi":"NA","zhvi_yoy":"NA","zhvi_base":"NA","zori":"NA","zori_yoy":"NA","zori_base":"NA"}},{"type":"MultiPolygon","arcs":[[[-20,34,-28,-33]]],"properties":{"postal_code":"63536","realtor_list_price":344500,"realtor_list_price_yoy":-0.203,"realtor_list_price_base":"NA","realtor_active_listings":3,"realtor_active_listings_yoy":1.25,"realtor_active_listings_base":"NA","realtor_new_listings":1.333,"realtor_new_listings_yoy":0,"realtor_new_listings_base":"NA","realtor_days_on_market":36,"realtor_days_on_market_yoy":0.3585,"realtor_days_on_market_base":"NA","zhvi":"NA","zhvi_yoy":"NA","zhvi_base":"NA","zori":"NA","zori_yoy":"NA","zori_base":"NA"}},{"type":"MultiPolygon","arcs":[[[-23,-24,35]]],"properties":{"postal_code":"63535","realtor_list_price":"NA","realtor_list_price_yoy":"NA","realtor_list_price_base":"NA","realtor_active_listings":1,"realtor_active_listings_yoy":"NA","realtor_active_listings_base":"NA","realtor_new_listings":0,"realtor_new_listings_yoy":"NA","realtor_new_listings_base":"NA","realtor_days_on_market":"NA","realtor_days_on_market_yoy":"NA","realtor_days_on_market_base":"NA","zhvi":"NA","zhvi_yoy":"NA","zhvi_base":"NA","zori":"NA","zori_yoy":"NA","zori_base":"NA"}}]}},"arcs":[[[290581,243887],[3501,5585],[2603,-185],[1178,3500],[11063,407],[4770,2738],[1499,2190],[6984,-104],[2606,1038],[2588,-162],[3159,1274],[719,1935],[4821,3435],[105,2829],[4193,-34],[334,6402],[-2230,2337],[815,7890],[-3194,4947],[-5298,10481],[-2009,2088],[-4623,928],[-1904,-1095],[-3437,1977],[26709,16597],[9850,7738],[4660,1589],[14366,-4],[5323,-30],[6863,50],[13325,0],[-1507,3863],[2630,4369],[6219,4519],[1508,1375],[1946,3107],[1174,2883],[443,3276],[-154,1368],[-886,2671],[-3876,11219],[342,2491],[20,48],[3100,3776],[5659,5065],[1478,4180],[-2036,93],[-2656,-509],[-762,511],[-392,1230],[418,2022],[1409,2777],[2977,1557],[1368,1561],[2450,714],[259,3065],[-1946,2555],[-2057,1381],[-9225,5044],[-721,1116],[-630,2122],[-149,1979],[-429,2644],[-879,7750],[-795,2785],[-30,148],[-468,812],[-964,780],[-2216,1525],[-3829,2443],[127,656],[-2076,1308],[-681,1583],[-233,841],[-48,5134],[6138,3463],[-294,979],[-2496,4997],[1658,4435],[1554,3212],[8156,21999],[1615,5869],[5792,48],[10055,57],[2573,-329],[-64,5329],[6204,43],[12248,-4938],[6164,8],[6334,-3526],[143,-6567],[6011,137],[-99,5277],[4256,-3145],[4061,-1804],[4405,-57],[5098,1371],[143,3974],[-11095,-137],[-73,15214],[-13628,-219],[-355,7151],[-5717,127],[-34,3587],[-11796,15],[-80,4464],[6053,-9],[158,10071],[-3477,-1627],[-1890,1416],[-2251,-589],[-733,-2430],[-1091,-1046],[-1114,-3901],[-1748,-7532],[73,-10066],[-7514,-895],[-1593,-306],[-11124,1626],[760,1344],[-2163,3744],[-3323,1400],[6132,9100],[298,19936],[-473,3463],[-4086,11829],[-1759,5202],[-127,6752],[677,18895],[-228,0],[-329,20454]],[[409807,597930],[11631,129],[907,3122],[2960,2052],[4840,193],[16834,20],[22,16],[5083,39],[4830,812],[5733,3158],[6279,1134],[5383,1886],[1157,1758],[5191,-685],[4016,1513],[-318,-55019],[-6276,1008],[-3025,-3020],[313,-1988],[-8257,-1451],[149,-2165],[1783,-2773],[-4208,24],[141,-15871],[-5809,-26],[60,-4857],[-2155,93],[2284,-1808],[573,-3240],[4054,873],[-144,673],[1631,3531],[11209,296],[-50,4340],[6120,122],[1191,-410],[6197,490],[11381,101],[649,5276],[86624,1086],[121,10318],[43359,402],[30,14602],[3374,-1486],[484,92],[-428,-2401],[2087,-2467],[-831,-1272],[3484,-1745],[1996,-5274],[25793,239],[-272,30603],[36747,426],[143,-30436]],[[704877,549963],[-44,-9445],[195,-478],[4039,-3132],[-1551,-1604],[922,-3741],[2150,-595],[-405,-1576],[873,-4645],[2283,-632],[1350,-3432],[1398,-4132],[1682,-1569],[117,-2437],[3346,-6098],[2465,-3028],[-3529,-1442],[1243,-4214],[1479,671],[1801,-3629],[-294,-4363],[1448,-4423],[-667,-2569],[3733,-1550],[8090,-18619],[1497,-5327],[2305,-8228],[850,-6079],[1182,-2544],[6251,-8607],[-18132,1984],[-7657,-1474],[-5955,-473],[-12021,97],[110,-6359],[-6647,-79],[77,-14008],[3008,-99],[-16002,-151],[-2248,1095],[-3232,-1153],[-11515,106],[29,-12459],[2927,-17],[-1617,-1104],[25,-2020],[4988,-948],[114,6257],[27110,239],[76,-5207],[-2987,6],[43,-5857],[-6159,686],[97,-3518],[6390,-1545],[5636,-77],[530,-34530],[201,-807],[979,-535],[23624,-327],[278,-20516]],[[731156,329703],[-438,4],[297,-41352],[-13250,68],[-11329,-279],[-80,-3629]],[[706356,284515],[-6388,4040],[-4762,244],[-103,4740],[-2592,363],[-8538,-300],[-2106,24],[-34,-5137],[-42650,-194],[-51,-10000],[-5791,-143],[-6973,47],[-46,37],[-17247,10],[-57,-10231],[-28388,136],[-8179,116],[-577,-212],[-54,-4555],[-680,-1031],[899,-3517],[-759,-447],[3240,-1518],[848,-2649],[1922,-2306],[811,-2702],[2666,-1817],[-39972,629],[-15,-5153],[-5964,-34],[-5026,-963],[-7685,-3123],[-5004,-1494],[-3541,-2129],[-5159,-23],[486,-26045],[-1264,4971],[-223,3236],[-6266,495],[-569,2011],[-3334,2884],[181,10505],[-12790,19],[-1966,868],[-3710,-1706],[-46,-9228],[6035,20],[-292,-14453],[541,-1053],[-33439,-111],[1981,1375],[333,3787],[3740,1656],[190,1930],[-4051,1026],[-6280,470],[-19330,-139],[-1683,-10322],[-35224,189],[-278,-6]],[[391143,207602],[-42714,-186]],[[348429,207416],[-12134,-108],[-15491,-230],[-3178,1780],[-1257,3654],[-1673,2466],[278,2674],[-1577,1646],[-3650,1150],[-1041,2077],[-6056,2023],[-3514,4490],[-3282,2070],[-866,3186],[-2166,3291],[-2669,1716],[-343,1708],[771,2878]],[[240896,251326],[-4200,-1569],[-1364,-5098],[-4655,-5974],[-5347,-4242],[-25567,-15165],[-2105,13875],[-717,1096],[-6576,5427],[-2030,79],[-7178,-478],[-5571,-1207],[-2016,-2000],[-3377,1329],[-447,-852],[-5729,-153],[-316,-8224],[-1628,-1957],[-23837,-207]],[[138236,226006],[-11258,-94],[365,25652],[-485,1943],[-2143,2265],[-7246,4254],[-1775,1875],[-379,1306],[137,5656],[-788,2732],[35683,587],[2091,-1012],[5596,763],[4374,2780],[1619,2260],[35,22209],[-820,2503],[-1992,2252],[738,4561],[862,1780],[-99,3265],[688,1598],[2568,1592],[-261,3665],[771,2739],[3839,5054],[3069,1297],[-21527,-205],[-327,5864],[-1055,3265],[1177,2517],[-237,6387],[1855,2568],[-12838,-49],[-1292,4559],[-1238,355],[-1271,2821],[1361,2963],[4225,3318],[-249,3485],[1813,205],[770,2536],[-1666,2315],[-2327,1216],[2026,783],[-1811,717],[-630,2507],[-3531,-582],[-237,4901],[-3596,2201],[348,6631],[1552,1355],[-2142,1565],[1684,1510],[-2429,3176],[139,3059],[-936,2938],[-1137,7072],[9700,42],[-787,4118],[864,3518],[395,32993],[-25215,189],[-23600,-334],[-3821,3864],[-431,4911],[1254,1197],[-416,3882],[1062,2281],[-1205,640],[407,5321],[-3904,3521],[-2810,6505],[-1548,4907],[-3040,3333],[-11231,220],[-431,19593],[15,811],[242,36],[24637,248],[3918,2569],[490,4143],[2513,-482],[5022,1831],[3845,-519],[-243,3007],[9220,134],[-565,20518],[94,5020],[-301,25659],[21230,248],[-594,3963],[189,5053],[-2751,5332],[1284,3150],[2168,973],[4423,3678],[2436,1320],[675,4577],[1981,3087],[-2395,-798],[-3336,3947],[-3613,-1978],[-1877,828],[-3050,-363],[-2141,2018],[-2267,45],[232,-3004],[-3141,-2206],[-5790,979],[-1462,843],[2916,3473],[-340,1131],[-4143,1401],[270,3062],[2228,2924],[695,2245],[3286,3492],[3183,1028],[1700,6097],[-2775,1438],[-2414,4375],[43,2903],[-1148,1755],[1769,1167],[459,2044],[-2470,2127],[1236,2895],[-3414,550],[-1475,2395],[2416,2352],[-2189,2162],[-823,3862],[-2329,1880],[-3026,259],[-3615,2398],[-846,4295],[276,1961],[-2538,2268],[-3247,-858],[167,2928],[5434,272],[3383,1975],[1201,2290],[-732,5844],[114,3937],[2230,1605],[2314,239],[1468,1425],[138,4280],[367,1745],[2889,3062],[3693,2312],[6557,6660],[3486,-1332],[4696,1616],[2247,-154],[5823,-2473],[8164,-827],[4786,903],[84,6882],[829,3849],[4484,2855],[717,2066],[-4406,4798],[1842,1113],[14497,-7008],[3942,875],[6132,-1808],[3269,-293],[2118,133],[1757,1230],[4725,713],[1446,-2360],[6407,-1564],[2410,14],[3737,-1150],[895,-1960],[3694,-1839],[3161,2298],[742,1876],[2030,1715],[1601,2],[3944,-1618],[3726,-4606],[4180,-1460],[-33,13242],[2157,2906],[5164,409],[2669,803],[-480,-2261],[1966,-3473],[492,-2442],[2833,-2663],[226,-4164],[2282,-2605],[97,-2875],[8228,-4629],[2185,-2698],[10148,611],[3612,-1875],[1594,1394],[57,7735],[788,918],[1898,-4305],[1880,-875],[2970,-3011],[1992,324],[2808,-2460],[309,-7281],[-3593,-5145],[-118,-2296],[-4957,-129],[-4098,-1196],[-4413,-5124],[-5976,554],[2305,-12985],[-3405,-5679],[1383,-2212],[-429,-3295],[1224,-2747],[4698,-277],[4330,-3862],[7248,-2448],[-169,-11082],[-73,-3851],[-4044,-4520],[-2631,-1166],[-527,-2561],[1156,-5434],[7127,-2865],[110,-3439],[1638,-2174],[2823,-1219],[5677,-3600],[5103,-232],[1473,-1327],[540,-5305],[-1675,-118],[-796,-3438],[544,-1838],[-2404,-3523],[-474,-1966],[809,-5986],[1007,-3028],[-554,-2208],[-2157,688],[-2182,-1393],[-2392,-4520],[-5808,-1307],[-2044,842],[-2520,-2365],[-3138,-1424],[-3938,-2709],[-3401,-5547],[25,-3616],[-1022,-1544],[3290,-4367],[-1321,-15],[-51,-5266],[-11971,-219],[-326,-35500],[12512,87],[11,-7098],[3670,-1623],[5015,-6002],[8070,-5177],[-2352,-3742],[-2303,-2156],[-696,-1925],[-2490,1903],[-2761,-457],[167,-8586],[1295,1338],[4610,89],[1278,-1540],[-1102,-1896],[1255,-1492],[2455,2093],[2612,-2635],[-354,-1767],[1793,-2199],[3504,-680],[3744,503],[5238,-2650],[334,-1651],[4486,-1437],[1210,-1847],[4745,-1181],[-1928,-936],[4819,-4267],[-16045,36],[3677,-692],[2364,-1316],[3445,-5372],[5732,-1365],[2913,-1950],[-1314,-4769],[667,-1743],[2288,-2093],[-4630,-5112],[-6096,-3859],[-2524,246],[-1545,2754],[251,1131],[-2481,1878],[818,1264],[-214,2484],[-1500,2835],[-7258,-1250],[-1265,-1473],[-4577,513],[-3238,1536],[-2258,-1442],[-3894,728],[-1617,-2816],[2569,-3033],[1077,-2836],[-680,-4030],[376,-2875],[-2038,-4443],[-35,-1553],[1423,-4124],[-1244,-2088],[-4562,-3123],[-2163,-3460],[2099,-4448],[-74,-3767],[-12064,323],[-4038,-1349],[-1810,307],[-315,4286],[-7390,4795],[1125,2896],[2276,1285],[1144,2760],[3459,234],[656,5343],[-1903,2704],[954,1862],[118,4507],[-7372,421],[-3713,2144],[-4614,-407],[-2578,-2363],[-384,-1793],[-2966,-2341],[-373,-1537],[-2749,-3327],[-1349,-3080],[-9831,365],[-4234,1341],[-212,-7394],[-2924,-6639],[-21,-5573],[1306,-2210],[7121,-6682],[2007,-1443],[3658,-1484],[1136,-1907],[18,-9530],[3171,-1342],[4134,180],[2584,2847],[27657,152],[3500,-3191],[471,-3731],[1155,-2106],[5261,-668],[-404,-7148],[-3805,-2081],[-1066,-3852],[-2625,-3080],[4713,-1896],[7155,-1690],[3036,-3554],[-324,-2343],[-2542,-5744],[-11406,-4],[-46057,19],[263,-4937],[-912,-358],[-131,-2401],[-1778,-3248],[-68,-4489],[-1258,-3400],[-2881,-1576],[-283,-2235],[-3002,-1677],[-280,-2561],[673,-4334],[7747,-461],[5690,-1312],[4794,-2064],[-882,-2710],[201,-5417],[1856,-3384],[3365,-3420],[304,-4039],[-3369,-1692],[-4816,178],[-4065,1040],[-1547,-1060],[-541,-1877],[-2297,-2139],[86,-5826],[2267,-2404],[1423,-2795],[2706,872],[3078,-1948],[3484,-314],[1285,-3485],[1355,-1317],[351,-2300]],[[706356,284515],[1393,-3577],[8127,-6126],[2771,-3401],[-868,-1180],[4030,-5142],[1157,-287],[1351,1701],[1829,-349],[-159,-1398],[2126,1103],[6193,31],[2080,-2213],[4019,-645],[467,-3254],[3160,-1165],[765,-1717],[989,2260],[7097,1243],[2825,-856],[-75,-900],[6769,-7279],[92,-2515],[1539,1141],[1981,-2862],[37831,38],[1599,211],[-8,20314]],[[805436,267691],[24571,62],[164,-10335],[6213,-120],[73,-30358],[-6112,-312],[-602,-20539],[25563,131],[-250,1053],[-72,9836],[3410,-662],[7295,3024],[11254,67],[2843,-2648],[7186,-9022],[-872,-1466]],[[886100,206402],[-15,-3030],[1770,-1362],[4588,-6160],[4296,-6548],[4228,-4169],[-858,-4081],[5653,-6519],[128,-2323],[2666,-3173],[-38743,716],[266,13133],[-1379,1414],[-1001,1662],[-3123,1233],[-6663,1463],[-1575,-80428],[-9565,151],[-4527,-2466],[-8972,218],[-4195,809],[-159,-4142],[1083,-3419],[-4121,564],[-3684,-1145],[-357,-2085],[-610,-142],[-4393,-7875],[-49,-81],[-34339,294],[-60780,714],[1821,-4444],[-1852,-3347],[3306,-5949],[-1322,-2043],[-7875,1902],[-36,-434],[-2867,231],[-84,-1025],[-2793,263],[-2019,-1227],[-2476,-3038],[-3243,-1474],[-19384,294],[412,15484],[-4231,-78],[-8754,30],[6,-4739],[-605,-379],[-13509,198],[-7757,185],[-180,1512],[-4892,322],[-1252,-1062],[-5180,186],[-9669,45],[-1343,-786],[-3530,864],[-8329,-82],[-25990,660],[267,9977],[-224,1221],[-24220,666],[-27964,720],[-5814,128],[454,3554],[-4371,160],[-5105,1439],[-3594,366],[-988,5918],[-2442,2189],[-4682,1276],[-2288,-343],[339,26562],[5829,158],[1744,3807],[2132,1111],[5531,1072],[5044,4068],[3894,-28],[-1043,2159],[-1463,5992],[-13060,-4563],[-5482,-3359],[-4427,-4644],[-7045,-11446],[-3694,-4201],[-3967,-2833],[501,23169],[-2082,-1392],[-4250,2039],[-5664,594],[-2151,1568],[-790,1517],[-1163,1455],[-3411,216],[-602,2652],[-2416,2505],[-17854,640],[-712,1166],[941,2299],[1538,1142],[2024,3222],[-1927,2642],[-1126,5561],[-165,3914],[-3195,2128],[-1183,4013],[-4123,63],[341,-1748],[-962,-24073],[-25196,891],[1293,2531],[-1182,4101],[-7613,6919],[-4183,2966],[-1407,3418],[-345,6139],[-8368,148],[-12415,-5510],[-2158,3632],[1496,1624],[191,1737],[-2393,3807],[-330,2161],[7543,-542],[3544,-3842],[1352,897],[3281,86],[634,800],[-318,4255],[2031,3573],[-736,2300],[-4764,2780],[-1556,2640],[-231,1979]],[[818099,329143],[6295,3166],[4602,3640],[7234,7370],[11029,6814],[7194,3630],[-159,17304],[-82,9926],[-720,77886],[21556,54],[249,3064],[13814,-59],[2190,1650],[650,3856],[-2022,3902],[858,5526],[-748,2184],[-3526,3230],[-457,1816],[-5648,2985],[-1239,2679],[-3768,1505],[4,28817]],[[875405,520088],[24332,492],[125,-25616],[36432,395],[703,-34419],[2049,-1579],[30347,258],[-1552,2392],[-304,18155],[21454,255],[301,-4941],[-879,-12350],[215,-834],[-5,-2554],[323,-10983],[-1444,-540],[467,-5666],[4227,-4463],[1666,-4121],[2209,-3204],[3928,-2886],[-8650,-182],[-4264,-1641],[-2656,-5014],[-2978,-1137],[-3626,-2883],[1707,218],[5155,-2018],[3153,-356],[-291,-3144],[-2075,-2234],[579,-1435],[-2083,-3427],[-1214,-4597],[-1517,-2360],[-6020,-5799],[-9932,-31],[562,-20432],[5126,-704],[870,-1868],[-786,-3627],[1300,-151],[-604,-3186],[-5797,-291],[75,-3514],[-7230,-2216],[-2786,406],[-4084,4829],[-23700,-202],[217,-30473],[37971,-1],[-198,-872],[-48,-9457],[-131,-20619],[16969,116],[3619,-2489],[4150,-3861],[-343,-21585],[-4628,126],[-7282,-556],[-5763,-2651],[-19046,-30],[13,-3751],[13244,-1627],[2776,-953],[-3643,-4204],[26,-30593],[-12338,-51],[2,-8436],[-1154,-1610],[-3568,-371],[-1426,-1444],[263,-8458],[-55497,-690],[-6318,59]],[[805436,267691],[16,25599],[20855,-4244],[2391,-713],[17154,90],[-389,2722],[-5154,-1422],[-1204,4021],[-2986,-174],[136,10510],[-3862,4648],[-2840,781],[-1548,1462],[-2667,-252],[-442,2028],[-3506,3460],[881,1065],[-3215,-133],[2568,2373],[-3912,1685],[898,2901],[-3977,2600],[3466,2445]],[[704877,549963],[74819,1085],[45,-10008],[71017,-108],[139,10384],[454,3347]],[[851351,554663],[2557,1015],[6151,-1202],[4983,6882],[529,1837],[2862,253],[1713,-1528],[3376,31],[1688,-2987],[195,-38876]],[[818099,329143],[-12873,133],[-1630,-921],[-672,-93],[-476,201],[-393,362],[-459,233],[-70440,645]],[[502453,989810],[46031,1124],[27315,858],[46439,1459],[1948,61],[49120,1543],[2862,-42],[915,66],[11283,253],[14914,333],[162,-2],[10096,-93],[33880,606],[24427,436],[12172,218]],[[784017,996630],[4990,-1646],[1388,-2371],[-4768,-2857],[138,-28100],[-13747,-92],[-3440,-2853],[-26,-2456],[-5700,-2373],[6104,-5693],[227,-1349],[3632,-2612],[1957,-3023],[3445,-2773],[6566,-6612],[299,-5587],[4742,-1418],[2178,-1378],[-351,-1190],[-5467,-5074],[4219,-2059],[-890,-1879],[-1876,82],[-1548,-3158],[-3629,-998],[-4571,-3671],[-4495,1775],[-7481,-2465],[-120,-4897],[3339,-66],[1022,-8742],[-840,-2101],[-34,-9641],[6752,64],[4383,-1207],[2543,-2667],[3158,-2173],[1279,-3317],[-1557,-989],[-948,-3181],[194,-3509],[5402,-4394],[-672,-1562],[2433,-1511],[-1351,-958],[2209,-1655],[-1313,-579],[1376,-2061],[-6079,-648],[-10063,-5215],[-11375,-5222],[-2252,-315],[54,-5323],[-6011,88],[20,-5320],[-18783,-113],[385,-1640],[-389,-20121]],[[738675,805825],[-1654,-1066],[-3836,1036],[-4375,-96],[-1558,2629],[-2178,-881],[-2025,936],[-3311,3620],[-5821,-3462],[-3808,-72],[-3121,1344],[32,-2195],[-2030,-332],[-4265,858],[73,-3244],[-1063,-1163],[-1464,-2112],[509,-4482],[-1287,-3223],[-5427,1387],[-3758,-147],[42,-1412],[-4870,588],[-7208,1476],[-892,-903],[-3623,2938],[-4769,-1131],[-2127,790],[-6855,-947],[-2972,1227],[463,4889],[-3094,4505],[-771,3983],[-5011,2926],[-6517,-118],[-1434,-2761],[-215,-4743],[-4898,-204],[-3349,1048],[-5391,4059],[-1936,3355],[-4093,3070],[-2875,3684],[-6727,434],[-2587,1156],[188,-20072],[-1054,-1418],[-3475,876],[-227,2039],[-4297,1439],[-1012,2220],[-2613,2053],[393,2136],[-1568,133],[-5394,5416],[-6954,2043],[-946,-603],[-3852,1244],[686,1729],[-593,2655],[-15,92],[-3164,-29],[-1157,-10]],[[571545,825012],[-2164,4679],[-1322,99],[-10161,9357],[-6204,6512],[-3927,-21],[679,4699],[28990,247],[116,39202],[-646,38349],[-12773,-65],[-4506,-6157],[-3266,-2473],[-3877,-625],[83,-11543],[-10831,-74],[-866,-186],[-980,-311],[-2557,3221],[-2838,1820],[-2783,715],[-10119,1301],[-3584,782],[-3312,1612],[-15524,10690]],[[499173,926842],[1275,433],[1832,34],[-216,11151],[4036,1727],[3421,5047],[1572,189],[251,3282],[-2560,2866],[-1062,8465],[1668,3508],[-7772,4019],[-479,20308],[1314,1939]],[[406679,952055],[1705,143],[5046,-2250],[1668,-2854],[1165,-3583],[-540,-2957],[1953,99],[3373,-1218],[2144,316],[1489,-2025],[3407,-1722],[3209,652],[2791,-1181],[1425,-2046],[2647,-1277],[4609,-353],[5870,2767],[1806,1564],[3567,-388],[3518,747],[2329,2763],[3725,-414],[-913,37575],[10831,1199],[-313,-14440],[3963,-21983],[1196,-2549],[6307,-5830],[3236,-1611],[6037,-1495],[4748,-2521],[496,-341]],[[571545,825012],[-3191,-36],[-8373,-71],[-2426,99],[280,-1380],[5776,-9453],[73,-1543],[-3400,-1609],[-7502,-4551],[751,-1415],[-890,-2571],[1035,-5496],[-668,-2612],[-34482,-420],[-1656,5683],[-1928,11331],[394,2135],[2918,4986],[6592,6665],[-47420,-633],[4420,-36239],[-2840,687],[-4135,8578],[-8633,3983],[-899,1102],[-7423,2106],[-3595,-1294],[-1446,1294],[475,4332],[-6753,45],[-2695,-2399],[-2857,-973],[973,-5299],[-3471,-3687],[-855,-10174],[-3134,-3249],[-7315,-55],[-2758,-1180],[-4847,1204],[-40683,-818]],[[378957,782085],[1199,2033],[4336,2622],[4298,-550],[1719,2880],[-3517,-98],[1914,2848],[-820,3107],[-2502,744],[-625,2750],[-3908,257],[429,2460],[-1290,2912],[820,1294],[6329,1717],[743,1779],[3361,-355],[1680,1100],[-3439,1683],[-312,1261],[5198,3626],[-665,1617],[-4535,-1747],[-2306,-34],[821,4207],[2931,2071],[-4456,1909],[155,3689],[1016,420],[470,-2167],[2463,1295],[156,3235],[-1407,2394],[585,3691],[977,1261],[1837,-1099],[-1524,-3334],[2307,-1940],[1407,-130],[429,3753],[1876,2752],[120,2502],[154,2027],[1408,-33],[469,-2330],[1719,582],[860,3301],[2698,582],[2697,-2006],[1682,-2653],[2815,-130],[-235,5728],[4692,4271],[3911,2330],[1485,2297],[-1054,3980],[3050,1532],[-1056,2466],[-2659,128],[-548,-2481],[-1758,-1127],[-2192,777],[40,1357],[2503,828],[508,1618],[-1994,1326],[-6101,-63],[3480,3170],[940,4272],[-508,4659],[-3170,-1198],[-351,4078],[1683,2329],[-4851,2394],[6963,3009],[2738,-227],[3872,-3979],[3481,3430],[5789,1520],[-2229,1457],[-3402,4109],[-5006,-65],[-1214,-1909],[-2033,-98],[-783,2946],[-6689,-130],[-2348,1748],[-4967,1455],[-1683,1941],[-2308,-646],[-5163,1616],[2055,3969],[-4285,-215],[-4225,2522],[-3757,3137],[1721,1457],[2074,-2297],[4068,1004],[-2778,3558],[3755,-31],[5321,7055],[155,3753],[2231,4724],[3364,2363],[2075,-1424],[1605,2913],[2426,-65],[1644,-2233],[78,-2654],[2544,1004],[-313,5274],[2230,6084],[-665,1423],[548,3818],[-4264,4756],[-3490,1472]],[[409606,700583],[148198,1369],[570,8],[3354,-5840],[1167,-4035],[-102,-5572],[9655,235],[4051,-229],[-883,-5013],[-3496,-10185],[10096,168],[3363,-5135],[3735,-3262],[1717,-670],[3486,-5000],[182,-6246],[5315,122],[-645,10949],[-4049,213],[-68,7472],[1051,1763],[18532,304],[9516,498],[8085,-30],[168,-31144],[47673,399],[-127,14207],[4577,-3005],[3156,-2753],[-82,-1175],[4727,2094],[3078,512],[109,-74],[327,-567],[3389,803],[5295,-2544],[74,-7477],[12211,433],[36790,653],[-74,15092],[6156,409],[-149,15632],[-1988,-25],[-6923,2493],[-4007,700],[-2999,2133],[-4636,1830],[-4860,3121],[-493,4070],[-4760,1481],[-450,8896],[6015,2410],[337,1476],[5268,2818],[79,9638],[-729,30610],[19586,224],[4722,-1687],[4892,-5020],[4519,-416]],[[773307,738714],[3579,-3611],[-115,-1240],[4160,-2667],[1278,-3439],[5445,-4088],[-275,-2331],[4076,-4253],[3684,-1150],[2459,-7182],[314,-2126],[2595,-3370],[9443,-3131],[2199,-1046],[3256,-4801],[2618,-1608],[921,-7834],[17293,23],[91,-4033],[1502,-865],[5636,2136],[449,1526],[2444,610],[2395,-696],[110,-12881],[379,-2685],[1649,-2916],[8017,-7623],[3237,-2416],[7640,-2032],[4428,-2261],[1071,-1702],[1577,210]],[[876862,649232],[4797,-1042],[2606,-2846],[2261,-6469],[4670,-1712],[-2115,-1460],[-861,-2279],[8,-4613],[-858,-1459],[-3919,-1954],[-6474,-177],[-1677,-1424],[-4932,-704],[-14491,-157],[-182,-3052],[-2530,-1183],[-4206,714],[-202,-12663],[210,-3881],[35,-21189],[2734,33],[-477,-22039],[92,-5013]],[[409807,597930],[-343,41296],[2503,48],[1000,7],[1446,2841],[3025,1271],[-4740,1582],[-1016,1416],[-863,3614],[1934,6894],[-2184,3297],[1130,1650],[1965,-1541],[98,3066],[2077,725],[-1565,1280],[-4021,7576],[1556,3759],[-1346,1222],[-1438,4789],[1031,638],[2927,-1567],[1919,3524],[-5952,6001],[-430,1326],[3044,1976],[157,2166],[-2498,2589],[383,1208]],[[240896,251326],[3175,485],[4443,-3231],[1778,-588],[2505,812],[5450,-2744],[5195,3188],[2511,152],[2074,-1418],[4304,134],[739,-1040],[3087,-413],[1369,-1341],[13055,-1435]],[[348429,207416],[-81,-5583],[-945,-24761],[-6836,637],[67,-1274],[-5680,-1763],[-4308,1137],[-635,1521],[-3398,300],[-3027,1612],[-2900,-3806],[6,-2054],[-4634,-3447],[-7538,1208],[-4703,4041],[-5853,3959],[-1835,3448],[-5408,-50],[-2109,-3641],[-2373,-2438],[-2091,648],[-963,1907],[-5129,3374],[-4391,-2757],[-2871,-287],[-6787,1117],[-2494,-373],[-9736,-232],[-1600,-2097],[-1183,-6281],[-435,-7303],[-2256,-4204],[-1793,-876],[-8721,-1266],[-2492,-1584],[2693,-5881],[2068,-2980],[-117,-6481],[1250,-2650],[-435,-1596],[983,-3052],[209,-8341],[841,-1679],[2744,-1783],[-409,-3390],[1763,-1288],[-1536,-2756],[-1646,-2032],[-4224,-2023],[-2563,-2688],[-1760,-519],[-727,-3800],[-3096,-2449],[3205,393],[4300,1570],[4565,-474],[-1514,-1884],[-4164,-4472],[-5258,-3262],[-1096,-2741],[-4421,-4417],[-1484,-3241],[-2725,-3322],[-5568,-3688],[-6865,-186],[-210,-4521],[-308,-6448],[3760,-1253],[14,-2646],[2248,-898],[-359,-9236],[6082,-696],[-395,-10109],[-22324,577],[-2177,-280],[-1229,-30979],[-24899,236],[587,6640],[-5732,1878],[-7716,4641],[-3686,3278],[-1945,433],[-1835,-1168],[-3222,3792],[-3640,3093],[-4450,2517],[-4532,1595],[-5475,-1701],[-1560,338],[-3098,-3125],[749,-1407],[-8980,-5090],[-2870,-1773],[-3180,-2764],[-12768,4547],[-2271,-2607],[-3758,-2024],[912,-3811],[-1213,-3033],[-3017,1198],[-2729,-2066],[737,-1299],[-4878,-7899],[-500,-3066],[-19866,516],[-3318,67],[908,4237],[855,1897],[-357,3194],[-1758,2759],[2062,1282],[-1842,1133],[1290,887],[1231,5201],[1357,1614],[938,5948],[-1668,8462],[264,4669],[951,4192],[-3768,4067],[2292,1867],[-6782,30],[-14547,958],[-698,-489],[256,10885],[-24537,2147],[719,19778],[-215,215],[-2500,-310],[-9710,2426],[964,20225],[643,16538],[-1237,4135],[6973,-526],[521,2651],[461,949],[-43,1607],[428,4987],[11478,-925],[563,2657],[2330,2290],[16110,-1320],[1148,25699],[12193,-939],[17746,-417],[4374,-1196],[1942,-1455],[5163,218],[5498,1091],[1904,1032],[4658,-86],[-1018,-22223],[-742,-1753],[-4268,-1887],[1264,-2590],[7704,-3470],[746,1255],[-149,3603],[1503,3248],[-981,1358],[1786,2111],[1993,6844],[-1564,1407],[-751,3155],[2106,1489],[1450,3586],[1071,671],[-414,2718],[3109,646],[1138,1178],[-156,3174],[-1260,1192],[2019,4044],[-947,2153],[753,2342],[1860,1926],[-1633,1181],[935,1470],[-226,3012],[1136,3753],[21211,-37],[-186,791],[280,14200],[87,3907],[-491,1418],[9816,7537],[-1043,4931],[-1719,2819]],[[738675,805825],[13,-8634],[-6223,-119],[120,-12483],[15303,-2289],[559,-5234],[1998,-1509],[-946,-4028],[1140,-4785],[-210,-1840],[4274,-4259],[8047,-3773],[2253,175],[528,-1811],[4522,-8298],[426,-2235],[2828,-5989]],[[409606,700583],[193,119],[1453,3624],[-701,6794],[4177,1522],[703,-3528],[2029,1586],[4529,1974],[1797,0],[2653,-4595],[2303,-842],[1444,1813],[821,2718],[5468,2523],[-39,1647],[-2147,1427],[-4255,1134],[-6521,2654],[-4763,3397],[586,4498],[2812,1422],[1484,-841],[-1250,-1488],[897,-2621],[2890,-1812],[1483,453],[-2263,2104],[272,2490],[1564,1425],[7511,720],[3734,1616],[-1927,1494],[-3583,-1356],[-2727,697],[782,3009],[-2343,2200],[-4413,-452],[-468,1811],[1484,1198],[-1822,804],[-3175,3305],[-6091,-95],[-392,3139],[-2422,-1684],[-3243,842],[-469,1359],[-2382,-33],[-2148,2007],[-2422,841],[-586,1585],[1016,2200],[-5585,777],[-4376,3590],[-820,2062],[4140,366],[546,4238],[2578,-710],[1718,1391],[196,1942],[-703,1164],[-6719,128],[-1446,581],[-937,3818],[-821,842],[-4533,809],[-3438,2005],[-235,1681],[-1747,2014]],[[784017,996630],[26121,467],[37677,1080],[40,1],[25217,623],[313,128],[42330,939],[6732,125],[339,6],[1831,-1955],[-144,-1883],[1522,-1509],[413,-2678],[3030,-5201],[2442,-2254],[6252,-4299],[2412,-2666],[-6078,-369],[-6022,164],[-281,4834],[-17934,58],[-252,-14069],[-1483,-1380],[-2944,-146],[-1735,-1503],[220,-3020],[3651,-4341],[2582,-1035],[-1901,-6525],[-1557,-1831],[1916,-3002],[1731,-1110],[-398,-2719],[750,-2094],[-2622,-1154],[-674,-1410],[-10266,8272],[5,-457],[-6009,132],[-187,-3612],[-4579,-73],[-4613,-3330],[-337,-6868],[9517,-477],[-87,-9321],[-145,-21453],[8283,359],[10244,-76],[-133,-25664],[12318,-175],[-112,-20325],[1754,-1392],[887,-3716],[2087,-274],[1920,-2032],[972,-3292],[-53,-9828],[-7622,423],[-6286,-918],[-7780,144],[-1762,867],[-2531,-2039],[-1703,-3552],[-8448,-1898],[-2672,-4109],[-3938,-4508],[-2474,-389],[-111,-7736],[5832,-4809],[7442,-9279],[-4846,1339],[-3064,201],[-255,-1322],[-6022,-2126],[-3917,-65],[-1138,-1927],[3274,-532],[-3086,-1701],[1856,-3080],[2282,437],[-256,-2535],[1918,-3421],[-1326,-1859],[2516,-1776],[4125,-480],[-492,-4293],[-1715,-2012],[772,-3090],[3533,-989],[-899,-972],[353,-13115],[2509,1776],[8010,-269],[1337,-548],[290,-3620],[-836,-3603],[20504,347],[6,-20575],[3175,-157],[-333,-2384],[464,-500],[-1347,-931],[-1196,353],[-696,-1837],[97,-15356],[-24959,-92],[-543,-1385],[20,-13051],[-6036,-344],[-69,-4604],[-6094,-303],[-535,-20701],[-6739,24],[-806,-5594],[100,-9593]],[[406679,952055],[-1543,-854],[-4940,-7099],[-11006,-1934],[-1393,-2572],[-1776,-905],[-2467,-3705],[-5369,734],[-5789,3067],[-5886,-2950],[-6424,-947],[-244,-2246],[-4392,-2288],[-3861,4227],[-1814,5677],[-4133,9839],[-1306,400],[-9461,-154],[-1766,-909],[-4068,-88],[296,37255],[7887,168],[36047,505],[32277,453],[4124,-106],[61921,1436],[1729,40],[25470,622],[3661,89]]],"bbox":[-93.000752,39.891374,-92.234141,40.5985615],"transform":{"scale":[7.666117666117782e-7,7.071882071882106e-7],"translate":[-93.000752,39.891374]}}
