{"type":"Topology","objects":{"foo":{"type":"GeometryCollection","geometries":[{"type":"MultiPolygon","arcs":[[[0,1,2,3,4,5]]],"properties":{"postal_code":"62548","realtor_list_price":174925,"realtor_list_price_yoy":-0.0633,"realtor_list_price_base":0.4531,"realtor_active_listings":1.667,"realtor_active_listings_yoy":-0.5833,"realtor_active_listings_base":-0.8904,"realtor_new_listings":2,"realtor_new_listings_yoy":0.5,"realtor_new_listings_base":-0.252,"realtor_days_on_market":128.333,"realtor_days_on_market_yoy":10.6667,"realtor_days_on_market_base":0.4392,"zhvi":160889.646,"zhvi_yoy":0.1094,"zhvi_base":0.5437,"zori":"NA","zori_yoy":"NA","zori_base":"NA"}},{"type":"MultiPolygon","arcs":[[[6,7]]],"properties":{"postal_code":"62682","realtor_list_price":"NA","realtor_list_price_yoy":"NA","realtor_list_price_base":"NA","realtor_active_listings":"NA","realtor_active_listings_yoy":"NA","realtor_active_listings_base":"NA","realtor_new_listings":"NA","realtor_new_listings_yoy":"NA","realtor_new_listings_base":"NA","realtor_days_on_market":"NA","realtor_days_on_market_yoy":"NA","realtor_days_on_market_base":"NA","zhvi":114724.262,"zhvi_yoy":0.1533,"zhvi_base":0.5283,"zori":"NA","zori_yoy":"NA","zori_base":"NA"}},{"type":"MultiPolygon","arcs":[[[8,9,10,11,-3,12,13,14]]],"properties":{"postal_code":"62656","realtor_list_price":144318.75,"realtor_list_price_yoy":-0.0711,"realtor_list_price_base":0.5585,"realtor_active_listings":27.333,"realtor_active_listings_yoy":-0.1717,"realtor_active_listings_base":-0.7961,"realtor_new_listings":26.667,"realtor_new_listings_yoy":-0.0698,"realtor_new_listings_base":-0.1395,"realtor_days_on_market":37.25,"realtor_days_on_market_yoy":-0.2423,"realtor_days_on_market_base":-0.5483,"zhvi":141277.421,"zhvi_yoy":0.0891,"zhvi_base":0.379,"zori":"NA","zori_yoy":"NA","zori_base":"NA"}},{"type":"MultiPolygon","arcs":[[[-7,15,16,-15,17]]],"properties":{"postal_code":"62671","realtor_list_price":"NA","realtor_list_price_yoy":"NA","realtor_list_price_base":"NA","realtor_active_listings":0.667,"realtor_active_listings_yoy":-0.6,"realtor_active_listings_base":-0.7215,"realtor_new_listings":0,"realtor_new_listings_yoy":"NaN","realtor_new_listings_base":"NA","realtor_days_on_market":"NA","realtor_days_on_market_yoy":"NA","realtor_days_on_market_base":"NA","zhvi":"NA","zhvi_yoy":"NA","zhvi_base":"NA","zori":"NA","zori_yoy":"NA","zori_base":"NA"}},{"type":"MultiPolygon","arcs":[[[-13,-2,18,-6,19,20,21]]],"properties":{"postal_code":"62634","realtor_list_price":197483.333,"realtor_list_price_yoy":0.3627,"realtor_list_price_base":"NA","realtor_active_listings":2.333,"realtor_active_listings_yoy":0.4,"realtor_active_listings_base":-0.4188,"realtor_new_listings":2,"realtor_new_listings_yoy":0,"realtor_new_listings_base":"NA","realtor_days_on_market":123,"realtor_days_on_market_yoy":3.7308,"realtor_days_on_market_base":"NA","zhvi":173852.358,"zhvi_yoy":0.094,"zhvi_base":0.5059,"zori":"NA","zori_yoy":"NA","zori_base":"NA"}},{"type":"MultiPolygon","arcs":[[[22]]],"properties":{"postal_code":"61754","realtor_list_price":257500,"realtor_list_price_yoy":"NA","realtor_list_price_base":"NA","realtor_active_listings":4.333,"realtor_active_listings_yoy":1.1667,"realtor_active_listings_base":-0.3603,"realtor_new_listings":0.667,"realtor_new_listings_yoy":"Inf","realtor_new_listings_base":0.2054,"realtor_days_on_market":52,"realtor_days_on_market_yoy":"NA","realtor_days_on_market_base":"NA","zhvi":191560.658,"zhvi_yoy":0.0141,"zhvi_base":0.4282,"zori":"NA","zori_yoy":"NA","zori_base":"NA"}},{"type":"MultiPolygon","arcs":[[[23,-9,-17]]],"properties":{"postal_code":"62643","realtor_list_price":"NA","realtor_list_price_yoy":"NA","realtor_list_price_base":"NA","realtor_active_listings":0.333,"realtor_active_listings_yoy":-0.8,"realtor_active_listings_base":-0.9108,"realtor_new_listings":0,"realtor_new_listings_yoy":"NaN","realtor_new_listings_base":"NA","realtor_days_on_market":"NA","realtor_days_on_market_yoy":"NA","realtor_days_on_market_base":"NA","zhvi":"NA","zhvi_yoy":"NA","zhvi_base":"NA","zori":"NA","zori_yoy":"NA","zori_base":"NA"}},{"type":"MultiPolygon","arcs":[[[-12,24,25,-4]]],"properties":{"postal_code":"62518","realtor_list_price":"NA","realtor_list_price_yoy":"NA","realtor_list_price_base":"NA","realtor_active_listings":1,"realtor_active_listings_yoy":0,"realtor_active_listings_base":-0.7376,"realtor_new_listings":0,"realtor_new_listings_yoy":-1,"realtor_new_listings_base":-1,"realtor_days_on_market":"NA","realtor_days_on_market_yoy":"NA","realtor_days_on_market_base":"NA","zhvi":"NA","zhvi_yoy":"NA","zhvi_base":"NA","zori":"NA","zori_yoy":"NA","zori_base":"NA"}},{"type":"MultiPolygon","arcs":[[[26,-25,-11]]],"properties":{"postal_code":"62512","realtor_list_price":119900,"realtor_list_price_yoy":-0.7915,"realtor_list_price_base":"NA","realtor_active_listings":0.333,"realtor_active_listings_yoy":-0.5,"realtor_active_listings_base":-0.829,"realtor_new_listings":0.667,"realtor_new_listings_yoy":-0.5,"realtor_new_listings_base":0.1556,"realtor_days_on_market":13,"realtor_days_on_market_yoy":0.3,"realtor_days_on_market_base":"NA","zhvi":"NA","zhvi_yoy":"NA","zhvi_base":"NA","zori":"NA","zori_yoy":"NA","zori_base":"NA"}},{"type":"MultiPolygon","arcs":[[[-21,27]]],"properties":{"postal_code":"62693","realtor_list_price":285000,"realtor_list_price_yoy":0.0885,"realtor_list_price_base":"NA","realtor_active_listings":1.667,"realtor_active_listings_yoy":-0.5833,"realtor_active_listings_base":-0.6711,"realtor_new_listings":1.333,"realtor_new_listings_yoy":0,"realtor_new_listings_base":-0.0495,"realtor_days_on_market":20,"realtor_days_on_market_yoy":-0.5181,"realtor_days_on_market_base":"NA","zhvi":260504.424,"zhvi_yoy":0.058,"zhvi_base":0.5462,"zori":"NA","zori_yoy":"NA","zori_base":"NA"}}]}},"arcs":[[[538847,103631],[2506,2102],[5155,-2908],[7480,-6824],[7,-27821],[10644,-227],[192,57389],[6278,5248],[173,-4907],[18857,26],[74,21771],[-2228,-1805],[-2577,-140],[-422,-2190],[-4773,-3113],[-9097,74]],[[571116,140306],[68,40468],[-6036,-1859],[-4468,-2261],[-8688,45],[-18,36291],[9,29071]],[[551983,242061],[13161,-309],[51699,-70],[10,15538],[-11620,13354],[-1596,-14],[-43,21784],[6658,61],[199,7416],[-13520,-185],[403,11646],[8424,2195],[3695,-1504],[1285,2297],[38742,-420],[33818,-455],[7953,-447],[3290,564],[1288,3696],[4399,-275],[-124,2691],[1828,2007],[-1493,2054],[3986,4105],[7099,953],[1949,-4472],[5603,-3470],[3691,30]],[[722767,320831],[-36,-8870],[-3,-13430],[-14,-11006],[8000,-461],[11433,-3730],[5616,-42],[280,-21869],[11847,7570],[11116,225],[231,-28816],[52222,596],[71,-28878]],[[823530,212120],[7,-10887],[44,-18019],[72,-16478],[181,-41077],[-6638,-102],[7287,-11104],[25,-12554],[9458,-5389],[-8545,-2],[-931,155],[24,-29251],[-25939,-802],[103,-28740],[-25860,-237],[-12994,-150],[-18630,-68],[-16175,221],[-3868,-149],[-65231,419],[-4614,52],[-13250,-37958],[-3721,2697],[-1772,5652],[-2061,2506],[-5699,3000],[-6068,1222],[-2379,-596],[180,23638],[-25972,495],[-25370,295],[-509,-86],[-26178,750],[175,43361],[-366,738]],[[538316,83672],[365,920],[166,19039]],[[290586,697732],[-13198,-243],[-7944,-146],[-146,-1617],[-1746,-5841],[-3179,-1599],[-1081,-439],[-666,-1598],[-82,-2691],[167,-594],[-166,-2599],[70,-2639],[-350,-2156],[-2636,-7370],[-14918,-265],[-6699,-136]],[[238012,667799],[-13027,-104],[-780,57892],[-13206,-163],[353,-29020],[-38947,-714],[-997,57636],[-39444,-500],[-347,28774],[-26336,746],[-217,14228],[-18879,185],[-2457,-1187],[-3702,1213],[-10317,3562],[-1545,2097],[-14733,7514],[197,-28336],[-53119,-784],[-509,28178],[425,14],[3,6327],[13135,-128],[-26,7769],[13295,-111],[68,-13225],[25311,908],[-3058,2044],[-8507,15594],[-503,6339],[-5332,1592],[-1781,2553],[20234,439],[-176,29004],[26269,-539],[342,-27671],[24412,193],[-237,17764],[5388,-1083],[3281,369],[40829,14713],[5421,4829],[7303,7445],[3327,4676],[9250,10208],[4060,18],[140,-14369],[17954,-269],[9016,179],[12088,377],[8794,309],[4292,4347],[777,-47602],[52698,892],[306,-22801],[13375,10586],[6735,7254],[5843,4101],[476,-27570],[-26351,-592],[316,-29223],[26489,84],[683,-43539],[189,-14150],[-26530,-359],[563,-28980]],[[396122,604438],[2696,44],[-24,2667],[5136,5319],[6589,2456],[6002,-673],[7644,96],[4265,-758],[3121,1179],[2174,-592],[7352,1350],[3242,-573],[4137,-5261],[4401,-2777],[12545,-877],[194,3378],[3872,-4132],[3168,630],[4215,-1239],[-647,38367],[3298,89],[250,7089],[4953,958],[83,5429],[5918,2892],[10098,-15895],[40676,920],[12589,466],[-366,22211],[-34,1992]],[[553669,669193],[474,5080],[19110,84],[8238,144],[24310,343],[333,271],[-195,14340],[13265,171],[195,-14848],[4030,0],[-2537,-3117],[-1704,-11224],[41228,427],[1987,-1929],[159,-3553],[117,-8991],[-20663,-156],[414,-42128],[7990,-24],[29086,30073],[5425,6751],[3062,2284],[5298,-5429],[1619,-2597],[8414,-2244],[11770,-235],[203,-29136],[6586,-379],[1309,-648],[15072,-331],[14931,971],[-177,10548],[13118,-535]],[[766136,613176],[442,-38979],[10369,166],[-3896,-6917],[-3367,-639],[-3014,-2359],[62,-4646],[-7482,-185],[-5118,-4975],[-78,-7149],[-3034,-1890],[-3904,-5099],[-2369,-1976],[-3739,-6716],[-454,-3254],[-1828,-2375],[-3574,-1051],[-4030,-3652],[-2324,-6573],[-2004,-1546],[-4323,1099],[-1623,-2463],[456,-1963],[-2433,-1902],[52,-6222],[3713,-38],[145,-29001],[52,-12796],[2077,-728],[2287,-5050],[4790,-6804],[1906,279],[6387,-2666],[2222,8],[46,-2201],[-10932,-394],[-8710,299],[-5,997],[-53205,572],[232,-58077],[53080,-580],[3,-405],[26900,121],[12,-15258],[5641,0],[66,-13590]],[[755630,356598],[-25351,-169],[179,-17318],[-80,-271],[-7582,-431],[-29,-17578]],[[551983,242061],[-24394,291],[-5028,1442],[2762,4131],[4,51731],[275,552],[6086,-10],[303,385],[50,14154],[-19697,70],[-489,64420],[-17228,22749],[-1407,-3094],[-21652,-36463],[-2501,-2837],[-8961,-8475]],[[460106,351107],[-873,7554],[-186,27091],[-6125,137],[-1211,1997],[-8768,189],[-4627,820],[-5558,2705],[-1037,1903],[-5481,1458],[-2326,-1051],[-3447,911],[-9722,7933],[-9841,-509],[-332,-1504],[-1991,-3971],[-3860,-4201],[-6933,-4609]],[[387788,387960],[-13799,538],[-107,43138],[6510,165],[-161,14465],[-6228,6],[-295,28739],[-83,14607],[-92,13862],[-276,29640],[-708,40910],[-1520,4566],[15521,15390],[2409,3148],[7163,7304]],[[290586,697732],[201,-14846]],[[290787,682886],[383,-26181],[6414,-3660],[2704,-4971],[3453,776],[5576,-2098],[3785,135],[3538,1506],[5817,6910],[21743,191],[247,-14788],[1218,38],[80,-7113],[26394,640],[45,-7061],[14306,66],[-22,-7400],[-5462,94],[-538,20],[-1239,-10],[2,-7757],[7037,0],[4,-7827],[9850,42]],[[387788,387960],[-5271,-4476],[-3271,275],[-6102,-2685],[-5687,-177],[-13287,462],[-6020,2238],[-15362,8218],[-9104,2996],[-3838,1837],[-6318,4769],[-9485,10277],[-18763,15935],[-6564,7436],[-2286,728],[-9956,11104],[-3713,2944],[-7393,-1827],[-2991,135],[-3158,1778],[-699,3544],[-2535,2038],[-2533,-821],[-1146,-2063],[350,-3203],[-1287,-2146],[-3772,28],[-2209,-1901],[-3698,2643],[-666,1733],[1044,5084],[-7301,2318],[3,2445],[2434,1303],[-4905,6474],[-1539,4241],[-5072,2413],[-4030,864],[-377,5292],[-1658,4378],[-2954,4175],[-5032,1665],[940,3816],[-1736,1965],[64,3827],[-1686,1000],[-4149,-1289],[-1020,5027],[5908,3726],[10181,7689],[-997,73342],[13041,110],[23,28980],[4898,700],[3264,1446],[4874,-28],[-309,18045],[3608,70],[-529,28942]],[[571116,140306],[-6197,59],[-24527,294],[-1213,-685],[-310,-907],[-22,-35436]],[[538316,83672],[-730,-468],[-11499,123],[-1721,-26],[-4901,-4635],[56,2880],[-8208,780]],[[511313,82326],[-2816,1191],[-49342,546],[-7,14380],[13282,-64],[150,28493],[-19087,291],[14,28994],[6524,-106],[35,29154],[-58292,604],[-169,28884],[-67,20965],[-2471,1829],[-6258,-8365],[-3094,-2],[-1517,-2200],[-8582,-3425],[2914,15949],[1902,4085],[-2256,-3636],[-920,-3600],[-2234,-13011],[-3785,-1474],[39,-6788],[-39539,-704]],[[335737,214316],[-241,29008],[-39702,-457],[296,-28928],[-26612,-419],[-159,14048],[-74,7372],[2916,7781],[3767,6818],[6137,6670],[-233,15474],[7213,70],[17,10023],[-9453,8],[8132,10905],[578,4067],[-1954,3861],[29304,289],[-171,29096],[4473,24],[27455,171],[97,-29097],[39582,265],[-75,29056],[14034,52],[169,-29004],[33657,-399],[12751,21725],[5802,16169],[1895,5417],[553,-24],[1011,2352],[3204,4398]],[[707847,924995],[26683,313],[-845,73079],[26539,280],[1121,-72910],[26742,385],[-1331,72852],[52941,750],[5612,-463],[20963,183],[9820,44],[1613,200],[919,-46],[12114,197],[19029,140],[301,-29213],[12995,193],[963,7793],[11558,6716],[7859,367],[23290,-171],[-56911,-70488],[-41987,-51162],[3,-720],[17873,21885],[5010,5158],[7320,5710],[19324,12662],[6246,6880],[6086,11822],[3733,-708],[2913,1027],[7903,48],[569,-43990],[28638,473],[6664,-572],[18008,305],[527,-14571],[1347,-43935],[-6958,-46],[575,-44608],[-2911,-1685],[-5447,504],[-413,-2645],[-3033,-3692],[2755,-3191],[-1337,-3014],[-7464,-355],[-12,-14080],[-7760,-20],[378,-7384],[299,-7366],[-4360,171],[-528,3060],[-6994,-375],[-698,-3072],[-7557,-756],[364,-13926],[-9200,-118],[-3284,-3514],[-4367,1276],[-1165,2372],[-4311,2188],[-4829,-915],[-3539,406],[-4869,-3149],[-3454,-3562],[-3914,-1646],[-3176,-4201],[-4017,1514],[-625,-1641],[-9701,-1590],[-2664,-1049],[-8121,-5605],[-3884,-9510],[-1916,-2372],[-1794,207],[-131,18622],[-6636,-1580],[-1690,-1135],[-13761,-261],[-1558,4386],[-1333,144],[-1080,4029],[2582,3754],[-374,2657],[-4796,5058],[-5585,8735],[-22088,-272],[-2645,1638],[-4246,-273],[-1499,1003],[-2207,5292],[-5123,1916],[-1665,4516],[-3665,136],[-2632,4921],[-130,9510],[-13123,-223],[-539,59264],[-66870,-1099],[-449,29287],[-896,72680],[-82,171]],[[290787,682886],[26409,22],[-212,15261],[12343,213],[1834,503],[13758,16392],[4819,7950],[6367,4341],[7043,38],[-24,2924],[9049,341],[7607,3137],[3720,617],[12381,496],[-3,503],[1957,-2661],[4996,-1548],[1451,-1885],[16501,-4],[-408,29122],[6393,150],[6710,-9786],[2617,-4570],[10897,2],[-187,14908],[85281,1464],[482,-21253],[-3200,-3181],[685,-4737],[22092,1095],[1524,-63547]],[[755630,356598],[43854,439],[3721,1356],[12046,21620],[14,-2437],[3314,-1000],[3613,4746],[2160,7757],[-83,2417],[2492,-136],[-1163,2191],[3032,1506],[2201,5429],[3281,319],[1413,2737]],[[835525,403542],[997,-593],[-997,-5202],[4444,1414],[2574,2719],[5570,3836],[5874,1609],[356,-34710],[7060,293],[12647,270],[188,-16027],[141,-14876],[343,-41626],[144,-14275],[403,-43048],[1,-870],[-4611,-193],[-307,-4452],[-2738,-4049],[-20215,-21389],[-23869,-253]],[[766136,613176],[-4,2462],[20584,-8],[0,8154],[6668,163],[-1,-7885],[12304,-2],[-222,13729],[890,2390],[25321,393],[-239,16856],[39060,559],[152,-15440],[116,-12102],[6459,-22],[38,-14836],[7738,-89],[62,-15255],[17484,454],[-385,-18318],[-12208,1767],[-789,1963],[-17757,423],[334,-14828],[517,-30079],[352,-28990],[215,-13881],[-8039,-15683],[-22518,-45003],[-1585,-16],[-653,-4404],[-5492,-10404],[1383,8],[-1517,-8060],[1121,-3650]],[[511313,82326],[614,-1670],[-18,-7737],[-11,-3917],[-7471,50],[-31877,-19426],[-3005,-2052],[-36731,-32018],[-3472,-3610],[-26592,54],[-141,28870],[-13288,-214],[83,-14481],[-46302,-953],[-26222,-345],[-64,8768],[-1190,3788],[-3053,2597],[-15481,-680],[-156,28850],[13135,120],[-117,24354],[-32,9407],[-4992,-64],[-636,12],[-4947,-7991],[-826,314],[-1567,-3840],[-831,-1478],[-30802,-49493],[-5424,-4886],[-8482,-4321],[24,1390],[7529,2821],[2330,1600],[1999,2050],[4721,7217],[7401,12490],[1678,4536],[7669,10212],[11805,19346],[1037,2699],[632,2529],[-877,-8],[-660,-8],[-47544,-461],[1899,3728],[305,4578],[-1676,4565],[-4219,5458],[-1428,11233],[-2545,-36],[389,-29231],[-196,258],[-23388,-248],[-1778,319],[-844,5135],[-1808,688],[-2245,3191],[-2345,1151],[-4973,4574],[-2425,6291],[-380,4472],[-3345,3458],[-9055,-345],[-13260,-191],[-39702,-469],[-9,20363],[-1184,810],[-578,7931],[26471,241],[27815,245],[158,-14658],[5222,-272],[14306,300],[-224,14784],[1772,10],[11691,92],[8115,61],[2116,4385],[-106,10146],[-154,14673],[38288,466],[26525,44],[26478,361],[-277,28607],[46,335],[13126,66]]],"bbox":[-89.772084,39.898123,-89.05492,40.399471],"transform":{"scale":[7.171647171647282e-7,5.013485013485015e-7],"translate":[-89.772084,39.898123]}}
