{"type":"Topology","objects":{"foo":{"type":"GeometryCollection","geometries":[{"type":"MultiPolygon","arcs":[[[0,1,2,3,4]]],"properties":{"postal_code":"68456","realtor_list_price":"NA","realtor_list_price_yoy":"NA","realtor_list_price_base":"NA","realtor_active_listings":1.667,"realtor_active_listings_yoy":0,"realtor_active_listings_base":-0.3375,"realtor_new_listings":0,"realtor_new_listings_yoy":-1,"realtor_new_listings_base":-1,"realtor_days_on_market":"NA","realtor_days_on_market_yoy":"NA","realtor_days_on_market_base":"NA","zhvi":254275.318,"zhvi_yoy":0.1084,"zhvi_base":0.814,"zori":"NA","zori_yoy":"NA","zori_base":"NA"}},{"type":"MultiPolygon","arcs":[[[5,6,7,8,9,10,11]]],"properties":{"postal_code":"68520","realtor_list_price":663035.6,"realtor_list_price_yoy":0.0038,"realtor_list_price_base":0.5462,"realtor_active_listings":54.667,"realtor_active_listings_yoy":0.131,"realtor_active_listings_base":2.2899,"realtor_new_listings":6.667,"realtor_new_listings_yoy":-0.1667,"realtor_new_listings_base":1.6185,"realtor_days_on_market":81.4,"realtor_days_on_market_yoy":0.1629,"realtor_days_on_market_base":0.013,"zhvi":620236.441,"zhvi_yoy":0.0761,"zhvi_base":0.6099,"zori":"NA","zori_yoy":"NA","zori_base":"NA"}},{"type":"MultiPolygon","arcs":[[[12]]],"properties":{"postal_code":"68330","realtor_list_price":53500,"realtor_list_price_yoy":-0.0932,"realtor_list_price_base":"NA","realtor_active_listings":0.667,"realtor_active_listings_yoy":0,"realtor_active_listings_base":"NA","realtor_new_listings":1.333,"realtor_new_listings_yoy":1,"realtor_new_listings_base":"NA","realtor_days_on_market":7,"realtor_days_on_market_yoy":-0.3,"realtor_days_on_market_base":"NA","zhvi":"NA","zhvi_yoy":"NA","zhvi_base":"NA","zori":"NA","zori_yoy":"NA","zori_base":"NA"}},{"type":"MultiPolygon","arcs":[[[13]]],"properties":{"postal_code":"68364","realtor_list_price":257450,"realtor_list_price_yoy":"NA","realtor_list_price_base":"NA","realtor_active_listings":1,"realtor_active_listings_yoy":-0.25,"realtor_active_listings_base":"NA","realtor_new_listings":1.333,"realtor_new_listings_yoy":"Inf","realtor_new_listings_base":"NA","realtor_days_on_market":9,"realtor_days_on_market_yoy":"NA","realtor_days_on_market_base":"NA","zhvi":229885.965,"zhvi_yoy":0.0884,"zhvi_base":"NA","zori":"NA","zori_yoy":"NA","zori_base":"NA"}},{"type":"MultiPolygon","arcs":[[[14,15,16,17,18,19]]],"properties":{"postal_code":"68523","realtor_list_price":383471.429,"realtor_list_price_yoy":-0.1509,"realtor_list_price_base":-0.0739,"realtor_active_listings":39.667,"realtor_active_listings_yoy":0.6528,"realtor_active_listings_base":3.8608,"realtor_new_listings":4.667,"realtor_new_listings_yoy":-0.5,"realtor_new_listings_base":1.0327,"realtor_days_on_market":94.429,"realtor_days_on_market_yoy":1.2872,"realtor_days_on_market_base":1.0977,"zhvi":505793.296,"zhvi_yoy":0.0498,"zhvi_base":0.561,"zori":"NA","zori_yoy":"NA","zori_base":"NA"}},{"type":"MultiPolygon","arcs":[[[20]]],"properties":{"postal_code":"68438","realtor_list_price":"NA","realtor_list_price_yoy":"NA","realtor_list_price_base":"NA","realtor_active_listings":1.667,"realtor_active_listings_yoy":1.5,"realtor_active_listings_base":"NA","realtor_new_listings":0,"realtor_new_listings_yoy":-1,"realtor_new_listings_base":"NA","realtor_days_on_market":"NA","realtor_days_on_market_yoy":"NA","realtor_days_on_market_base":"NA","zhvi":"NA","zhvi_yoy":"NA","zhvi_base":"NA","zori":"NA","zori_yoy":"NA","zori_base":"NA"}},{"type":"MultiPolygon","arcs":[[[21,22,23]]],"properties":{"postal_code":"68419","realtor_list_price":"NA","realtor_list_price_yoy":"NA","realtor_list_price_base":"NA","realtor_active_listings":1,"realtor_active_listings_yoy":0.5,"realtor_active_listings_base":"NA","realtor_new_listings":0,"realtor_new_listings_yoy":-1,"realtor_new_listings_base":"NA","realtor_days_on_market":"NA","realtor_days_on_market_yoy":"NA","realtor_days_on_market_base":"NA","zhvi":276361.526,"zhvi_yoy":0.0336,"zhvi_base":0.685,"zori":"NA","zori_yoy":"NA","zori_base":"NA"}},{"type":"MultiPolygon","arcs":[[[24,25,-22,26,27]]],"properties":{"postal_code":"68317","realtor_list_price":492474.5,"realtor_list_price_yoy":0.0016,"realtor_list_price_base":"NA","realtor_active_listings":5.667,"realtor_active_listings_yoy":0.3077,"realtor_active_listings_base":-0.1723,"realtor_new_listings":1.333,"realtor_new_listings_yoy":-0.5,"realtor_new_listings_base":0.2492,"realtor_days_on_market":49.5,"realtor_days_on_market_yoy":-0.1,"realtor_days_on_market_base":"NA","zhvi":411476.829,"zhvi_yoy":0.0539,"zhvi_base":0.6463,"zori":"NA","zori_yoy":"NA","zori_base":"NA"}},{"type":"MultiPolygon","arcs":[[[28,29]]],"properties":{"postal_code":"68368","realtor_list_price":895000,"realtor_list_price_yoy":"NA","realtor_list_price_base":"NA","realtor_active_listings":2.333,"realtor_active_listings_yoy":-0.3636,"realtor_active_listings_base":1.3649,"realtor_new_listings":0.667,"realtor_new_listings_yoy":"Inf","realtor_new_listings_base":"NA","realtor_days_on_market":47,"realtor_days_on_market_yoy":"NA","realtor_days_on_market_base":"NA","zhvi":427681.012,"zhvi_yoy":0.0584,"zhvi_base":0.6249,"zori":"NA","zori_yoy":"NA","zori_base":"NA"}},{"type":"MultiPolygon","arcs":[[[30,31,32,33,34,35,36,37,38]]],"properties":{"postal_code":"68508","realtor_list_price":311521.429,"realtor_list_price_yoy":-0.0782,"realtor_list_price_base":0.3921,"realtor_active_listings":28,"realtor_active_listings_yoy":0.6471,"realtor_active_listings_base":0.637,"realtor_new_listings":9.333,"realtor_new_listings_yoy":0.5556,"realtor_new_listings_base":0.2458,"realtor_days_on_market":44,"realtor_days_on_market_yoy":-0.1592,"realtor_days_on_market_base":-0.0232,"zhvi":219179.563,"zhvi_yoy":0.0286,"zhvi_base":0.5504,"zori":836.296,"zori_yoy":0.0338,"zori_base":"NA"}},{"type":"MultiPolygon","arcs":[[[39,-39,40,-15,41,42]]],"properties":{"postal_code":"68522","realtor_list_price":326902.174,"realtor_list_price_yoy":0.0047,"realtor_list_price_base":0.6562,"realtor_active_listings":17.667,"realtor_active_listings_yoy":0.0192,"realtor_active_listings_base":0.0744,"realtor_new_listings":15.333,"realtor_new_listings_yoy":0.0455,"realtor_new_listings_base":-0.1695,"realtor_days_on_market":33.913,"realtor_days_on_market_yoy":0.1694,"realtor_days_on_market_base":0.3681,"zhvi":280303.185,"zhvi_yoy":0.0334,"zhvi_base":0.6337,"zori":1324.483,"zori_yoy":0.0308,"zori_base":"NA"}},{"type":"MultiPolygon","arcs":[[[-5,43,44]]],"properties":{"postal_code":"68460","realtor_list_price":"NA","realtor_list_price_yoy":"NA","realtor_list_price_base":"NA","realtor_active_listings":1.333,"realtor_active_listings_yoy":1,"realtor_active_listings_base":"NA","realtor_new_listings":0,"realtor_new_listings_yoy":-1,"realtor_new_listings_base":"NA","realtor_days_on_market":"NA","realtor_days_on_market_yoy":"NA","realtor_days_on_market_base":"NA","zhvi":318230.684,"zhvi_yoy":0.0174,"zhvi_base":0.4959,"zori":"NA","zori_yoy":"NA","zori_base":"NA"}},{"type":"MultiPolygon","arcs":[[[45,46,47,48,49]]],"properties":{"postal_code":"68360","realtor_list_price":"NA","realtor_list_price_yoy":"NA","realtor_list_price_base":"NA","realtor_active_listings":2.333,"realtor_active_listings_yoy":0.1667,"realtor_active_listings_base":0.7854,"realtor_new_listings":0,"realtor_new_listings_yoy":"NaN","realtor_new_listings_base":-1,"realtor_days_on_market":"NA","realtor_days_on_market_yoy":"NA","realtor_days_on_market_base":"NA","zhvi":441506.57,"zhvi_yoy":0.0603,"zhvi_base":0.7482,"zori":"NA","zori_yoy":"NA","zori_base":"NA"}},{"type":"MultiPolygon","arcs":[[[50,51]]],"properties":{"postal_code":"68366","realtor_list_price":346000,"realtor_list_price_yoy":"NA","realtor_list_price_base":"NA","realtor_active_listings":1.333,"realtor_active_listings_yoy":-0.7333,"realtor_active_listings_base":0.3441,"realtor_new_listings":1.333,"realtor_new_listings_yoy":"Inf","realtor_new_listings_base":"NA","realtor_days_on_market":42,"realtor_days_on_market_yoy":"NA","realtor_days_on_market_base":"NA","zhvi":310550.374,"zhvi_yoy":0.0411,"zhvi_base":0.827,"zori":"NA","zori_yoy":"NA","zori_base":"NA"}},{"type":"MultiPolygon","arcs":[[[-4,52,53,-44]]],"properties":{"postal_code":"68313","realtor_list_price":297475,"realtor_list_price_yoy":"NA","realtor_list_price_base":"NA","realtor_active_listings":2.333,"realtor_active_listings_yoy":1.3333,"realtor_active_listings_base":-0.1087,"realtor_new_listings":0.667,"realtor_new_listings_yoy":"Inf","realtor_new_listings_base":-0.2451,"realtor_days_on_market":35,"realtor_days_on_market_yoy":"NA","realtor_days_on_market_base":"NA","zhvi":288408.19,"zhvi_yoy":0.0616,"zhvi_base":0.5918,"zori":"NA","zori_yoy":"NA","zori_base":"NA"}},{"type":"MultiPolygon","arcs":[[[54,-2,55]]],"properties":{"postal_code":"68439","realtor_list_price":"NA","realtor_list_price_yoy":"NA","realtor_list_price_base":"NA","realtor_active_listings":"NA","realtor_active_listings_yoy":"NA","realtor_active_listings_base":"NA","realtor_new_listings":"NA","realtor_new_listings_yoy":"NA","realtor_new_listings_base":"NA","realtor_days_on_market":"NA","realtor_days_on_market_yoy":"NA","realtor_days_on_market_base":"NA","zhvi":250263.361,"zhvi_yoy":0.1207,"zhvi_base":0.7373,"zori":"NA","zori_yoy":"NA","zori_base":"NA"}},{"type":"MultiPolygon","arcs":[[[56,57,58,59,60,-47,61]]],"properties":{"postal_code":"68428","realtor_list_price":"NA","realtor_list_price_yoy":"NA","realtor_list_price_base":"NA","realtor_active_listings":"NA","realtor_active_listings_yoy":"NA","realtor_active_listings_base":"NA","realtor_new_listings":"NA","realtor_new_listings_yoy":"NA","realtor_new_listings_base":"NA","realtor_days_on_market":"NA","realtor_days_on_market_yoy":"NA","realtor_days_on_market_base":"NA","zhvi":588926.899,"zhvi_yoy":0.0736,"zhvi_base":0.7372,"zori":"NA","zori_yoy":"NA","zori_base":"NA"}},{"type":"MultiPolygon","arcs":[[[-18,62,63,64,-28,65,66]]],"properties":{"postal_code":"68430","realtor_list_price":583107,"realtor_list_price_yoy":-0.0378,"realtor_list_price_base":0.1048,"realtor_active_listings":14.333,"realtor_active_listings_yoy":0.1026,"realtor_active_listings_base":0.393,"realtor_new_listings":4.667,"realtor_new_listings_yoy":2.5,"realtor_new_listings_base":1.8236,"realtor_days_on_market":42.857,"realtor_days_on_market_yoy":-0.2415,"realtor_days_on_market_base":-0.5745,"zhvi":620938.538,"zhvi_yoy":0.0565,"zhvi_base":0.5749,"zori":"NA","zori_yoy":"NA","zori_base":"NA"}},{"type":"MultiPolygon","arcs":[[[-61,67,68,-48]]],"properties":{"postal_code":"68402","realtor_list_price":"NA","realtor_list_price_yoy":"NA","realtor_list_price_base":"NA","realtor_active_listings":2,"realtor_active_listings_yoy":0,"realtor_active_listings_base":-0.3541,"realtor_new_listings":0,"realtor_new_listings_yoy":-1,"realtor_new_listings_base":"NA","realtor_days_on_market":"NA","realtor_days_on_market_yoy":"NA","realtor_days_on_market_base":"NA","zhvi":527297.43,"zhvi_yoy":0.064,"zhvi_base":0.8472,"zori":"NA","zori_yoy":"NA","zori_base":"NA"}},{"type":"MultiPolygon","arcs":[[[-38,69,70,71,72,-16,-41]]],"properties":{"postal_code":"68502","realtor_list_price":274315.217,"realtor_list_price_yoy":0.0716,"realtor_list_price_base":0.6278,"realtor_active_listings":49,"realtor_active_listings_yoy":-0.16,"realtor_active_listings_base":0.1973,"realtor_new_listings":30.667,"realtor_new_listings_yoy":-0.2459,"realtor_new_listings_base":-0.1285,"realtor_days_on_market":32.065,"realtor_days_on_market_yoy":-0.0235,"realtor_days_on_market_base":0.0135,"zhvi":243107.641,"zhvi_yoy":0.0352,"zhvi_base":0.6418,"zori":912.858,"zori_yoy":-0.0011,"zori_base":"NA"}},{"type":"MultiPolygon","arcs":[[[73,74,-7,75,76]]],"properties":{"postal_code":"68505","realtor_list_price":308975.806,"realtor_list_price_yoy":0.1628,"realtor_list_price_base":0.5596,"realtor_active_listings":38,"realtor_active_listings_yoy":0.3412,"realtor_active_listings_base":0.7751,"realtor_new_listings":20.667,"realtor_new_listings_yoy":0.1071,"realtor_new_listings_base":-0.0834,"realtor_days_on_market":26.129,"realtor_days_on_market_yoy":-0.2519,"realtor_days_on_market_base":0.0898,"zhvi":265734.752,"zhvi_yoy":0.0302,"zhvi_base":0.6152,"zori":1372.411,"zori_yoy":0.0247,"zori_base":"NA"}},{"type":"MultiPolygon","arcs":[[[-12,77,-71,78]]],"properties":{"postal_code":"68506","realtor_list_price":283436.364,"realtor_list_price_yoy":-0.037,"realtor_list_price_base":0.3232,"realtor_active_listings":75,"realtor_active_listings_yoy":0.0922,"realtor_active_listings_base":0.6434,"realtor_new_listings":44,"realtor_new_listings_yoy":-0.0704,"realtor_new_listings_base":0.0152,"realtor_days_on_market":28.091,"realtor_days_on_market_yoy":0.0965,"realtor_days_on_market_base":-0.0164,"zhvi":284136.065,"zhvi_yoy":0.0327,"zhvi_base":0.5936,"zori":1269.756,"zori_yoy":0.0324,"zori_base":"NA"}},{"type":"MultiPolygon","arcs":[[[79,80,81,-74,82]]],"properties":{"postal_code":"68507","realtor_list_price":304253.846,"realtor_list_price_yoy":0.1718,"realtor_list_price_base":0.5155,"realtor_active_listings":35.333,"realtor_active_listings_yoy":0.4133,"realtor_active_listings_base":0.2315,"realtor_new_listings":26,"realtor_new_listings_yoy":0.3,"realtor_new_listings_base":0.2208,"realtor_days_on_market":26.615,"realtor_days_on_market_yoy":-0.2149,"realtor_days_on_market_base":-0.2749,"zhvi":251813.269,"zhvi_yoy":0.0208,"zhvi_base":0.611,"zori":1595.008,"zori_yoy":0.0375,"zori_base":"NA"}},{"type":"MultiPolygon","arcs":[[[-73,83,-63,-17]]],"properties":{"postal_code":"68512","realtor_list_price":398048.684,"realtor_list_price_yoy":-0.0748,"realtor_list_price_base":-0.0905,"realtor_active_listings":28.333,"realtor_active_listings_yoy":-0.1667,"realtor_active_listings_base":-0.2078,"realtor_new_listings":12.667,"realtor_new_listings_yoy":-0.2692,"realtor_new_listings_base":-0.4119,"realtor_days_on_market":28.526,"realtor_days_on_market_yoy":-0.1657,"realtor_days_on_market_base":-0.3699,"zhvi":350898.071,"zhvi_yoy":0.0263,"zhvi_base":0.5189,"zori":1530.818,"zori_yoy":0.0165,"zori_base":"NA"}},{"type":"MultiPolygon","arcs":[[[84,85,-36,86,-34]]],"properties":{"postal_code":"68503","realtor_list_price":216311.111,"realtor_list_price_yoy":0.03,"realtor_list_price_base":0.7781,"realtor_active_listings":24.667,"realtor_active_listings_yoy":0.3455,"realtor_active_listings_base":0.3144,"realtor_new_listings":12,"realtor_new_listings_yoy":-0.1429,"realtor_new_listings_base":0.0038,"realtor_days_on_market":33.333,"realtor_days_on_market_yoy":0.0324,"realtor_days_on_market_base":-0.0696,"zhvi":201958.442,"zhvi_yoy":0.0181,"zhvi_base":0.7246,"zori":1202.99,"zori_yoy":0.0201,"zori_base":"NA"}},{"type":"MultiPolygon","arcs":[[[87,88,89,90,-83,-77,91,-85,-33]]],"properties":{"postal_code":"68504","realtor_list_price":267391.667,"realtor_list_price_yoy":0.2015,"realtor_list_price_base":0.5609,"realtor_active_listings":25,"realtor_active_listings_yoy":0.6667,"realtor_active_listings_base":-0.1543,"realtor_new_listings":16,"realtor_new_listings_yoy":0.7143,"realtor_new_listings_base":0.2068,"realtor_days_on_market":28.917,"realtor_days_on_market_yoy":0.1001,"realtor_days_on_market_base":-0.5582,"zhvi":223407.599,"zhvi_yoy":0.0043,"zhvi_base":0.6445,"zori":1176.745,"zori_yoy":0.0087,"zori_base":"NA"}},{"type":"MultiPolygon","arcs":[[[92,93,-90,94]]],"properties":{"postal_code":"68514","realtor_list_price":382220.6,"realtor_list_price_yoy":0.1898,"realtor_list_price_base":"NA","realtor_active_listings":10,"realtor_active_listings_yoy":-0.1667,"realtor_active_listings_base":0.9642,"realtor_new_listings":3.333,"realtor_new_listings_yoy":0.6667,"realtor_new_listings_base":"NA","realtor_days_on_market":96.8,"realtor_days_on_market_yoy":-0.2882,"realtor_days_on_market_base":"NA","zhvi":"NA","zhvi_yoy":"NA","zhvi_base":"NA","zori":"NA","zori_yoy":"NA","zori_base":"NA"}},{"type":"MultiPolygon","arcs":[[[-94,95,96,-80,-91]]],"properties":{"postal_code":"68517","realtor_list_price":"NA","realtor_list_price_yoy":"NA","realtor_list_price_base":"NA","realtor_active_listings":2.333,"realtor_active_listings_yoy":0.75,"realtor_active_listings_base":1.1037,"realtor_new_listings":0,"realtor_new_listings_yoy":"NaN","realtor_new_listings_base":"NA","realtor_days_on_market":"NA","realtor_days_on_market_yoy":"NA","realtor_days_on_market_base":"NA","zhvi":592894.111,"zhvi_yoy":0.068,"zhvi_base":0.7678,"zori":"NA","zori_yoy":"NA","zori_base":"NA"}},{"type":"MultiPolygon","arcs":[[[97,98,-88,-32,99,100]]],"properties":{"postal_code":"68521","realtor_list_price":376857.233,"realtor_list_price_yoy":0.1008,"realtor_list_price_base":0.5958,"realtor_active_listings":103.667,"realtor_active_listings_yoy":0.4201,"realtor_active_listings_base":0.6681,"realtor_new_listings":40,"realtor_new_listings_yoy":-0.2405,"realtor_new_listings_base":-0.1762,"realtor_days_on_market":43.267,"realtor_days_on_market_yoy":0.037,"realtor_days_on_market_base":0.2099,"zhvi":288267.247,"zhvi_yoy":0.0303,"zhvi_base":0.5946,"zori":1475.016,"zori_yoy":0.0231,"zori_base":"NA"}},{"type":"MultiPolygon","arcs":[[[-68,-60,101,-101,102,103]]],"properties":{"postal_code":"68524","realtor_list_price":274362.5,"realtor_list_price_yoy":0.0318,"realtor_list_price_base":0.4604,"realtor_active_listings":5.667,"realtor_active_listings_yoy":0.2143,"realtor_active_listings_base":-0.0316,"realtor_new_listings":5.333,"realtor_new_listings_yoy":0,"realtor_new_listings_base":-0.3742,"realtor_days_on_market":14.5,"realtor_days_on_market_yoy":-0.6,"realtor_days_on_market_base":-0.3528,"zhvi":259907.252,"zhvi_yoy":0.0203,"zhvi_base":0.6343,"zori":"NA","zori_yoy":"NA","zori_base":"NA"}},{"type":"MultiPolygon","arcs":[[[-82,104,105,-8,-75]]],"properties":{"postal_code":"68527","realtor_list_price":513672.231,"realtor_list_price_yoy":-0.0156,"realtor_list_price_base":0.3012,"realtor_active_listings":48.333,"realtor_active_listings_yoy":-0.1618,"realtor_active_listings_base":0.9564,"realtor_new_listings":8.667,"realtor_new_listings_yoy":-0.3158,"realtor_new_listings_base":0.4024,"realtor_days_on_market":53.769,"realtor_days_on_market_yoy":-0.0148,"realtor_days_on_market_base":-0.0835,"zhvi":523319.469,"zhvi_yoy":0.0386,"zhvi_base":0.4326,"zori":"NA","zori_yoy":"NA","zori_base":"NA"}},{"type":"MultiPolygon","arcs":[[[-103,-100,-31,-40,106,107]]],"properties":{"postal_code":"68528","realtor_list_price":326788.5,"realtor_list_price_yoy":-0.0425,"realtor_list_price_base":0.4534,"realtor_active_listings":17,"realtor_active_listings_yoy":-0.1356,"realtor_active_listings_base":-0.392,"realtor_new_listings":8,"realtor_new_listings_yoy":-0.3333,"realtor_new_listings_base":-0.5287,"realtor_days_on_market":31.5,"realtor_days_on_market_yoy":-0.0471,"realtor_days_on_market_base":-0.37,"zhvi":290181.043,"zhvi_yoy":0.033,"zhvi_base":0.613,"zori":1553.467,"zori_yoy":"NA","zori_base":"NA"}},{"type":"MultiPolygon","arcs":[[[-51,108,-96,-93,109,-57,110]]],"properties":{"postal_code":"68017","realtor_list_price":562249,"realtor_list_price_yoy":-0.0683,"realtor_list_price_base":"NA","realtor_active_listings":2.333,"realtor_active_listings_yoy":-0.5333,"realtor_active_listings_base":0.381,"realtor_new_listings":0.667,"realtor_new_listings_yoy":-0.75,"realtor_new_listings_base":1.6667,"realtor_days_on_market":15,"realtor_days_on_market_yoy":-0.4118,"realtor_days_on_market_base":"NA","zhvi":347999.919,"zhvi_yoy":0.0517,"zhvi_base":0.6959,"zori":"NA","zori_yoy":"NA","zori_base":"NA"}},{"type":"MultiPolygon","arcs":[[[111,-42,-20,112]]],"properties":{"postal_code":"68339","realtor_list_price":1264375,"realtor_list_price_yoy":0.6011,"realtor_list_price_base":1.6123,"realtor_active_listings":7.667,"realtor_active_listings_yoy":0.5333,"realtor_active_listings_base":-0.1271,"realtor_new_listings":1.333,"realtor_new_listings_yoy":1,"realtor_new_listings_base":-0.0737,"realtor_days_on_market":65.5,"realtor_days_on_market_yoy":0.5976,"realtor_days_on_market_base":0.7423,"zhvi":621843.806,"zhvi_yoy":0.0707,"zhvi_base":0.7001,"zori":"NA","zori_yoy":"NA","zori_base":"NA"}},{"type":"MultiPolygon","arcs":[[[-55,113,-50,114,-53,-3],[-14]]],"properties":{"postal_code":"68434","realtor_list_price":364005.286,"realtor_list_price_yoy":0.1477,"realtor_list_price_base":0.7353,"realtor_active_listings":14.667,"realtor_active_listings_yoy":-0.2143,"realtor_active_listings_base":-0.3899,"realtor_new_listings":9.333,"realtor_new_listings_yoy":0.0769,"realtor_new_listings_base":0.2074,"realtor_days_on_market":38.857,"realtor_days_on_market_yoy":0.2886,"realtor_days_on_market_base":-0.3673,"zhvi":315427.584,"zhvi_yoy":0.0757,"zhvi_base":0.6549,"zori":"NA","zori_yoy":"NA","zori_base":"NA"}},{"type":"MultiPolygon","arcs":[[[-86,-92,-76,-6,-79,-70,-37]]],"properties":{"postal_code":"68510","realtor_list_price":275739.733,"realtor_list_price_yoy":-0.063,"realtor_list_price_base":0.6788,"realtor_active_listings":46,"realtor_active_listings_yoy":0.0222,"realtor_active_listings_base":0.588,"realtor_new_listings":30,"realtor_new_listings_yoy":0.2857,"realtor_new_listings_base":0.0418,"realtor_days_on_market":29.067,"realtor_days_on_market_yoy":-0.0793,"realtor_days_on_market_base":-0.0366,"zhvi":257496.532,"zhvi_yoy":0.0296,"zhvi_base":0.6258,"zori":1142.76,"zori_yoy":0.0374,"zori_base":"NA"}},{"type":"MultiPolygon","arcs":[[[-78,115,-64,-84,-72]]],"properties":{"postal_code":"68516","realtor_list_price":516267.812,"realtor_list_price_yoy":0.0709,"realtor_list_price_base":0.5145,"realtor_active_listings":217.333,"realtor_active_listings_yoy":0.5269,"realtor_active_listings_base":0.155,"realtor_new_listings":78,"realtor_new_listings_yoy":0.1038,"realtor_new_listings_base":-0.0845,"realtor_days_on_market":39.786,"realtor_days_on_market_yoy":0.0306,"realtor_days_on_market_base":-0.0614,"zhvi":390779.023,"zhvi_yoy":0.0301,"zhvi_base":0.5063,"zori":1488.961,"zori_yoy":0.0304,"zori_base":"NA"}},{"type":"MultiPolygon","arcs":[[[-29,116]]],"properties":{"postal_code":"68331","realtor_list_price":622000,"realtor_list_price_yoy":"NA","realtor_list_price_base":"NA","realtor_active_listings":2.333,"realtor_active_listings_yoy":0.1667,"realtor_active_listings_base":-0.1979,"realtor_new_listings":1.333,"realtor_new_listings_yoy":"Inf","realtor_new_listings_base":4.8333,"realtor_days_on_market":14,"realtor_days_on_market_yoy":"NA","realtor_days_on_market_base":"NA","zhvi":322214.182,"zhvi_yoy":0.0078,"zhvi_base":0.608,"zori":"NA","zori_yoy":"NA","zori_base":"NA"}},{"type":"MultiPolygon","arcs":[[[-66,-27,-24,117]]],"properties":{"postal_code":"68372","realtor_list_price":494209.615,"realtor_list_price_yoy":0.1229,"realtor_list_price_base":0.662,"realtor_active_listings":24.333,"realtor_active_listings_yoy":0.46,"realtor_active_listings_base":0.8316,"realtor_new_listings":8.667,"realtor_new_listings_yoy":0.3,"realtor_new_listings_base":0.6633,"realtor_days_on_market":47,"realtor_days_on_market_yoy":0.3277,"realtor_days_on_market_base":-0.0698,"zhvi":388119.473,"zhvi_yoy":0.0486,"zhvi_base":0.5566,"zori":"NA","zori_yoy":"NA","zori_base":"NA"}},{"type":"MultiPolygon","arcs":[[[-110,-95,-89,-99,118,-58]]],"properties":{"postal_code":"68336","realtor_list_price":"NA","realtor_list_price_yoy":"NA","realtor_list_price_base":"NA","realtor_active_listings":1.333,"realtor_active_listings_yoy":0.3333,"realtor_active_listings_base":0.4955,"realtor_new_listings":0,"realtor_new_listings_yoy":"NaN","realtor_new_listings_base":"NA","realtor_days_on_market":"NA","realtor_days_on_market_yoy":"NA","realtor_days_on_market_base":"NA","zhvi":491600.222,"zhvi_yoy":0.0867,"zhvi_base":0.7524,"zori":"NA","zori_yoy":"NA","zori_base":"NA"}},{"type":"MultiPolygon","arcs":[[[-107,-43,-112,119]]],"properties":{"postal_code":"68532","realtor_list_price":"NA","realtor_list_price_yoy":"NA","realtor_list_price_base":"NA","realtor_active_listings":2,"realtor_active_listings_yoy":-0.1429,"realtor_active_listings_base":0.7096,"realtor_new_listings":0,"realtor_new_listings_yoy":-1,"realtor_new_listings_base":"NA","realtor_days_on_market":"NA","realtor_days_on_market_yoy":"NA","realtor_days_on_market_base":"NA","zhvi":595455.751,"zhvi_yoy":0.0807,"zhvi_base":0.6064,"zori":"NA","zori_yoy":"NA","zori_base":"NA"}},{"type":"MultiPolygon","arcs":[[[-11,120,-25,-65,-116]]],"properties":{"postal_code":"68526","realtor_list_price":541413.542,"realtor_list_price_yoy":-0.0616,"realtor_list_price_base":0.2211,"realtor_active_listings":69.667,"realtor_active_listings_yoy":0.0296,"realtor_active_listings_base":0.264,"realtor_new_listings":16,"realtor_new_listings_yoy":-0.2,"realtor_new_listings_base":-0.0266,"realtor_days_on_market":47.542,"realtor_days_on_market_yoy":0.035,"realtor_days_on_market_base":-0.0556,"zhvi":465976.337,"zhvi_yoy":0.0338,"zhvi_base":0.4379,"zori":1422.796,"zori_yoy":0.0046,"zori_base":"NA"}},{"type":"MultiPolygon","arcs":[[[-9,-106,121]]],"properties":{"postal_code":"68347","realtor_list_price":519083.333,"realtor_list_price_yoy":0.4574,"realtor_list_price_base":0.3853,"realtor_active_listings":7.667,"realtor_active_listings_yoy":3.6,"realtor_active_listings_base":-0.0137,"realtor_new_listings":2,"realtor_new_listings_yoy":0.5,"realtor_new_listings_base":0.0203,"realtor_days_on_market":37.333,"realtor_days_on_market_yoy":1.3333,"realtor_days_on_market_base":-0.4246,"zhvi":352859.124,"zhvi_yoy":0.0316,"zhvi_base":0.5798,"zori":"NA","zori_yoy":"NA","zori_base":"NA"}}]}},"arcs":[[[135190,781779],[15693,65],[-50,19999],[47793,25],[51,-19976],[11521,-19],[4507,-1]],[[214705,781872],[20,-19977]],[[214725,761895],[-153,-60131],[7816,27],[8217,37],[12,-9790],[12051,-105],[3945,-146],[-52,-10097],[7970,-62],[-61,-9342],[-3335,-411],[-4625,59],[-57,-10231],[-195,-20036],[147,-10485],[-7933,46],[-85,-9493],[-7877,-31],[-2,-10510]],[[230508,611194],[-8164,-69],[3,10523],[-23628,-136],[70,-19990],[-47828,549]],[[150961,602071],[-345,39655],[-15607,-11],[146,120067],[35,19997]],[[770964,539801],[1,144],[161,10566],[-21,2096],[-131,7406]],[[770974,560013],[9732,-215],[722,-9],[2016,-30],[3474,-50]],[[786918,559709],[0,-247],[362,-7],[-1,248],[3622,-58],[1594,-26],[2437,-37],[932,-18],[7128,-145],[7357,-26],[79400,-135]],[[889749,559258],[-8,-19967]],[[889741,539291],[-70886,182],[-15913,-10],[-52,-19950],[-12,-5485],[-34,-14492]],[[802844,499536],[-16001,97],[-1339,7],[-648,4],[-1978,10],[-5756,26],[-1885,8],[-158,146],[-1,-146],[-4160,15]],[[770918,499703],[80,12938],[43,7039],[285,-2],[-159,4566],[-42,1469],[16,3697],[-2,297],[-146,2],[-29,10092]],[[147957,429061],[774,197],[1124,-12],[1157,777],[3,-2661],[-6,-907],[-4,-1051],[4,-2275],[2055,-79],[-20,-1378],[13893,-23],[-67,-10272],[-140,-9770],[-7588,-4],[-8309,42],[175,20044],[-1149,4],[13,3722],[-580,2],[-578,-4],[-2270,668],[1513,2980]],[[246203,601714],[15799,240],[-41,-9894],[32,-10166],[-5910,-87],[-9959,-154],[79,20061]],[[612011,497167],[11252,645],[13742,3331],[8174,3572],[2745,-167],[1521,1822],[1891,-63],[-42,-5682],[9473,-235],[-11,-2634],[3299,2792],[2382,-12],[1094,-11],[2296,-62]],[[669827,500463],[88,-4601],[365,-2707],[3463,-10738],[441,-2153]],[[674184,480264],[762,-10047],[577,-2568],[152,-500],[-146,-124],[-3878,-3466],[-2452,-2174],[-1875,-959],[-1,-148],[-4005,46],[-3953,45],[103,-20066],[85,-20121],[2095,11],[1780,5014],[4103,6171],[2019,3402],[1439,2668],[1074,2726],[3442,-235],[18,-19844]],[[675523,420095],[-116,-20044],[-16944,75]],[[658463,400126],[-10783,49],[17,4996],[-1986,5],[-18,-4992],[-4059,18],[-1997,8],[-22136,97]],[[617501,400307],[2164,10245],[840,7341],[-991,2435],[8180,11],[37,20090],[-259,20063],[-15553,-223],[92,36898]],[[652452,305019],[3953,16],[2003,19],[-170,-833],[-93,-394],[97,2],[-150,-173],[661,-463],[-442,-3146],[-2051,-147],[-3211,-760],[-639,1666],[42,4213]],[[841923,280094],[15899,-310]],[[857822,279784],[300,-20131],[-3801,34],[-8116,70],[-3883,35]],[[842322,259792],[-65,9959],[-334,10343]],[[802199,399736],[731,-1],[7200,0],[6,9386],[302,1789],[-298,5377],[152,23379],[-95,0],[100,2051],[11,7930],[7933,-284]],[[818241,449363],[-17,-9732],[7903,-33],[50,10023],[7925,-8],[11,10001],[7908,11],[17,-10022],[15890,-110],[4015,-8],[7942,-15],[3977,-9],[15800,-103],[36,-39979],[-45,-3795],[2880,-4458],[-13,-1747],[-228,-1388],[877,-1476],[2131,-399],[1579,-1412],[125,-1855],[2156,-1156],[25,-4813],[3910,-4128],[2422,317],[25,-3745],[-12,-19955],[-18,-19965],[15928,79],[-76,-20052],[-8046,15],[-4115,2],[-3631,-16],[83,-19982],[-7974,18],[-7977,87],[-11880,-108],[-2016,-18],[-1933,-18],[-6,-19925],[-16047,298]],[[841923,280094],[183,20136],[-31818,712],[247,19943],[-7927,408],[-3535,-489]],[[799073,320804],[45,9962],[-49,9978],[11661,70],[-56,19951],[31,14848],[-892,5089],[-2462,4175],[346,806],[2728,-3],[-136,4995],[-7841,-111],[-249,9172]],[[657615,159766],[-92,-19755],[-15646,52],[-86,19661],[-15799,3],[216,-19701],[-7954,-131],[-5793,-81]],[[612461,139814],[-1987,-12],[-15708,340],[-65,19585],[-15854,170],[-31648,289],[115,-19962],[-15692,10],[-353,20137],[3968,-46],[-33,4997],[3969,26],[-49,4925],[-7902,67],[2168,247],[5731,54],[-203,4563],[-7719,146],[-277,24943],[3885,73],[-123,9859],[3943,-45],[-173,9966],[7864,-78],[-184,10052],[708,-7],[7043,-10132],[8258,-55],[-405,39990],[15913,-108],[-396,20268],[23764,-238],[7922,-62],[-12,4987],[-36,14921],[7887,137],[7943,137],[-132,-10056],[7922,42],[465,-5001],[74,-1170],[-2065,-489],[-950,-3351],[-5524,-40],[410,-10215],[399,-9972],[272,-19979],[111,-9978],[112,-10026],[7824,-20],[3928,-11],[21,-4991],[-7846,18],[39,-14988],[3976,-4],[-68,9990],[7855,0],[2,-303],[-1900,71],[28,-9764],[1941,-1],[7920,12],[7853,13],[225,-39979]],[[672753,550164],[256,1538],[322,8524],[3,84],[257,4237],[3867,6165],[511,4517],[804,1891],[3698,3851],[4,1341],[15,5273]],[[682490,587585],[4147,1800],[4888,1755],[3447,1381],[1909,1991],[2601,858],[48,-4786],[2344,-34],[164,2450],[2603,-38],[484,-2794],[2327,1668]],[[707452,591836],[1,-685]],[[707453,591151],[-7657,-6784],[-4273,-3574],[-8,-1379]],[[695515,579414],[-1325,-1349],[-6,-894],[-22,-4452],[-5,-2549],[1384,-11],[354,3818]],[[695895,573977],[2361,-2757],[551,-1189],[253,-2853],[-1100,-2227],[-208,-1749],[-5,-1515]],[[697747,561687],[-3,-1509],[-2,-1517],[-6,-3104],[-1212,-1506],[1371,-1516],[2,-3121],[-463,-1498],[274,0],[-10,-2248]],[[697698,545668],[-1662,7],[0,-79],[-456,-8],[-298,-162],[-3,-563],[-883,830],[-2796,-336],[-1159,-469],[-364,605],[-3353,171],[-1235,-150],[-1237,-593],[-4842,48],[2,1529],[-2523,-1502],[9,3032],[-875,5],[-3543,-6871]],[[672480,541162],[-943,3658],[1243,5209],[-27,135]],[[612283,552281],[3213,-752],[5626,-75],[991,-965],[2892,1263],[1953,503],[604,250],[20,7783],[19045,175],[171,1],[18167,-173],[-2087,-2618],[-14492,-2497],[2811,-6830],[518,-733],[1200,-1064],[2555,-1285],[1647,1515],[4461,163],[4239,1601],[6936,1621]],[[672480,541162],[428,-973],[209,-1922],[-866,-8105],[-363,-2255],[-226,-2833],[-1504,78],[-1091,-208],[-457,-159],[-1299,-653],[1593,-2053],[727,-1956],[230,0],[5566,-131],[10,-558],[-45,-8509],[-1929,-558],[1828,-4927],[-30,-5123],[-5434,146]],[[612011,497167],[7,3063],[-10221,92]],[[601797,500322],[2080,1625],[1601,2236],[770,1771],[3821,14309],[2103,8050],[111,23968]],[[150961,602071],[130,-30846],[-16142,-40],[-23,-49537],[9,-19970],[-4018,-18],[-11912,-24],[-54,-4978],[-105,-9943],[-51,-5058]],[[118795,481657],[-15654,17],[-3882,-2],[-67,9935],[-11822,-150],[69,-9936],[-8497,923],[-7316,448],[-15921,-1057],[17,10064],[-34,9600],[-31,9945],[-44,9598],[-63,39950],[-15984,-51],[21,10872],[-77,9113],[31458,104],[-73,19988],[-15776,-171],[20,19939],[-7467,0],[-35,10016],[-7941,0],[43,9979],[-15,39914],[-3060,44],[-1214,16],[-2347,34],[-9257,136],[-178,59729],[-16035,-2],[33,19915],[-323,39928],[259,10172],[-7602,-144],[34,9955],[7834,21],[-54,10023],[61,9951],[7880,-187],[7769,180],[8143,-317],[7780,137],[8398,-82],[15473,778],[8224,-228],[15911,279],[-118,-20023],[16187,76],[-180,-19997],[16134,162],[-104,-20001],[15818,529]],[[437211,770819],[17891,-103],[2220,835],[1133,6094],[26,2407],[-727,4596],[-39,4351],[407,2382],[2787,8205],[1092,912],[5434,121],[5446,866],[631,-984],[11464,-168],[-42,9983],[15927,78]],[[500861,810394],[71,-29976],[12216,-4],[1779,-814],[1946,538],[19,-10762]],[[516892,769376],[19,-8889],[0,-742],[28,-39304]],[[516939,720441],[-15968,198],[38,-39986],[-31875,112]],[[469134,680765],[-15859,-33],[-33,39982],[-15959,71],[-91,39996],[19,10038]],[[810715,879551],[26954,-100],[4010,-13]],[[841679,879438],[16013,-58],[15986,-57],[7973,-66],[7982,-47],[16161,17],[122,-20202],[5506,-176],[583,-884],[5967,670],[-109,-10443],[-161,-9511],[3931,-26],[15667,-296],[-32,-25230],[3160,5195],[44549,-418],[-18,-9480],[-9320,-5069],[-2335,-1476],[-4297,-4491],[-330,-39326],[15946,-209],[-323,-19772],[15699,1013],[-74,-19933],[-15903,-814],[-47817,565],[-408,-19928],[-15816,72],[1,-19849],[-15840,-63],[40,19970],[-14431,140],[-4,9848],[14818,11130],[350,18844],[-15172,111],[-80,9989],[57,7352],[-1996,1148],[-5169,-239],[-2098,-4856],[-1838,-1694],[-623,-1409],[-2498,-963],[-1560,281],[-7458,3839],[-1713,1785],[-1393,486],[-2915,-215],[-2334,1001],[10,3352],[-9,10030],[15681,92],[-43,30017],[-15877,-17],[-8,20006],[-23917,-161],[-177,3327],[35,16639],[-11165,-105],[-1457,2487],[-120,1240],[1529,917],[-358,1757],[-1501,-65],[-2378,1658],[-286,1773],[1205,1750],[-2489,-99],[573,1399],[-1300,1409],[1549,620],[-72,2639],[-1968,1321],[195,3058],[-1290,1197],[-97,2646],[-1607,2652],[1491,722],[90,5269],[-909,3086],[-2740,3241]],[[230508,611194],[-14,-9520],[-1,-10408],[-2,-9637],[4,-9048],[-3,-346],[11611,-30],[5,350],[2988,-4],[16,-366],[16865,-69],[9770,-20],[3126,7],[10941,-32],[-47,-10541],[8021,-35],[3,10540],[7647,-23],[8266,-38],[59,-22557],[46,-7973],[-7913,-6],[-121,-10227]],[[301775,531211],[-7857,13],[64,-9821],[8,-14766],[4,-5066],[4,-5271],[2,-4737],[12,-9958],[-26,-39963],[-7485,10],[23,-9833],[-3932,63],[-21,-10391],[-4474,-19],[-7514,6],[-40,-9723],[7564,-63],[-20,-10360],[-817,13],[-31012,63],[87,29857],[-2,10139],[-46,20044],[-11365,28],[-4521,7],[-47533,179],[10,-20056],[-15918,53],[-8031,44],[-7945,36],[-16069,-47],[11,39968],[-16141,-3]],[[310184,851483],[-12,-30033],[15954,-60],[57,-59972],[-23945,124],[-30,18352],[-2687,-211],[-5285,-48],[27,-18050],[-15719,82],[-2080,400],[-3674,-375],[-14358,72],[-3781,23],[-8286,64],[-7185,16],[-96,-4772],[-8385,32],[15,4806],[-8204,-41],[-7785,3]],[[214705,781872],[-11,9812],[13,10202],[15,9843],[-20,5055],[-29,5105],[-16,9666],[-76,30311],[16072,-17],[153,19546],[329,-21],[63022,-191],[-188,-29726],[16215,26]],[[660375,860088],[15673,160],[28,-20096],[16000,186],[12,-19900],[31,-10169]],[[692119,810269],[15,-4941],[-15934,-217],[-93,14991],[-7885,11],[-34,-20026],[-24918,-111],[-905,-786],[1801,-397],[-192,913],[904,-2186],[-647,-1708],[1772,-112],[-474,-1596],[1589,-1199],[1098,507],[561,-3847],[996,-78],[651,-2731],[1009,-390],[812,-2562],[1468,-3280],[22588,-403],[15906,-58],[56,-20063],[15929,24],[-261,-60014]],[[707931,700010],[-31961,495],[39,9979],[-8010,-73],[-36,-10001],[-7998,-95]],[[659965,700315],[60,20013],[-47111,-17],[-99,-19931]],[[612815,700380],[-15944,335],[94,39991],[-15899,367],[-16237,103],[20,9870],[17,8333],[-7982,-107],[-10,1142],[-2485,5],[-3223,-1988],[-2268,-533],[-12000,782],[-4143,1872],[-3996,2137],[-6263,5430],[-1221,656],[-4383,601]],[[500861,810394],[20,10051],[6983,34],[77,5095],[297,13016],[-85,1730],[8609,33],[37,-19985],[12707,22],[3410,-186],[-88,20155],[32015,193],[7,-20031],[15926,41],[476,35741],[1080,-2222],[1332,-714],[-73,-2559],[2145,-714],[992,-2211],[1295,849],[1143,-2341],[2201,637],[967,-1593],[4316,-1362],[63,3356],[803,-2860],[1274,1895],[2540,1208],[1817,-5071],[-222,-2193],[9936,-161],[15492,-34],[27,-19990],[31975,-101],[20,39966]],[[675523,420095],[15921,-33],[4257,50],[2357,8],[-16,106],[501,385],[79,264],[-54,661],[730,1749],[5846,-13306],[2073,-9],[-2,7501],[-2391,-21],[-29,2587],[2419,-86]],[[707214,419951],[3953,-20],[2884,-15],[9076,0],[0,-704],[-26,-19273],[15903,-33],[31809,-75]],[[770813,399831],[12756,-38],[15797,-50],[2833,-7]],[[799073,320804],[-101,-29942],[-15594,23],[-146,23621],[-917,2625],[-38,3649],[-14904,-235],[-8024,-55],[-2,11020],[-3359,451],[-431,-4350],[-4061,-43],[-11,12769],[-15954,-165],[-5,-19822],[-15796,-186],[217,-20025],[-16318,-234]],[[703629,299905],[-15641,301],[-147,2],[-145,-16886],[-1575,-1],[180,-3082],[-6518,-29],[-7880,-34],[-3934,-16],[-3723,-13],[-491,-6],[293,10234],[1237,6909],[-173,1100],[-1041,1727],[-127,-1],[410,9994],[135,15050],[-7899,-94],[11,1353],[31,3675],[362,29996],[-4392,40],[-349,2113],[436,1745],[-160,2586],[-475,1240],[-1399,447],[-1100,1348],[586,450],[-1093,1290],[340,8699],[3950,33],[3925,33],[199,17394],[382,1417],[619,1207]],[[612815,700380],[-125,-34101],[29,-313],[-344,-3779],[-2684,671],[-6139,-1836],[-6871,-340],[-243,-5947],[148,-14426],[15611,84],[405,-1],[-1,-167],[-52,-9848],[-6,-1086],[-33,-8938],[-7940,47],[-126,0],[-7916,47],[-271,-187],[-39672,386],[163,19893],[-7971,14],[-39,20337],[-16042,-382],[138,-19926],[-8041,33]],[[524793,640615],[-7796,33],[-8,10021],[-9,9933],[-16,24716],[-8,15270],[-13,14785],[-4,5068]],[[697698,545668],[1211,728],[1488,-8],[-3,-825],[4650,-23],[1562,-332],[656,-414],[1979,-613],[3917,-4369],[-750,-35],[-272,54],[-1450,123],[-547,0],[1225,-2330],[700,-1448]],[[712064,536176],[1839,-1248],[293,-4993],[1092,-3],[10,-7502],[4,-2506],[-14,-6023],[-10,-4023],[-12,-5006],[-11,-4994]],[[715255,499878],[-2,-1459],[-694,204],[-6337,705],[-1309,126],[-130,13],[-6,-155]],[[706777,499312],[-5436,551],[-112,-1043],[-7160,1783],[-2735,1543],[42,-5293],[-132,18],[-4133,670],[-592,317],[-4152,-9082],[-406,-1360],[-18,-969],[176,-6226],[-475,3],[-6336,13],[-1124,27]],[[739231,590047],[5289,-55],[690,-521],[0,515],[2005,-21],[98,-406],[272,-259],[303,249],[904,-33],[180,-227],[1113,-24],[18,671],[560,-5],[40,0],[2468,-26],[-9,-651],[2069,93],[3454,176],[82,405],[458,6],[-61,-127],[22,-423],[335,-153],[304,4],[59,265],[3,315],[238,3],[66,127],[993,12],[1990,25],[1599,19],[1950,24],[4381,52],[1577,-26],[106,-1095],[3681,-51],[-5,1088],[2649,-41],[4938,-78],[3016,-46]],[[787066,589828],[-72,-10044],[-194,-3771],[-1745,-4157],[-95,-4627],[1393,-4008],[482,-1154],[250,-2361],[-167,3]],[[770974,560013],[28,1989],[-1347,327],[-378,-2331],[-4246,-38],[-2390,-21],[1,261],[-5024,-214],[-47,69],[-2413,3014],[-75,-1770],[-4567,414],[-56,-1801],[-9302,73]],[[741158,559985],[24,1532],[-1960,26],[626,3416],[-346,4991],[-280,2],[0,72],[8,10007],[169,-2],[1045,-11],[1,2516],[-1214,5],[0,2510],[0,4998]],[[770918,499703],[-8017,-105],[-86,-2347],[-424,135],[-1107,1132],[-1367,-137],[-449,-2538],[-1467,113],[-359,3695],[-2535,-14],[-138,3],[-9914,25],[-5900,40],[-121,-21],[11,-1245],[-3929,28],[-1,1244],[-4053,28],[79,-1580],[-1372,-261],[-125,1853],[-1956,16],[-1270,9],[13,-650],[-3240,242],[-1521,447],[-2869,29],[-3546,34]],[[712064,536176],[187,1629],[-125,1936],[337,-66],[1420,-880],[1365,-1066],[2,564],[-1846,1526],[667,133],[1202,0],[0,-404],[7983,-257],[0,597],[802,-567],[3886,624],[3334,-5],[7949,-18],[6466,91],[1495,21],[2447,-72],[776,-22],[81,-1848],[2472,274],[0,1432],[2115,-69],[131,4],[6,-2078],[1146,5],[-6,2134],[6772,248],[3972,-106],[3864,-135]],[[746286,658077],[4387,904],[950,-69],[2958,-163],[1018,352],[2755,-352],[10757,185],[697,432],[1785,-11],[100,-34],[-6,-567],[-100,12],[-42,-4397],[-160,-4988],[87,-388],[1803,-734],[367,-551],[13743,11907],[0,-475]],[[787385,659140],[-119,-19892],[15899,-165]],[[803165,639083],[-39,-19921],[-15877,1108],[-44,-7794],[-12,-2090],[3990,-263],[-56,-10398],[-1371,54],[-2618,102],[-72,-10053]],[[739231,590047],[2,8261],[1095,1762],[-1094,8],[2,5011],[5,6983],[0,307],[0,378],[26,5978],[-51,-46],[-59,2480],[587,3917],[-380,1996],[168,12655],[1236,-7],[122,9971],[-756,5],[147,5831],[6005,2540]],[[706777,499312],[176,-1833],[52,-249],[200,-1229],[0,-4293],[-39,-11655],[38,-10660],[-3,-3814],[-1,-2756],[1047,-2],[-1,-1854],[-1048,2],[0,-2851],[2,-3886],[0,-2860],[3,-5985],[2,-5414],[8,-15106],[1,-4916]],[[707453,591151],[89,71],[341,-1193],[7422,27],[1,2667],[1662,0],[2153,-2219],[6215,-569],[3240,-2423],[2619,-408],[-57,-3870],[104,-3],[-14,-3109],[1,-177],[4,-2360],[-63,-1374],[-21,-4310],[-2845,-5],[3,-1800],[920,-4444],[13,-5586]],[[729240,560066],[-6015,1],[-5142,10],[-593,1341],[-1100,-1345],[-1061,-3],[-6253,-12],[-1776,75],[-1115,7],[5,1485],[-4821,34],[-5,-1505],[-1205,7],[5,1506],[-2417,20]],[[695895,573977],[636,1184],[956,-12],[-97,5057],[-1875,-792]],[[707452,591836],[126,8285],[29,6395],[1849,2893],[-497,839],[-1363,5081],[-1,218],[1982,-6],[16,4463],[-1940,-22],[1,152],[4200,45],[291,4588],[-2848,169],[4,2417],[-1617,11],[21,4551],[42,12386],[11,2625],[-92,13319],[-13,420]],[[707653,660665],[2116,2244],[677,720],[633,-743],[1464,-1392],[504,-1151],[233,-385],[258,4],[103,-4418],[2387,-2243],[293,29],[460,-172],[596,-381],[345,-268],[710,-954],[448,-937],[328,-440],[559,-258],[622,-7],[898,-518],[1505,-1043],[2381,1126],[605,380],[3592,-39],[1626,-1645],[732,23]],[[731728,648197],[2064,3486],[-84,4142],[1381,1213],[3054,-120],[1669,547]],[[739812,657465],[-2,-587],[2801,867],[3675,332]],[[741158,559985],[-5843,48],[-4005,25],[-2070,8]],[[724354,779671],[16047,-193]],[[740401,779478],[7765,-90],[-434,-19881],[-7905,89],[126,-20183],[7779,-62],[-137,-19936],[-7687,56],[-78,-29905],[33,-9952],[4,-1075],[-47,-3381],[0,-828],[1,-4675],[-9,-12190]],[[731728,648197],[1,1596],[1,11519],[1690,9],[465,2002],[1219,-393],[11,-3037],[2604,2135],[1222,-416],[0,5179],[-2256,28],[0,2672],[-2358,224],[-10624,123],[-34,4408],[-7,846],[-34,4511],[28,5207],[83,14958],[-3,60010],[310,9954],[308,9939]],[[740401,779478],[442,10709],[130,9178],[31601,-413]],[[772574,798952],[15960,-69],[-593,-19919],[15965,-187],[-545,-19938],[8826,22],[-8836,-10835],[-28,-29167],[29,-1596],[-35,-1893],[-150,-39800],[301,-2056],[-151,89],[-3719,-3440],[611,-843],[3008,-1697],[-30,-8697],[-15802,214]],[[659933,660314],[6182,-2252],[1959,162],[7821,1953],[7942,206],[7921,38],[-1,9771],[3900,-44],[4144,-48],[3152,-36],[2961,-33],[1291,-15]],[[707205,670016],[161,-4677],[83,-2387],[83,-2413],[121,126]],[[682490,587585],[2,252],[-6893,-2419],[-7519,-2519],[-936,-441],[-101,-14],[-2586,-40],[-5902,979],[-3286,1025],[-748,697],[-151,164]],[[654370,585269],[2419,5421],[2687,4659],[-2458,4712],[-793,3796],[-113,4070],[40,13174],[-493,3196],[-1772,3653],[-10040,10565],[-1794,1808],[-3562,2317],[42,8199],[4803,-48],[202,-1],[-102,1279],[595,-32],[1934,-522],[5960,-294],[34,5591],[4002,-53],[-18,-2539],[2338,-558],[1504,3580],[23,2917],[125,155]],[[659965,700315],[5,-2536],[5,-17496],[-8035,40],[21,-10003],[8020,-95],[-2,-8821],[-129,-597],[240,-299],[-157,-194]],[[654370,585269],[-927,949],[-3507,635],[-2122,-60],[-1421,-961],[-1648,-2743],[-114,-4852],[-393,-1960],[-2581,-1924],[-2832,425],[-2043,3832],[82,13803],[-98,3279],[-1136,1904],[-4,-2844],[-1902,2429],[-6038,4],[-8,-6562],[-8040,-265],[-3650,-11],[-2948,-14],[3,568],[-672,2],[-3,-594],[-3288,46],[-3355,8091],[5678,-3],[10,1908],[-6972,56],[-177,-19996],[-8072,4],[-151,5210],[941,1126],[-3005,5092],[-36779,460],[-7110,-3759],[-3704,2076],[-29474,58]],[[516910,590678],[15,9928],[15530,74],[56,21901],[-2302,-264],[-1126,3695],[-602,-1309],[-1164,951],[-1064,-418],[-458,1746],[134,3522],[-1044,1027],[662,2584],[-1492,2798],[1588,2717],[-850,985]],[[803165,639083],[22910,-118],[41,19942],[47740,245],[-106,-19970],[16012,22],[0,38],[15392,-12]],[[905154,639230],[-921,-19265],[158,-20910],[-14636,201],[-6,-39998]],[[612283,552281],[-8,491],[-2313,907],[-1596,929],[-833,583],[-5339,5058],[-6088,95],[-5,-4967],[-8055,109],[0,624],[-1728,-1928],[-370,-3774],[-5887,106],[-1,5027],[-7880,-10],[8,5019],[-1291,-3],[-11427,8],[-1549,-1779],[-1586,-2404],[-1,4198],[-8006,40],[3,-11395],[-1604,-1266],[-4951,-1473],[-24,-2638],[-1080,1155],[-846,-1358],[-846,2544],[-956,-330],[-1872,1181],[-213,2298],[-1099,-1093],[-1291,510],[383,2219],[-1570,-40],[-13,9622],[-15514,56]],[[516835,560602],[26,9182],[-8127,498],[3360,-113],[157,10439],[399,0],[3558,11],[688,1336],[14,8723]],[[810715,879551],[-4182,16],[-375,0],[-16051,86],[-8028,-11],[-6951,66],[-216,-6109],[7984,-12],[-177,-4981],[-7982,13],[-312,-9961],[15923,-34],[-690,-19907],[-15939,28],[-1145,-39793]],[[724354,779671],[1195,39867],[8411,-240],[988,83],[556,1852],[-1119,1224],[520,1560],[890,779],[503,2797],[3209,1862],[1762,8333],[688,1407],[-33801,608],[6,-19966],[5,-9994],[-16048,426]],[[660375,860088],[-7987,-458],[-7970,561],[-304,17921],[639,2092],[-14409,56],[210,39982],[15930,-55],[115,30097],[27,9945],[-29,10084],[-6,5035],[11,5001],[-3982,0],[-3961,5],[-84,10086],[8005,-102],[14,-4971],[958,74],[7052,-187],[11,4988],[8034,-96],[-22,9751],[16000,102],[-25,-10016],[4,-4941],[4024,30],[-27,-9441],[-4046,-468],[-17,-5062],[-14,-10012],[8027,43],[8081,64],[12,5016],[4036,8],[19,5004],[-4037,-21],[35,9964],[4038,24],[4016,21],[4027,36],[4006,37],[4247,-88],[3660,-48],[0,5077],[16012,-175],[27,-5043],[4034,-7],[4005,-47],[35,-19999],[6767,-209],[708,3218],[739,7027],[26,5],[7354,-147],[292,-10033],[474,-7968],[3443,-1045],[785,-1891],[2162,632],[256,-1947],[1906,-875],[388,-1801],[1359,-1810],[1552,-944],[1133,333],[136,-2753],[10352,-35],[7939,-56],[-35,-14969],[-79,-5039],[4039,36],[4027,44],[28,5036],[8073,76],[-23,-5039],[11277,-329],[7947,-3],[3966,-4],[7949,-11],[33,9999],[3983,-4],[7918,-23],[-14,-10014],[-3981,20],[6,-4992],[-3970,22],[-17,-4997],[-21,-10009],[3986,-12],[-3,-1257],[-3978,29],[0,-8757],[-7,-5024],[-2,-4997]],[[516782,528299],[10892,6370],[3828,1533],[9521,2216],[3624,1392],[3673,2793],[-18,-22039],[7952,-21],[7965,-22],[35,-10164],[15972,3],[-50,7125],[1269,-860],[-425,-2025],[1325,-1706],[-553,-4747],[736,-4716],[1530,-2518],[4175,-539],[4460,-5],[890,-1],[2546,-5],[5668,-41]],[[617501,400307],[-3135,14],[2,2118],[-1570,-7],[-1,-2103],[-986,4],[41,19986],[-7899,31],[-15805,-87],[-8986,175],[-48,-9977],[1002,-6],[-88,-9977],[-2503,12],[-159,2],[12,-20358],[-15862,-29],[184,17598],[1214,2862],[-6655,29],[-9217,-321],[-2543,-6630],[-2227,-4109],[-1660,-5888],[-1195,-2772],[-1130,-1549],[-8347,-9514],[-1130,-1595],[-4500,-7860],[-9938,129],[-15961,-21],[108,37009],[435,3341],[-14232,8],[-13,19893],[15943,31],[86,40050],[15898,-57],[47,19966],[22,9959],[79,29996],[-2,7639]],[[310184,851483],[41,29679],[15861,-35],[863,13],[6541,-24],[8180,-23],[54,-19648],[7550,-76],[30,9024],[8477,-30],[140,8341],[479,2342],[7683,-15],[7708,-33],[-70,-20037],[-3873,98],[-217,-20032],[-955,33],[-10965,190],[-8589,93],[-25,-10223],[592,-9796],[8108,-91],[30,-40017],[19209,-133],[5284,14],[22,10590],[7342,55],[7,9298],[1,10274],[21,9685],[2609,-19],[1353,-18],[507,-2],[3570,-33],[4425,-36],[3446,-55],[7795,25],[240,9832],[7915,-264],[-3,430],[15555,-452],[33,-9498],[133,-25888],[11839,729],[-17,-4746],[-4205,0],[-44,-9916],[-7651,2],[-10,-694],[-457,-728],[457,-1428],[8,-7421]],[[469134,680765],[44,-19568],[4060,-457],[11943,-72],[-28,-19901],[-15903,18],[-60,-39928],[-31895,158],[-24,20008],[-16092,-82],[-32032,112],[60,-10049],[-30,-9918],[-241,-14238],[-1193,-804],[-4740,41],[-116,3],[-1872,32],[-2689,29],[-1081,4919],[29,5012],[4040,-38],[65,5209],[-5456,-148],[-2872,357],[20,-10347],[-7760,102],[0,-9998],[7776,-29],[206,0],[-15,-5011],[-21,-4158],[-2,-4061],[-13,-6756],[-7836,42],[-38,-9798],[-43,-10154],[-7964,29],[-31537,80],[1,-10190],[-15982,26],[-8068,-26]],[[770918,499703],[34,-15664],[939,-2407],[1527,-1907],[-2457,5],[1,-14946],[-13,-4004],[-4,-992],[39,-5321],[-395,-1277],[-238,-1774],[681,-1645],[-127,-9912],[10,-8631],[1,-1343],[3,-3218],[3,-1819],[5,-5017],[-114,-20000]],[[657615,159766],[28833,-36],[204,-1],[217,-2],[10420,-7],[7903,310],[11173,151],[11809,96],[7910,-96],[-65,-5202],[-82,-4930],[-11,-9965],[-7955,20],[65,-10177],[1342,804],[6606,46],[84,-10669],[105,-9925],[176,-30025],[135,-39850],[15850,-121],[103,-20232],[7830,-21],[-136,-19934],[-39262,185],[105,19894],[-16260,55],[-15994,363],[255,19698],[-35210,107],[-11973,-7],[-7865,-16],[-7933,-4],[-1,5023],[5,4959],[-28,9969],[-7834,-5],[-7939,-24],[55,20106],[7747,-18],[71,9856],[7962,-10],[14,9994],[109,19950],[-7951,-92],[-110,4981],[-3,5098],[-5540,-37],[532,1695],[-609,7567],[-13,527]],[[842322,259792],[75,-19888],[162,-19847],[-15875,113],[15,19904],[-15724,176],[-109,-19929],[-11859,447],[77,-19836],[-15740,-330],[-233,19991],[-219,19901],[-63110,-381],[-15697,-125],[-274,19978],[-12173,-330],[-993,11979],[137,2503],[901,2422],[2269,3586],[791,1154],[5918,5375],[2923,3101],[45,10149]],[[707205,670016],[591,-9],[649,4299],[-601,6480],[87,19224]],[[516782,528299],[53,32303]],[[802844,499536],[-45,-19978],[7548,15],[-12,-9973],[-13,-9971],[7940,-12],[420,-5004],[-606,-1032],[335,-1460],[-170,-2758]],[[905154,639230],[15648,-6],[-750,-20023],[47627,-96],[181,-20004],[81,-9967],[52,-5003],[53,-4983],[-15781,57],[441,-39921],[-16028,-48],[284,-19884],[7163,24],[1960,-3584],[1169,-1154],[-112,-2172],[1394,-2343],[1023,-3834],[-303,-1873],[1159,-2133],[527,1124],[2093,-2443],[532,-3597],[246,-7735],[310,-10430],[86,-19909],[-47567,12],[-117,19910],[-16841,113],[36,39976],[21,19987]]],"bbox":[-97.530148,40.407189,-96.331588,41.132719],"transform":{"scale":[0.0000011985611985611993,7.255307255307246e-7],"translate":[-97.530148,40.407189]}}
