{"type":"Topology","objects":{"foo":{"type":"GeometryCollection","geometries":[{"type":"MultiPolygon","arcs":[[[0,1]]],"properties":{"postal_code":"79350","realtor_list_price":"NA","realtor_list_price_yoy":"NA","realtor_list_price_base":"NA","realtor_active_listings":"NA","realtor_active_listings_yoy":"NA","realtor_active_listings_base":"NA","realtor_new_listings":"NA","realtor_new_listings_yoy":"NA","realtor_new_listings_base":"NA","realtor_days_on_market":"NA","realtor_days_on_market_yoy":"NA","realtor_days_on_market_base":"NA","zhvi":161645.204,"zhvi_yoy":0.1208,"zhvi_base":"NA","zori":"NA","zori_yoy":"NA","zori_base":"NA"}},{"type":"MultiPolygon","arcs":[[[2,3]]],"properties":{"postal_code":"79366","realtor_list_price":476866.667,"realtor_list_price_yoy":0.1042,"realtor_list_price_base":0.254,"realtor_active_listings":12.667,"realtor_active_listings_yoy":0,"realtor_active_listings_base":-0.1196,"realtor_new_listings":2,"realtor_new_listings_yoy":-0.5,"realtor_new_listings_base":-0.5593,"realtor_days_on_market":66.667,"realtor_days_on_market_yoy":-0.0453,"realtor_days_on_market_base":-0.0072,"zhvi":387460.804,"zhvi_yoy":0.0509,"zhvi_base":0.4535,"zori":"NA","zori_yoy":"NA","zori_base":"NA"}},{"type":"MultiPolygon","arcs":[[[4,5,6,7,8,9,10,11]]],"properties":{"postal_code":"79356","realtor_list_price":155112.5,"realtor_list_price_yoy":0.149,"realtor_list_price_base":"NA","realtor_active_listings":10,"realtor_active_listings_yoy":0,"realtor_active_listings_base":0.428,"realtor_new_listings":2.667,"realtor_new_listings_yoy":1,"realtor_new_listings_base":0.1491,"realtor_days_on_market":87,"realtor_days_on_market_yoy":0.45,"realtor_days_on_market_base":"NA","zhvi":119573.529,"zhvi_yoy":0.0153,"zhvi_base":-0.0912,"zori":"NA","zori_yoy":"NA","zori_base":"NA"}},{"type":"MultiPolygon","arcs":[[[12,13]]],"properties":{"postal_code":"79380","realtor_list_price":"NA","realtor_list_price_yoy":"NA","realtor_list_price_base":"NA","realtor_active_listings":1,"realtor_active_listings_yoy":-0.25,"realtor_active_listings_base":"NA","realtor_new_listings":0,"realtor_new_listings_yoy":"NaN","realtor_new_listings_base":"NA","realtor_days_on_market":"NA","realtor_days_on_market_yoy":"NA","realtor_days_on_market_base":"NA","zhvi":"NA","zhvi_yoy":"NA","zhvi_base":"NA","zori":"NA","zori_yoy":"NA","zori_base":"NA"}},{"type":"MultiPolygon","arcs":[[[14,15,16,17,18,19]]],"properties":{"postal_code":"79410","realtor_list_price":227800,"realtor_list_price_yoy":0.0371,"realtor_list_price_base":0.2268,"realtor_active_listings":58,"realtor_active_listings_yoy":-0.1122,"realtor_active_listings_base":0.6709,"realtor_new_listings":16.667,"realtor_new_listings_yoy":0.1364,"realtor_new_listings_base":0.0878,"realtor_days_on_market":43.6,"realtor_days_on_market_yoy":-0.2411,"realtor_days_on_market_base":0.0822,"zhvi":186165.315,"zhvi_yoy":-0.0014,"zhvi_base":0.4132,"zori":1190.238,"zori_yoy":0.0422,"zori_base":"NA"}},{"type":"MultiPolygon","arcs":[[[-19,20,21,22,23]]],"properties":{"postal_code":"79413","realtor_list_price":209018.182,"realtor_list_price_yoy":0.0587,"realtor_list_price_base":0.2076,"realtor_active_listings":112.333,"realtor_active_listings_yoy":-0.0507,"realtor_active_listings_base":0.4652,"realtor_new_listings":36.667,"realtor_new_listings_yoy":0.1224,"realtor_new_listings_base":0.1334,"realtor_days_on_market":43.273,"realtor_days_on_market_yoy":-0.1464,"realtor_days_on_market_base":0.0873,"zhvi":193473.165,"zhvi_yoy":0.0028,"zhvi_base":0.3445,"zori":1343.995,"zori_yoy":0.0263,"zori_base":"NA"}},{"type":"MultiPolygon","arcs":[[[24,25,26,27]]],"properties":{"postal_code":"79329","realtor_list_price":340194.444,"realtor_list_price_yoy":-0.1558,"realtor_list_price_base":0.3133,"realtor_active_listings":17.667,"realtor_active_listings_yoy":0.8276,"realtor_active_listings_base":1.8976,"realtor_new_listings":6,"realtor_new_listings_yoy":0.8,"realtor_new_listings_base":3.1256,"realtor_days_on_market":34.778,"realtor_days_on_market_yoy":-0.3363,"realtor_days_on_market_base":-0.4525,"zhvi":260026.165,"zhvi_yoy":0.1051,"zhvi_base":0.5304,"zori":1349,"zori_yoy":"NA","zori_base":"NA"}},{"type":"MultiPolygon","arcs":[[[-18,28,29,30,-21]]],"properties":{"postal_code":"79411","realtor_list_price":135546.529,"realtor_list_price_yoy":-0.0888,"realtor_list_price_base":0.3863,"realtor_active_listings":48,"realtor_active_listings_yoy":-0.2258,"realtor_active_listings_base":1.183,"realtor_new_listings":11.333,"realtor_new_listings_yoy":0.1333,"realtor_new_listings_base":0.2878,"realtor_days_on_market":55.471,"realtor_days_on_market_yoy":-0.1595,"realtor_days_on_market_base":0.2007,"zhvi":100584.02,"zhvi_yoy":-0.0244,"zhvi_base":0.3246,"zori":1029.31,"zori_yoy":0.0153,"zori_base":"NA"}},{"type":"MultiPolygon","arcs":[[[31,32]]],"properties":{"postal_code":"79243","realtor_list_price":105000,"realtor_list_price_yoy":"NA","realtor_list_price_base":"NA","realtor_active_listings":1,"realtor_active_listings_yoy":0,"realtor_active_listings_base":"NA","realtor_new_listings":0.667,"realtor_new_listings_yoy":"Inf","realtor_new_listings_base":"NA","realtor_days_on_market":9,"realtor_days_on_market_yoy":"NA","realtor_days_on_market_base":"NA","zhvi":"NA","zhvi_yoy":"NA","zhvi_base":"NA","zori":"NA","zori_yoy":"NA","zori_base":"NA"}},{"type":"MultiPolygon","arcs":[[[33,34,35,36,-12,37,38,39]]],"properties":{"postal_code":"79381","realtor_list_price":467185,"realtor_list_price_yoy":-0.2209,"realtor_list_price_base":"NA","realtor_active_listings":15,"realtor_active_listings_yoy":-0.0426,"realtor_active_listings_base":1.4193,"realtor_new_listings":3.333,"realtor_new_listings_yoy":0,"realtor_new_listings_base":1.3953,"realtor_days_on_market":47.2,"realtor_days_on_market_yoy":-0.0084,"realtor_days_on_market_base":"NA","zhvi":334977.388,"zhvi_yoy":0.0353,"zhvi_base":"NA","zori":"NA","zori_yoy":"NA","zori_base":"NA"}},{"type":"MultiPolygon","arcs":[[[40,41,42,-29,-17,43],[44]]],"properties":{"postal_code":"79401","realtor_list_price":214462.6,"realtor_list_price_yoy":0.1971,"realtor_list_price_base":0.1051,"realtor_active_listings":13.667,"realtor_active_listings_yoy":-0.3881,"realtor_active_listings_base":0.2212,"realtor_new_listings":3.333,"realtor_new_listings_yoy":-0.1667,"realtor_new_listings_base":0.0522,"realtor_days_on_market":67.4,"realtor_days_on_market_yoy":0.3391,"realtor_days_on_market_base":0.0184,"zhvi":153318.962,"zhvi_yoy":0.0455,"zhvi_base":0.3558,"zori":946.889,"zori_yoy":0.0376,"zori_base":"NA"}},{"type":"MultiPolygon","arcs":[[[45,-30,-43,46,47,-4,48,49]]],"properties":{"postal_code":"79404","realtor_list_price":115411.765,"realtor_list_price_yoy":-0.2586,"realtor_list_price_base":0.3135,"realtor_active_listings":46.667,"realtor_active_listings_yoy":-0.125,"realtor_active_listings_base":1.6085,"realtor_new_listings":11.333,"realtor_new_listings_yoy":-0.0556,"realtor_new_listings_base":1.0308,"realtor_days_on_market":76.588,"realtor_days_on_market_yoy":0.0637,"realtor_days_on_market_base":0.5029,"zhvi":99574.864,"zhvi_yoy":0.0232,"zhvi_base":0.3834,"zori":1214.167,"zori_yoy":"NA","zori_base":"NA"}},{"type":"MultiPolygon","arcs":[[[-23,50,-50,51,-36,52]]],"properties":{"postal_code":"79423","realtor_list_price":334777.971,"realtor_list_price_yoy":0.0428,"realtor_list_price_base":0.208,"realtor_active_listings":222.667,"realtor_active_listings_yoy":-0.1722,"realtor_active_listings_base":0.054,"realtor_new_listings":92.667,"realtor_new_listings_yoy":-0.0608,"realtor_new_listings_base":0.1289,"realtor_days_on_market":39.281,"realtor_days_on_market_yoy":-0.1579,"realtor_days_on_market_base":-0.1654,"zhvi":237301.058,"zhvi_yoy":0.0267,"zhvi_base":0.3174,"zori":1444.904,"zori_yoy":0.0143,"zori_base":0.2755}},{"type":"MultiPolygon","arcs":[[[-14,53,54,55,56,57,58,59,60,61,62,63,64]]],"properties":{"postal_code":"79336","realtor_list_price":189489.13,"realtor_list_price_yoy":-0.069,"realtor_list_price_base":0.1824,"realtor_active_listings":49.333,"realtor_active_listings_yoy":0.0725,"realtor_active_listings_base":-0.0284,"realtor_new_listings":15.333,"realtor_new_listings_yoy":-0.0417,"realtor_new_listings_base":-0.0634,"realtor_days_on_market":62.565,"realtor_days_on_market_yoy":0.3359,"realtor_days_on_market_base":0.1372,"zhvi":165899.129,"zhvi_yoy":0.0149,"zhvi_base":0.2422,"zori":"NA","zori_yoy":"NA","zori_base":"NA"}},{"type":"MultiPolygon","arcs":[[[65,-57]]],"properties":{"postal_code":"79367","realtor_list_price":"NA","realtor_list_price_yoy":"NA","realtor_list_price_base":"NA","realtor_active_listings":3.333,"realtor_active_listings_yoy":0.6667,"realtor_active_listings_base":1.3098,"realtor_new_listings":0,"realtor_new_listings_yoy":"NaN","realtor_new_listings_base":"NA","realtor_days_on_market":"NA","realtor_days_on_market_yoy":"NA","realtor_days_on_market_base":"NA","zhvi":174958.938,"zhvi_yoy":-0.0023,"zhvi_base":"NA","zori":"NA","zori_yoy":"NA","zori_base":"NA"}},{"type":"MultiPolygon","arcs":[[[66,67,-6,68,69,70]]],"properties":{"postal_code":"79357","realtor_list_price":109000,"realtor_list_price_yoy":-0.1395,"realtor_list_price_base":"NA","realtor_active_listings":5.667,"realtor_active_listings_yoy":0.4167,"realtor_active_listings_base":-0.1485,"realtor_new_listings":4,"realtor_new_listings_yoy":1,"realtor_new_listings_base":0.2225,"realtor_days_on_market":24.333,"realtor_days_on_market_yoy":-0.2981,"realtor_days_on_market_base":"NA","zhvi":83528.056,"zhvi_yoy":0.0215,"zhvi_base":"NA","zori":"NA","zori_yoy":"NA","zori_base":"NA"}},{"type":"MultiPolygon","arcs":[[[71,-71,72,73,74,-27]]],"properties":{"postal_code":"79343","realtor_list_price":"NA","realtor_list_price_yoy":"NA","realtor_list_price_base":"NA","realtor_active_listings":2,"realtor_active_listings_yoy":-0.3333,"realtor_active_listings_base":-0.4219,"realtor_new_listings":0,"realtor_new_listings_yoy":"NaN","realtor_new_listings_base":-1,"realtor_days_on_market":"NA","realtor_days_on_market_yoy":"NA","realtor_days_on_market_base":"NA","zhvi":104209.401,"zhvi_yoy":-0.0084,"zhvi_base":0.1016,"zori":"NA","zori_yoy":"NA","zori_base":"NA"}},{"type":"MultiPolygon","arcs":[[[75,76,-61]]],"properties":{"postal_code":"79372","realtor_list_price":"NA","realtor_list_price_yoy":"NA","realtor_list_price_base":"NA","realtor_active_listings":3,"realtor_active_listings_yoy":0.8,"realtor_active_listings_base":-0.0467,"realtor_new_listings":0,"realtor_new_listings_yoy":"NaN","realtor_new_listings_base":-1,"realtor_days_on_market":"NA","realtor_days_on_market_yoy":"NA","realtor_days_on_market_base":"NA","zhvi":144604.704,"zhvi_yoy":-0.0118,"zhvi_base":"NA","zori":"NA","zori_yoy":"NA","zori_base":"NA"}},{"type":"MultiPolygon","arcs":[[[77,78,-2,79,-41,80,81,82,83]]],"properties":{"postal_code":"79415","realtor_list_price":165602.333,"realtor_list_price_yoy":0.5419,"realtor_list_price_base":0.4851,"realtor_active_listings":55.333,"realtor_active_listings_yoy":0.7292,"realtor_active_listings_base":1.776,"realtor_new_listings":12,"realtor_new_listings_yoy":0.3846,"realtor_new_listings_base":1.0624,"realtor_days_on_market":55.833,"realtor_days_on_market_yoy":-0.2254,"realtor_days_on_market_base":0.2554,"zhvi":101534.253,"zhvi_yoy":0.0155,"zhvi_base":0.3346,"zori":925.333,"zori_yoy":"NA","zori_base":"NA"}},{"type":"MultiPolygon","arcs":[[[84,-39]]],"properties":{"postal_code":"79383","realtor_list_price":620000,"realtor_list_price_yoy":0.1093,"realtor_list_price_base":"NA","realtor_active_listings":9.333,"realtor_active_listings_yoy":0.75,"realtor_active_listings_base":1.1241,"realtor_new_listings":1.333,"realtor_new_listings_yoy":-0.3333,"realtor_new_listings_base":0.5111,"realtor_days_on_market":82,"realtor_days_on_market_yoy":0.4643,"realtor_days_on_market_base":"NA","zhvi":"NA","zhvi_yoy":"NA","zhvi_base":"NA","zori":"NA","zori_yoy":"NA","zori_base":"NA"}},{"type":"MultiPolygon","arcs":[[[-25,85,-78,86,87]]],"properties":{"postal_code":"79311","realtor_list_price":304056.25,"realtor_list_price_yoy":0.6806,"realtor_list_price_base":0.7133,"realtor_active_listings":19.333,"realtor_active_listings_yoy":0.234,"realtor_active_listings_base":1.5674,"realtor_new_listings":5.333,"realtor_new_listings_yoy":0,"realtor_new_listings_base":0.3167,"realtor_days_on_market":48.25,"realtor_days_on_market_yoy":-0.3912,"realtor_days_on_market_base":0.0021,"zhvi":181159.364,"zhvi_yoy":0.0648,"zhvi_base":0.4635,"zori":"NA","zori_yoy":"NA","zori_base":"NA"}},{"type":"MultiPolygon","arcs":[[[88,89]]],"properties":{"postal_code":"79316","realtor_list_price":191740.385,"realtor_list_price_yoy":-0.1045,"realtor_list_price_base":0.3325,"realtor_active_listings":28.667,"realtor_active_listings_yoy":-0.0652,"realtor_active_listings_base":0.2516,"realtor_new_listings":8.667,"realtor_new_listings_yoy":0.625,"realtor_new_listings_base":0.803,"realtor_days_on_market":69.077,"realtor_days_on_market_yoy":-0.0236,"realtor_days_on_market_base":-0.043,"zhvi":126032.366,"zhvi_yoy":-0.0356,"zhvi_base":-0.1647,"zori":"NA","zori_yoy":"NA","zori_base":"NA"}},{"type":"MultiPolygon","arcs":[[[90,-32,91,-7,-68]]],"properties":{"postal_code":"79322","realtor_list_price":120125,"realtor_list_price_yoy":0.2012,"realtor_list_price_base":"NA","realtor_active_listings":5.667,"realtor_active_listings_yoy":-0.4848,"realtor_active_listings_base":0.4406,"realtor_new_listings":0.667,"realtor_new_listings_yoy":-0.5,"realtor_new_listings_base":-0.4844,"realtor_days_on_market":62,"realtor_days_on_market_yoy":-0.225,"realtor_days_on_market_base":"NA","zhvi":72802.193,"zhvi_yoy":0.0332,"zhvi_base":-0.0772,"zori":"NA","zori_yoy":"NA","zori_base":"NA"}},{"type":"MultiPolygon","arcs":[[[-62,-77,92,93,94,95,-89,96]]],"properties":{"postal_code":"79345","realtor_list_price":"NA","realtor_list_price_yoy":"NA","realtor_list_price_base":"NA","realtor_active_listings":0.667,"realtor_active_listings_yoy":-0.3333,"realtor_active_listings_base":-0.4815,"realtor_new_listings":0,"realtor_new_listings_yoy":"NaN","realtor_new_listings_base":-1,"realtor_days_on_market":"NA","realtor_days_on_market_yoy":"NA","realtor_days_on_market_base":"NA","zhvi":170983.627,"zhvi_yoy":-0.0177,"zhvi_base":"NA","zori":"NA","zori_yoy":"NA","zori_base":"NA"}},{"type":"MultiPolygon","arcs":[[[97,98,99,-94,-59]]],"properties":{"postal_code":"79358","realtor_list_price":"NA","realtor_list_price_yoy":"NA","realtor_list_price_base":"NA","realtor_active_listings":4.667,"realtor_active_listings_yoy":-0.2222,"realtor_active_listings_base":2.0359,"realtor_new_listings":0,"realtor_new_listings_yoy":-1,"realtor_new_listings_base":"NA","realtor_days_on_market":"NA","realtor_days_on_market_yoy":"NA","realtor_days_on_market_base":"NA","zhvi":271725.046,"zhvi_yoy":0.0448,"zhvi_base":0.5268,"zori":"NA","zori_yoy":"NA","zori_base":"NA"}},{"type":"MultiPolygon","arcs":[[[-55,100,-87,-84,101,102]]],"properties":{"postal_code":"79363","realtor_list_price":461538.462,"realtor_list_price_yoy":0.129,"realtor_list_price_base":0.6543,"realtor_active_listings":25.667,"realtor_active_listings_yoy":-0.1979,"realtor_active_listings_base":0.2679,"realtor_new_listings":8.667,"realtor_new_listings_yoy":-0.1875,"realtor_new_listings_base":0.0454,"realtor_days_on_market":55.308,"realtor_days_on_market_yoy":0.1404,"realtor_days_on_market_base":0.3454,"zhvi":308759.33,"zhvi_yoy":0.041,"zhvi_base":0.3649,"zori":"NA","zori_yoy":"NA","zori_base":"NA"}},{"type":"MultiPolygon","arcs":[[[-49,-3,-48,103,-74,104,-69,-5,-37,-52]]],"properties":{"postal_code":"79364","realtor_list_price":142928.125,"realtor_list_price_yoy":0.0688,"realtor_list_price_base":-0.2091,"realtor_active_listings":23,"realtor_active_listings_yoy":-0.25,"realtor_active_listings_base":0.4647,"realtor_new_listings":5.333,"realtor_new_listings_yoy":0,"realtor_new_listings_base":-0.1458,"realtor_days_on_market":72.875,"realtor_days_on_market_yoy":-0.0185,"realtor_days_on_market_base":0.2198,"zhvi":145190.846,"zhvi_yoy":0.0774,"zhvi_base":0.5061,"zori":962.5,"zori_yoy":"NA","zori_base":"NA"}},{"type":"MultiPolygon","arcs":[[[-64,105]]],"properties":{"postal_code":"79379","realtor_list_price":"NA","realtor_list_price_yoy":"NA","realtor_list_price_base":"NA","realtor_active_listings":1,"realtor_active_listings_yoy":0.5,"realtor_active_listings_base":"NA","realtor_new_listings":0,"realtor_new_listings_yoy":-1,"realtor_new_listings_base":"NA","realtor_days_on_market":"NA","realtor_days_on_market_yoy":"NA","realtor_days_on_market_base":"NA","zhvi":"NA","zhvi_yoy":"NA","zhvi_base":"NA","zori":"NA","zori_yoy":"NA","zori_base":"NA"}},{"type":"MultiPolygon","arcs":[[[106,107,-34,108,-99]]],"properties":{"postal_code":"79382","realtor_list_price":299700.472,"realtor_list_price_yoy":-0.1423,"realtor_list_price_base":0.0244,"realtor_active_listings":96,"realtor_active_listings_yoy":0.1566,"realtor_active_listings_base":1.2656,"realtor_new_listings":35.333,"realtor_new_listings_yoy":0.5143,"realtor_new_listings_base":1.9969,"realtor_days_on_market":42.604,"realtor_days_on_market_yoy":-0.1129,"realtor_days_on_market_base":-0.0478,"zhvi":273848.586,"zhvi_yoy":0.0083,"zhvi_base":0.4363,"zori":1551.722,"zori_yoy":"NA","zori_base":"NA"}},{"type":"MultiPolygon","arcs":[[[-86,-28,-75,-104,-47,-42,-80,-1,-79]]],"properties":{"postal_code":"79403","realtor_list_price":112118.056,"realtor_list_price_yoy":-0.0872,"realtor_list_price_base":-0.0181,"realtor_active_listings":65.667,"realtor_active_listings_yoy":0.0314,"realtor_active_listings_base":2.6847,"realtor_new_listings":12,"realtor_new_listings_yoy":0,"realtor_new_listings_base":0.73,"realtor_days_on_market":58.444,"realtor_days_on_market_yoy":-0.0009,"realtor_days_on_market_base":0.2592,"zhvi":105174.032,"zhvi_yoy":0.0824,"zhvi_base":0.3352,"zori":1079.302,"zori_yoy":0.0025,"zori_base":"NA"}},{"type":"MultiPolygon","arcs":[[[-31,-46,-51,-22]]],"properties":{"postal_code":"79412","realtor_list_price":141257,"realtor_list_price_yoy":-0.0509,"realtor_list_price_base":0.5159,"realtor_active_listings":70.667,"realtor_active_listings_yoy":0.1398,"realtor_active_listings_base":1.3988,"realtor_new_listings":16.667,"realtor_new_listings_yoy":-0.1071,"realtor_new_listings_base":-0.1063,"realtor_days_on_market":68.2,"realtor_days_on_market_yoy":0.173,"realtor_days_on_market_base":0.728,"zhvi":119237.213,"zhvi_yoy":-0.0143,"zhvi_base":0.2968,"zori":981.833,"zori_yoy":0.0262,"zori_base":"NA"}},{"type":"MultiPolygon","arcs":[[[-103,109,-82,-15,110,111,-107,-98,-58,-66,-56]]],"properties":{"postal_code":"79407","realtor_list_price":286158.333,"realtor_list_price_yoy":0.0406,"realtor_list_price_base":-0.0046,"realtor_active_listings":155.667,"realtor_active_listings_yoy":0.0566,"realtor_active_listings_base":2.0572,"realtor_new_listings":48,"realtor_new_listings_yoy":0.125,"realtor_new_listings_base":1.0477,"realtor_days_on_market":48.292,"realtor_days_on_market_yoy":-0.0649,"realtor_days_on_market_base":-0.0826,"zhvi":226954.919,"zhvi_yoy":0.0149,"zhvi_base":0.371,"zori":1529.662,"zori_yoy":0.0419,"zori_base":"NA"}},{"type":"MultiPolygon","arcs":[[[-111,-20,-24,112]]],"properties":{"postal_code":"79414","realtor_list_price":156430.208,"realtor_list_price_yoy":-0.0484,"realtor_list_price_base":0.3096,"realtor_active_listings":54.333,"realtor_active_listings_yoy":-0.0944,"realtor_active_listings_base":0.8074,"realtor_new_listings":16,"realtor_new_listings_yoy":-0.2727,"realtor_new_listings_base":0.0375,"realtor_days_on_market":47.167,"realtor_days_on_market_yoy":-0.0828,"realtor_days_on_market_base":0.2642,"zhvi":154870.069,"zhvi_yoy":0.0024,"zhvi_base":0.3771,"zori":1087.304,"zori_yoy":-0.0099,"zori_base":"NA"}},{"type":"MultiPolygon","arcs":[[[-112,-113,-53,-35,-108]]],"properties":{"postal_code":"79424","realtor_list_price":391700.321,"realtor_list_price_yoy":-0.0147,"realtor_list_price_base":0.2127,"realtor_active_listings":263.333,"realtor_active_listings_yoy":-0.145,"realtor_active_listings_base":-0.1973,"realtor_new_listings":104,"realtor_new_listings_yoy":0.1064,"realtor_new_listings_base":-0.0726,"realtor_days_on_market":40.077,"realtor_days_on_market_yoy":-0.2318,"realtor_days_on_market_base":-0.1288,"zhvi":304555.254,"zhvi_yoy":0.038,"zhvi_base":0.3484,"zori":1582.348,"zori_yoy":0.0155,"zori_base":0.2409}},{"type":"MultiPolygon","arcs":[[[-9,113]]],"properties":{"postal_code":"79330","realtor_list_price":299500,"realtor_list_price_yoy":"NA","realtor_list_price_base":"NA","realtor_active_listings":4.667,"realtor_active_listings_yoy":-0.125,"realtor_active_listings_base":-0.381,"realtor_new_listings":0.667,"realtor_new_listings_yoy":"Inf","realtor_new_listings_base":-0.2425,"realtor_days_on_market":72,"realtor_days_on_market_yoy":"NA","realtor_days_on_market_base":"NA","zhvi":"NA","zhvi_yoy":"NA","zhvi_base":"NA","zori":"NA","zori_yoy":"NA","zori_base":"NA"}},{"type":"MultiPolygon","arcs":[[[-83,-110,-102]]],"properties":{"postal_code":"79416","realtor_list_price":225797.68,"realtor_list_price_yoy":-0.0513,"realtor_list_price_base":0.2172,"realtor_active_listings":146.333,"realtor_active_listings_yoy":-0.1701,"realtor_active_listings_base":0.283,"realtor_new_listings":64.667,"realtor_new_listings_yoy":0.0778,"realtor_new_listings_base":0.1638,"realtor_days_on_market":42.907,"realtor_days_on_market_yoy":-0.1003,"realtor_days_on_market_base":0.0822,"zhvi":205699.981,"zhvi_yoy":0.0135,"zhvi_base":0.337,"zori":1449.602,"zori_yoy":0.0098,"zori_base":"NA"}},{"type":"MultiPolygon","arcs":[[[-95,-100,-109,-40,-85,-38,-11,114]]],"properties":{"postal_code":"79373","realtor_list_price":229562.25,"realtor_list_price_yoy":-0.0597,"realtor_list_price_base":-0.0006,"realtor_active_listings":30.333,"realtor_active_listings_yoy":1.2195,"realtor_active_listings_base":1.6674,"realtor_new_listings":2.667,"realtor_new_listings_yoy":0.3333,"realtor_new_listings_base":0.8621,"realtor_days_on_market":79,"realtor_days_on_market_yoy":0.0922,"realtor_days_on_market_base":-0.1605,"zhvi":166294.404,"zhvi_yoy":0.1641,"zhvi_base":0.1861,"zori":"NA","zori_yoy":"NA","zori_base":"NA"}}]}},"arcs":[[[494413,789606],[157,-8],[286,-7359],[556,-5509],[1780,-547],[2,-973],[16680,122],[49,-14445],[-9594,-27],[-468,107],[-8371,-4],[-542,0],[-1668,8],[356,-4496],[-91,-2054]],[[493545,754421],[-181,3875],[-1175,4342],[-177,1369],[-43,7679],[230,3387],[1791,7106],[386,2196],[37,5231]],[[577853,577045],[4125,6],[-258,-1882],[2785,5],[-55,-5376],[61,-7240],[13,-2426],[-1689,1801],[-192,629],[-7695,24],[-24,3594],[-2954,50]],[[571970,566230],[-3,3616],[3217,-13],[984,-5],[-3,4145],[2148,1166],[-460,1906]],[[640598,384824],[9181,-68],[27,14339],[907,-1840],[-507,-2418],[-30,-10078],[9577,-82],[-164,10427],[-2386,4039],[12214,-210],[67,-5169],[5040,-105],[1004,546],[2533,-724],[2096,264],[3489,-194],[-153,-1428],[1976,-3320],[2794,-2162],[3582,-2071],[3508,-3484],[790,-1116],[2413,-274],[254,12342],[2078,1218],[3130,-610],[476,1127],[1378,5549],[1783,2485],[-573,4261],[-2008,-1391],[-2755,-2442],[-717,-1140],[-1632,-1257],[-1273,980],[180,14050],[816,274],[17988,-311],[645,-721],[1608,1256],[-833,1114],[423,1501],[-16,2366],[521,1387],[-1416,1081],[-750,2034],[920,2538],[-288,801],[-1825,1146],[-896,1243],[-152,2941],[425,1325],[404,4],[-115,14145],[-2779,58],[219,3338],[1603,822],[2601,159],[1331,-707],[423,-1458],[1089,341],[106,5743],[-1421,-74],[684,1165],[269,5313],[-212,3966],[-5203,-387],[-593,-9091],[-2436,90],[231,5650],[-91,1345]],[[712157,465265],[816,3190],[121,2006],[681,0],[4,6129],[-488,977],[755,1053],[1346,3625],[3676,4694],[1423,2143],[90,1595],[-711,2666],[-1997,2508],[55,2438],[-305,2701],[3060,253],[107,28391],[390,607],[16317,29],[12069,1],[20,14418],[13960,13],[779,-669],[15150,-197],[51,11110],[8303,-109]],[[787829,554837],[317,-228],[3501,130],[29360,-211],[1773,1139],[2201,370],[4535,-7056],[3000,-2403],[12811,-15136],[486,-994],[300,-1764],[121,-10356],[17906,455],[493,54],[1319,316],[2607,1211],[2539,579],[16678,388]],[[887776,521331],[655,-1377],[-197,-1457],[325,-3078],[1123,-1553],[77,-3191],[1395,-1344],[334,-1162],[7817,4],[378,-1456],[4450,-7205],[-120,-5565],[230,-21107],[-3104,-547],[-1661,-1389],[-1872,-1003],[-2084,-206],[-1796,-957],[-1252,-2337],[-1136,-3387],[-3728,-226],[-710,1300],[-1150,-227],[-560,-1139],[-1120,24],[-453,888],[-1785,275],[-514,1072],[-1769,1141],[-953,1141],[-1165,-68],[-2148,-1800],[342,-2946],[214,-14292],[-8160,-178],[-1305,-657],[-221,-2616],[317,-8425],[2008,9],[-38,-868],[-182,-39042],[8792,300],[-515,-2507],[589,-1300],[-454,-4764],[-1014,-4830],[408,-2212],[4081,3737],[4278,1386],[1918,-1664],[3592,-2034],[1467,-2188],[1314,140],[1637,-1028],[2875,4505],[1608,3673],[1769,-1411],[4499,1953],[1849,1695],[350,1073],[187,4682],[1787,1028],[483,-409],[500,-3486],[91,-2417],[12711,185],[1617,-478],[75,-2559],[1650,-75],[1802,-2986],[841,-345],[305,-2219],[2472,-2059],[-2,-3530],[3086,40],[260,1331],[1538,1489],[-16,-33706],[12,-53188],[73,-20263],[52,-53682],[36,-34980],[1,-2619],[5,-3684]],[[936867,176974],[-940,1327],[-1477,867],[-61,1094],[-8202,-271],[226,-1779],[-1221,-1458],[-2985,-5061],[-3137,-798],[-1538,250],[-7673,-321],[-3543,-776],[664,-1026],[-2956,-5774],[-3030,-1347],[-1672,-2919],[-361,-3146],[227,-3190],[-2759,338],[-828,-593],[-1146,159],[-2984,-1075],[-2452,933],[-1991,1235],[301,-1412],[-1267,-1275],[331,-4014],[-272,-2210],[-2716,-14057],[-4817,-595],[26,-9983],[-1088,-2240],[-2543,-649],[-5926,-165],[-287,595],[-2531,843],[-2772,-477],[-1160,-1209],[-2712,-1913],[-46,-3168],[-3676,-206],[-160,-2418],[-607,-1942],[-2251,-1605],[-522,-823],[-2500,-1692],[-1040,1025],[-723,-569],[-1597,592],[467,2941],[-1010,2416],[-75,2371],[-935,3099],[-256,2871],[-5210,1218],[-815,-434],[-2081,-80],[-694,843],[-3100,-4329],[-1300,-3083],[-335,-2039],[-3041,3759],[-1479,3210],[-3092,11729],[-1278,3244],[-1258,2068],[-5326,6711],[-4030,6456],[-803,1050],[-2232,2778],[-385,-537],[2294,-3878],[-15,-7562],[-690,-1480],[-88,-5039],[-1447,-2125],[-3076,-1033],[-2110,-1647],[-104,-1177],[-1389,-972],[-153,1642],[-2300,101],[-2096,630],[-1222,-2727],[-13,-2444],[357,-567],[-693,-1209],[-949,-250],[-768,-2029],[-1884,-2710],[-1024,-2486],[-30,-2370],[-452,-1322],[-513,-3509],[241,-3147],[-693,-775],[-1906,388],[-2721,-295],[-3379,-685],[43,5216],[-1189,-2574],[-2100,-2255],[-1205,-754],[-2473,-272],[-1016,-999],[-760,1074],[-6,1530],[-2631,174],[-1875,3122],[-1910,209],[-2889,917],[-2544,96],[-783,-957],[-2243,-1507],[-271,-1526],[-1280,-2463],[-3072,-1667],[-843,22],[-2056,1778],[-1168,3627],[-601,3647],[-406,1003],[-2470,823],[-1324,3283],[-15,3167],[258,3806],[-949,1824],[-1009,776],[-1341,-547],[-1869,1597],[-1099,252],[-1296,-638],[-1431,275],[-1130,-1436],[-257,-2552],[-1838,-2826],[-191,-1587],[73,-2601],[473,-3823],[667,-14590],[3368,-34048],[-120,-2891],[-1452,-6386],[-691,-1601],[-4056,-7840],[-617,-1718],[-1084,-4074],[-691,-1754],[-3924,-6963]],[[724089,27030],[-1144,657],[-4008,-419],[-4304,2552],[-809,4475],[-1060,2618],[-3039,550],[-1187,845],[-90,1888],[774,2841],[-126,1090],[-1180,2074],[-160,1534],[-1400,4261],[572,957],[1656,822],[-211,979],[-91,5061],[-1114,1776],[-618,206],[30,2803],[-1777,934],[-5751,2073],[-2590,-868],[-2348,362],[-1522,958],[-798,-184],[-976,3685],[-2453,2263],[-3064,7289],[-334,5219],[588,1573],[-845,3646],[-141,3579],[-661,5308],[-2872,309],[-626,2725],[317,3055],[-693,410],[230,3023],[-521,5320],[77,1545],[-388,4206],[-40,4431],[-749,3844],[-4962,-3337],[-1086,-1552],[-1196,-2871],[-4328,2030],[-3521,341],[-1718,-2665],[-984,-2883],[-94,-1391],[-1374,-2767],[-849,-643],[91,-1633],[-507,-1936],[434,-3519],[-1704,-17],[-238,-3013],[-366,-872],[-2781,-4437],[-1390,-1476],[-844,-224],[-115,-1256],[-1759,-1170],[12,-19198],[-16218,80]],[[633146,74896],[-320,2781],[-158,464],[719,1060],[3583,8355],[396,1959],[800,1942],[3580,12618],[-1597,342],[-353,10163],[-1010,4200],[-20515,-279],[61,9766],[9657,166],[145,18841],[-19512,165],[28,14768],[9792,-77],[7,7097],[4846,78],[4911,223],[1,2959],[-1430,16],[-8,2241],[1449,-30],[53,16966],[-9758,81],[38,14907],[167,44819],[7,7374],[-9764,106],[-9805,-3],[-5,7289],[-5,252],[-9811,-268],[6,-1231],[-9860,83],[-3,7171],[-5015,53],[35,7093],[-4737,-14]],[[569761,279392],[-78,18569],[9813,-44],[-46,7072],[-786,3302],[6659,8],[2917,-1535],[1000,1281],[868,209],[95,4545],[9015,-21],[6621,5],[25,14441],[9606,-5],[12,14442],[19694,-72],[60,14398],[5257,-39],[105,28876]],[[217627,776982],[17,7382],[10191,-35],[-88,-7550],[709,-12]],[[228456,776767],[-709,-1005],[-4,-6517],[-10133,80],[17,7657]],[[447262,601738],[15,929],[3581,3492],[73,-144],[3130,3488],[757,-474],[2055,2263],[0,2163],[2378,2611],[745,236]],[[459996,616302],[463,-33],[1214,-24],[4737,1],[3653,9],[1182,-2],[1731,-1],[2419,92],[591,-121]],[[475986,616223],[1855,-18]],[[477841,616205],[0,-1206],[-1777,-21],[15,-4222],[-2,-1652],[-6,-820],[3,-214],[9,-1464],[-2,-4363],[-51,-466]],[[476030,601777],[-1152,-1],[0,-935],[-2400,2],[-1,929],[-1208,-3],[4,-459],[-1190,-465],[-1203,17],[0,900],[-1201,-1],[-1,-888],[-1239,-15],[-2358,-23],[-2398,-7],[-1,939],[-1198,-1],[-3629,-6],[-1,-964]],[[456854,600796],[-2370,9],[-1,955],[-2406,6],[-3593,-10],[-1,-921],[-1235,-7],[14,910]],[[476030,601777],[35,-428]],[[476065,601349],[13,-4993],[-1,-1804],[5,-7255],[45,-7159],[12,-3556],[2195,-11],[608,-1324],[-435,-2355],[-2416,4],[5,-4875]],[[476096,568021],[-4790,-13],[-4813,-4],[-4791,-6],[-1831,70],[-1476,404],[-2592,1223]],[[455803,569695],[4,476],[-3166,1331],[1838,139],[23,1226],[650,5],[-22,975],[792,-145],[872,1434],[107,670],[1,683],[-2,2713],[-2,887],[-8,3620],[-4,3596],[-1,3632],[1,3612],[-32,6247]],[[528091,818755],[13714,0],[-192,359],[-325,1842],[9650,25],[-16,14443],[19221,66],[0,14396]],[[570143,849886],[9656,17],[2,14443],[3840,14],[2879,-14441],[2903,6],[33,-14434],[9606,-10],[25,-14417],[19251,58]],[[618338,821122],[-2,-14441],[18,-14475],[-9628,-9],[40,-43324],[9615,17],[22,-43640],[9602,8],[11,-14128],[-9637,-4],[-9585,-33],[5,-14418]],[[608799,676675],[-7887,-11],[0,11821],[-11186,20],[1272,-4267],[255,-1636],[53,-8539],[-9608,-33],[16,14442],[-1761,4],[-17485,-3],[-190,4052],[-40,11081],[-9612,-95],[-9622,-122],[-73,14467],[-35,14490],[-9637,-87],[-100,43222],[-167,28903],[-4824,-50],[-77,14421]],[[477841,616205],[2366,20],[565,-3],[620,-3],[-2,-988],[651,-3],[2,539],[1207,-5],[0,449],[1227,-6],[5344,76]],[[489821,616281],[-6,-6351],[515,4],[319,28],[-465,-2296],[-89,-2319],[1,-3564]],[[490096,601783],[-2410,-4],[5,-915],[-3261,20],[0,897],[-1148,2],[-3,-1296],[-2403,833],[-4811,29]],[[935859,721885],[-104,48391],[-10644,-11],[-8,-3604],[-7224,-39]],[[917879,766622],[-6,32559],[-7541,-13],[-51,8108],[-4362,27],[-11,15236],[-4552,2],[-1,15264],[-6909,-15],[-36,31757],[-2974,-9],[-178,1001],[44170,343],[32986,231],[-1213,-1478],[-2082,-890],[-2417,-366],[-2841,-4015],[-1002,-2188],[-1065,-1276],[-1703,-5377],[-413,-5994],[-715,-1824],[-61,-1435],[-1536,-3920],[91,-1162],[1048,-161],[273,-844],[1976,1024],[998,-319],[2180,90],[1656,-341],[1276,457],[2082,-500],[593,-1686],[-273,-2075],[381,-1413],[2188,-888],[2400,48],[108,-4536],[1854,-501],[2445,321],[163,-3313],[731,-2614],[4076,-772],[622,3078],[896,456],[763,2194],[-62,-16988],[6,-7934],[18161,-246],[1,-111],[-1184,-713],[-1948,-2597],[-1001,-4151],[-95,-5172],[-342,-832],[-791,-370],[-9554,188],[-63,-7282],[-4801,88],[-196,-571],[-9465,-212],[20,-13477],[-3235,62],[-55,-29135],[9679,-260],[380,-821],[1214,-91],[1305,1641],[-106,-2871],[622,-1414],[669,-4171],[1504,-5926],[128,-3355],[-719,-6128],[-227,-5973],[289,-3510],[-910,-2804],[-211,-4332],[-1038,-138],[-4985,3223],[-1048,879],[-571,648],[-10551,15324],[-610,820],[-2064,1688],[-1995,543],[-22185,-527]],[[414624,429903],[9613,215]],[[424237,430118],[19171,422],[19400,283]],[[462808,430823],[-10,-6426],[19468,93],[161,-43328],[29036,193],[-7,19475],[9038,-23],[38,23755]],[[520532,424562],[8139,-65],[44,-8257],[458,-1491],[874,-940],[6046,-209],[25894,54],[15,-22838],[4117,15],[4616,530],[9,-9581],[568,-211],[-2835,-5853],[8689,-51],[1,-5309],[9595,17],[-8,21649],[-9532,-8],[-67,1856],[-10,19809],[9569,69],[314,-557],[-305,-737],[23,-13148],[9606,38],[4,-28867],[9580,79],[0,10034],[9553,169],[-2,4274],[19703,-160],[5408,-49]],[[569761,279392],[-9241,9],[-620,-31],[-28194,-18],[12,71],[3095,18697],[1672,10194],[-15135,37],[14,14426],[-9759,4],[-19310,97],[-99,14872],[-9745,53],[-95,14510],[-9983,-10],[-36,14353],[-14369,-67]],[[457968,366589],[-3948,-29],[-35,3156],[635,1057],[-1436,619],[-415,766],[-349,-3574],[765,0],[7,-9272]],[[453192,359312],[16,-3592],[-9591,-114],[-64,25326],[-19152,-107],[-56,14445],[-9601,-42],[-120,34675]],[[475987,630602],[4769,154],[64,-1],[1115,-4],[6,-3198],[1845,6],[2,3198],[705,2],[-5,826],[485,40],[-3,932],[-488,4],[292,2813],[13,128],[470,4306],[258,1021]],[[485515,640829],[1119,-1831],[1822,-708],[47,-2146],[1049,1720],[1723,-537],[232,-835],[1934,-3580],[1187,-375],[1003,-1756],[1958,74],[956,-716],[226,-845],[-1455,-230],[-2556,742],[201,-799],[-12,-7056],[928,18],[20,-1173],[1780,-3227],[1116,-1177]],[[498793,616392],[-1432,-74],[-75,-8],[-2158,3890],[687,-2177],[-22,-311],[-611,-1481],[-224,5],[-348,-3],[-307,-564],[-295,-99],[-489,-48],[1,681],[-3021,72],[-678,6]],[[475986,616223],[-20,3839],[-678,499],[-1105,-1],[341,1887],[1445,325],[0,75],[-1,3772],[19,3983]],[[491170,619197],[653,3],[672,4],[-43,918],[-1286,-10],[4,-915]],[[485697,568007],[4841,-206],[-109,5103],[-1145,-10],[-420,2479],[-792,-245],[-222,4994],[129,0],[1749,-3034],[614,-778],[-50,973],[-215,3752],[-5,6310],[9,7225],[170,1788],[-1,5425],[-154,0]],[[498793,616392],[2475,113],[43,-477],[1512,-1756],[2065,525],[-1,-574],[2017,-609],[2537,-4621],[2294,-842],[640,-1105],[1510,-3093],[654,-1002],[7323,10839],[1,-16690],[-276,-6117],[-3,-3558],[122,-1],[2099,5],[109,-8746],[533,20],[49,-4318],[1491,7],[11,-1215],[0,-90],[5989,-38],[-1107,-2194],[-795,-274],[-339,-1097],[723,-1658],[1817,486],[632,807],[1868,-787],[1112,386],[603,148],[1023,-1674],[1561,1518],[2190,-2133],[847,503],[348,-827],[1102,1610],[-839,917],[40,3633],[1213,913],[1569,368],[1455,1060],[807,850],[1723,456],[320,-618],[1065,-673],[454,345],[676,-1339],[556,559],[258,-955],[3224,205],[137,0],[-516,1426],[8671,73],[5386,5358],[5143,-50],[2072,236]],[[576986,580627],[867,-3582]],[[571970,566230],[0,-530],[-3668,11],[-3815,-2661],[16,-1247],[-3375,9],[-425,2942],[-2895,7],[-1475,-2184],[-469,-2407],[-1005,2],[588,2741],[-364,1867],[-91,12],[207,-2514],[-662,-1681],[194,-1655],[-9432,-116],[151,-18064],[-3844,3637],[-15402,-107],[106,-14451],[-9579,-175],[101,-14483]],[[516832,515183],[-11353,-189],[-552,76],[-1,7350],[-12097,23],[-2353,-10],[-121,7223],[-142,-2],[2,7182],[11,7230],[4,972],[16,4337],[326,3631],[80,5062],[127,0],[-2,459],[-1028,-1],[12,5291],[-2865,-7],[-2,1914],[1240,11],[-48,1143],[-2399,409],[10,720]],[[476096,568021],[4799,35],[4802,-49]],[[516832,515183],[261,-28805],[-6371,-60],[27,-3757],[9785,92],[-156,-14662],[6213,50],[81,-35741],[-6117,-128],[-23,-7610]],[[462808,430823],[15,8046],[-9495,-70],[-158,14478],[9635,36],[-63,32897],[-5746,-20],[-3,2491],[-10,7455],[-10,10430],[0,1148],[-1,118],[3,7263],[-7,6037],[-13,8369],[-4,4524],[-9,3922],[921,130],[798,3],[181,378],[-162,455],[-13,1117],[-1728,-4],[-10,623],[504,2568],[4,783],[-10,2073],[-515,2711],[-1,1600],[6,4270],[1843,1765],[-220,2036],[-1603,-3],[-14,6224],[-262,979],[-360,1059],[511,269],[-13,1231],[60,333],[-1066,531],[10,617]],[[228456,776767],[9674,-204],[108,15580],[10114,-151],[20522,-392],[-4,7543],[10107,-333],[17,-38272],[5,-3261],[-358,-43176],[1027,-373],[1396,-110],[45785,-677]],[[326849,712941],[9672,-70],[-79,-14544],[-9764,179],[83,-9189],[1198,-2141],[-212,-4031],[-1089,-4]],[[326658,683141],[-19264,328],[-12,-1877],[-2464,-643],[-1314,659],[-5800,156],[-91,-10459],[1713,-137],[-348,-5332],[-1046,-729],[-172,-27707],[-486,-1438],[-1714,-3399],[-2154,-1919],[-2638,-437],[-833,-4481]],[[290035,625726],[-11991,3041],[-16,-255],[0,-222],[5696,-1456],[-136,-16068],[13426,-240],[126,-7206],[-47,-4243],[6530,-126]],[[303623,598951],[-62,-7267],[-43,-4144],[-6528,168],[-51,-11450],[6472,-138],[-121,-14845],[-140,-15159]],[[303150,546116],[-148,-15636],[-107,-11427],[-20047,629],[-13428,422],[-102,-11864],[-33563,767],[18,5548],[-6252,154],[-77,-10988],[6265,-129],[-134,-16898],[-12590,438],[-111,-16233],[-6319,167],[-72,-5297],[-6246,214],[39,5226],[-751,-656],[-14,-1550],[-4084,408],[-4926,-38],[-2778,5599],[-1434,4442],[-409,3279],[-17,2051],[-9645,275],[-94,-15610],[-288,-2780],[1058,-1209],[816,-3078],[-2177,663],[-121,1778],[-1179,1597],[-227,-661],[-8980,-20093],[4284,-128],[-131,-17611]],[[179179,427887],[-20923,-123],[-2161,-9],[-20,15556],[-236,1231],[-739,1178],[-933,469],[-4774,110]],[[149393,446299],[-14224,358],[-947,118],[-1011,972],[-512,2349],[418,36176],[4744,-138],[25,4451],[141,4513],[4762,-117],[179,16191],[-9553,230],[-43,-3208],[-1395,-3],[37,-4141],[-956,92],[-2655,-315],[-340,-7055],[-94,-1408],[-2013,54],[-2390,67],[184,16174],[-9667,259],[-715,-64671],[-3556,-116],[-2540,-5816],[852,-13474]],[[108124,427841],[-33304,-48]],[[74820,427793],[-526,20561],[31722,-890],[78,1418],[3538,-138],[138,5356],[-75,2871],[-2209,93],[-30,-2667],[-2631,-90],[-15,5561],[-2041,-637],[-30,2598],[-4099,296],[-530,479],[-361,4992],[408,2393],[-242,3077],[2360,90],[-60,6222],[6747,-93],[198,6244],[3948,135],[273,1914],[183,8237],[-9489,278],[-223,3842],[1120,1550],[4978,-162],[1,5196],[-2709,-614],[-36,5042],[-2131,67],[50,3939],[2074,342],[77,6814],[2724,-69],[198,3002],[1952,-64],[-31,-3031],[2981,-47],[240,2382],[109,13208],[127,15873],[-9751,301],[76,3509],[-2755,184],[-3768,-89],[-63,-2828],[-7070,206],[-101,-8676],[-8353,363],[4,7993],[-2150,67],[151,7977],[711,0],[75,4422],[4892,-45],[4904,134],[88,8025],[13902,-429],[86,7914],[5526,-141],[237,23806],[-5044,133],[94,11661],[-13531,254],[86,9101],[-22136,373]],[[69686,627578],[-388,14390],[-225,1],[-2647,61],[-1303,377],[-667,405],[-1204,1213],[-1292,1989],[-4485,6965],[46,13038],[-2351,70]],[[55170,666087],[2,5037],[-2668,139],[96,8985],[-4408,60],[94,13782],[90,1312],[-36,4050],[-511,1289],[-270,363],[-63,807],[131,16522],[187,22909],[15395,-302],[3315,-82],[-1042,38062],[8152,-153],[169,15701],[22390,-301],[-1482,1630],[-247,2002],[311,42392],[5070,-83],[99,11248],[-5079,90],[28,3945],[60,6856],[10489,-17],[-175,-22182],[10115,-170],[-311,-46023],[4116,-75],[9037,-102],[1063,-193],[-43,-11428],[5414,-22],[-6,1350],[8865,-201],[31,-2575],[5586,-226],[395,615],[304,12419],[11595,-132],[-283,-37859],[30832,-759],[28,7598],[20567,-494],[38,15200],[5017,-89]],[[290035,625726],[12710,-3199],[6099,-206],[100,7235],[2233,-51],[272,1553],[1381,-2],[3,6042],[1240,-49],[1324,-26],[146,17508],[20624,-443],[-93,-14958],[-245,-1323],[-670,-1177],[-10972,208],[-154,-14805],[-5053,80],[0,-215],[-5040,97],[-23,-1902],[-123,-13420],[-10091,200],[-80,-7922]],[[685737,806643],[-5,35822],[-4618,116],[-277,25714],[9631,94],[9698,168],[19241,336],[19152,332],[14535,-32],[-9,-19329],[19207,12],[0,-28893]],[[772292,820983],[-5,-28886],[19221,-45],[19,-14410],[-9644,11],[0,-14448],[9645,-32],[-9,-28857],[1272,-27],[-16,-14451],[-70,-7014],[-4732,8],[-9631,3],[13,-11102],[2,-3532],[8748,-50],[831,-76],[25,-7],[13,-5],[-9,-14284],[4,-28893],[-140,-100049]],[[712157,465265],[-879,-1054],[-357,613],[-6161,4405],[-1861,705],[-2057,-160]],[[700842,469774],[272,6928],[-8154,292],[-697,2416],[-4670,4349],[-1080,-389],[-1014,2689],[-652,2803],[-1045,2689],[-410,4169],[830,2896],[-1151,2802],[-1121,5080],[-1442,35],[307,11489],[-104,517],[-878,4224],[-4888,2617],[-1092,-58],[-169,198],[-286,4806]],[[673398,530326],[4,43294],[9596,9],[4,7416],[9433,-191],[438,183],[9342,-34],[2,36073],[-20,14312],[-3377,12],[-9587,51],[-30,26342],[-199,1134],[-1326,1363],[11145,-20],[23,28979],[1,14347],[22,1606],[-9629,4],[61,71092],[-1190,522],[-1470,13],[-967,637],[145,6470],[446,1320],[-493,2080],[-35,19303]],[[618338,821122],[9616,3],[9641,13],[-8,14434],[8749,-8],[879,-4],[22,-44993],[1364,1513],[17888,163],[-3,14439],[19251,-39]],[[673398,530326],[-18896,-52],[-333,582],[-39,5422],[-1359,1258],[-3696,-18]],[[649075,537518],[-109,1360],[-317,34752],[-4062,4],[-10,16321],[-9583,67],[-34,43324],[2680,2],[-2,14453],[-24022,-19]],[[613616,647782],[-7,14453],[-5,14444],[-4805,-4]],[[149393,446299],[-55,-5500],[224,-1191],[-32,-3697],[3504,-107],[-81,-8066],[-3506,-17]],[[149447,427721],[-20874,-89],[-1482,240],[-18967,-31]],[[418299,818338],[28327,-64],[146,14497],[9528,-25],[-8,-14463],[19494,-21],[9445,-1]],[[485231,818261],[-9,-2579],[-403,-2859],[6,-9030],[-9601,50],[165,-28885],[9603,119],[-77,14442],[9498,87]],[[493545,754421],[3,-931],[-274,-9],[-22,3304],[-173,1358],[-934,2815],[-2222,10],[-905,4],[-8674,17],[-50,-3300],[130,-31811],[259,-608],[-101,-7965],[4720,-4],[105,-1],[59,-14443],[207,-21],[126,-14154],[-764,-237],[-82,-304],[117,-34],[-553,-2703],[-237,-3962],[10,-7450],[-8322,4],[95,-14360],[2,-187],[8355,-54],[46,0],[14,-14389],[1,-3412],[1034,-765]],[[475987,630602],[-1579,20],[-726,-65],[-2385,-1833],[-5230,-5544],[-4952,-5756],[-1119,-1122]],[[459996,616302],[-505,21]],[[459491,616323],[3361,3328],[-1183,-653],[16,1404],[-2239,98],[28,4072],[-267,1018],[796,582],[-59,2182],[306,2303],[79,5697],[-2474,1968],[-331,399],[-474,1543],[-5,4847],[-364,1611],[-108,592],[314,4461],[-20,7797],[-30,2447],[-1878,1839],[-128,365],[-187,182],[-4103,4035],[-3130,2747],[-1143,986],[-2261,1967],[-218,215],[-454,448],[-5715,7835],[-4471,5819]],[[433149,688457],[-5304,6930],[105,7457],[25,28860],[-72,0],[-9740,-2],[14,4808],[33,9543],[9653,89],[-32,14409],[49,28838],[41,14450],[-9664,12],[42,14487]],[[457968,366589],[50,-7311],[-4826,34]],[[528091,818755],[-23274,-159],[7,13917],[-428,225],[-9891,24],[17,-14402],[-9291,-99]],[[418299,818338],[-9612,-2],[3,28868],[-381,15286],[-9678,-109],[106,-13700],[-9514,-908],[-103,902],[-112,13896],[-32187,-597]],[[356821,861974],[-194,40785],[-162,14922],[-12,1716],[-22,4019],[811,-764],[196,27283],[41385,728],[78,-13615],[1460,-47],[3443,907],[1383,92],[875,1294],[1624,-585],[1515,-842],[3345,-66],[730,-2688],[1080,-887],[47,-3099],[1307,-386],[199,-2985],[11722,81],[-1,14426],[19271,-14],[-10,14443],[-9627,14],[-7,14431],[-10,28862],[9644,-9],[19298,-4],[9642,0],[-9,-14533],[3,-14376],[-9635,28],[-3,-14424],[19038,-9],[270,-14443],[9677,-10],[3,4076],[2769,77],[1689,2598],[5262,295],[72,7351],[4644,-8],[21,14411],[14904,19],[52,-14424],[9198,35],[-27,14479],[13219,168],[6548,28],[-15,-526],[-560,-14019],[-20,-43335],[20078,-35],[122,-11390],[317,-3018],[1784,-5758],[-251,-2],[-724,-18685],[74,-8092],[-4162,-97],[-26,-16481]],[[137676,308979],[28490,-104],[-1,14401],[19136,107],[-19,-14517],[19575,-208],[-162,13713],[1615,175],[541,598],[6894,-92],[358,9741],[-27,4344],[104,-4],[-59,7447],[8482,161],[690,273],[9515,12661],[-27,8429],[-44,14437],[9550,-124],[67,-14441],[9571,-114],[38,-14421],[38299,-31],[14,-14401],[38299,59],[-3,14474],[9563,51],[24,-14505],[9577,24]],[[347736,337112],[35,-14463],[-19174,-2],[12,-14454],[-9544,-10],[-21,14359],[-18103,52],[-695,2692],[-2731,2170],[-1389,2903],[164,-1547],[-1029,-1084],[526,-5084],[-15044,-143],[27,-14425],[4840,-3],[-4,-14377],[4831,-82],[41,-14387],[38244,104],[49,-23800],[120,-3669],[27,-8547],[2335,-6859],[63,-14930],[16017,33],[770,-28],[19,-14104],[17,-14525],[8107,111],[-126,-28895],[-7928,-97],[28,-15698],[-3319,-121],[-104,-7543],[-391,-1504],[799,-3258],[1,-1869],[542,-1549],[-315,-3258],[-1717,-1277],[-5408,-482],[-3178,112],[-1279,-689],[-181,661],[-4645,134],[-3,-6997],[-96,-962],[-59,-27820],[-4710,-473],[-95,-9947],[-1296,-2119],[-104,-1857],[15765,55],[9,14395],[4497,5],[45,-28557],[-19138,58],[231,-781],[3372,227],[255,-3509],[4666,110],[256,-7863],[5865,-10],[-4,-2743],[4472,-39],[4998,-20],[-7,-18172],[9572,-107],[-84,-25216],[4727,-8],[-66,-4353],[-26747,-409],[-525,162],[-12021,-133],[-6,4243],[-28662,207],[121,28961],[16023,-145],[-6491,11138],[40,3322],[-2044,137],[-4284,7399],[-3243,5985],[-107,-5808],[93,-7578],[-19105,-20],[0,-7534],[6652,-10],[993,513],[-9,-502],[1895,-11],[-1,-35868],[-24991,56],[-3605,-25],[-10,14485],[7492,50],[1898,-110],[-67,10806],[213,3763],[-19083,-35],[-9,-14485],[-19076,0],[-35,28881],[-9583,-89],[-9533,57],[4,-14554],[9529,-41],[35,-14316],[-9551,28],[11,-14035],[9557,-373],[13063,-27],[-7,-4925],[-14320,-53],[-42920,-84],[-199,3041],[-1587,1906],[-11348,45],[-8,14418],[9476,14],[-3,28983],[31,28873],[9519,-28],[13,14461],[-9350,25],[-4,1897],[-476,10],[-2680,-4232],[-1137,1647],[-320,294],[-513,276],[-23688,56],[-9542,-17],[-5,14530],[-3449,-5],[-32,14396],[-9849,48],[-761,588],[-40,13866],[-8530,-87],[47,14556],[-64,14349],[-2,166],[-68,15254],[-594,987],[52,14433],[-17259,-22570],[-1842,34],[63,12071],[-242,8911],[317,1733],[-196,342],[0,5219],[136,2058],[4614,-165],[151,6923],[-4738,104],[258,28416],[157,377],[527,48],[18430,-363],[-167,-21665],[9386,-207],[-15,-7268],[1194,-19],[8623,11195],[138,17597],[9587,-190],[95,14660],[-4767,224],[315,24858],[-105,3934],[106,14614],[4362,43],[-18,13315]],[[772292,820983],[19245,-9],[-11,14427],[153,0],[-53,34397],[14472,294],[12702,179],[961,-8665],[454,-1282],[3984,-4462],[1987,-295],[18302,59],[21,-3196],[6862,-16],[-5,646],[9051,29],[39,-15265],[4548,-17],[47,-21220],[9014,-508],[-11,-16895],[538,-25],[-12,-14445],[9635,-28],[-29,-14411],[9636,-120],[71,-7115],[9574,-55],[-7,-7179],[14414,43],[5,10773]],[[935859,721885],[236,-52324],[-902,3241],[-923,2233],[-3977,5297],[-1790,-1914],[-625,-4290],[-4974,-1025],[-106,-5859],[273,-2462],[-351,-3932],[46,-6019],[713,-2302],[-652,-2142],[-61,-2736],[592,-2256],[76,-2324],[-485,-2439],[-197,-6884],[76,-1733],[-3168,-160],[121,-2826],[-302,-3169],[-1015,-1687],[-334,-1892],[-1985,-4833],[-1302,-2553],[-1818,-5198],[955,-2690],[-257,-1550],[-743,-1367],[-817,-3534],[-1621,-2576],[-166,-3829],[-469,-1710],[-3984,-4516],[-894,-1595],[-1408,-1050],[-1515,1481],[-1878,-777],[-909,-980],[-1893,-503],[-3377,-1917],[-1167,2187],[-2701,1351],[-1660,3869],[-136,1801],[-2559,4698],[-544,3442],[-2181,1119],[-1152,137],[-1908,3261],[-499,3784],[-832,3510],[-1801,10236],[-1060,4878],[-787,5174],[-1409,4491],[-1647,270],[-1089,-990],[-1873,-2526],[-2115,-2230],[-1056,-2124],[-1541,-1507],[-528,-4602],[-1101,-3323],[-977,-411],[-110,-1567],[643,-2561],[-818,-2530],[-831,-1062],[-2129,-5284],[-61,-2211],[-743,-4445],[148,-3970],[-1334,-2982],[-361,-3929],[-393,-2103],[-712,-1508],[-1104,-1076],[1590,-1550],[3650,-8571],[-182,-3852],[-560,-3374],[454,571],[1560,228],[1909,820],[2408,227],[470,-457],[408,-3350],[696,-1846],[4331,-4628],[2104,-1847],[1802,-2486],[651,-1459],[5253,-1508],[1756,-1049],[1076,683],[2301,-617],[2438,43],[-92,-3738],[1247,-4942],[-13,-1703],[-655,-1899],[703,-2484],[197,-3605],[-404,-1915],[-60,-3492],[452,-4686],[-1635,-34]],[[149447,427721],[1,-3240],[-1561,-77],[-13825,120],[-60,-3793],[-6620,-5],[-14,-3693],[1103,-67],[130,-16066],[2690,-673],[2192,686],[2297,70],[1148,867],[86,-6027],[10919,-212],[8169,205],[28,-14453],[19151,-297],[457,-14477],[9232,-35],[77,14439],[-121,14630],[1118,66],[107,5401],[260,5584],[-6579,-779],[-162,1126],[363,7438],[497,2151],[-498,546],[212,4285],[-1089,2758],[24,3688]],[[179179,427887],[17156,87],[13547,35],[11166,81],[7110,50],[23722,173],[-19,-4673],[19145,-53],[26,-14395],[23905,-56],[107,7163],[1179,160],[24,7102],[7089,7],[2259,5055],[13479,-175],[-112,-19197],[9551,55],[76,14875],[21346,136],[174,3373],[272,570],[3160,48],[2,519],[8708,58],[4612,32]],[[366863,428917],[-21,-15323],[11989,-209],[-78,-18105],[12069,-82],[-47,-7063],[4836,129],[8,-7361],[-9610,-54],[19,-14491],[-9599,-23],[13,-14462],[-9595,-63],[41,-14440],[-4637,-33],[5,-3505]],[[362256,333832],[-152,3505],[-14368,-225]],[[137676,308979],[-22733,75],[-3396,1239],[-3087,48],[27,8011],[-3299,-10],[-67,1579],[-3639,479],[-15,2394],[-951,365],[-105,9549],[-1087,479],[-3564,1],[-60,-936],[-2372,-521],[0,-1504],[-1072,-1460],[-1329,23],[-45,2576],[-5995,-958],[-76,6268],[996,546],[91,3670],[377,638],[-15,2690],[1918,5903],[-3444,570],[-46,20467],[-181,911],[211,7727],[-1859,0],[-544,661],[-91,2780],[-7314,-365],[244,31589],[-334,13330]],[[303150,546116],[50472,-1058]],[[353622,545058],[-151,-15217],[-298,-30072],[556,309],[7271,8002],[19,-536],[3,-230],[107,-6797],[31029,106],[34,-3538],[2071,-37],[304,-10922],[-8828,17],[47,-18756],[-9536,-37],[39,-38369]],[[376289,428981],[-9426,-64]],[[326849,712941],[113,14488],[19282,-339],[210,29195],[9405,-87],[222,404],[247,4080],[1762,-50],[2436,-35],[-25,29686],[-2832,2793],[-307,25153],[3150,125],[1,28884],[-3503,-2],[-189,14738]],[[433149,688457],[-134,-112],[1002,-1315],[91,-9819],[-4160,-208],[11,-1412],[-1233,-238],[67,-1327],[-782,-2],[-1326,-14],[-870,853],[30,1784],[-2183,17],[10,4400],[-5300,-2],[31,-7056],[-9619,-62],[-4,-7163],[-4,-7254],[-9647,-32],[-9637,3],[-19304,-53],[-40,-14508]],[[370148,644937],[-9341,-18],[1,-1828],[-1266,37],[-37,3373],[-6894,128],[-76,-6546],[-6914,-139],[205,28669],[-19261,144],[93,14384]],[[576986,580627],[2,3575],[-2072,-8],[-33,14485],[9601,1],[-7,17487],[7391,15],[-193,2210],[0,6291],[2867,0],[-4,-8495],[15243,28],[-10,15155],[3193,2],[5,1099],[1020,6],[454,-823],[282,1682],[-1096,-2],[-13,14447]],[[649075,537518],[47,-7215],[234,-35307],[250,-37960],[96,-14476],[57,-8525],[19526,65],[212,3699],[2661,-367],[2405,2984],[1981,728],[-922,1550],[-604,3169],[-1254,2029],[-666,-113],[-696,1071],[-1058,274],[-2722,-2391],[-3841,-1297],[-605,-501],[-3388,-4238],[-1481,-615],[-2117,844],[802,1185],[-60,7748],[-1083,4597],[-1412,1054],[-152,1448],[4716,-34],[2204,-1438],[10200,-391],[645,7792],[12142,14],[1266,-1423],[1732,2382],[674,1987],[1119,1551],[4856,-498],[3417,595],[1493,1769],[1093,510]],[[69686,627578],[1622,-60539],[529,-28601],[1151,-41536],[-7676,408],[-281,-26530],[-1226,-22],[-29,-4787],[-2950,89],[29,4740],[-1998,1481],[-1009,-687],[-2416,1323],[-1725,-113],[-1519,-2311],[-798,-3166],[-565,-1257],[289,-12592],[-3539,-1182],[-969,-1709],[-2798,230],[-1361,-524],[-908,-1002],[18522,-234],[106,-2508],[1137,-5924],[31,-2531],[651,-3418],[1045,-6899],[-63031,-186],[1271,1460],[241,479],[-818,6998],[-46,4398],[596,1855],[2956,486],[276,404],[1427,6261],[1208,6505],[365,672],[6158,8197],[2012,1981],[226,5033],[593,106],[294,32971],[-1009,415],[-1786,2726],[225,19564],[595,454],[2569,8064],[14063,43212],[34748,-1016],[153,14815],[-6673,545],[-2059,3755],[-470,365],[-1849,-2824],[-2060,845],[-2560,1894],[-530,729],[188,8731],[348,17817],[-587,-3],[-2755,-3660],[-4552,1539],[-14058,-144],[-170,-2344],[-167,-7634],[19,-4996],[-10725,89],[109,10195],[5945,-159],[107,10416],[259,23772],[-1289,388],[-1340,1255],[4,643],[104,-6],[126,10785],[15376,-259],[10118,-197],[33,3816],[1920,-2970],[871,214],[5170,-141]],[[353622,545058],[123,13054],[6811,19],[-229,17184],[582,-185],[3,-2384],[28789,89],[4794,6],[4799,1],[3596,17],[6002,21],[12,-13084]],[[408904,559796],[-1048,-1375],[1037,-37],[-12,-5351],[-15,-9051],[45,-7414],[9594,96],[4,-7166],[1,-265],[-12,-14282],[-50,-1904],[37,-808],[35,-26201],[3761,29],[-33,-4098],[1835,17],[154,-51868]],[[414624,429903],[-9568,-298],[-992,-435],[-8575,-56],[-19200,-133]],[[370148,644937],[253,-24061],[1313,-146],[9591,-4420],[714,-93],[4648,-63],[1479,-36],[325,-14],[1194,18],[7219,17],[2376,9],[-3,1382],[7190,425],[241,-836],[2173,417],[4276,147],[1,-1502],[5330,18],[9582,8],[36,4525],[3330,2],[-867,-809],[2,-1614],[-1000,-26],[-15,-2080],[3345,-1],[2578,5],[2205,-2],[2117,2],[-5,1172],[2697,-13],[517,1238],[1430,23],[24,-2416],[2832,1],[2398,-1],[3361,1],[2637,3],[0,1552],[1204,-1],[1,-236],[999,5],[5,-1317],[1610,103]],[[447262,601738],[-550,11],[-3007,-3339],[298,-648],[-1525,-962],[-1,232],[-3332,-4089],[-1251,-1307]],[[437894,591636],[-209,4],[4,-211],[-2866,-2437],[-6732,-7925],[-19,-3526],[785,-84],[-1681,-56],[1,-148],[8,-4404],[-5212,-38],[-868,375],[-774,-868],[-1707,-1844],[-139,-607],[8,-5048],[-2979,0],[-3,-1584],[-1815,-151],[-5,2178],[-4787,-5466]],[[455803,569695],[-3719,1816],[-4778,2327],[-3327,1721],[-2629,3320],[-552,1179],[-243,724],[-1611,6545],[-1050,4309]],[[936867,176974],[-57,-36528],[16,-43724],[93,-43209],[-1697,694],[-1460,-521],[-557,-1020],[-419,-2157],[250,-5708],[-120,-763],[-3246,-6991],[-2203,-5618],[-377,-615],[-533,-802],[-13200,-275],[-3839,43],[-1851,-1459],[-59,-3306],[-3143,-3446],[-1368,-1828],[-2377,-919],[-886,1251],[-1340,1060],[-15012,7279],[-1957,1389],[-7019,7224],[-222,-924],[-1688,-28513],[379,-1781],[-10786,-952],[-136134,-1446],[-12908,-200],[313,1783],[3133,5992],[1882,2858],[810,1759],[2333,6547],[1100,2497],[1371,2385]],[[633146,74896],[-1891,158],[602,-4004],[137,-6405],[-135,-1845],[828,-2393],[11035,-134],[-391,-10711],[-2065,-8703],[-1535,-5073],[-1699,-6200],[-135,-1322],[181,-4968],[-406,-4103],[-646,-4626],[-1067,-5926],[-209,-6016],[-3592,-81],[-52894,514],[-15,7156],[-9523,202],[-29,7190],[-5258,28],[-54,14471],[-19335,79],[-13,-14464],[-4849,27],[65,28893],[-9636,29],[40,28887],[-19332,52],[13,14453],[-9625,50],[-28433,97],[-1051,1373],[-28723,97],[-41,-14428],[-9540,14],[-15,-14425],[-14386,52],[60,14438],[-4746,2],[-9562,26],[-6,14575],[-4511,31],[-299,4780],[80,9559],[-4804,17],[27,29100],[101,28757],[-9530,-15],[-58,14407],[-9515,-19],[9,6800],[-9562,105],[37,-6842],[-4789,27],[-202,14177],[4949,-175],[9,14314],[9593,11],[-9,14598],[-14543,-88],[-4,36183],[2201,2484],[1313,251],[-30,2666],[1418,2256],[211,4238],[875,3895],[-664,502],[106,1822],[805,2753],[757,945],[-2476,47],[-2790,1659],[-395,5268],[-441,2446],[-890,341],[36,3821],[-2,1167],[-20,14190],[2,14458],[-9,10964]]],"bbox":[-102.729911,32.95872,-100.924586,33.963338],"transform":{"scale":[0.0000018053268053268017,0.0000010046190046190053],"translate":[-102.729911,32.95872]}}
