{"type":"Topology","objects":{"foo":{"type":"GeometryCollection","geometries":[{"type":"MultiPolygon","arcs":[[[0,1]]],"properties":{"postal_code":"61470","realtor_list_price":"NA","realtor_list_price_yoy":"NA","realtor_list_price_base":"NA","realtor_active_listings":2.667,"realtor_active_listings_yoy":1.6667,"realtor_active_listings_base":"NA","realtor_new_listings":0,"realtor_new_listings_yoy":-1,"realtor_new_listings_base":"NA","realtor_days_on_market":"NA","realtor_days_on_market_yoy":"NA","realtor_days_on_market_base":"NA","zhvi":"NA","zhvi_yoy":"NA","zhvi_base":"NA","zori":"NA","zori_yoy":"NA","zori_base":"NA"}},{"type":"MultiPolygon","arcs":[[[2,3,4]]],"properties":{"postal_code":"61475","realtor_list_price":"NA","realtor_list_price_yoy":"NA","realtor_list_price_base":"NA","realtor_active_listings":1,"realtor_active_listings_yoy":0,"realtor_active_listings_base":-0.4902,"realtor_new_listings":0,"realtor_new_listings_yoy":-1,"realtor_new_listings_base":"NA","realtor_days_on_market":"NA","realtor_days_on_market_yoy":"NA","realtor_days_on_market_base":"NA","zhvi":"NA","zhvi_yoy":"NA","zhvi_base":"NA","zori":"NA","zori_yoy":"NA","zori_base":"NA"}},{"type":"MultiPolygon","arcs":[[[5,6,7]]],"properties":{"postal_code":"62367","realtor_list_price":127450,"realtor_list_price_yoy":1.3194,"realtor_list_price_base":"NA","realtor_active_listings":1.333,"realtor_active_listings_yoy":-0.5556,"realtor_active_listings_base":-0.6481,"realtor_new_listings":0.667,"realtor_new_listings_yoy":0,"realtor_new_listings_base":1.8421,"realtor_days_on_market":10,"realtor_days_on_market_yoy":-0.7826,"realtor_days_on_market_base":"NA","zhvi":118562.756,"zhvi_yoy":0.07,"zhvi_base":-0.0698,"zori":"NA","zori_yoy":"NA","zori_base":"NA"}},{"type":"MultiPolygon","arcs":[[[-5,8,9]]],"properties":{"postal_code":"61420","realtor_list_price":63425,"realtor_list_price_yoy":"NA","realtor_list_price_base":"NA","realtor_active_listings":4,"realtor_active_listings_yoy":3,"realtor_active_listings_base":-0.5025,"realtor_new_listings":1.333,"realtor_new_listings_yoy":"Inf","realtor_new_listings_base":0.0385,"realtor_days_on_market":61,"realtor_days_on_market_yoy":"NA","realtor_days_on_market_base":"NA","zhvi":93740.958,"zhvi_yoy":0.0505,"zhvi_base":0.3054,"zori":"NA","zori_yoy":"NA","zori_base":"NA"}},{"type":"MultiPolygon","arcs":[[[10,11,12]]],"properties":{"postal_code":"61459","realtor_list_price":"NA","realtor_list_price_yoy":"NA","realtor_list_price_base":"NA","realtor_active_listings":1.333,"realtor_active_listings_yoy":0.3333,"realtor_active_listings_base":"NA","realtor_new_listings":0,"realtor_new_listings_yoy":"NaN","realtor_new_listings_base":"NA","realtor_days_on_market":"NA","realtor_days_on_market_yoy":"NA","realtor_days_on_market_base":"NA","zhvi":"NA","zhvi_yoy":"NA","zhvi_base":"NA","zori":"NA","zori_yoy":"NA","zori_base":"NA"}},{"type":"MultiPolygon","arcs":[[[-9,-4,13,14,-12,15,16,-6,17],[18]]],"properties":{"postal_code":"61455","realtor_list_price":123460.345,"realtor_list_price_yoy":0.0887,"realtor_list_price_base":0.1769,"realtor_active_listings":87.333,"realtor_active_listings_yoy":0.278,"realtor_active_listings_base":-0.4754,"realtor_new_listings":19.333,"realtor_new_listings_yoy":0.0357,"realtor_new_listings_base":-0.1793,"realtor_days_on_market":70.862,"realtor_days_on_market_yoy":-0.0359,"realtor_days_on_market_base":-0.3263,"zhvi":113542.487,"zhvi_yoy":0.0271,"zhvi_base":0.2055,"zori":816.639,"zori_yoy":"NA","zori_base":"NA"}},{"type":"MultiPolygon","arcs":[[[-17,19,-7]]],"properties":{"postal_code":"61440","realtor_list_price":"NA","realtor_list_price_yoy":"NA","realtor_list_price_base":"NA","realtor_active_listings":1.333,"realtor_active_listings_yoy":1,"realtor_active_listings_base":-0.7751,"realtor_new_listings":0,"realtor_new_listings_yoy":-1,"realtor_new_listings_base":-1,"realtor_days_on_market":"NA","realtor_days_on_market_yoy":"NA","realtor_days_on_market_base":"NA","zhvi":94554.24,"zhvi_yoy":0.0902,"zhvi_base":"NA","zori":"NA","zori_yoy":"NA","zori_base":"NA"}},{"type":"MultiPolygon","arcs":[[[-1,20,-13,-15,21]]],"properties":{"postal_code":"61422","realtor_list_price":84208.333,"realtor_list_price_yoy":0.0356,"realtor_list_price_base":0.0939,"realtor_active_listings":10.333,"realtor_active_listings_yoy":-0.0312,"realtor_active_listings_base":-0.5554,"realtor_new_listings":2,"realtor_new_listings_yoy":-0.4,"realtor_new_listings_base":-0.349,"realtor_days_on_market":61,"realtor_days_on_market_yoy":0.2603,"realtor_days_on_market_base":-0.4256,"zhvi":69904.233,"zhvi_yoy":-0.0945,"zhvi_base":0.1644,"zori":"NA","zori_yoy":"NA","zori_base":"NA"}}]}},"arcs":[[[847971,830055],[-56666,2432],[-10909,261],[162,-4390],[2890,-6748],[361,-2172],[-2364,-1983],[-3105,221],[-2464,-6810],[-4782,904],[-3737,-1676],[-2271,4331],[138,18660],[-26765,923],[-54123,2494],[-4,-1052],[-26695,-76]],[[657637,835374],[631,13115],[-683,4714],[62,12583],[26760,750],[92,61806],[123216,-4322],[27358,-975],[13952,-662],[-6,-426],[-394,-29666],[-654,-62236]],[[326909,940908],[86,21036],[6830,76],[11235,-4733],[4572,3246],[4558,1332],[75,32325],[21,5809],[13593,-399],[14611,-475],[-311,-61057],[27783,-1372],[347,30183],[55544,-2780],[-39,-30714],[28419,-1452],[-844,-63505],[-28232,963],[-392,-62629],[-27906,950],[-455,-46601],[-191,-15512],[27693,-982]],[[463906,744617],[-309,-13337],[-42521,793],[-170,-7474],[3856,-8016],[2922,-12248],[406,-4188],[-19517,581],[-3891,74],[-3852,2662],[-2873,-906],[-2060,1671],[844,1790],[-929,5374],[-2928,142],[-3012,5145],[-15917,227],[-20851,-833]],[[353104,716074],[201,31597],[133,15976],[33,14992],[26784,-552],[94,31195],[-26178,288],[-464,306],[461,96864],[-27472,-314],[213,34482]],[[407100,227237],[5063,21],[9,7535],[7353,-82],[-27,5465],[13656,-2687],[-65,-2356],[5298,-3131],[1115,1765],[2536,-586],[1072,-2619],[2417,-1624],[-2600,-2314],[1012,-4044],[4734,1103],[-93,3584],[1587,2805],[2858,817],[280,2719],[4687,-1275],[-1045,4212],[3518,621],[1925,-905],[147,4360],[2109,785],[-203,3807],[1646,2358],[3260,-1941],[1673,1307],[333,5785],[-2593,-1749],[-1423,2632],[1240,1855],[7139,1343],[5444,-4501],[3455,2164],[-65,-2783],[3656,-3885],[2953,2148],[3947,-666],[978,1930],[4021,-2178],[608,1260],[-1479,4683],[1850,4820],[3506,-1232],[2841,-4560],[-978,-2057],[4660,1902],[4155,-2691]],[[515270,251157],[-236,-36963]],[[515034,214194],[-242,-32123],[-37,-14748],[-839,-857],[-32089,859],[-558,-5567],[-3,-30433],[498,-7171],[-571,-11592],[602,-4120],[-3755,1616],[-1766,-2902],[-7266,-3694],[-4607,-1359],[-3027,-2089],[-1863,-5046],[-6382,-2621],[-4700,-339],[-10753,-6935],[1900,51],[1124,-10010],[3483,-4060],[97,-3698],[-3934,27],[-4476,-6404],[-429,-3567],[-6189,-2522],[-1761,2326],[1501,3445],[-3906,-246],[-85,-3006],[-4934,-7910],[-41,-2182],[4336,292],[2876,-1404],[-3860,-6260],[-3086,-8687],[-12631,-13836],[-3863,-1499],[-3004,341],[1799,-8152],[-1118,-3347],[-3003,2477],[-1975,-1162],[3942,-6080],[-24014,944],[431,5794],[253,19398],[477,36124],[-29919,1535],[125,15321],[-24,116],[-5129,348],[-1210,1979],[-697,5461],[-3565,-100],[-2713,2515],[-422,5442],[-12673,117],[-366,10252],[-685,4589],[-13070,486],[343,28488],[234,3041],[-6905,-2659],[-2535,95],[-129,-8729],[-3263,-2426],[-5585,6646],[-1590,98],[-3220,-2865],[1073,-3056],[-2017,-2036],[-3998,49],[-1460,-4462],[-12442,578],[-550,2717],[-3290,3830],[-5518,-1942],[-1620,-2040],[-4745,-2331],[-4835,3635],[-5121,-2575],[-3057,1309],[-3184,-876],[-1379,1550],[-4951,-634],[-2453,1311],[-3,2814],[-5165,5777],[-2109,534],[-1122,3349],[-2499,-630],[-4433,4710],[-4777,1652],[-3793,-4315],[-1249,1940],[-2366,-337],[775,4074],[-3780,1943],[-4211,-4123],[-988,583],[561,6307],[-1031,3930],[-3435,1989],[-3223,-3151],[256,-3154],[-1967,-549],[-3704,-3718],[-2836,2861],[1752,6672],[-1040,7300],[-2539,3190],[-436,3675],[1587,284],[40,3529],[-4778,1003],[-3201,2715],[4713,8682],[1728,7739],[-4533,97],[-53,-685],[-492,-4472],[-1717,-541],[-10868,-5777],[-8442,-6290],[-1108,-3879],[-20279,594],[-312,-24909],[-2682,-2793],[-2612,-704],[-4112,1304],[-1537,-2398],[-7701,-5493],[-1921,-3745],[-1197,-8163],[-5722,142],[89,15431],[-13685,791],[856,39688],[-4854,804],[-1214,4400],[229,4314],[-26624,-991],[-37168,-63],[-14109,-28],[40,14801],[269,31133],[751,15707],[13150,210],[855,123747],[8061,600],[6293,-433],[20615,70],[544,3279],[-1626,1921],[1554,2934],[-709,9691],[479,5716],[-4205,3317],[-1338,4547],[28410,-229],[-256,-15630],[20299,129],[4953,-2789],[2095,-10],[6451,4241],[3685,4320],[3133,1724],[7071,6288],[3822,5799],[53,2017],[-2960,3732],[49,12517],[-6697,1508],[66,7427],[34328,-878],[-2347,-3010],[-2583,-920],[1851,-2038],[4813,-295],[0,-8250],[5065,-167],[22,-17908],[15473,63],[159,-14168],[11665,17],[-66,-13724],[-5,-445],[23689,-206],[18441,-1569],[14843,-143],[285,-678],[-49,-10392],[20538,-144],[-235,-16074],[-2886,-528],[-1548,-5221],[-600,-10063],[11418,-528],[27948,-1077],[28132,-951],[23867,-2986],[3698,0],[-182,-22618],[7022,49],[519,-2309],[6777,-26],[135,25053],[13832,-81],[-317,-41274],[-2165,-5077],[-4687,10],[-110,-21899],[3442,-1287],[-648,-5907],[-8970,-2723],[-665,-9420],[268,-6066],[14022,-68],[466,-16688],[-569,-2382],[-3041,-10818],[-985,-481],[-9077,-780],[-1922,-14623],[15198,-166],[12877,41],[13283,-130],[115,14472],[167,19240],[1492,6248]],[[353104,716074],[-13382,40],[-227,-15866]],[[339495,700248],[-14324,230],[-26953,1524],[-13570,1385],[-451,-31215],[-14265,1571],[-13347,723],[-171,-18868],[-2897,-1843],[-5841,-36],[-7882,-3332],[-4730,785],[-2555,-596],[-3468,-2878],[-422,-79722],[5607,-607],[-308,-19659],[-5293,209],[-1684,-973],[-63,-14576],[-6919,233],[-220,7060],[-8316,2002],[-8404,2764],[-7188,863],[-800,3340],[-6349,2157],[-4073,-153],[149,21721],[-361,17],[-54792,-3149],[-2955,2],[-2198,-159],[-171,40],[-1120,380],[-421,25],[-205,-72],[-285,-206],[-238,-263],[-1170,-1306],[-571,-352],[-514,57],[-1119,361],[-1590,721],[-739,97],[-13998,-795],[-518,3355],[737,27912],[27374,1446],[508,38571],[-600,3711],[1566,2710],[-813,7183],[155,25685],[115,57749],[3855,1520],[1942,2183],[8190,2515],[-10,2963],[7060,-24],[-151,5480],[1908,-19],[4056,5383],[497,2818],[2967,85],[24890,600],[515,-29],[145,7140],[42,18551],[598,44320],[272,24558],[1400,1496],[15341,3666],[29,9482],[5352,287],[1811,1372],[5483,553],[138,74285],[109744,-4354]],[[847425,762618],[9882,2416],[3591,4360],[2551,1568],[4285,5851],[1729,-19],[2459,-2815],[3277,-1018],[2719,2522],[2414,-3930],[5998,-388],[1597,1357],[3235,-3785],[9015,-1943],[4808,2520],[3808,-2242],[36522,-250],[59,-26943],[-1508,-2341],[1045,1287],[1037,-3181],[345,-1889],[164,-1362],[-528,-12442],[20584,-719],[5071,-128],[1587,-1457],[1738,-21301],[1741,-977],[12409,-221],[3498,-422],[919,-19],[462,-2653],[-13,-20179],[-26734,220],[890,-4199],[2701,-2812],[7900,-153],[4677,-1652],[3814,-2916],[2743,-3788],[1882,-6402],[2787,-2431],[1882,-3639],[3532,-2562],[-1011,-4165],[-3322,-6350],[-3950,-5444],[-390,-3987],[-6603,5610],[-1087,-596],[-3369,1913],[-12279,-1945],[-2112,-827],[-1894,-4706],[1423,-3442],[11121,-8481],[561,-3200],[-1335,-2331],[-4909,-4899],[-1609,-2897],[-18095,-76],[26,7505],[-7095,184],[-14,-7526],[-5857,13],[-311,-8218],[-6900,87],[75,8016],[-7638,-403],[-6697,713],[-477,-46664],[-69865,586]],[[846386,550011],[-32,62153],[-62239,2795],[-1176,454],[-3004,2435],[-2043,2975],[40,12078],[-1009,4986],[-8410,20599]],[[768513,658486],[6586,-7459],[23847,-21199],[6041,-142],[10,31322],[128,40471],[1304,967],[5005,1567],[2667,-764],[825,1324],[6872,254],[64,1773],[20949,-1283],[4271,6087],[136,24777],[207,26437]],[[463906,744617],[56607,-1334],[346,-8],[-204,-15058],[1283,505],[3846,-1478],[12518,-7764],[1895,-49],[3716,-2626],[9988,569],[702,2608],[2980,2191],[-213,2931],[3356,3741],[3506,172],[2071,1499],[6412,2747],[-328,-21121],[41926,-96]],[[614313,712046],[14021,132],[-70,-15632],[21356,-386],[33716,-134],[2055,119],[5638,-13832],[1932,2657],[4634,1404],[4669,-2994],[1173,1372],[3099,257],[602,1312],[4984,2931],[4447,-714],[3384,-2613],[1960,954],[2880,-1143],[2459,399],[4027,-2318],[6931,-7550],[2353,-1531],[4267,-238],[4164,-3612],[1985,-3100],[-721,-3620],[12018,-567],[2190,-1792],[1151,3936],[2896,-7257]],[[846386,550011],[-26488,988],[-28,15829],[-15100,134],[113,15825],[-13551,581],[-13907,692],[-269,-31331],[-70363,3086],[12,-112013],[-1387,-3431],[-1944,-301],[-3968,4856],[-2912,787],[-249,-2388],[-3273,-1438],[-377,-40782],[-8779,173],[-1395,365],[-62,-8417],[-131,-22236]],[[682328,370990],[-55930,-652],[-324,-17108],[-14013,-392],[-204,-15675],[-13952,-437],[-112,-15679],[-32469,1307],[-1366,15537],[95,15494],[-13878,479],[-69,-15416],[-20909,473],[-138,-23443],[-13471,240],[-83,-39604],[1447,176],[25779,-222],[-409,-26330],[-1574,-776],[-6437,1035],[-2840,3739],[-4655,-1902],[-3955,-6397],[-3436,864],[-977,2057],[-3178,2799]],[[407100,227237],[-1403,3745],[177,25812],[-261,8818],[-615,2639],[-5650,11426],[733,77508],[3828,-197],[229,15193],[28869,-411],[2,15586],[-6873,42],[-433,-2903],[-13423,-7186],[108,17760],[-2423,6091],[-4495,1838],[271,23441],[26714,100],[685,806],[254,954],[158,13416],[-17,3875],[-3041,732],[-1613,220],[-1101,532],[-1215,787],[-174,17096],[-6869,119],[-594,14953],[883,3860],[5286,8682],[2594,7584],[475,4596],[975,28624],[5116,1866],[42,7109],[780,1606],[5303,1232],[40,3132],[-4021,-59],[-1906,-1832],[138,11575],[4807,-87],[-1718,6498],[4563,6912],[566,2182],[-24048,536],[-3699,125],[-256,-14],[-121,-19],[-127,-75],[-115,-82],[-78,-104],[-23101,89],[6,4265],[-6938,4],[6,-3843],[-5821,261],[-1224,-1188],[5,1243],[147,31600],[-13905,-128],[301,18644],[-6056,32],[-5386,-125],[161,19227],[67,9068],[-13655,-38],[162,31532],[319,15729]],[[667362,647747],[72,-14999],[8732,-1673],[6765,-150],[11,-3854],[5502,-15],[43,24697],[6812,17],[-128,6184],[-12059,-312],[-53,-5446],[-13452,-721],[-2600,-507],[355,-3221]],[[682328,370990],[-1076,-64330],[25731,-428],[-1269,-78844],[13563,-230],[-374,-30927],[8421,-68],[2171,-1756],[3448,1601],[6348,-229],[3425,-2606],[3852,2371],[20058,-354],[-100,-15469],[-31463,799],[1067,-9187],[2521,-369],[59,-5836],[4592,-1693],[2020,-3439],[-82,-3305],[390,-7643],[-7785,272],[-1745,-925],[-2132,1094],[-16020,984],[-744,-16576],[-3662,1669],[-8819,800],[-4522,-1911],[-1450,1996],[-4965,108],[-3705,7537],[-3154,1086],[69,3733],[-3034,38],[-859,3440],[-4595,-721],[-5955,-520],[-3174,1775],[-2992,-1054],[-1636,-1459],[-380,-30688],[-11253,-371],[-2484,-3798],[-233,-19276],[-13718,-180],[-1052,6254],[-4887,4343],[-859,3362],[367,16273],[-1719,7492],[-3688,7909],[-1169,6739],[230,17308],[-36450,229],[-1631,15963],[-30442,204],[177,15670],[-13389,81],[-216,15744],[-26921,522]],[[847971,830055],[-546,-67437]],[[614313,712046],[8,15113],[-6464,30],[-73,15848],[20711,70],[910,-42],[385,15229],[59,8543],[-12388,2328],[-16749,603],[-11,19901],[-27431,131],[324,46501],[56726,-278],[113,-21210],[5873,3584],[112,3887],[1713,-1558],[986,6254],[188,8638],[18332,-244]]],"bbox":[-91.035754,40.192711,-90.34069,40.664236],"transform":{"scale":[6.950646950646972e-7,4.7152547152547126e-7],"translate":[-91.035754,40.192711]}}
