{"type":"Topology","objects":{"foo":{"type":"GeometryCollection","geometries":[{"type":"MultiPolygon","arcs":[[[0,1]]],"properties":{"postal_code":"71770","realtor_list_price":168750,"realtor_list_price_yoy":"NA","realtor_list_price_base":"NA","realtor_active_listings":7.667,"realtor_active_listings_yoy":0.2778,"realtor_active_listings_base":-0.4155,"realtor_new_listings":0.667,"realtor_new_listings_yoy":"Inf","realtor_new_listings_base":0.3109,"realtor_days_on_market":114,"realtor_days_on_market_yoy":"NA","realtor_days_on_market_base":"NA","zhvi":108111.477,"zhvi_yoy":-0.0118,"zhvi_base":-0.0009,"zori":"NA","zori_yoy":"NA","zori_base":"NA"}},{"type":"MultiPolygon","arcs":[[[2,-1]]],"properties":{"postal_code":"71764","realtor_list_price":"NA","realtor_list_price_yoy":"NA","realtor_list_price_base":"NA","realtor_active_listings":2,"realtor_active_listings_yoy":1,"realtor_active_listings_base":-0.3745,"realtor_new_listings":0,"realtor_new_listings_yoy":"NaN","realtor_new_listings_base":-1,"realtor_days_on_market":"NA","realtor_days_on_market_yoy":"NA","realtor_days_on_market_base":"NA","zhvi":73896.478,"zhvi_yoy":-0.0423,"zhvi_base":-0.0784,"zori":"NA","zori_yoy":"NA","zori_base":"NA"}},{"type":"MultiPolygon","arcs":[[[3]]],"properties":{"postal_code":"71861","realtor_list_price":"NA","realtor_list_price_yoy":"NA","realtor_list_price_base":"NA","realtor_active_listings":4.667,"realtor_active_listings_yoy":-0.2222,"realtor_active_listings_base":-0.5296,"realtor_new_listings":0,"realtor_new_listings_yoy":"NaN","realtor_new_listings_base":-1,"realtor_days_on_market":"NA","realtor_days_on_market_yoy":"NA","realtor_days_on_market_base":"NA","zhvi":132364.287,"zhvi_yoy":-0.0257,"zhvi_base":0.1898,"zori":"NA","zori_yoy":"NA","zori_base":"NA"}}]}},"arcs":[[[554954,886761],[-1699,-54594]],[[553255,832167],[-289,-12430],[-2332,1536],[-3768,-309],[-2576,-2071],[-11668,1894],[-4377,246],[-401,-13903],[-16442,364],[-4172,-8356],[-2801,-11693],[-1994,-2197],[-455,-32966],[7708,-230],[2156,-168],[1678,1737],[3202,6099],[2825,2033],[5486,-4050],[920,-5810],[1188,-2172],[131,-7929],[959,-2012],[4695,-787],[4732,-1804],[-193,-10544],[-2532,-4033],[-342,-13611],[15599,-585],[-476,-13647],[1734,-370],[1732,-2077],[2972,-8040],[3741,-2440],[5248,-1986],[837,-110],[-662,-30482],[668,-2416],[1079,-1674],[-8166,287],[-137,-5523],[-18340,789],[-402,-1717],[-1695,-6024],[914,-7758],[-507,-2550],[-3136,-7441],[-1550,-1494],[-11324,11424],[-10357,325],[-1919,-1665],[395,-3719],[-2364,-2292],[-1691,-4346],[1124,-4149],[-591,-2786],[1345,-1520],[-1126,-1724],[-4501,777],[-541,-17242],[-144,-2447],[-445,-10840],[-6364,386],[-332,-13904],[-6271,-25],[-506,-21377],[9,-1465],[-192,-4738],[-4115,204],[-2252,-1719],[-610,-3719],[-3182,-1004],[339,-5153],[-1107,-1896],[-878,-6213],[-2205,-3226],[1326,-7081],[809,-6884],[2010,-3866],[-2106,-8211],[3726,-1523],[598,-4309],[-17365,421],[-27,2],[-24,4309],[-3312,8610],[-3846,5826],[-1524,7213],[-2825,1934],[-5341,387],[239,-3549],[1136,-3262],[-2421,-95],[-1851,-2759],[-6451,-3470],[-2454,-183],[-515,-3947],[384,-4506],[-5095,2279],[-5764,5891],[-4094,2903],[-5006,5581],[226,4281],[1524,6561],[127,8023],[-4435,-3799],[-4592,-6613],[-6121,-6849],[-6553,-1892],[-11322,-2130],[-4151,-2401],[-2498,-447],[-5351,331],[-3117,-874],[-1585,-7861],[-16027,571],[-635,-7057],[-288,-13493],[-16739,564],[-1827,246],[-1498,2098],[-1035,4374],[-5226,3824],[-1549,3593],[-20880,44],[-3374,442],[-3158,-2570],[-810,-3150],[-3415,-3732],[-3659,-2004],[-1572,-6122],[-311,-3292],[-1440,-2713],[-1302,-5582],[-5648,-2243],[-7290,-2305],[-7126,-6825],[-3788,101],[-79,-1854],[-2952,-1352],[-5131,-162],[837,2559],[-4693,9585],[-4380,2734],[290,3199],[-196,1535],[2073,766],[1530,8166],[3398,2483],[695,4124],[2013,6128],[128,3435],[2918,3121],[558,7388],[-2439,9444],[-1993,2203],[1463,1772],[-2095,2932],[1358,2922],[-1162,2431],[2755,4251],[1731,-13],[1999,2656],[333,2398],[3313,1660],[-396,2709],[3207,1791],[3166,4346],[2718,6685],[-3710,5491],[647,1180],[-1112,4524],[-1367,3714],[410,1577],[-1957,2010],[15,3190],[-1581,1423],[4929,10768],[2131,-303],[553,1936],[-729,3715],[3663,3977],[913,5753],[1010,3474],[204,4058],[3008,4418],[90,4881],[1199,5735],[9,2772],[1238,4075],[4166,5508],[-637,1086],[1322,2912],[-147,2543],[2766,2123],[303,428],[204,1200],[-937,1353],[-762,505],[184,808],[415,760],[64,3692],[-2681,5015],[123,6893],[2663,4335],[2967,-98],[3022,4095],[2585,4755],[-358,2229],[1470,3331],[2623,1802],[662,2180],[-2079,2867],[2615,4786],[-184,5535],[2269,1688],[1061,4700],[2155,4542],[-896,3237],[661,2864],[2456,3320],[308,2820],[-1128,5083],[646,5996],[2001,1799],[3640,1349],[3269,4904],[1634,640],[2094,6796],[215,9808],[1104,3460],[2104,1027],[-294,3547],[3036,2561],[2070,7247],[2330,1993],[1379,5324],[2755,8331],[-272,2086],[575,3239],[2540,1934],[97,1770],[2268,467],[3143,3092],[308,2113],[3279,2462],[216,3019],[2743,4220],[844,3003],[-809,57],[-3940,4112],[5228,-2401],[1420,2953],[-1100,1016],[3243,2547],[1985,5114],[1829,1562],[-1832,5024],[257,3447],[5717,11204],[3012,671],[4296,6026],[-1416,2995],[211,5070],[1987,2988],[-1406,1884],[2779,6716],[467,2959],[7437,2118],[5057,2649],[4712,5986],[8920,7682],[3750,-223],[1926,-3089],[2928,-2002],[238,10723],[-1371,5319],[-422,2574],[-1112,2810],[-158,1496],[-1426,2195],[2574,4708],[2541,2777],[794,27962],[388,13477],[10339,-956],[4953,-2317],[-115,-4153],[6136,-99],[-100,-3502],[6210,-99],[-91,-4190],[2678,-105],[-239,-13818],[9053,-642],[-144,-10352],[6535,-219],[7558,-23846],[4538,863],[130,6602],[1166,1860],[-1155,10135],[62,7292],[1158,6089],[2746,1099],[134,6754],[1731,-53],[346,10401],[-6046,295],[-111,-3515],[-12276,453],[252,6937],[-3113,120],[197,6872],[3098,-89],[219,7451],[3116,-42],[231,6827],[3047,-155],[223,6587],[2695,-130],[7587,-223],[-417,-6784],[2833,-6611],[10302,-524],[2933,407],[4445,-451],[4945,5626],[4051,358],[1166,884],[2009,6680],[4226,4805],[-719,3079],[-65,9869],[7093,6],[5393,1423],[8399,-5420],[12377,148],[2439,-2252],[2025,553],[3460,-783],[6615,-7507],[3357,-2359],[-1382,-55979],[-568,-8427],[-927,-31212]],[[554954,886761],[2005,1479],[6031,552],[3063,2435],[6294,3340],[5274,896],[2577,5852],[-765,7376],[1361,-1271],[3653,-955],[1876,-3463],[1599,-995],[3708,29],[6978,5854],[2451,-344],[4506,1139],[542,11325],[10701,1070],[2210,962],[3413,-1926],[890,3529],[4569,985],[4910,3288],[2305,5965],[4066,3055],[1065,6696],[1740,879],[352,2019],[6945,6215],[362,7524],[-805,2355],[2905,2139],[760,3834],[2574,1570],[-124,4805],[5841,-3426],[1244,444],[2620,4033],[5237,-1398],[2473,1800],[2005,218],[207,2185],[4788,1528],[1054,3393],[1833,1069],[490,2635],[4616,5893],[17807,1202],[-96,-4694],[1984,-5154],[5297,610],[1620,1009],[3367,7583],[8116,-743],[8354,-6001],[6551,-2553],[4847,-1201],[3433,-2837],[-379,4384],[1704,4196],[649,8093],[1749,646],[4116,-4262],[296,-4609],[4340,-1225],[2581,-2964],[1886,51],[4163,-5457],[-277,-3479],[4550,-4965],[1542,-832],[6898,1753],[10369,895],[5114,381],[6734,1162],[2945,-457],[4339,705],[8073,438],[2578,610],[3664,2115],[2141,-134],[5565,-2153],[2311,1182],[6945,381],[6354,-1448],[5322,-172],[2878,-571],[28051,-2820],[2662,-57],[1902,305],[6143,686],[1705,-1029],[3381,-5011],[1846,-876],[5058,-77],[-1508,-3658],[-1648,-6763],[-3128,-5887],[-197,-5145],[803,-4058],[3719,-2458],[3227,-3238],[3635,-8631],[-479,-6611],[-1142,-4554],[6368,-10383],[3061,-1100],[2965,189],[1980,-4136],[731,-6272],[4122,1770],[4617,5005],[4476,1876],[6602,-686],[3808,644],[8893,5423],[3441,3776],[4480,6918],[2908,3578],[7010,10065],[17459,13975],[3742,2485],[1523,722],[-1168,-30835],[-989,-2593],[-571,-33313],[-725,-33517],[-154,-4067],[-3930,-7092],[2161,-7512],[-1599,-4043],[-2339,-1894],[-2089,-3698],[-881,-7971],[766,-3773],[-1396,-5310],[-1607,-2848],[444,-6531],[-8993,457],[-25387,223],[-2760,160],[5058,-7133],[3269,-12537],[1761,-4534],[3099,-6116],[1536,-5773],[676,-8230],[7650,-8993],[846,-3048],[1155,-648],[13624,590],[14,-5296],[-4410,-1715],[-4748,-190],[-1451,-801],[-3381,-4382],[-3184,-2038],[-18978,286],[-3525,-2005],[7959,-3915],[1255,-2000],[2504,-965],[184,-3488],[4682,-3950],[821,-3760],[3583,-2472],[4276,1016],[5151,-7775],[3722,1383],[960,-2117],[1837,753],[3583,-1330],[1531,-3992],[3834,-1916],[239,-6962],[-45132,1637],[-5483,116],[-30553,714],[-17773,621],[-2195,-95269],[3286,-1861],[3010,-6440],[-1393,-1343],[-945,-6659],[5913,-5836],[10803,-6548],[4249,-6413],[3801,-9344],[-3760,281],[-5021,-1197],[-4710,457],[-11952,219],[-4404,1138],[-5334,1703],[-15206,143],[-8457,-596],[-12759,4107],[-8774,4563],[-5222,633],[-3747,-960],[-1137,-2363],[1554,-4296],[-5009,-8602],[-1024,-2951],[-288,-7179],[-8723,-14591],[-1775,-196],[83,-6163],[-646,-15259],[-152,-22629],[338,-2980],[-5510,513],[-4743,-1183],[-16436,548],[-3353,9317],[-9188,-577],[-801,3629],[-5953,-1109],[-306,-3917],[936,-6032],[-13282,1300],[-1766,7118],[10,15196],[3079,4978],[636,2999],[-174,9139],[-2848,572],[-936,2383],[-2429,1618],[-1218,5546],[315,2986],[-4418,9819],[-4728,164],[824,2919],[3329,4054],[-3108,442],[1592,59878],[-2544,1951],[-8610,4374],[-6328,854],[-3037,253],[-6110,2468],[-6227,1667],[2694,868],[2000,3752],[6118,4559],[3387,1269],[107,5291],[6938,457],[12052,-652],[845,27],[3150,-2665],[1598,-3153],[4817,2400],[2060,3201],[-565,497],[1071,545],[-536,848],[858,314],[1487,126],[470,-503],[1117,568],[258,-608],[841,-137],[785,960],[32,3980],[1130,135],[609,2521],[-821,1612],[1725,335],[-480,503],[776,368],[554,-880],[1458,1446],[1654,1051],[3421,-600],[1174,177],[1384,3268],[3545,934],[1016,-2935],[6637,-661],[-111,692],[1274,189],[-6194,8581],[-7874,2095],[-3665,1969],[-6158,1027],[-9379,3707],[1473,6861],[1952,1957],[29,10528],[-5435,122],[-13327,1892],[-2944,4113],[-3112,1357],[-3650,3540],[-33219,729],[575,24940],[1577,59502],[-4545,-1932],[-5506,-215],[-1012,1038],[-8559,-182],[-5200,453],[165,-13824],[-11827,196],[-1884,-259],[-5065,-3738],[287,3475],[1123,1011],[2484,6187],[-2756,3789],[-617,3020],[-4598,478],[-1405,3136],[204,9957],[-4600,1197],[69,2261],[1602,4527],[162,3069],[-1006,5415],[-1597,4982],[-5967,341],[-2578,5314],[2760,2067],[58,6097],[-1974,5946],[-1126,1425],[-83060,2803]],[[269,218490],[7963,-55],[24777,-551],[24673,-945],[24512,-409],[108,5131],[-820,1914],[-2550,4929],[-3597,3984],[-2515,6363],[-441,1105],[-822,1267],[-1575,1393],[-495,395],[-4823,8606],[-3716,6508],[-2123,-516],[-885,-1572],[65,2252],[-1685,365],[128,-1939],[-1076,53],[-820,2087],[-231,-3154],[-1106,7711],[-1962,1602],[-2283,-3425],[-674,5330],[-4817,3049],[-127,2448],[-7672,406],[-795,385],[-11474,17],[-1245,4306],[992,8954],[1266,2180],[5639,4887],[283,6647],[-2083,5588],[-5536,4056],[-3014,549],[-5744,4277],[-2746,4937],[-485,2284],[9471,8974],[2882,4778],[2428,8248],[5442,5466],[378,377],[-2195,5733],[1640,3323],[1197,-878],[2046,2389],[-1651,5005],[2322,2997],[-296,2149],[2082,720],[-1881,5544],[-2313,-388],[313,2263],[-1401,4655],[6895,-248],[24333,-884],[17865,-18700],[387,4369],[1145,1318],[5185,-23],[3211,1164],[69958,-26117],[2920,-2301],[13128,-11971],[6205,-7685],[-1983,-64403],[4916,-627],[3180,-3986],[9686,-1143],[5463,1157],[5229,4075],[2065,2286],[6713,1117],[4889,1510],[958,11297],[5493,-178],[835,19325],[12002,-508],[267,13733],[11659,-589],[849,13376],[18772,-101],[183,6974],[6257,-210],[227,8356],[4017,-3673],[1196,-2568],[12343,19738],[640,766],[12860,10717],[2319,-2507],[-1844,-2304],[-231,-2231],[2681,-2014],[-1485,-3528],[17,-3302],[-1669,-2052],[608,-1676],[-925,-5729],[2367,-2997],[-1262,-913],[-158,-3864],[892,-1092],[5085,-476],[4,4436],[2626,2061],[1439,-242],[2285,2366],[2017,-356],[2105,2439],[-275,-17138],[-11988,490],[-715,-21505],[-1118,-33928],[5144,8],[578,-25],[-833,-26982],[-5962,67],[-712,-27184],[12386,430],[-1005,-27268],[452,2192],[2476,5588],[3815,3867],[12276,-324],[-12492,-15383],[-5298,-25314],[27866,-997],[-127,-17136],[6098,-291],[-572,-37348],[-9236,346],[-357,-9977],[-9337,-21],[-1186,-44888],[-5684,223],[-222,-13775],[-11398,237],[-2084,-1332],[771,-4432],[-3031,-10004],[-2933,-909],[-1279,-2902],[1506,-3280],[-2860,-2942],[403,-2789],[-4245,24],[-26131,148],[-11531,66],[-3635,20],[-17449,99],[-10324,59],[-15640,88],[-8794,50],[-6684,38],[-78,-1],[-3,0],[-18506,-187],[-13062,-132],[-1482,-1],[-472,-1],[-150,1],[-1617,13],[-40609,318],[-31,0],[-5527,40],[-702,1],[-8573,10],[-96099,552],[-15714,90],[4606,191612],[-634,11898],[-8002,516],[269,13169]]],"bbox":[-93.613723,33.0183002,-92.903937,33.543169],"transform":{"scale":[7.097867097867038e-7,5.24869324869325e-7],"translate":[-93.613723,33.0183002]}}
