{"type":"Topology","objects":{"foo":{"type":"GeometryCollection","geometries":[{"type":"MultiPolygon","arcs":[[[0,1]]],"properties":{"postal_code":"03101","realtor_list_price":380000,"realtor_list_price_yoy":-0.0192,"realtor_list_price_base":"NA","realtor_active_listings":2.333,"realtor_active_listings_yoy":-0.2222,"realtor_active_listings_base":-0.4919,"realtor_new_listings":1.333,"realtor_new_listings_yoy":-0.3333,"realtor_new_listings_base":0.4909,"realtor_days_on_market":11,"realtor_days_on_market_yoy":-0.7339,"realtor_days_on_market_base":"NA","zhvi":432617.324,"zhvi_yoy":-0.0189,"zhvi_base":0.4173,"zori":2269.145,"zori_yoy":0.0668,"zori_base":"NA"}},{"type":"MultiPolygon","arcs":[[[2,3,4,5,6,7]]],"properties":{"postal_code":"03043","realtor_list_price":674333.333,"realtor_list_price_yoy":0.0834,"realtor_list_price_base":0.9611,"realtor_active_listings":6,"realtor_active_listings_yoy":-0.5135,"realtor_active_listings_base":-0.6179,"realtor_new_listings":2,"realtor_new_listings_yoy":-0.4,"realtor_new_listings_base":-0.4781,"realtor_days_on_market":45,"realtor_days_on_market_yoy":-0.1313,"realtor_days_on_market_base":-0.3697,"zhvi":540075.26,"zhvi_yoy":0.078,"zhvi_base":1.0397,"zori":"NA","zori_yoy":"NA","zori_base":"NA"}},{"type":"MultiPolygon","arcs":[[[8,9,10,11,12,13,-5]]],"properties":{"postal_code":"03070","realtor_list_price":778128.571,"realtor_list_price_yoy":-0.018,"realtor_list_price_base":0.7552,"realtor_active_listings":12.667,"realtor_active_listings_yoy":0.4615,"realtor_active_listings_base":-0.7485,"realtor_new_listings":9.333,"realtor_new_listings_yoy":0.75,"realtor_new_listings_base":-0.2648,"realtor_days_on_market":39.286,"realtor_days_on_market_yoy":-0.146,"realtor_days_on_market_base":-0.4551,"zhvi":631478.71,"zhvi_yoy":0.0097,"zhvi_base":0.8397,"zori":"NA","zori_yoy":"NA","zori_base":"NA"}},{"type":"MultiPolygon","arcs":[[[14,15,16,17]]],"properties":{"postal_code":"03060","realtor_list_price":453861,"realtor_list_price_yoy":0.0817,"realtor_list_price_base":0.7951,"realtor_active_listings":18,"realtor_active_listings_yoy":-0.1562,"realtor_active_listings_base":-0.4591,"realtor_new_listings":16.667,"realtor_new_listings_yoy":-0.2424,"realtor_new_listings_base":-0.3954,"realtor_days_on_market":38.96,"realtor_days_on_market_yoy":0.396,"realtor_days_on_market_base":0.09,"zhvi":471910.77,"zhvi_yoy":0.0347,"zhvi_base":0.8829,"zori":2197.44,"zori_yoy":0.0378,"zori_base":"NA"}},{"type":"MultiPolygon","arcs":[[[18,19,20,21]]],"properties":{"postal_code":"03033","realtor_list_price":782810,"realtor_list_price_yoy":0.2875,"realtor_list_price_base":1.0694,"realtor_active_listings":11.333,"realtor_active_listings_yoy":0.4783,"realtor_active_listings_base":-0.5131,"realtor_new_listings":6.667,"realtor_new_listings_yoy":-0.0909,"realtor_new_listings_base":-0.3717,"realtor_days_on_market":46.4,"realtor_days_on_market_yoy":0.1981,"realtor_days_on_market_base":-0.1268,"zhvi":675125.986,"zhvi_yoy":0.0178,"zhvi_base":0.9128,"zori":"NA","zori_yoy":"NA","zori_base":"NA"}},{"type":"MultiPolygon","arcs":[[[22,23,24,25]]],"properties":{"postal_code":"03086","realtor_list_price":642074.375,"realtor_list_price_yoy":-0.0089,"realtor_list_price_base":0.8606,"realtor_active_listings":6.667,"realtor_active_listings_yoy":0.4286,"realtor_active_listings_base":-0.5928,"realtor_new_listings":5.333,"realtor_new_listings_yoy":0.6,"realtor_new_listings_base":-0.3164,"realtor_days_on_market":33.75,"realtor_days_on_market_yoy":-0.3223,"realtor_days_on_market_base":-0.3658,"zhvi":509846.958,"zhvi_yoy":0.0181,"zhvi_base":0.8349,"zori":"NA","zori_yoy":"NA","zori_base":"NA"}},{"type":"MultiPolygon","arcs":[[[-9,-4,26]]],"properties":{"postal_code":"03281","realtor_list_price":521481.25,"realtor_list_price_yoy":-0.1622,"realtor_list_price_base":0.8113,"realtor_active_listings":11.667,"realtor_active_listings_yoy":-0.2222,"realtor_active_listings_base":-0.6702,"realtor_new_listings":5.333,"realtor_new_listings_yoy":-0.5789,"realtor_new_listings_base":-0.6833,"realtor_days_on_market":56.75,"realtor_days_on_market_yoy":1.1871,"realtor_days_on_market_base":0.3744,"zhvi":510015.205,"zhvi_yoy":0.0048,"zhvi_base":0.9186,"zori":"NA","zori_yoy":"NA","zori_base":"NA"}},{"type":"MultiPolygon","arcs":[[[27,28,-8,29,30]]],"properties":{"postal_code":"03442","realtor_list_price":445475,"realtor_list_price_yoy":-0.031,"realtor_list_price_base":1.7036,"realtor_active_listings":5.333,"realtor_active_listings_yoy":-0.3333,"realtor_active_listings_base":-0.2873,"realtor_new_listings":0.667,"realtor_new_listings_yoy":-0.75,"realtor_new_listings_base":-0.7744,"realtor_days_on_market":38,"realtor_days_on_market_yoy":-0.4039,"realtor_days_on_market_base":-0.2642,"zhvi":340561.454,"zhvi_yoy":0.0018,"zhvi_base":1.0306,"zori":"NA","zori_yoy":"NA","zori_base":"NA"}},{"type":"MultiPolygon","arcs":[[[31,32]]],"properties":{"postal_code":"03076","realtor_list_price":793713.095,"realtor_list_price_yoy":0.0526,"realtor_list_price_base":0.7633,"realtor_active_listings":19,"realtor_active_listings_yoy":-0.0339,"realtor_active_listings_base":-0.682,"realtor_new_listings":14,"realtor_new_listings_yoy":0,"realtor_new_listings_base":-0.4179,"realtor_days_on_market":57.81,"realtor_days_on_market_yoy":0.5624,"realtor_days_on_market_base":-0.0427,"zhvi":687947.865,"zhvi_yoy":0.0149,"zhvi_base":0.7798,"zori":"NA","zori_yoy":"NA","zori_base":"NA"}},{"type":"MultiPolygon","arcs":[[[33,34,35,-15,36]]],"properties":{"postal_code":"03064","realtor_list_price":595469.737,"realtor_list_price_yoy":-0.1258,"realtor_list_price_base":0.89,"realtor_active_listings":19,"realtor_active_listings_yoy":0.1633,"realtor_active_listings_base":-0.3566,"realtor_new_listings":12.667,"realtor_new_listings_yoy":-0.05,"realtor_new_listings_base":-0.235,"realtor_days_on_market":52.842,"realtor_days_on_market_yoy":0.7325,"realtor_days_on_market_base":0.2579,"zhvi":528928.992,"zhvi_yoy":0.0351,"zhvi_base":0.8317,"zori":2262.413,"zori_yoy":0.0345,"zori_base":"NA"}},{"type":"MultiPolygon","arcs":[[[37]]],"properties":{"postal_code":"03304","realtor_list_price":758926.471,"realtor_list_price_yoy":0.0179,"realtor_list_price_base":0.9391,"realtor_active_listings":17.667,"realtor_active_listings_yoy":0.6563,"realtor_active_listings_base":-0.4446,"realtor_new_listings":11.333,"realtor_new_listings_yoy":0,"realtor_new_listings_base":-0.1388,"realtor_days_on_market":43.588,"realtor_days_on_market_yoy":0.1261,"realtor_days_on_market_base":-0.0912,"zhvi":631289.492,"zhvi_yoy":0.0682,"zhvi_base":0.9205,"zori":"NA","zori_yoy":"NA","zori_base":"NA"}},{"type":"MultiPolygon","arcs":[[[38]]],"properties":{"postal_code":"03280","realtor_list_price":469153.571,"realtor_list_price_yoy":-0.0349,"realtor_list_price_base":1.1763,"realtor_active_listings":13,"realtor_active_listings_yoy":0.8571,"realtor_active_listings_base":-0.4081,"realtor_new_listings":4.667,"realtor_new_listings_yoy":0.1667,"realtor_new_listings_base":-0.416,"realtor_days_on_market":61,"realtor_days_on_market_yoy":0.0427,"realtor_days_on_market_base":-0.0434,"zhvi":390822.818,"zhvi_yoy":0.0669,"zhvi_base":1.0502,"zori":"NA","zori_yoy":"NA","zori_base":"NA"}},{"type":"MultiPolygon","arcs":[[[-13,39,40,41]]],"properties":{"postal_code":"03057","realtor_list_price":816058.333,"realtor_list_price_yoy":0.3748,"realtor_list_price_base":1.0761,"realtor_active_listings":6.333,"realtor_active_listings_yoy":-0.05,"realtor_active_listings_base":-0.5744,"realtor_new_listings":4,"realtor_new_listings_yoy":0,"realtor_new_listings_base":-0.3885,"realtor_days_on_market":45,"realtor_days_on_market_yoy":0.063,"realtor_days_on_market_base":-0.3335,"zhvi":669307.271,"zhvi_yoy":0.0449,"zhvi_base":0.8942,"zori":"NA","zori_yoy":"NA","zori_base":"NA"}},{"type":"MultiPolygon","arcs":[[[42,43,-33,44,-16,-36]]],"properties":{"postal_code":"03051","realtor_list_price":625060,"realtor_list_price_yoy":-0.0443,"realtor_list_price_base":0.8358,"realtor_active_listings":26,"realtor_active_listings_yoy":-0.1959,"realtor_active_listings_base":-0.4837,"realtor_new_listings":26.667,"realtor_new_listings_yoy":-0.0476,"realtor_new_listings_base":-0.2931,"realtor_days_on_market":36.05,"realtor_days_on_market_yoy":-0.0801,"realtor_days_on_market_base":0.0069,"zhvi":541327.249,"zhvi_yoy":0.0121,"zhvi_base":0.7331,"zori":2450,"zori_yoy":"NA","zori_base":"NA"}},{"type":"MultiPolygon","arcs":[[[45,46,47,48,-11]]],"properties":{"postal_code":"03110","realtor_list_price":1142671.429,"realtor_list_price_yoy":0.2104,"realtor_list_price_base":0.8912,"realtor_active_listings":44.333,"realtor_active_listings_yoy":0.031,"realtor_active_listings_base":-0.4249,"realtor_new_listings":23.333,"realtor_new_listings_yoy":0.1667,"realtor_new_listings_base":-0.3495,"realtor_days_on_market":51,"realtor_days_on_market_yoy":-0.0904,"realtor_days_on_market_base":-0.0647,"zhvi":773408.275,"zhvi_yoy":0.0208,"zhvi_base":0.7915,"zori":2657.056,"zori_yoy":"NA","zori_base":"NA"}},{"type":"MultiPolygon","arcs":[[[49,-37,50,51]]],"properties":{"postal_code":"03063","realtor_list_price":443116.071,"realtor_list_price_yoy":-0.1084,"realtor_list_price_base":0.5065,"realtor_active_listings":22,"realtor_active_listings_yoy":0.6098,"realtor_active_listings_base":-0.1757,"realtor_new_listings":18.667,"realtor_new_listings_yoy":0.0769,"realtor_new_listings_base":-0.3094,"realtor_days_on_market":21.286,"realtor_days_on_market_yoy":-0.0898,"realtor_days_on_market_base":-0.1776,"zhvi":468422.154,"zhvi_yoy":0.0401,"zhvi_base":0.8599,"zori":2207.823,"zori_yoy":0.0322,"zori_base":"NA"}},{"type":"MultiPolygon","arcs":[[[52,53]]],"properties":{"postal_code":"03109","realtor_list_price":472253.571,"realtor_list_price_yoy":-0.0752,"realtor_list_price_base":0.6236,"realtor_active_listings":5,"realtor_active_listings_yoy":-0.2857,"realtor_active_listings_base":-0.7805,"realtor_new_listings":9.333,"realtor_new_listings_yoy":-0.125,"realtor_new_listings_base":-0.4114,"realtor_days_on_market":16.571,"realtor_days_on_market_yoy":-0.3988,"realtor_days_on_market_base":-0.5968,"zhvi":468787.379,"zhvi_yoy":0.0155,"zhvi_base":0.8586,"zori":"NA","zori_yoy":"NA","zori_base":"NA"}},{"type":"MultiPolygon","arcs":[[[-48,54,55,-34,-50,56,57]]],"properties":{"postal_code":"03054","realtor_list_price":588335.87,"realtor_list_price_yoy":0.1631,"realtor_list_price_base":0.7518,"realtor_active_listings":30,"realtor_active_listings_yoy":0.4516,"realtor_active_listings_base":-0.4959,"realtor_new_listings":30.667,"realtor_new_listings_yoy":-0.0213,"realtor_new_listings_base":-0.3665,"realtor_days_on_market":30.326,"realtor_days_on_market_yoy":0.2795,"realtor_days_on_market_base":-0.1382,"zhvi":536717.099,"zhvi_yoy":0.0314,"zhvi_base":0.8954,"zori":2594.125,"zori_yoy":0.0478,"zori_base":"NA"}},{"type":"MultiPolygon","arcs":[[[58,59,-26,60,61,62]]],"properties":{"postal_code":"03084","realtor_list_price":"NA","realtor_list_price_yoy":"NA","realtor_list_price_base":"NA","realtor_active_listings":1.333,"realtor_active_listings_yoy":-0.6,"realtor_active_listings_base":-0.8577,"realtor_new_listings":0,"realtor_new_listings_yoy":-1,"realtor_new_listings_base":-1,"realtor_days_on_market":"NA","realtor_days_on_market_yoy":"NA","realtor_days_on_market_base":"NA","zhvi":562199.804,"zhvi_yoy":0.0752,"zhvi_base":0.9994,"zori":"NA","zori_yoy":"NA","zori_base":"NA"}},{"type":"MultiPolygon","arcs":[[[63,-31,64,65,66]]],"properties":{"postal_code":"03449","realtor_list_price":587206.25,"realtor_list_price_yoy":-0.2171,"realtor_list_price_base":"NA","realtor_active_listings":6,"realtor_active_listings_yoy":-0.3077,"realtor_active_listings_base":-0.6441,"realtor_new_listings":2.667,"realtor_new_listings_yoy":1,"realtor_new_listings_base":-0.2502,"realtor_days_on_market":43,"realtor_days_on_market_yoy":0.303,"realtor_days_on_market_base":"NA","zhvi":554052.378,"zhvi_yoy":0.0218,"zhvi_base":0.8254,"zori":"NA","zori_yoy":"NA","zori_base":"NA"}},{"type":"MultiPolygon","arcs":[[[-51,-18,67,68]]],"properties":{"postal_code":"03062","realtor_list_price":568155.556,"realtor_list_price_yoy":-0.068,"realtor_list_price_base":0.5229,"realtor_active_listings":32.333,"realtor_active_listings_yoy":0.1149,"realtor_active_listings_base":-0.4973,"realtor_new_listings":30,"realtor_new_listings_yoy":-0.1667,"realtor_new_listings_base":-0.2776,"realtor_days_on_market":31.556,"realtor_days_on_market_yoy":-0.1463,"realtor_days_on_market_base":-0.2333,"zhvi":547206.826,"zhvi_yoy":0.0276,"zhvi_base":0.8072,"zori":2651.411,"zori_yoy":0.0274,"zori_base":"NA"}},{"type":"MultiPolygon","arcs":[[[69,-62,70,71]]],"properties":{"postal_code":"03071","realtor_list_price":517147.727,"realtor_list_price_yoy":0.0347,"realtor_list_price_base":0.5914,"realtor_active_listings":20,"realtor_active_listings_yoy":0.7143,"realtor_active_listings_base":-0.3894,"realtor_new_listings":7.333,"realtor_new_listings_yoy":1.2,"realtor_new_listings_base":-0.067,"realtor_days_on_market":43.818,"realtor_days_on_market_yoy":-0.0833,"realtor_days_on_market_base":-0.208,"zhvi":491957.142,"zhvi_yoy":0.0503,"zhvi_base":1.0909,"zori":"NA","zori_yoy":"NA","zori_base":"NA"}},{"type":"MultiPolygon","arcs":[[[-6,-14,-42,72,-23,-60,73]]],"properties":{"postal_code":"03082","realtor_list_price":"NA","realtor_list_price_yoy":"NA","realtor_list_price_base":"NA","realtor_active_listings":4,"realtor_active_listings_yoy":0.2,"realtor_active_listings_base":-0.6113,"realtor_new_listings":0,"realtor_new_listings_yoy":-1,"realtor_new_listings_base":-1,"realtor_days_on_market":"NA","realtor_days_on_market_yoy":"NA","realtor_days_on_market_base":"NA","zhvi":529780.136,"zhvi_yoy":0.0229,"zhvi_base":0.9649,"zori":"NA","zori_yoy":"NA","zori_base":"NA"}},{"type":"MultiPolygon","arcs":[[[-30,-7,-74,-59,74,-65]]],"properties":{"postal_code":"03047","realtor_list_price":"NA","realtor_list_price_yoy":"NA","realtor_list_price_base":"NA","realtor_active_listings":4.667,"realtor_active_listings_yoy":-0.0667,"realtor_active_listings_base":-0.3927,"realtor_new_listings":0,"realtor_new_listings_yoy":-1,"realtor_new_listings_base":-1,"realtor_days_on_market":"NA","realtor_days_on_market_yoy":"NA","realtor_days_on_market_base":"NA","zhvi":488579.783,"zhvi_yoy":0.0874,"zhvi_base":1.0438,"zori":"NA","zori_yoy":"NA","zori_base":"NA"}},{"type":"MultiPolygon","arcs":[[[-66,-75,-63,-70,75]]],"properties":{"postal_code":"03458","realtor_list_price":712489.286,"realtor_list_price_yoy":0.1081,"realtor_list_price_base":1.1538,"realtor_active_listings":36.333,"realtor_active_listings_yoy":0.5797,"realtor_active_listings_base":-0.2325,"realtor_new_listings":9.333,"realtor_new_listings_yoy":-0.4167,"realtor_new_listings_base":-0.4462,"realtor_days_on_market":80.143,"realtor_days_on_market_yoy":1.5242,"realtor_days_on_market_base":0.232,"zhvi":482344.571,"zhvi_yoy":0.0381,"zhvi_base":0.9494,"zori":"NA","zori_yoy":"NA","zori_base":"NA"}},{"type":"MultiPolygon","arcs":[[[-61,-25,76,-22,77,-71]]],"properties":{"postal_code":"03048","realtor_list_price":582758.333,"realtor_list_price_yoy":0.0238,"realtor_list_price_base":0.934,"realtor_active_listings":7,"realtor_active_listings_yoy":0.4,"realtor_active_listings_base":-0.4578,"realtor_new_listings":2,"realtor_new_listings_yoy":0.5,"realtor_new_listings_base":-0.3957,"realtor_days_on_market":48.333,"realtor_days_on_market_yoy":0.859,"realtor_days_on_market_base":-0.337,"zhvi":487188.013,"zhvi_yoy":0.0151,"zhvi_base":0.893,"zori":"NA","zori_yoy":"NA","zori_base":"NA"}},{"type":"MultiPolygon","arcs":[[[-1,78,-54,79,80,-55,-47,81]]],"properties":{"postal_code":"03103","realtor_list_price":419248.78,"realtor_list_price_yoy":-0.0389,"realtor_list_price_base":0.902,"realtor_active_listings":22.333,"realtor_active_listings_yoy":-0.0822,"realtor_active_listings_base":-0.545,"realtor_new_listings":27.333,"realtor_new_listings_yoy":0,"realtor_new_listings_base":-0.2818,"realtor_days_on_market":34.732,"realtor_days_on_market_yoy":0.2181,"realtor_days_on_market_base":0.0007,"zhvi":420769.539,"zhvi_yoy":0.0107,"zhvi_base":0.8627,"zori":2056.845,"zori_yoy":0.0419,"zori_base":"NA"}},{"type":"MultiPolygon","arcs":[[[82,83,-57,-52,-69,84,-20]]],"properties":{"postal_code":"03049","realtor_list_price":953375,"realtor_list_price_yoy":-0.2176,"realtor_list_price_base":0.4993,"realtor_active_listings":16.667,"realtor_active_listings_yoy":-0.1228,"realtor_active_listings_base":-0.6619,"realtor_new_listings":6.667,"realtor_new_listings_yoy":-0.1667,"realtor_new_listings_base":-0.4614,"realtor_days_on_market":53.2,"realtor_days_on_market_yoy":-0.0472,"realtor_days_on_market_base":-0.2501,"zhvi":804325.733,"zhvi_yoy":0.0039,"zhvi_base":0.7831,"zori":"NA","zori_yoy":"NA","zori_base":"NA"}},{"type":"MultiPolygon","arcs":[[[-73,-41,85,-83,-19,-77,-24]]],"properties":{"postal_code":"03055","realtor_list_price":564940.882,"realtor_list_price_yoy":-0.0009,"realtor_list_price_base":0.7265,"realtor_active_listings":14.667,"realtor_active_listings_yoy":0.3333,"realtor_active_listings_base":-0.709,"realtor_new_listings":11.333,"realtor_new_listings_yoy":-0.1905,"realtor_new_listings_base":-0.5773,"realtor_days_on_market":48.471,"realtor_days_on_market_yoy":0.5035,"realtor_days_on_market_base":0.0063,"zhvi":516916.261,"zhvi_yoy":0.0237,"zhvi_base":0.8978,"zori":2006.111,"zori_yoy":"NA","zori_base":"NA"}},{"type":"MultiPolygon","arcs":[[[86,-28,-64]]],"properties":{"postal_code":"03440","realtor_list_price":491778.571,"realtor_list_price_yoy":0.0876,"realtor_list_price_base":1.024,"realtor_active_listings":10,"realtor_active_listings_yoy":0.7647,"realtor_active_listings_base":-0.5717,"realtor_new_listings":4.667,"realtor_new_listings_yoy":0.1667,"realtor_new_listings_base":-0.055,"realtor_days_on_market":34.286,"realtor_days_on_market_yoy":-0.1283,"realtor_days_on_market_base":-0.5233,"zhvi":431760.82,"zhvi_yoy":0.0171,"zhvi_base":1.0507,"zori":"NA","zori_yoy":"NA","zori_base":"NA"}},{"type":"MultiPolygon","arcs":[[[-81,87,-43,-35,-56]]],"properties":{"postal_code":"03052","realtor_list_price":585298.438,"realtor_list_price_yoy":-0.0191,"realtor_list_price_base":0.3955,"realtor_active_listings":10.667,"realtor_active_listings_yoy":-0.4483,"realtor_active_listings_base":-0.4524,"realtor_new_listings":10.667,"realtor_new_listings_yoy":-0.1579,"realtor_new_listings_base":-0.0807,"realtor_days_on_market":53.125,"realtor_days_on_market_yoy":-0.1036,"realtor_days_on_market_base":0.2253,"zhvi":614818.976,"zhvi_yoy":0.0348,"zhvi_base":0.8248,"zori":"NA","zori_yoy":"NA","zori_base":"NA"}},{"type":"MultiPolygon","arcs":[[[-40,-12,-49,-58,-84,-86]]],"properties":{"postal_code":"03031","realtor_list_price":899888.793,"realtor_list_price_yoy":0.2462,"realtor_list_price_base":1.0221,"realtor_active_listings":36,"realtor_active_listings_yoy":0.8947,"realtor_active_listings_base":-0.5073,"realtor_new_listings":19.333,"realtor_new_listings_yoy":0.2609,"realtor_new_listings_base":-0.3543,"realtor_days_on_market":47.034,"realtor_days_on_market_yoy":0.2033,"realtor_days_on_market_base":-0.1404,"zhvi":664942.269,"zhvi_yoy":0.0231,"zhvi_base":0.8542,"zori":"NA","zori_yoy":"NA","zori_base":"NA"}}]}},"arcs":[[[770856,526081],[23,-5931],[1,-3995],[-1484,16],[-1401,0],[14,-3996],[-1174,38],[38,-2690],[1163,-1333],[-1154,-1330],[574,-10967],[-610,-86],[-1398,-25],[-1607,-257],[-2951,-516],[-1182,287],[-412,242],[-1812,1066]],[[757484,496604],[2020,5992],[775,2593],[775,7310],[-1149,4043],[-865,2490],[1033,13529],[-33,4617],[-4716,5732],[107,2150],[4407,4216],[1228,-691],[445,-256],[762,-253],[3994,747],[223,-2082],[-1310,-237],[1732,-9718],[1885,274],[70,-726],[861,147],[859,-2238],[-1451,-235],[288,-2544],[1432,-7],[0,-5376]],[[320301,601754],[100352,10374]],[[420653,612128],[5741,-34025],[16486,5250],[2503,-15065]],[[445383,568288],[16471,-99396],[46,-300],[-14285,-3176]],[[447615,465416],[-50440,-11217]],[[397175,454199],[-3525,-769],[-4056,12249],[-6444,-1668],[-1914,15406],[7327,1736],[-882,6139],[-54204,-9529],[-5969,43676]],[[327508,521439],[-3060,22283],[-4464,-532],[-1146,6766],[-3745,-452],[-1024,13075],[2893,-1500],[1586,566],[1697,-2229],[3545,-820],[-224,4524],[4270,573],[-1244,9365],[-2421,-423],[-3870,29119]],[[445383,568288],[120455,30498],[1710,403]],[[567548,599189],[5714,-4253],[1666,-4057],[1480,-278],[-391,-1671],[1751,-2428],[3707,573],[3325,-839],[1212,-2196],[2437,-12977],[6183,-33903],[7798,-49144]],[[602430,488016],[1766,-14199],[1176,-9423],[479,-3910],[3121,-25553]],[[608972,434931],[-33136,-7599]],[[575836,427332],[-102877,-23580]],[[472959,403752],[-3500,18058],[-3318,20349],[-6907,8185],[-11619,15072]],[[734381,120249],[3794,7325],[2680,1075],[429,-2508],[-1394,-1792],[1072,-6809],[3109,-5196],[7717,358],[965,1613],[-1072,2867],[857,2508],[1822,179],[1652,-2942],[5101,-1000],[858,1255],[1135,2141],[2281,364],[5802,-1789],[4584,-1],[-1490,5296],[1300,2410],[4245,-1971],[5745,658]],[[785573,124290],[2037,-3433],[85,-2159],[226,-1805],[3435,-9393],[699,-4490],[53,-1374],[-1642,-9891],[-26,-2630],[573,-2862],[507,-1623],[883,-8680],[1570,-4170],[3107,-5672],[818,-5646],[-2355,-5195],[-2066,-7028],[1542,-19192],[-343,-3910],[1309,-9118],[2109,-5073],[1666,-5443]],[[799760,5503],[-18029,714]],[[781731,6217],[-1643,6254],[171,7386],[-351,-106],[1404,19958],[-632,6803],[-539,4661],[-1612,5664],[-2037,5918],[-1766,2471],[-2304,1638],[-2894,661],[-8067,-2992],[-2647,-129],[61,318],[-1643,402],[-1522,754],[-11876,10205],[-4374,4164],[-2722,4659],[-865,2487],[-478,2186],[-302,3316],[-712,27354]],[[498539,128431],[24240,3650],[-3713,34981],[23527,3769],[17339,2788],[11800,1919],[813,-8572],[2866,-29062]],[[575411,137904],[4713,-48216],[3162,-35872],[3958,-39894]],[[587244,13922],[-1277,51],[-4716,179],[-16785,614],[-21985,804],[-31091,1138]],[[511390,16708],[-8713,78407],[-1145,7929],[-2993,25387]],[[375740,301141],[99312,17951],[638,0],[3572,-29085],[1468,-12126],[358,-2632]],[[481088,275249],[388,-3316],[1642,-13756],[514,-4311],[71,-624],[3033,-24774],[703,-3248],[277,-4672],[837,-4857],[-388,-260],[4339,-36229],[4166,-35259]],[[496670,143943],[-7962,-1536],[-6307,-394],[-8293,-1210],[-2740,201],[-9405,2792],[-5501,8572],[-3345,4572],[-2197,4029],[-210,3517],[598,1917],[-678,2016],[816,4300],[-34146,-6011],[-23027,-3953]],[[394273,162755],[-18533,138386]],[[420653,612128],[-520,3062],[-6764,40157],[-10569,67125],[-8120,43140],[15114,5933],[36789,11706],[31399,10161],[69444,22843],[16299,-98934],[12084,-77321],[6848,-36908],[-3958,-1079],[-11151,-2824]],[[253351,576503],[12446,2489],[-752,1380],[1521,876],[-1586,1217],[2175,2118],[2241,-1586],[441,2297],[-752,2885],[-2830,2802],[-703,2077],[2127,138],[-2733,2050],[1899,6070],[3074,4865],[2568,-299],[-327,2009],[-1538,0],[1293,2078],[-2045,27],[-1963,1559],[-32,5318],[572,2460],[-2289,-806],[444,1365],[2974,43],[8864,2392],[-1226,3145],[5986,4592],[2862,4840]],[[286062,634904],[11466,-13274],[2273,-2352],[359,-4484],[12840,534],[1816,-13999],[5485,425]],[[327508,521439],[-49614,-8495],[-1890,-595],[-14492,7710]],[[261512,520059],[-1816,971],[-81,7081],[-6820,-670],[-4220,-1154],[-860,4354],[10755,2267],[-1750,4403],[-1881,-219],[-311,3322],[1178,1518],[-1505,11811],[1848,382],[-2698,22378]],[[872578,158123],[2126,-4075],[4694,3896],[4384,-3580],[1079,39],[-147,-2596],[1668,-1982],[-1423,-4895],[2127,-2009],[1160,-5646],[-1324,-2542],[4527,-1398],[29351,-8837],[18516,-5603],[4945,-1513],[14234,-4277],[13142,-3969],[6350,-1788],[823,-374],[5593,-1715],[15596,-23592],[-10354,-10624],[-435,-447],[-11544,-16472],[-1640,-2340],[-8041,-17842],[-3333,-7396],[-442,-980],[-133,-208],[-10482,-16367],[-5759,-8991],[-20624,192],[-49,0],[-17915,166],[-133,10],[-22824,1698],[-186,14],[-82,6],[-14269,565],[-2410,96],[-2455,97],[-18455,731]],[[848434,3575],[1623,9441],[5863,33604],[6116,35539],[8872,50556],[1180,7400],[490,18008]],[[728568,193037],[3695,983],[2387,-5918],[-2598,-8651],[2451,-4651],[4907,-1613],[4160,113],[4329,-987],[2094,-3541],[1830,-780],[3600,1669],[3198,3212],[1250,834],[867,4538],[-583,6454],[943,997]],[[761098,185696],[3827,-5673],[1651,-1778]],[[766576,178245],[3420,-2911],[1683,-2858],[1407,-4251],[818,-11319],[-621,-5350],[81,-7090],[2092,-5861],[10117,-14315]],[[734381,120249],[-5,8929],[448,6352],[72,830],[160,3463],[-135,2932],[-2966,23643],[-291,2295],[-3096,24344]],[[589886,830048],[27003,8735],[9928,-23759],[17145,10964],[24510,15501],[10138,6407],[5151,3254],[8832,5580],[2824,1783],[2237,1414],[2934,1854],[2676,1692],[-1947,-3118],[-424,-5399],[-1244,-3583],[818,-2201],[5789,-6902],[7606,-2722],[4858,-27],[1734,-738],[8031,-6875],[4121,-5277],[4760,-5264],[5052,-1364],[2668,-973],[3041,-2489],[4008,-4551],[9993,-12564],[3255,-5987],[2682,-9036],[82,-2120],[-3631,-10894],[-784,-2790],[-410,-6588],[-9760,-16304],[-1992,-3374],[-4479,-7506],[-33310,-55769],[-38783,35507],[-32398,29784],[-1193,10813],[7857,13457],[-8873,7130],[3289,3759],[-38930,35833],[-14864,14707]],[[5675,809843],[17730,59152],[31060,6384],[4530,114681],[64425,-712],[-2241,10651],[21607,-561],[4007,-57415],[34805,-62431],[-29767,-9696],[14327,-40040],[-8378,-29850],[-2398,1251],[-6895,6073],[-4951,-172],[-4807,-1690],[-6993,1430],[885,-2158],[2849,-2970],[2072,-4518],[4767,-4685],[5745,-1889],[6010,-3919],[-3631,-13019],[-48877,941],[1005,-2131],[1371,656],[-1170,-4546],[-193,-4580],[-909,803],[544,5187],[-2080,3430],[117,1141],[-100241,4580],[5675,30622]],[[575836,427332],[3631,-19821],[-5299,-1285],[1669,-14601],[3712,-24032],[-4399,-807],[2566,-7920],[4745,-20337],[-4285,-1120],[-6624,-602],[-19383,-4949],[176,-1729],[1297,-11039],[-4432,-1134],[1602,-13765],[-2257,-411]],[[548555,303780],[-29964,-5140],[131,-984]],[[518722,297656],[-7130,-1217],[-1178,5249],[-1814,745],[-1981,10821],[360,4949],[-1619,3130],[-1047,7273],[-1717,54],[1618,12071],[-570,8664],[-7247,-1310],[-704,6562],[-2044,-1079],[-10893,-360],[-838,6413],[-1926,-176],[-4786,-838],[-407,3868],[-5532,-1313],[207,-2575],[-2758,-801],[-7317,43138],[13560,2828]],[[766576,178245],[32811,7381],[9785,1519],[1860,299],[-302,2246],[-2180,16291],[-1545,11529],[-1578,11575]],[[805427,229085],[11773,-635],[8786,-442],[22173,-1219],[19631,-30618],[8795,-13455],[-2404,-2817],[539,-2967],[-1738,-2826],[-2317,-4418],[1243,177],[899,-5127],[-229,-6615]],[[848434,3575],[-1342,53],[-47312,1874],[-20,1]],[[602430,488016],[38794,6995],[29425,5397],[19093,3620],[16645,3245],[6554,1254],[18193,3358],[2095,381],[601,-5153],[1488,-12697],[1409,-12012],[394,-3371],[10108,2168],[5904,1663]],[[753133,482864],[3074,-13809],[737,-5154],[1063,-2816],[4399,-4799],[2912,-1777],[2012,-2091],[2102,-3856],[2395,-15009],[2129,-5553],[422,-1200],[770,-6275],[1995,-7382],[-687,-14340],[1635,-15215]],[[778091,383588],[-12262,-2600],[-39679,-8262],[-14720,-3083],[-5647,-1219],[-48812,-10364],[-2340,-460],[-2855,-533]],[[651776,357067],[-2172,14339],[-1517,10382],[-3641,24786],[-5099,34715],[-30375,-6358]],[[667004,170836],[2616,5838],[1785,1419],[1649,4773],[2012,887],[-212,988],[-131,2035],[2502,2924],[2699,124],[843,2159],[243,113],[-300,2881],[3335,-1340],[867,-3444],[1521,712],[2650,-2421],[1964,-547],[2583,1421],[2503,-95],[3598,-3813],[1946,738],[1537,2310],[7293,-2519],[1933,482],[735,889],[319,1558],[483,1108],[4662,4291],[3941,-570],[1755,920],[1102,-1282],[3131,-338]],[[734381,120249],[-2279,-6063],[-3782,-4879],[-2220,-11],[-3146,-5195],[-750,-6809],[-751,-1612],[-3108,-1613],[-2894,-5017],[-3966,-1613],[-3430,-895],[-4609,-8243],[-6756,-2275]],[[696690,76024],[1795,13678],[165,1235],[522,3906],[3,6725],[1488,32235],[-922,2825],[-1711,5254],[-2143,-1012],[-286,969],[-2233,7384],[-7474,-3198],[-14638,-2598],[1129,2598],[4121,5714],[-491,5440],[-2699,-423],[-2567,1639],[-1636,2461],[-3893,-1790],[-1210,3144],[-2355,2192],[98,1034],[5251,5400]],[[798599,521969],[577,-726],[3616,22],[1074,-238],[8568,-923],[1956,-70],[3210,1080],[50,-2659],[5584,2014],[2804,1909],[4313,10136],[883,1184],[1481,2722],[-3635,3797],[823,1487],[2657,-2417],[1772,779],[1663,3500],[640,873],[2433,4794],[792,-1702],[3337,1238],[880,923],[548,-3363],[416,-2521],[8507,-56955],[3352,-23731],[1992,-14888],[1598,-11912],[279,-2113],[-9245,-1736],[-468,-83],[-31016,-5825]],[[820040,426565],[-9288,8244],[4407,4120],[2441,4485],[-405,4642],[169,6965],[-362,11595],[-1081,4655],[-1341,2564],[-1473,1692],[-869,-414],[-1621,6592],[-5121,13865],[-449,711],[-1607,2611],[-927,2346],[-1629,5219],[-232,1115],[-550,2220],[-129,613],[-332,1528],[-911,8578],[-131,1458]],[[778091,383588],[-899,-11620]],[[777192,371968],[-982,-6165],[-1188,-3122],[-3898,-6079],[-4610,-12414],[-224,-2355],[-8591,-12076],[-4091,-6553],[-2062,-5001],[-1423,-1586],[-1128,-4786],[-5414,-8558],[-1161,-3553],[-394,-4802],[1097,-6094],[3402,-13738],[295,-3800],[-115,-4087],[-1031,-5250],[-1860,-5989],[-413,-2487],[605,-3118],[3037,-7577],[512,-1362],[703,-3198],[1473,-8148],[-720,-7560],[5806,-7328],[661,-4204],[565,-8140],[-179,-7191],[5234,-9951]],[[667004,170836],[-1792,19214],[-73,923]],[[665139,190973],[-3206,29058],[-2659,23722],[-203,1485],[-1011,7545],[-1798,13516],[-1615,12009],[-4916,35883],[-1166,9206],[-544,246],[-544,686],[-192,369],[-87,1656],[-417,1957],[157,1114],[624,1265],[-179,1279],[-2335,17103],[-82,595],[1764,-179],[348,2727],[-1134,2143],[-403,1491],[6235,1218]],[[320867,325515],[28540,5587]],[[349407,331102],[21852,4270],[4481,-34231]],[[394273,162755],[-11533,-2801]],[[382740,159954],[-84919,2885]],[[297821,162839],[-3580,31563],[6738,5524],[4662,5892],[507,4087],[2338,4155],[82,4908],[2257,5551],[1047,5180],[2371,4607],[-980,10391],[-1620,4510],[1553,7190],[-490,3432],[-2126,2161],[-2274,559],[523,6289],[6379,1763],[34,608],[-3550,16741],[13265,3936],[-4090,33629]],[[135753,620145],[1444,-1002],[2638,-5119],[933,-5488],[3806,-5654],[2572,-1435],[3672,-4506],[3373,2252],[3873,-5859],[8179,-3568],[1537,2989],[1637,982],[539,11550],[4255,-2691],[2219,2311],[1769,-584],[5897,3998],[2090,-5544],[5647,-5576],[2615,-6714],[1042,-6503],[1647,-1104],[3568,-61],[3201,-9935],[-62,-5358],[27704,5064],[21803,3913]],[[261512,520059],[212,-4894],[1653,-3705],[905,-4858],[-774,-5750],[-80,-6696],[1225,-7575],[915,-14738],[-491,-5085],[-6133,-2283],[-2846,-629],[-981,-4087],[1357,-2147],[-491,-2295],[-3990,-1095],[-3026,-3800],[-768,-1805],[245,-3417],[1422,-3281],[-2665,-2829],[-16,-1355],[2960,-3293]],[[250145,434442],[-19980,-4200],[-38354,-9995],[-4210,-2333]],[[187601,417914],[-2912,24306],[-60059,1805],[1047,37646],[2620,70419],[913,24755],[6543,43300]],[[781731,6217],[-474,19],[-2249,89],[-6402,254],[-10575,419],[-21953,869],[-71,3],[-8124,322],[-8754,347],[-5,0],[-11800,468],[-22224,880],[-3673,145],[-3231,129]],[[682196,10161],[1557,7153],[1750,9988],[1285,9033],[1576,10579],[1564,2336],[546,1914],[932,11197],[916,5250],[4368,8413]],[[251044,163809],[37909,-834],[8868,-136]],[[382740,159954],[1051,-8393],[-636,-926],[-1523,-1455],[835,-1342],[740,-1933],[706,-4319],[1354,-1811],[1997,-16114],[9134,-72796],[3520,-29529]],[[399918,21336],[-19736,892],[-80354,3631],[-32200,1456],[-223,7],[-6207,55288],[-6686,59080],[-49,192],[-3419,21927]],[[518722,297656],[1808,-12086],[57,-382],[-9503,-3384],[-300,269],[-3380,1707],[311,-2557],[-11160,-3152],[-15467,-2822]],[[349407,331102],[-2721,15634],[22182,3865],[-5209,28791],[1414,-101],[3073,-3483],[2779,-1113],[2215,-2178],[3541,-749],[-1933,5314],[-468,5510],[-1276,1855],[4813,1136],[-2077,12481],[9487,1667],[-1341,10199],[11645,2707],[-3320,20929],[10745,2093],[-2486,8570],[-2011,-425],[-1284,10395]],[[320867,325515],[-8524,67633],[-6098,52434],[-21033,-3663],[-35067,-7477]],[[251044,163809],[-32613,1777],[-2021,15788],[-8168,63774],[-6935,56102],[-4650,34821],[-2198,21265],[-2505,23710],[-2466,862],[175,3779],[1488,3141],[-1882,9794],[752,-25],[-2420,19317]],[[496670,143943],[1869,-15512]],[[511390,16708],[-27295,999],[-3711,136],[-16612,607],[-27240,1231],[-1421,65],[-35193,1590]],[[770856,526081],[2059,18],[-6,-727],[801,690],[3929,-11],[5123,-138],[2021,64],[1423,-630],[2202,-9],[5335,-1161],[740,234],[1038,-396],[-161,-623],[728,-183],[0,-210],[482,-53],[116,-500],[250,288],[598,-226],[180,672],[812,-372],[73,-839]],[[820040,426565],[-12698,-2292],[-16,0],[-18768,-3427],[-3180,-4544],[3383,-1713],[-2961,-1247],[-604,-6634],[2210,-4764],[346,-4328],[-835,-3058],[-4123,-600],[4857,-37066],[1447,-10337]],[[789098,346555],[-11906,25413]],[[753133,482864],[1091,4940],[3260,8800]],[[575411,137904],[15570,6875],[4613,14957],[5185,942],[4842,3951],[8144,4852],[-1571,12701]],[[612194,182182],[5364,946],[16518,2695],[24475,4005],[5171,894],[1417,251]],[[682196,10161],[-537,21],[-10880,431],[-15653,620],[-19,1],[-19878,787],[-36374,1441],[-11611,460]],[[548555,303780],[1685,-13232],[-741,-2650],[193,-1919],[1039,-9814],[13215,2365],[1259,-6028],[2143,-10143],[1750,423],[9470,-2925],[2531,-13006],[896,-4600],[3589,-932],[2323,767],[4220,-5811],[1368,-553],[2296,-1115],[1651,-3361],[4424,706],[1253,2410],[239,-5614],[1615,-16625],[2888,-30747],[4333,806]],[[135753,620145],[10583,70152],[45472,11716],[17137,5220],[20869,6221],[7886,15944],[-21,6251],[4890,-3047],[569,-2686],[1328,-581],[-156,6365],[-2008,7575],[1204,2213],[2709,-2621],[1238,-3482],[-435,-1555],[1639,-4096],[4213,-2906],[1036,-1679],[-1169,-3686],[-23,-5291],[4710,1378],[-897,3461],[4522,6152],[-9181,12209],[2105,-953],[3243,1433],[3979,-1924],[2273,-82],[2684,-3611],[4754,6352],[555,-1349],[1152,-17243],[15003,4395],[1699,-1687],[-399,-3962],[-3819,-1486],[606,-1476],[-1489,-2530],[1422,-1407],[-396,-2189],[-1287,111],[-1571,-1928],[1423,-1504],[1167,-3305],[-938,-5061],[687,-2392],[-1293,588],[-1242,-2501],[1864,532],[164,-4211],[-2356,-778],[1047,-3759],[-621,-2066],[2813,1027],[-556,-1955],[-1914,-1695],[1,-9912],[1586,-547],[-164,-2336],[4285,-2489],[-1390,-464],[-212,-3638],[-1145,-2883],[703,-3938],[1521,356],[1521,-3623],[-213,-6042],[-2731,-3528],[2028,-6273],[-32,-2940],[-2323,-3595]],[[789098,346555],[669,-4748],[8215,-58946],[1240,-8977],[1375,-9733],[4830,-35066]]],"bbox":[-72.178497,42.69699,-71.2455393,43.25508],"transform":{"scale":[9.329586329586216e-7,5.580905580905581e-7],"translate":[-72.178497,42.69699]}}
