{"type":"Topology","objects":{"foo":{"type":"GeometryCollection","geometries":[{"type":"MultiPolygon","arcs":[[[0,1,2,3]]],"properties":{"postal_code":"56169","realtor_list_price":"NA","realtor_list_price_yoy":"NA","realtor_list_price_base":"NA","realtor_active_listings":1.333,"realtor_active_listings_yoy":-0.4286,"realtor_active_listings_base":-0.4926,"realtor_new_listings":0,"realtor_new_listings_yoy":"NaN","realtor_new_listings_base":-1,"realtor_days_on_market":"NA","realtor_days_on_market_yoy":"NA","realtor_days_on_market_base":"NA","zhvi":"NA","zhvi_yoy":"NA","zhvi_base":"NA","zori":"NA","zori_yoy":"NA","zori_base":"NA"}},{"type":"MultiPolygon","arcs":[[[-1,4]]],"properties":{"postal_code":"56113","realtor_list_price":"NA","realtor_list_price_yoy":"NA","realtor_list_price_base":"NA","realtor_active_listings":1,"realtor_active_listings_yoy":0,"realtor_active_listings_base":"NA","realtor_new_listings":0,"realtor_new_listings_yoy":-1,"realtor_new_listings_base":"NA","realtor_days_on_market":"NA","realtor_days_on_market_yoy":"NA","realtor_days_on_market_base":"NA","zhvi":"NA","zhvi_yoy":"NA","zhvi_base":"NA","zori":"NA","zori_yoy":"NA","zori_base":"NA"}},{"type":"MultiPolygon","arcs":[[[5,6,7]]],"properties":{"postal_code":"56263","realtor_list_price":"NA","realtor_list_price_yoy":"NA","realtor_list_price_base":"NA","realtor_active_listings":2.333,"realtor_active_listings_yoy":0.75,"realtor_active_listings_base":-0.4751,"realtor_new_listings":0,"realtor_new_listings_yoy":"NaN","realtor_new_listings_base":-1,"realtor_days_on_market":"NA","realtor_days_on_market_yoy":"NA","realtor_days_on_market_base":"NA","zhvi":"NA","zhvi_yoy":"NA","zhvi_base":"NA","zori":"NA","zori_yoy":"NA","zori_base":"NA"}},{"type":"MultiPolygon","arcs":[[[8,-3,9]]],"properties":{"postal_code":"56157","realtor_list_price":"NA","realtor_list_price_yoy":"NA","realtor_list_price_base":"NA","realtor_active_listings":2,"realtor_active_listings_yoy":1,"realtor_active_listings_base":-0.4267,"realtor_new_listings":0,"realtor_new_listings_yoy":"NaN","realtor_new_listings_base":-1,"realtor_days_on_market":"NA","realtor_days_on_market_yoy":"NA","realtor_days_on_market_base":"NA","zhvi":284563.09,"zhvi_yoy":0.1509,"zhvi_base":"NA","zori":"NA","zori_yoy":"NA","zori_base":"NA"}},{"type":"MultiPolygon","arcs":[[[10,-7,11,12,13]]],"properties":{"postal_code":"56175","realtor_list_price":190583.333,"realtor_list_price_yoy":-0.0056,"realtor_list_price_base":1.6883,"realtor_active_listings":16,"realtor_active_listings_yoy":0.1707,"realtor_active_listings_base":-0.0265,"realtor_new_listings":4,"realtor_new_listings_yoy":1,"realtor_new_listings_base":0.1094,"realtor_days_on_market":74,"realtor_days_on_market_yoy":0.1809,"realtor_days_on_market_base":0.0805,"zhvi":165321.543,"zhvi_yoy":0.0908,"zhvi_base":0.3515,"zori":"NA","zori_yoy":"NA","zori_base":"NA"}},{"type":"MultiPolygon","arcs":[[[14]]],"properties":{"postal_code":"56170","realtor_list_price":"NA","realtor_list_price_yoy":"NA","realtor_list_price_base":"NA","realtor_active_listings":1,"realtor_active_listings_yoy":-0.25,"realtor_active_listings_base":-0.5653,"realtor_new_listings":0,"realtor_new_listings_yoy":"NaN","realtor_new_listings_base":"NA","realtor_days_on_market":"NA","realtor_days_on_market_yoy":"NA","realtor_days_on_market_base":"NA","zhvi":194271.334,"zhvi_yoy":0.0743,"zhvi_base":"NA","zori":"NA","zori_yoy":"NA","zori_base":"NA"}},{"type":"MultiPolygon","arcs":[[[-13,15]]],"properties":{"postal_code":"56132","realtor_list_price":642000,"realtor_list_price_yoy":"NA","realtor_list_price_base":"NA","realtor_active_listings":9.333,"realtor_active_listings_yoy":3,"realtor_active_listings_base":1.9484,"realtor_new_listings":1.333,"realtor_new_listings_yoy":"Inf","realtor_new_listings_base":3.5,"realtor_days_on_market":46,"realtor_days_on_market_yoy":"NA","realtor_days_on_market_base":"NA","zhvi":318797.59,"zhvi_yoy":0.1231,"zhvi_base":0.779,"zori":"NA","zori_yoy":"NA","zori_base":"NA"}},{"type":"MultiPolygon","arcs":[[[16,17]]],"properties":{"postal_code":"56229","realtor_list_price":318750,"realtor_list_price_yoy":"NA","realtor_list_price_base":"NA","realtor_active_listings":1.333,"realtor_active_listings_yoy":0.3333,"realtor_active_listings_base":-0.7837,"realtor_new_listings":0.667,"realtor_new_listings_yoy":"Inf","realtor_new_listings_base":-0.6042,"realtor_days_on_market":34,"realtor_days_on_market_yoy":"NA","realtor_days_on_market_base":"NA","zhvi":250385.505,"zhvi_yoy":0.0837,"zhvi_base":0.4899,"zori":"NA","zori_yoy":"NA","zori_base":"NA"}},{"type":"MultiPolygon","arcs":[[[18,-17,19,-8,-11,20,-9]]],"properties":{"postal_code":"56258","realtor_list_price":264791.667,"realtor_list_price_yoy":0.0006,"realtor_list_price_base":0.5233,"realtor_active_listings":22,"realtor_active_listings_yoy":0.6923,"realtor_active_listings_base":-0.506,"realtor_new_listings":12,"realtor_new_listings_yoy":0.0588,"realtor_new_listings_base":-0.3646,"realtor_days_on_market":45.111,"realtor_days_on_market_yoy":-0.0218,"realtor_days_on_market_base":-0.3048,"zhvi":240535.352,"zhvi_yoy":0.0643,"zhvi_base":0.5007,"zori":"NA","zori_yoy":"NA","zori_base":"NA"}}]}},"arcs":[[[205166,509012],[47,6698],[2846,2782],[21811,-174],[-38,37914]],[[229832,556232],[26023,70]],[[255855,556302],[25846,-452],[-190,-37949],[25859,-348],[13,-31326],[0,-6623],[25713,-252],[-351,-1161],[138,-339],[413,107],[285,466],[381,193],[278,510],[14,252],[24480,-280],[-71,-13902],[13148,-66],[460,-36984],[5098,-105],[4061,-1338],[4542,-3946],[-1025,-2104],[-253,-17871],[-38,-13100],[4365,3661],[3846,2138],[10842,4051],[3150,2833],[3491,-69],[16601,35],[52,5076],[3711,980],[-7,-6149],[5249,-47]],[[435956,402193],[-63,-25171],[-25631,34],[-418,-25189],[-25567,348],[-51,-25294],[-25340,226],[88,-12586],[207,-25639],[24,-8868],[-7775,1349],[-8587,-528],[-13240,2953],[-10633,-1133],[-2214,401],[-18570,6716],[-9609,4374],[7374,7716],[-39312,56],[-430,25120],[-25656,765],[417,75724],[-25580,817],[-215,76054],[-9,28574]],[[205166,509012],[-3038,-3148],[-48150,42],[38,25278],[-25860,401],[-86,-25342],[9,-24958],[730,-26611],[-25771,-117],[167,-25180],[-39434,552],[-12281,1226],[-25558,-377],[-1,12311],[-7210,327],[-5564,71],[70,12602],[-12821,102],[76,13228],[-482,12161],[25640,223],[-47,12796],[-42,12530],[12820,327],[3035,108],[3404,-75],[6495,-95],[-60,25095],[38,50977],[34,25408],[102795,-1841],[-1076,26305],[25727,-311],[25752,-365],[609,-50632],[24910,-487],[-202,-25311]],[[869843,680781],[151,-254],[25612,69],[-277,-25245],[25525,96],[150,12581],[8261,217],[17537,-212],[-54,-12687],[25821,-144],[-37,-3034],[5085,-438],[959,-2978],[229,-4452],[3446,-2642],[253,-695],[468,-10260],[649,-633],[3231,-273],[7992,-61],[5155,-40],[-1142,-24591],[-166,-25737],[-26263,155],[79,-25268],[11,-25291],[-25445,-120],[165,-25216],[208,-25218],[-102,-6855],[-384,-18620],[-76859,-175]],[[870101,452760],[304,25505],[-51274,59],[82,-11895],[-13127,-202],[-155,12292],[-12429,-80],[-6429,-17],[-19177,69]],[[767896,478491],[-80,12680],[-21,6142],[0,381],[-38,6126],[104,29288],[106,8986],[132,12139],[12223,-51],[13307,16],[73,12904],[41,12337],[-43,13344],[-33,11933],[12919,41],[12617,-3],[25522,-482],[25539,661],[-420,13213],[-602,5309],[251,6733],[250,42405],[-632,7148],[732,1040]],[[384087,595954],[164,-41043],[77172,-487],[-102,-12716],[6512,0],[-8,6399],[3776,-11],[2192,3355],[3269,1212],[2332,-1332],[3912,583],[-1745,-6976],[7877,9509],[1083,-423],[-3884,-4728],[392,-696],[-63,-70057],[-7104,298],[-18540,-193],[38,-25954],[-25530,52],[177,-25259],[-51,-25294]],[[255855,556302],[-49,11593],[-52,13613],[-203,25311],[7199,-96],[0,12068],[5943,7],[36,12885],[9374,-151],[3097,177],[77028,-796],[341,-59211],[4394,-923],[2201,2988],[2384,1768],[1604,3067],[2124,-1542],[2245,1361],[-1477,3560],[1327,601],[1258,2890],[1848,-134],[1201,1498],[-334,2528],[2889,-2350],[1608,3059],[-608,3953],[2854,1928]],[[538203,376987],[25770,-139],[0,25241],[39301,158],[11898,16],[12421,87],[13160,69],[20,16557],[3273,1648],[-227,3569],[5330,1251],[691,2074],[4514,2524],[1767,3446],[2342,50],[329,1109],[7430,56],[35,-6694],[12610,-195],[12756,-205],[-569,25206],[-13,13994],[-38,11769],[6339,-22],[19216,74],[11977,183],[597,-16],[1336,-8],[1017,-3123],[3927,-2023],[7817,-2500],[5003,-3729],[5550,2829],[1248,-3811],[-28,5758],[12960,-73],[-66,6374]],[[870101,452760],[172,-24708],[2351,389],[561,3519],[4053,-51],[557,-3282],[-2196,197],[-255,-1652],[3312,87],[2536,-4537],[923,-3176],[1675,243],[604,2683],[2937,-760],[2277,574],[-1501,-1824],[1331,-824],[-3007,-3934],[-219,-2955],[-3362,-6232],[-4760,-2566],[-1665,807],[-4250,-2432],[23376,144],[471,-75815],[183,-25942],[-12541,-33],[72,-12756],[12523,207],[25,-12673],[62,-12998],[-11387,-521],[145,-11714],[11295,-33],[11,-12485],[-10374,-109],[64,-10173],[-7228,156],[-7850,-389],[-8,-2184],[36,-12949],[-251,-37634],[-12978,22],[12,-24424],[25480,-122],[-13,-25206],[-25479,121],[202,-25206],[-24277,-53],[-25492,18],[-26,-50466],[-25719,35],[-1620,1513],[-2037,-1252],[-17446,-174],[-3061,-1460],[-1910,1443],[-12310,208],[-696,-25258],[-48198,-572],[-14501,672],[3,937],[-614,-615],[-457,1238],[508,994],[-381,2662],[-846,1328],[393,935],[777,862],[675,424],[36,8178],[2097,4314],[3525,5402],[-583,3553],[1790,3817],[-1242,8506],[2592,4684],[3642,2214],[-946,-21],[-7535,10382],[351,3305],[-3633,5025]],[[680882,92388],[-38,32672],[114,49944],[-14169,69],[101,1478],[-184,34402],[14867,-3767],[3245,-502],[4325,-87],[16897,501],[6940,1192],[4804,1801],[1,39368],[-25719,782],[-51,76419],[89,25294],[-2366,-939],[-1910,522],[-2662,429],[-1192,-3365],[-4267,81],[-334,-2155],[1647,-1285],[-366,-3294],[1482,-1998],[-1630,-1700],[-2559,769],[-2602,-1071],[-1735,598],[-3028,-2323],[1706,-2678],[-3236,-1989],[-2886,123],[-3040,1587],[1027,-5715],[-2187,-717],[-72425,-417]],[[589541,326417],[-76,25294],[-25618,-52],[77,12824],[-25935,172],[214,12332]],[[8720,127316],[12234,-247],[-150,50704],[6419,-33],[25767,-205],[-317,3468],[-134,21658],[51271,-167],[-15,-25380],[76771,-565],[0,25511],[23665,-282],[1766,3578],[164,-28944],[18727,-339],[6905,-113],[38,19782],[986,2069],[2632,-504],[2720,1147],[1961,2817],[-13,3581],[-2973,4328],[-5351,3025],[-228,27154],[-25598,382],[-243,21281],[11950,-7096],[3277,-1182],[11221,-573],[4883,712],[3328,522],[16674,-1860],[111,-12195],[-104,-12737],[233,-1944],[291,-21886],[3087,-1617],[6055,-132],[49,6201],[6045,-56],[52,6076],[22638,-203],[-95,-12098],[-12529,4],[100,-13035],[141,-11772],[12418,113],[5964,43],[-595,-24615],[37445,-238],[13603,-58],[-11,-12221],[-40,-13020],[-25328,35],[-291,-4711],[-12,-71257],[-25518,296],[127,-25277],[-50845,279],[-278,-25520],[-25328,209],[64,25224],[63,25276],[-76431,-19],[93,25250],[-50874,-75],[100,25219],[-24966,262],[109,25207],[-25760,142],[41,-25191],[-25661,270],[-129,13071],[-12429,113],[58,12358]],[[680882,92388],[-76,-18420],[-519,626],[-25099,87],[202,-25137],[-25517,87],[-6480,0],[-93,12605],[-5946,7],[-13190,1053],[-188,11524],[-12790,-17],[-72,-18547],[-5939,-12],[29,5603],[-6547,10],[-173,12894],[-12550,156],[-1556,1304],[-1455,-1060],[-5895,-400],[-2632,-1269],[-1265,-2347],[101,-21504],[-24227,226],[-25403,70],[-139,50430],[25580,-139],[-88,25137],[30,50448],[-15401,18],[-557,24424],[26049,747],[138,13188],[-4635,-496],[-6056,4317],[-1160,3784],[-3418,597],[1122,2014],[14140,-2289],[109,4144],[-342,25242],[25328,139],[0,25258],[19065,-156],[114,24737],[6465,904],[-37,6432],[1732,2538],[-936,5007],[-1101,1964],[-63,8101]],[[818439,731164],[-25734,-154],[93,-12772],[-6277,1161],[-2585,1841],[-3148,-452],[-6613,933],[-2903,1445],[-2112,-365],[-2505,-1885],[-342,-4688],[-1293,-3480],[-2624,252],[-3067,-2761],[-2674,503],[-2216,-1699],[-2491,2385],[-3661,762],[-2216,1945],[-6676,-1578],[-3885,-2186],[-3707,-747],[-3422,-1970],[-594,-1910],[-7664,-51],[0,9833],[-3944,-110],[-114,15750],[-25834,111],[-14083,105],[166,1920],[-4641,1855],[-2825,4310],[-3609,1745],[-1234,1732],[-3377,104],[-5567,3228],[2425,3239],[-1835,-205],[-850,3302],[-999,3562],[-2015,1476],[-4809,1384],[1327,-3080],[-1181,-1530],[-1717,1067],[-3846,-17],[41,6973],[-1717,-1198],[-1239,1879],[-4707,3416],[-1393,-2043],[-488,4590],[-2995,1401],[-2200,201],[-789,-3200],[-6394,3941],[-757,1352],[-5585,2198],[-26,2788],[-632,922],[-456,1529],[-25,23764],[-37524,61],[12,25240],[-26672,48],[220,12758],[-12926,113],[-79,-12822],[-19526,162],[-13158,132],[-6497,71]],[[496049,829750],[-57,6317],[32,44409],[-25796,313],[38,18340],[6123,504],[317,6241],[-6060,70],[-241,12568],[90,12659],[-25759,-19],[-79,50533],[51738,-129],[26161,46],[-138,6373],[25534,132],[14,-6363],[25699,-274],[72,-11761],[-6330,99],[25,-2798],[2385,-2052],[-1392,-2805],[735,-1487],[2082,-485],[2312,4560],[2101,993],[3741,-1259],[395,1358],[-1956,2593],[-1556,-521],[417,2082],[3548,-634],[1062,-4061],[3096,-245],[1474,4094],[2170,1361],[-1430,1585],[1198,1866],[2824,-1294],[1472,814],[323,-1888],[2681,-3379],[1663,1408],[4736,879],[3230,-1646],[-2936,-2481],[1175,-1592],[2203,2117],[5449,2820],[1862,-1222],[910,-5460],[1912,2086],[2558,-692],[-339,-5123],[2941,210],[1283,2090],[1708,165],[-2097,2015],[580,2499],[-3084,4063],[3011,-174],[1038,2231],[2428,-2792],[1069,2055],[992,-2497],[2263,-243],[-88,2571],[1817,2867],[2465,-181],[5807,-2027],[2328,2100],[4099,-2404],[2806,1849],[2214,318],[55,19248],[5945,5453],[5917,356],[2292,844],[12086,83],[-55,-19042],[51234,-232],[-1086,-25111],[29420,-227],[-16836,-24932],[66468,-756],[-371,-127968],[-263,-4558],[210,-19406],[12043,-421],[558,-21198],[-295,-24984]],[[384087,595954],[3111,3387],[6258,-32],[-707,3035],[1838,1840],[-2424,1114],[910,1368],[-2248,1547],[2130,3293],[4785,-117],[-34,2177],[-1715,2060],[1212,2190],[6391,5238],[4200,4092],[1805,-2952],[2719,1455],[-1257,1549],[321,3046],[2258,587],[-4162,-5],[63,50483],[-215,12313],[-203,12911],[25632,-156],[6543,5],[7053,-28],[-2,6211],[12340,765],[11108,-7145],[40193,-52],[-127,25450],[24999,-243],[-279,36715],[-280,2475],[-3991,-5205],[-2569,703],[-3571,-2418],[-161,-1602],[4523,-1755],[-964,-1640],[-1879,73],[-3021,-3243],[-2142,1462],[-4047,-1725],[-994,-1549],[-2605,2472],[-3044,-1243],[-13,2034],[-16467,-5],[-2130,5512],[-3959,2398],[-3123,269],[-6636,4191],[-522,10010],[7117,-54],[10134,-70],[-82,37506],[-57,6849],[-51,6250]],[[818439,731164],[304,-11315],[-294,-14927],[-30,-1457],[3075,1246],[681,2255],[3436,-3216],[4920,-1655],[-1198,-1667],[746,-3399],[2996,-377],[3948,1144],[3941,-471],[2403,-1487],[2419,1198],[-816,1313],[-4128,-400],[-372,1330],[4412,4737],[9112,-3056],[1591,4499],[1546,-1840],[-749,-1863],[1460,-1262],[1192,4414],[4052,-3613],[1129,1182],[-2559,3317],[3018,1476],[-1545,1937],[7000,-1315],[-286,-27111]],[[538203,376987],[126,25241],[-13687,75],[-12070,47],[-63808,-129],[-12808,-28]]],"bbox":[-96.241539,44.09514,-95.451096,44.670385],"transform":{"scale":[7.904437904437867e-7,5.752455752455777e-7],"translate":[-96.241539,44.09514]}}
