{"type":"Topology","objects":{"foo":{"type":"GeometryCollection","geometries":[{"type":"MultiPolygon","arcs":[[[0,1]]],"properties":{"postal_code":"65320","realtor_list_price":"NA","realtor_list_price_yoy":"NA","realtor_list_price_base":"NA","realtor_active_listings":2.667,"realtor_active_listings_yoy":0,"realtor_active_listings_base":0.6003,"realtor_new_listings":0,"realtor_new_listings_yoy":"NaN","realtor_new_listings_base":"NA","realtor_days_on_market":"NA","realtor_days_on_market_yoy":"NA","realtor_days_on_market_base":"NA","zhvi":"NA","zhvi_yoy":"NA","zhvi_base":"NA","zori":"NA","zori_yoy":"NA","zori_base":"NA"}},{"type":"MultiPolygon","arcs":[[[2,3,4,5]]],"properties":{"postal_code":"65340","realtor_list_price":175000,"realtor_list_price_yoy":-0.1979,"realtor_list_price_base":0.3805,"realtor_active_listings":53,"realtor_active_listings_yoy":0.3707,"realtor_active_listings_base":-0.4032,"realtor_new_listings":21.333,"realtor_new_listings_yoy":0.6,"realtor_new_listings_base":0.0126,"realtor_days_on_market":66.375,"realtor_days_on_market_yoy":0.0283,"realtor_days_on_market_base":-0.2051,"zhvi":189892.913,"zhvi_yoy":0.0533,"zhvi_base":0.5526,"zori":"NA","zori_yoy":"NA","zori_base":"NA"}},{"type":"MultiPolygon","arcs":[[[-3,6]]],"properties":{"postal_code":"65339","realtor_list_price":"NA","realtor_list_price_yoy":"NA","realtor_list_price_base":"NA","realtor_active_listings":1.333,"realtor_active_listings_yoy":-0.2,"realtor_active_listings_base":0.1202,"realtor_new_listings":0,"realtor_new_listings_yoy":"NaN","realtor_new_listings_base":"NA","realtor_days_on_market":"NA","realtor_days_on_market_yoy":"NA","realtor_days_on_market_base":"NA","zhvi":"NA","zhvi_yoy":"NA","zhvi_base":"NA","zori":"NA","zori_yoy":"NA","zori_base":"NA"}},{"type":"MultiPolygon","arcs":[[[7,8,9,-5]]],"properties":{"postal_code":"65349","realtor_list_price":"NA","realtor_list_price_yoy":"NA","realtor_list_price_base":"NA","realtor_active_listings":4.667,"realtor_active_listings_yoy":0.2727,"realtor_active_listings_base":-0.5761,"realtor_new_listings":0,"realtor_new_listings_yoy":-1,"realtor_new_listings_base":"NA","realtor_days_on_market":"NA","realtor_days_on_market_yoy":"NA","realtor_days_on_market_base":"NA","zhvi":136531.118,"zhvi_yoy":0.0523,"zhvi_base":0.0771,"zori":"NA","zori_yoy":"NA","zori_base":"NA"}},{"type":"MultiPolygon","arcs":[[[10,-9]]],"properties":{"postal_code":"65330","realtor_list_price":"NA","realtor_list_price_yoy":"NA","realtor_list_price_base":"NA","realtor_active_listings":1.333,"realtor_active_listings_yoy":1,"realtor_active_listings_base":-0.4855,"realtor_new_listings":0,"realtor_new_listings_yoy":"NaN","realtor_new_listings_base":"NA","realtor_days_on_market":"NA","realtor_days_on_market_yoy":"NA","realtor_days_on_market_base":"NA","zhvi":"NA","zhvi_yoy":"NA","zhvi_base":"NA","zori":"NA","zori_yoy":"NA","zori_base":"NA"}},{"type":"MultiPolygon","arcs":[[[-1,11]]],"properties":{"postal_code":"65322","realtor_list_price":"NA","realtor_list_price_yoy":"NA","realtor_list_price_base":"NA","realtor_active_listings":0.667,"realtor_active_listings_yoy":-0.3333,"realtor_active_listings_base":"NA","realtor_new_listings":0,"realtor_new_listings_yoy":"NaN","realtor_new_listings_base":"NA","realtor_days_on_market":"NA","realtor_days_on_market_yoy":"NA","realtor_days_on_market_base":"NA","zhvi":269797.332,"zhvi_yoy":0.0326,"zhvi_base":"NA","zori":"NA","zori_yoy":"NA","zori_base":"NA"}}]}},"arcs":[[[859346,375896],[-15866,-16889]],[[843480,359007],[421,6683],[1674,6926],[-4110,9419],[-3155,3807],[-2587,-436],[-1440,7318],[4978,1155],[3555,4535],[6089,1706],[3778,-7112],[2701,-9743],[4432,-1429],[-470,-5940]],[[193326,404268],[612,15556],[29481,-1622],[1481,30504],[29084,-2034],[1547,30624],[28958,-1467],[462,10519],[-8071,2225],[-10372,-920],[-10632,1388],[205,3448],[1749,45613],[-43852,2466],[1317,31627],[-20620,1090],[7125,13428],[809,8521],[-1092,4634],[744,4059],[2989,8129],[1802,1165],[9058,-596],[7688,478],[769,34729],[32579,-1694],[4687,-1761],[2839,-2741],[9363,-15185],[6606,-9606],[8118,13107],[1841,2072],[-1174,-23379],[10516,-5205],[4013,-3425],[228,5337],[4342,380],[3199,6582],[6821,-613],[29748,-1026],[-131,-4213],[63022,-793],[-2986,1444],[-3282,4680],[-5717,-2560],[-15967,325],[-29529,15638],[-4623,5193],[-164,615],[863,25633],[28026,-1069],[746,30668],[-27666,1224],[1145,30590],[11360,69],[38,14715],[-5884,174]],[[357544,733008],[432,3020],[5196,10213],[3731,9463],[484,8349],[-3494,7995],[414,5845],[5586,4418],[2785,705],[4301,-1230],[7741,153],[2372,4488],[8118,7071],[6503,7219],[8967,3994],[9915,811],[4658,1051],[6116,4739],[6819,256],[1092,968],[-659,4888],[1080,2181],[6118,2801],[14074,3911],[9161,1408],[-445,-30582],[22434,628],[-1094,-46806],[14605,235]],[[504554,751200],[22,-24627],[6784,-208],[-202,-6112],[894,-1059],[13402,537],[-241,-9218],[-6960,-229],[-476,-13930],[30083,-512],[-1058,-32533],[-111,-6945],[15570,-796],[2150,-271],[480,-23],[-14003,-20127],[-2740,-3551],[14042,-6505],[-227,-24545],[13904,-739],[-30,-3925],[6884,-302],[790,-3960],[6937,-313],[14961,-581],[-1042,-44774],[22312,-506],[210,6525],[22340,-879],[-93,-6666],[14891,-737],[29558,-3091],[8633,1813],[58195,-1419],[-226,-8219],[3901,399],[5742,-7375],[5164,-5956],[491,-2861],[2313,-275],[981,-4611],[2327,-5831],[259,-5188],[-2070,-6911],[-60,-2038],[-3336,-739],[-1166,-2445],[3471,-2489],[2893,-4011],[6671,-1574],[782,13077],[476,15206],[12039,-499],[21939,-23],[2206,697],[1171,3908],[-220,-3228],[-3357,-4475],[-4397,-1837],[-532,-5421],[-2437,-5100]],[[815438,493173],[-1292,-5811],[1743,-6870],[-130,-2413],[-27258,-263],[-424,-3904],[-3374,-333],[-1878,-2630],[-2267,-325],[-2444,-3782],[-2665,-7243],[-2223,321],[-4410,-5617],[-3511,-1018],[46,-1798],[-5378,-1942],[-3103,-4978],[-1203,-4219],[-4226,-3918],[-2000,1593],[-5646,176],[-379,-5795],[3726,-617],[18018,204],[4749,-1247],[17092,-12505],[388,-3567],[-823,-22647],[2654,-98],[3546,-4101],[3955,-1060],[1292,-7331],[1556,-2030],[2489,462],[1947,-8668],[5266,-1482],[-2423,-909],[-3141,657],[-62356,2500],[-107,6],[511,15441],[-67642,1994],[-1417,-45935],[7449,-329],[-553,-15827],[-468,-14474],[-7699,-388],[-481,-10164],[-8147,-1560],[511,-2907],[-790,-30638],[-37089,1635],[117,-14373],[-451,-6265],[-238,-17888],[-5094,187],[-2712,8144],[42,1742],[-3041,3630],[-6783,-661],[-1964,1465],[-3292,-6254],[-6600,-1595],[-2685,1074],[810,8135],[-2842,1791],[-3004,-342],[-5950,-4095],[-2349,906],[-1692,-1763],[-49,-4707],[-2072,-3012],[-5190,1753],[-2129,-1478],[-2016,-3805],[1156,-6523],[-1033,-4200],[-3945,-1255],[-4585,478],[-3270,-4317],[-5021,-1880],[-5071,-6078],[-1373,5614],[-1861,2153],[-4804,-971],[-1810,1987],[-1999,-9556],[-4966,-11575],[3216,-6728],[1698,-156],[-1233,-7111],[2587,-1097],[-280,-5864],[-1339,-5214],[230,-3205],[3367,-816],[-864,-11271],[1396,-9820],[-130,-4747],[-1333,-5854],[-2551,-397],[-982,-29561],[18061,-863],[274,-1536],[4295,-2475],[797,-1660],[-2685,0],[13771,-2573],[-3787,-6628],[-1454,-4395],[-1766,-63036],[-6175,454],[-5984,4235],[-3867,-482],[-3294,-2995],[-4389,-1209],[375,-1384],[-5842,-1496],[-608,1845],[-2394,46],[-3345,2204],[-1339,6596],[-7924,4108],[-4071,7304],[-4987,-1090],[-5878,-3830],[-206,-7948],[154,-454],[-618,-22253],[-597,-239],[-6348,-597],[-16880,-1093],[-7404,800],[-4811,-716],[31,2844],[-5370,-227],[-14050,869],[-799,-2120],[-2453,-1416],[5272,9232],[27875,61972],[-5258,2552],[-5955,6212],[-2991,4752],[680,18377],[-28922,1494],[-260,7695],[2349,51723],[-27680,11314],[265,2215],[-1588,2419],[655,2977],[4791,4695],[1507,3389],[-2220,3505],[2873,449],[577,1709],[-2865,4401],[243,2630],[4005,3807],[88,2340],[-3052,1291],[-4549,-3289],[-2475,714],[-3076,7654],[-9157,2924],[-3573,-2492],[-3220,2718],[-4017,-428],[-3142,1312],[-2149,2653],[671,20755],[-6541,558],[511,7296],[-35517,864],[692,16048],[-6455,1861],[-1988,-3192],[-1009,2088],[-7072,624],[-3153,-1081],[-3284,5188],[-110,2594],[-3509,1686],[-4673,-403],[-3987,-2951],[-2630,2434],[-1933,-1960],[-6783,-1475],[-700,-1753],[-3274,-10],[-1511,-1740],[-6871,-412],[1679,38530],[-28674,1186],[785,15823],[963,22256],[912,22705],[20,15459],[-13424,792],[-2568,266],[-11942,689],[-17515,1125],[-3586,-21],[-9711,734],[604,14755]],[[193326,404268],[-1416,363],[-14073,1022],[-11835,785],[-41,2],[1751,45844],[-29842,1392],[1241,30346],[-33102,1581],[1192,37791],[-25672,1154],[-7207,313],[925,22894],[-51514,2457],[1035,31075],[1379,30712],[3314,-145],[6909,8511],[3592,7010],[-5129,-1891],[-5419,-533],[-8057,239],[-4651,-1049],[-3156,-2683],[115,5594],[-2583,881],[112,14488],[-4142,1400],[-983,12154],[138,14499],[7120,-309],[1574,22775],[6718,7769],[1372,4786],[-738,1752],[-2468,1509],[-4780,422],[-14715,-2716],[676,18094],[-966,3274],[1242,3730],[1612,27070],[164,10225],[4208,89783],[6245,1050],[4325,-84],[8741,-1860],[8004,-6286],[6362,-8485],[7000,-23622],[1134,-2313],[10221,-9340],[5798,-1478],[11973,-1173],[14258,479],[7057,896],[8698,-344],[3902,-1262],[6789,-4285],[3734,-3854],[2951,-6758],[-173,-4248],[-2341,-7992],[-4954,-8817],[-9052,-11470],[-2915,-5791],[-1028,-8338],[1034,-6089],[6010,-8112],[7904,-5591],[7133,-3125],[8738,-1186],[12493,2279],[9944,2947],[14138,5249],[7885,4154],[8704,8431],[7989,7075],[6167,4334],[14371,6859],[12285,4298],[5350,4057],[6647,10639],[1239,4023],[-334,14285],[-655,3523],[-2552,6200],[-3221,6020],[-8103,11743],[-6674,14162],[-2816,7254],[-1021,4743],[-298,7006],[804,9396],[1474,4059],[4512,8899],[5449,7722],[7259,5402],[11806,2118],[13023,642],[9509,-371],[13417,-2038],[-450,-22050],[-14115,644],[-4698,-120438],[260,-15256],[29731,-1973],[28446,-1755],[29553,-291],[5252,-143]],[[504554,751200],[14691,284],[32118,-1266],[2138,46776],[7290,-334],[1381,30255],[-7527,1135],[563,14744],[-7222,1453],[400,10322],[-498,3670],[-3677,3415],[-2691,9432],[418,3982],[7311,-378],[1236,31625],[3517,-72],[2734,2936],[1954,3942],[-2539,5963],[1820,1393],[5291,-785],[2362,3092],[5516,3001],[6510,4995],[9588,3327],[2275,-367],[609,15061],[-3977,241],[800,14639],[3121,1058],[833,12221],[448,23039],[2677,-376],[5720,-8787],[6803,-11561],[5802,-3952],[4431,-7331],[5488,-4380],[2411,-829],[13657,187],[3957,-9531],[2401,-5131],[3666,-5722],[4090,-5247],[10190,-9923],[14962,-10160],[11491,-6421],[21671,-6892],[11405,-2659],[13965,-504],[5611,749],[6392,231],[8471,-728],[13189,1356],[26432,3859],[8216,252],[4935,-881]],[[809380,905618],[-23159,-32958],[6155,-3927],[3300,-1059],[9244,-6786],[-3443,-5213],[227,-8486],[-981,-1983],[-1649,-878],[-3765,-5706],[-6583,-2011],[-965,3064],[-17737,668],[-1361,-1629],[-481,-6185],[-6787,71],[-738,2622],[-9217,9205],[-1801,3702],[-627,-7052],[-14777,324],[-227,-11281],[-3590,-513],[-192,-7211],[-3644,-1366],[-78,-2949],[7555,-185],[-1211,-35917],[-3841,353],[-1829,-1337],[-5611,-667],[-5449,-22084],[-2969,8802],[-2341,-3987],[-3888,-1073],[-3186,-2743],[1557,-3805],[-4678,-2777],[2583,-3610],[1491,-5152],[-3370,-1784],[1157,-557],[1578,-142],[18915,-1096],[30,-13491],[-7595,-2999],[-1274,-27906],[18414,-669],[-419,-15036],[705,-703],[32556,-1109],[-981,-25024],[3001,-10301],[107,-2709],[-3997,-8937],[-769,-14706],[-418,-22222],[5685,-9191],[16429,-479],[794,30905],[22532,-1567],[1914,42498],[62,8303],[-806,3560],[1454,6342],[11371,-384],[8372,187],[1236,-2030],[-1870,-4841],[-6144,-785],[-1958,-2815],[1291,-2905],[1103,-6686],[-666,-5258],[-2447,-4290],[-133,-2491],[4396,-2949],[4186,-875],[1346,-2340],[-1379,-4614],[-3393,-3433],[12501,-764],[-727,-15389],[103,-5280],[4539,-3459],[6721,-2212],[1835,-4244],[3516,-2686],[1977,-14167],[12584,-737],[-199,-30867],[-2160,-4313],[-6691,-10971],[-1424,-4330],[-4487,-7129],[-2324,-5260],[-5611,-6745],[1209,-2112],[-2108,-2560],[-905,1377],[700,-2313],[-1132,-11111]],[[843619,493098],[-12601,346],[-15580,-271]],[[809380,905618],[10863,-4586],[1582,-292],[1211,-692],[2606,-2905],[6084,-10066],[1399,-7543],[203,-9015],[-2605,-9738],[-4826,-12076],[-1564,-10541],[1911,-7776],[2594,-4560],[8909,-10851],[4836,-3986],[6010,-3031],[10930,-4466],[7861,-1809],[7962,-2523],[4739,-2271],[8153,-7570],[2676,-3839],[766,-4747],[1252,-4825],[-334,-7027],[-2386,-10259],[-4375,-10358],[1,-15227],[625,-2808],[6898,-11235],[5562,-4861],[8714,-3372],[10581,-995],[5104,67],[5370,1280],[9832,3673],[3803,1969],[7998,7511],[10187,8830],[3645,2552],[7984,3583],[3751,1119],[4259,136],[8222,-2025],[4949,-3340],[1725,-1687],[1408,-2735],[1551,-5165],[-629,-6632],[-1384,-8001],[-770,-4034],[-2147,-8128],[-5099,-15804],[-6144,-12816],[-3144,-5927],[-7171,-10210],[-5297,-6977],[-9777,-10399],[-4011,-2454],[-12252,-6107],[-9242,-6519],[-8480,-8219],[-6708,-9464],[-6001,-11002],[-929,-8823],[-441,-22176],[-634,-7862],[-391,-1381],[-1473,-5207],[-7002,-13279],[-8605,-10257],[-8151,-4964],[-8765,-3155],[-14306,-3320],[-7400,-4080],[-3468,-8718],[-973,-6916],[-3593,393]],[[859346,375896],[3472,3692],[-831,-7466],[164,-4367],[6846,-17133],[11883,-20801],[2696,-6788],[5089,-17701],[4655,-13367],[1176,-3379],[7604,-11628],[11205,-9524],[12959,-5774],[8108,-2651],[7367,-3076],[7888,-5025],[5461,-5037],[9346,-10874],[6149,-9785],[6886,-8122],[8293,-6366],[6248,-4002],[7989,-2603],[-8564,-3969],[-2832,-2201],[-4334,1400],[-3543,-601],[-2272,-2992],[-1332,-4053],[-3898,-34691],[-19024,8498],[-205,-16726],[201,-9203],[1516,-2197],[3736,-14037],[2002,-4238],[-2975,-1599],[-3586,-204],[-2524,3088],[-547,7302],[-936,3290],[-3007,2225],[-2540,-890],[-5212,-7161],[-5478,-4168],[-3380,-1215],[-8489,-624],[128,-11877],[-28687,-804],[-237,-17094],[-1108,-13924],[-22013,-289],[-4387,4699],[-1707,-2294],[-4490,-980],[-6364,-336],[-3082,-1673],[-22,-9535],[-1818,-3412],[-3325,-3667],[-3847,-1776],[-15054,-2655],[-5197,-3011],[-6789,-3340],[-6431,-407],[-3923,5451],[-1282,3270],[1602,6861],[3338,4094],[-348,1910],[-6621,6931],[-3684,2346],[-7343,1954],[-5457,523],[-7550,10208],[-4033,10087],[-256,9548],[-3498,9469],[-2936,1211],[-4511,-3490],[-1909,-2840],[-1632,-5198],[-3962,-4991],[-6225,-5646],[-7151,-479],[-3784,-5370],[-256,-1627],[2747,-5029],[-777,-2006],[-6821,-2554],[-1310,-2930],[1329,-4809],[172,-9211],[-1044,-3724],[-3371,-4092],[-1310,-2951],[1651,-4198],[2426,-1557],[4557,-118],[2722,-5028],[905,-8627],[-1308,-2512],[-1930,2],[-2557,3864],[-3936,-321],[-3164,-13086],[-1786,-4473],[-3669,557],[-1462,1683],[-1450,4878],[-2792,1777],[-2506,-241],[-3227,-3493],[-2085,-5085],[-3930,-518],[-1977,1586],[-6015,1119],[-2770,1857],[-1504,3283],[-3067,-94],[137,12527],[1604,1440],[4420,2],[1481,3826],[3907,5241],[347,2283],[-3907,7034],[608,18731],[-2057,3178],[2127,4638],[-874,4229],[3500,3770],[3282,34],[1720,1712],[2161,78647],[-6544,4739],[-9598,720],[-227,6246],[2619,6143],[5175,5763],[2603,6918],[-68,1448],[946,1028],[17707,19261],[511,554],[41955,45899],[21356,22825],[4449,4751],[39902,42658],[16572,17813]]],"bbox":[-93.481816,38.883688,-92.847561,39.360149],"transform":{"scale":[6.342556342556302e-7,4.764614764614769e-7],"translate":[-93.481816,38.883688]}}
