{"type":"Topology","objects":{"foo":{"type":"GeometryCollection","geometries":[{"type":"MultiPolygon","arcs":[[[0]]],"properties":{"postal_code":"58758","realtor_list_price":49000,"realtor_list_price_yoy":-0.703,"realtor_list_price_base":"NA","realtor_active_listings":0.667,"realtor_active_listings_yoy":0,"realtor_active_listings_base":"NA","realtor_new_listings":1.333,"realtor_new_listings_yoy":1,"realtor_new_listings_base":"NA","realtor_days_on_market":8,"realtor_days_on_market_yoy":0.6,"realtor_days_on_market_base":"NA","zhvi":"NA","zhvi_yoy":"NA","zhvi_base":"NA","zori":"NA","zori_yoy":"NA","zori_base":"NA"}},{"type":"MultiPolygon","arcs":[[[1,2,3,4]]],"properties":{"postal_code":"58781","realtor_list_price":"NA","realtor_list_price_yoy":"NA","realtor_list_price_base":"NA","realtor_active_listings":1.667,"realtor_active_listings_yoy":-0.1667,"realtor_active_listings_base":-0.6009,"realtor_new_listings":0,"realtor_new_listings_yoy":"NaN","realtor_new_listings_base":"NA","realtor_days_on_market":"NA","realtor_days_on_market_yoy":"NA","realtor_days_on_market_base":"NA","zhvi":"NA","zhvi_yoy":"NA","zhvi_base":"NA","zori":"NA","zori_yoy":"NA","zori_base":"NA"}},{"type":"MultiPolygon","arcs":[[[5,6]],[[7,8,9,10],[11]]],"properties":{"postal_code":"58703","realtor_list_price":315990.58,"realtor_list_price_yoy":0.0632,"realtor_list_price_base":0.448,"realtor_active_listings":62.667,"realtor_active_listings_yoy":0.1605,"realtor_active_listings_base":-0.6911,"realtor_new_listings":46,"realtor_new_listings_yoy":0.2105,"realtor_new_listings_base":-0.0575,"realtor_days_on_market":38.551,"realtor_days_on_market_yoy":0.1457,"realtor_days_on_market_base":-0.4012,"zhvi":271074.276,"zhvi_yoy":0.0338,"zhvi_base":0.2657,"zori":1236.734,"zori_yoy":0.0607,"zori_base":"NA"}},{"type":"MultiPolygon","arcs":[[[12]]],"properties":{"postal_code":"58771","realtor_list_price":"NA","realtor_list_price_yoy":"NA","realtor_list_price_base":"NA","realtor_active_listings":1.667,"realtor_active_listings_yoy":0.25,"realtor_active_listings_base":-0.4193,"realtor_new_listings":0,"realtor_new_listings_yoy":"NaN","realtor_new_listings_base":"NA","realtor_days_on_market":"NA","realtor_days_on_market_yoy":"NA","realtor_days_on_market_base":"NA","zhvi":"NA","zhvi_yoy":"NA","zhvi_base":"NA","zori":"NA","zori_yoy":"NA","zori_base":"NA"}},{"type":"MultiPolygon","arcs":[[[13,14],[15]]],"properties":{"postal_code":"58368","realtor_list_price":230910,"realtor_list_price_yoy":0.0765,"realtor_list_price_base":0.9306,"realtor_active_listings":7.667,"realtor_active_listings_yoy":-0.3235,"realtor_active_listings_base":-0.3103,"realtor_new_listings":3.333,"realtor_new_listings_yoy":-0.1667,"realtor_new_listings_base":-0.0548,"realtor_days_on_market":44.2,"realtor_days_on_market_yoy":-0.0391,"realtor_days_on_market_base":-0.1968,"zhvi":203478.979,"zhvi_yoy":0.0533,"zhvi_base":0.0147,"zori":"NA","zori_yoy":"NA","zori_base":"NA"}},{"type":"MultiPolygon","arcs":[[[16,17,18,-2,19]]],"properties":{"postal_code":"58790","realtor_list_price":"NA","realtor_list_price_yoy":"NA","realtor_list_price_base":"NA","realtor_active_listings":1.667,"realtor_active_listings_yoy":-0.6667,"realtor_active_listings_base":-0.8287,"realtor_new_listings":0,"realtor_new_listings_yoy":-1,"realtor_new_listings_base":-1,"realtor_days_on_market":"NA","realtor_days_on_market_yoy":"NA","realtor_days_on_market_base":"NA","zhvi":218688.745,"zhvi_yoy":0.0462,"zhvi_base":0.0157,"zori":"NA","zori_yoy":"NA","zori_base":"NA"}},{"type":"MultiPolygon","arcs":[[[20,21,22,23,-8]]],"properties":{"postal_code":"58785","realtor_list_price":459468.75,"realtor_list_price_yoy":0.1278,"realtor_list_price_base":0.5074,"realtor_active_listings":6,"realtor_active_listings_yoy":-0.3571,"realtor_active_listings_base":-0.6905,"realtor_new_listings":2.667,"realtor_new_listings_yoy":3,"realtor_new_listings_base":-0.4973,"realtor_days_on_market":43.25,"realtor_days_on_market_yoy":-0.3993,"realtor_days_on_market_base":-0.2835,"zhvi":344070.635,"zhvi_yoy":0.0183,"zhvi_base":0.1597,"zori":"NA","zori_yoy":"NA","zori_base":"NA"}},{"type":"MultiPolygon","arcs":[[[24,25,-6,26,-9,-24,27,-20,-5,28,29]]],"properties":{"postal_code":"58701","realtor_list_price":373166.667,"realtor_list_price_yoy":0.1215,"realtor_list_price_base":0.6479,"realtor_active_listings":68,"realtor_active_listings_yoy":-0.0145,"realtor_active_listings_base":-0.6451,"realtor_new_listings":42,"realtor_new_listings_yoy":0.05,"realtor_new_listings_base":-0.0325,"realtor_days_on_market":39.73,"realtor_days_on_market_yoy":0.0209,"realtor_days_on_market_base":-0.4123,"zhvi":290296.34,"zhvi_yoy":0.0347,"zhvi_base":0.3087,"zori":1270.285,"zori_yoy":0.0668,"zori_base":"NA"}},{"type":"MultiPolygon","arcs":[[[30,31,32,33,-22,34]]],"properties":{"postal_code":"58731","realtor_list_price":"NA","realtor_list_price_yoy":"NA","realtor_list_price_base":"NA","realtor_active_listings":1,"realtor_active_listings_yoy":0,"realtor_active_listings_base":"NA","realtor_new_listings":0,"realtor_new_listings_yoy":-1,"realtor_new_listings_base":"NA","realtor_days_on_market":"NA","realtor_days_on_market_yoy":"NA","realtor_days_on_market_base":"NA","zhvi":"NA","zhvi_yoy":"NA","zhvi_base":"NA","zori":"NA","zori_yoy":"NA","zori_base":"NA"}},{"type":"MultiPolygon","arcs":[[[35,-25,36]]],"properties":{"postal_code":"58733","realtor_list_price":"NA","realtor_list_price_yoy":"NA","realtor_list_price_base":"NA","realtor_active_listings":1.333,"realtor_active_listings_yoy":0.3333,"realtor_active_listings_base":-0.463,"realtor_new_listings":0,"realtor_new_listings_yoy":"NaN","realtor_new_listings_base":-1,"realtor_days_on_market":"NA","realtor_days_on_market_yoy":"NA","realtor_days_on_market_base":"NA","zhvi":"NA","zhvi_yoy":"NA","zhvi_base":"NA","zori":"NA","zori_yoy":"NA","zori_base":"NA"}},{"type":"MultiPolygon","arcs":[[[37,38]]],"properties":{"postal_code":"58721","realtor_list_price":84281,"realtor_list_price_yoy":"NA","realtor_list_price_base":"NA","realtor_active_listings":2.667,"realtor_active_listings_yoy":1.6667,"realtor_active_listings_base":-0.4079,"realtor_new_listings":0.667,"realtor_new_listings_yoy":"Inf","realtor_new_listings_base":"NA","realtor_days_on_market":17,"realtor_days_on_market_yoy":"NA","realtor_days_on_market_base":"NA","zhvi":"NA","zhvi_yoy":"NA","zhvi_base":"NA","zori":"NA","zori_yoy":"NA","zori_base":"NA"}},{"type":"MultiPolygon","arcs":[[[39]]],"properties":{"postal_code":"58761","realtor_list_price":229975,"realtor_list_price_yoy":"NA","realtor_list_price_base":"NA","realtor_active_listings":3,"realtor_active_listings_yoy":-0.1,"realtor_active_listings_base":-0.6889,"realtor_new_listings":1.333,"realtor_new_listings_yoy":"Inf","realtor_new_listings_base":-0.2863,"realtor_days_on_market":25,"realtor_days_on_market_yoy":"NA","realtor_days_on_market_base":"NA","zhvi":169168.42,"zhvi_yoy":0.0666,"zhvi_base":-0.0525,"zori":"NA","zori_yoy":"NA","zori_base":"NA"}},{"type":"MultiPolygon","arcs":[[[-31,40]]],"properties":{"postal_code":"58762","realtor_list_price":"NA","realtor_list_price_yoy":"NA","realtor_list_price_base":"NA","realtor_active_listings":2,"realtor_active_listings_yoy":0,"realtor_active_listings_base":"NA","realtor_new_listings":0,"realtor_new_listings_yoy":"NaN","realtor_new_listings_base":"NA","realtor_days_on_market":"NA","realtor_days_on_market_yoy":"NA","realtor_days_on_market_base":"NA","zhvi":"NA","zhvi_yoy":"NA","zhvi_base":"NA","zori":"NA","zori_yoy":"NA","zori_base":"NA"}},{"type":"MultiPolygon","arcs":[[[-14,41]]],"properties":{"postal_code":"58736","realtor_list_price":"NA","realtor_list_price_yoy":"NA","realtor_list_price_base":"NA","realtor_active_listings":1,"realtor_active_listings_yoy":0,"realtor_active_listings_base":-0.4986,"realtor_new_listings":0,"realtor_new_listings_yoy":"NaN","realtor_new_listings_base":-1,"realtor_days_on_market":"NA","realtor_days_on_market_yoy":"NA","realtor_days_on_market_base":"NA","zhvi":85074.961,"zhvi_yoy":-0.0345,"zhvi_base":"NA","zori":"NA","zori_yoy":"NA","zori_base":"NA"}},{"type":"MultiPolygon","arcs":[[[42,-18,43,-33]]],"properties":{"postal_code":"58741","realtor_list_price":"NA","realtor_list_price_yoy":"NA","realtor_list_price_base":"NA","realtor_active_listings":1,"realtor_active_listings_yoy":0,"realtor_active_listings_base":-0.7988,"realtor_new_listings":0,"realtor_new_listings_yoy":"NaN","realtor_new_listings_base":-1,"realtor_days_on_market":"NA","realtor_days_on_market_yoy":"NA","realtor_days_on_market_base":"NA","zhvi":"NA","zhvi_yoy":"NA","zhvi_base":"NA","zori":"NA","zori_yoy":"NA","zori_base":"NA"}},{"type":"MultiPolygon","arcs":[[[-38,44]]],"properties":{"postal_code":"58746","realtor_list_price":"NA","realtor_list_price_yoy":"NA","realtor_list_price_base":"NA","realtor_active_listings":6.333,"realtor_active_listings_yoy":0,"realtor_active_listings_base":-0.3998,"realtor_new_listings":0,"realtor_new_listings_yoy":"NaN","realtor_new_listings_base":-1,"realtor_days_on_market":"NA","realtor_days_on_market_yoy":"NA","realtor_days_on_market_base":"NA","zhvi":251588.132,"zhvi_yoy":0.0701,"zhvi_base":0.2753,"zori":"NA","zori_yoy":"NA","zori_base":"NA"}},{"type":"MultiPolygon","arcs":[[[-10,-27,-7,-26,-36,45]]],"properties":{"postal_code":"58722","realtor_list_price":565000,"realtor_list_price_yoy":-0.0029,"realtor_list_price_base":1.6996,"realtor_active_listings":7.333,"realtor_active_listings_yoy":0.2941,"realtor_active_listings_base":-0.5008,"realtor_new_listings":1.333,"realtor_new_listings_yoy":-0.3333,"realtor_new_listings_base":-0.2772,"realtor_days_on_market":28,"realtor_days_on_market_yoy":-0.6989,"realtor_days_on_market_base":-0.6003,"zhvi":306471.829,"zhvi_yoy":0.0392,"zhvi_base":0.2789,"zori":"NA","zori_yoy":"NA","zori_base":"NA"}},{"type":"MultiPolygon","arcs":[[[-29,-4,46]]],"properties":{"postal_code":"58759","realtor_list_price":"NA","realtor_list_price_yoy":"NA","realtor_list_price_base":"NA","realtor_active_listings":2,"realtor_active_listings_yoy":1,"realtor_active_listings_base":-0.383,"realtor_new_listings":0,"realtor_new_listings_yoy":-1,"realtor_new_listings_base":"NA","realtor_days_on_market":"NA","realtor_days_on_market_yoy":"NA","realtor_days_on_market_base":"NA","zhvi":177664.82,"zhvi_yoy":-0.0021,"zhvi_base":0.2359,"zori":"NA","zori_yoy":"NA","zori_base":"NA"}}]}},"arcs":[[[828452,50691],[216,204],[1521,-25],[-21,12847],[93,1698],[-63,47774],[7594,-149],[56,20715],[-7575,143],[75,41518],[15036,-138],[-2,10360],[15302,182],[-42,10131],[12,4960],[7607,127],[39,5103],[710,1015],[2407,558],[314,284],[-28,1858],[390,2210],[3856,1186],[13,3372],[10494,123],[1909,-303],[1003,-1418],[1354,63],[105,-11226],[2779,-2803],[2074,-1714],[2736,-1141],[67,-12597],[7548,19],[6,-10368],[-21,-10348],[-7547,5],[-1,-41568],[-7628,-25],[20,-10384],[43,-20573],[-15092,-71],[-7598,-25],[-33,-31090],[-7598,1],[-22,-9541],[-458,-811],[4958,-15],[759,-684],[146,-498],[28,-18402],[15165,-86],[97,-10406],[1401,-45],[6026,85],[70,-20778],[-15165,11],[29,7760],[351,861],[-396,1770],[-22708,97],[-54,10374],[-1128,51],[-614,-448],[-425,404],[-5034,17],[-47,10325],[-7510,70],[0,10389],[-7564,31],[-35,8979]],[[518620,363063],[22945,-86],[-35,-13147],[88,-12548],[-1094,51],[66,-292],[709,-1830],[160,-520],[57,-502],[3,-368],[-791,-10],[-2,-771],[799,-20],[-19,-11478],[-15320,110],[2,-20791],[390,-2],[5,-41542],[97,-965],[-353,-1681],[272,-486],[-20,-3080],[-2973,-4533],[9532,-49],[-499,-1504],[452,-1025],[1133,-185],[3,-7609]],[[534227,238200],[-13297,8],[-641,-33],[-1316,30],[-60,-28670],[-3889,117],[-25,-2417],[-3407,-84]],[[511592,207151],[-13,9849],[-1200,341],[-4537,-31],[-531,167],[-5112,17],[-3951,-3],[2,10401],[-3810,165],[42,10179],[-3864,20],[-5,10397],[-7640,9],[28,7287],[-41,13482],[-7644,-6],[-5,10388],[-3295,10],[-574,584],[-1321,-579],[-2130,-11],[0,-88],[-6093,78],[53,3931],[-250,1134],[1910,16034],[-4202,10],[45,10396],[-7614,-20],[-65,48]],[[449775,311340],[-9,19175],[966,4],[-6,-3585],[6788,-50],[-82,5188],[-6,10399],[9415,-17],[2607,20699],[26328,-82],[5770,-117],[19,-747],[1080,-63],[632,-605],[-6,-6146],[1920,-16],[12,2586],[1005,290],[638,893],[-1164,1519],[-1269,2422],[10372,-32],[3835,8]],[[403924,464949],[2366,-3491]],[[406290,461458],[-427,129],[-1812,85],[-121,2484],[-6,793]],[[495952,537770],[279,-859],[1910,-2888],[387,-1097],[2062,-2121],[1030,-623],[437,409],[1138,-670],[140,-11106],[-6883,13],[-522,-387],[-47,-9983],[-5,-20764],[-33,-10397],[-7690,-35],[-14,-10379],[7669,36],[-38,-10405],[-3840,-4]],[[491932,456510],[-3826,3],[-65,-1273],[-13529,-928],[-1695,-568],[-63,-2485],[-2,-800],[-1,-673],[-45,2],[-2,3535],[-10333,-807],[-3026,224],[-549,185],[-1364,110],[-757,89],[-597,186],[-401,97],[-1944,1211],[-94,-241],[-3627,1358],[-17,-2503],[-633,-798],[-187,3211],[-1990,-1049],[-979,-183],[-392,439],[-165,-1014],[-3518,30],[-6,750],[-1343,-885],[-575,-849],[-275,578],[-1058,5],[-999,357],[-455,999],[-2445,453],[931,-1407],[-858,-458],[-810,1832],[703,1221],[-482,7],[-446,-1114],[310,-1045],[-374,360],[-454,-810],[-1628,10],[-513,6],[-2613,-10],[-456,1316],[-6,1286],[-332,-2],[-566,-11],[-78,-1118],[-143,-937],[-588,-3597],[-3039,-156],[-2485,661],[-272,73],[-508,136],[-77,903],[1088,279],[-847,506],[-387,1211],[-677,-1114],[-701,229],[665,2623],[216,584],[-1079,-246],[-529,-361],[-520,-246],[-229,-33],[-508,180],[-230,147],[63,328],[57,392],[-70,1605],[-1198,-20],[-152,-2115],[162,-3062],[-2884,1145],[-1497,1006],[-1775,2539],[-781,1072],[215,1953],[-135,1181],[870,-344],[597,1108],[-137,119],[-275,0],[-581,717],[-1055,-912],[-1535,-572],[-167,1704],[-689,-96],[-288,-674],[-1275,1837]],[[403923,465092],[-3,2875],[-247,84],[-133,245],[-36,442],[-109,311],[12,311],[109,228],[399,263],[206,-17],[266,-213],[182,0],[302,343],[61,164],[-12,262],[-145,261],[-218,131],[-399,-114],[-241,39],[-1392,731],[-1076,589],[-133,1685],[-859,-114],[545,2127],[545,507],[-206,999],[-979,2077],[-1065,-391],[657,2811],[-1024,2627],[562,386],[254,1880],[-447,933],[-1380,-33],[-675,606],[-220,328],[101,1476],[505,274],[-194,-1652],[617,-99],[1863,1374],[-895,507],[569,491],[-254,834],[-351,-785],[-508,361],[484,1390],[-568,2077],[-702,-65],[-291,1849],[-629,-932],[-508,197],[0,883],[677,262],[981,965],[-460,802],[-1210,-786],[-714,606],[97,834],[1174,-343],[266,703],[-557,327],[554,1619],[-457,442],[-363,-1210],[-968,-163],[96,850],[775,131],[-278,1767],[-484,196],[-472,-949],[-872,1211],[85,687],[1779,523],[110,2127],[-364,147],[-1101,-1717],[-945,327],[-96,769],[1077,1014],[37,1357],[-775,672],[-376,16],[-97,-1308],[-503,-188],[-1337,940],[1441,114],[157,1374],[-854,-865],[-720,15],[-544,736],[24,409],[96,196],[618,573],[157,474],[-24,360],[-72,180],[-339,148],[-469,34],[-9702,67],[320,5701],[-68,8505],[-160,119],[-243,523],[-169,310],[12,393],[193,245],[146,66],[209,-44]],[[381551,528898],[844,-495],[810,82],[194,524],[85,1734],[-582,964],[-1925,916],[-1417,-378],[-643,131],[642,753],[509,2258],[-594,245],[-254,-1260],[-570,-262],[145,1210],[-460,164],[-436,-638],[-497,359],[193,1521],[-170,933],[-1115,457],[-218,801],[314,933],[-1248,408],[-776,1979],[-727,-704],[-193,-1146],[-970,130],[-340,1227],[-849,1014],[-605,-17],[-952,933],[696,1062],[-303,539],[-689,-897],[-1829,1818],[-242,834],[958,2060],[-1042,426],[465,1298],[-1006,-98],[-1214,112],[-614,159],[-1018,5146],[-1058,1182],[-443,1545],[423,1831],[-1224,2681],[-1153,3121],[-310,2049],[2,3100],[281,67],[3416,-8],[882,-1471],[1310,63],[811,539],[707,15],[1062,1086],[1003,64],[768,-319],[1340,3],[7716,-6],[7682,-1],[38,15596],[6007,-66],[1667,623],[2,4508],[-24,10394],[26607,-61],[-2254,-5255],[-1262,-71],[-5750,-109],[2,-3595],[-3904,-55],[13,-1345],[985,28],[23,-1920],[466,-1290],[459,10],[23,-1968],[1915,16],[8,-664],[957,17],[9,-669],[1029,-269],[2714,-2607],[-5,-1684],[1078,0],[-10,682],[659,3],[3499,-3277],[-493,-960],[477,-444],[504,954],[3053,-2862],[11,-3654],[1736,-146],[1,-3750],[1538,0],[434,2598],[6,1160],[1546,18],[486,-679],[967,1],[975,683],[7644,-54],[128,-10368],[75,-5806],[961,-4572],[7783,-30],[29600,-67],[8766,-27],[2,-1271],[1804,-725],[449,-736],[981,-295],[764,-1113],[1018,32],[1029,-2586],[-37,-1980],[230,-752],[-291,-1603],[1223,-1637],[508,-205]],[[439022,460081],[3096,-48],[8,1519],[-852,-16],[-242,140],[-31,960],[-748,94],[-34,2970],[-419,-734],[-493,25],[-27,-3399],[-292,8],[34,-1519]],[[129239,469586],[1047,108],[957,834],[-363,4960],[1716,1806],[2110,60],[118,10347],[2917,131],[813,21],[194,-50],[885,-115],[4671,57],[15526,14],[-187,-155],[-2,-30985],[15321,-2],[13,10304],[7463,104],[17475,-23],[-393,-3184],[-412,-1536],[1043,-1709],[-574,-684],[196,-3233],[-1827,7],[-180,-647],[-113,-9778],[-4549,-96],[-1078,-1548],[-32,-1066],[-1879,-1791],[21,-5814],[15304,15],[-1,-10413],[12,-10334],[15306,-22],[34,-20939],[1270,341],[35669,-119],[916,362],[1371,-434],[1006,-1608],[279,-1429],[460,-928],[1641,-1361],[784,-270],[315,-1273],[111,-2167],[-799,-1268],[2693,-7],[136,-982],[-56,-19694],[1606,-30],[-930,-371],[-679,-1285],[-57,-413],[2,-49792],[-7620,-23],[-1,-10365],[-20256,8],[-17,-17609],[-16,-14828],[-13542,19],[-1703,103],[-42,-31218],[-7616,-31],[-21,-10324],[-7605,-11],[10,-25200],[748,13],[379,-771],[6481,17],[-8,-5144],[7607,-13],[15,-20768],[6,-10329],[-5467,-3],[-2134,-396],[-10,-12836],[-124,-2369],[121,-5134],[-15183,-6],[-7,15552],[-3397,-99],[-3600,72],[-467,-454],[1,16045],[7,10357],[3073,-6],[4362,14],[-17,5139],[6,5224],[113,158],[-148,41354],[62,10319],[-7407,16],[53,20718],[24,14449],[-22870,360],[-14,6121],[-15238,34],[14,11425],[-3012,-11],[37,4238],[-82,4998],[13,341],[11,9840],[-120,32462],[35,10287],[52,10386],[5461,29],[-138,781],[843,1161],[-49,1260],[506,736],[1375,-82],[1627,3943],[-676,900],[229,671],[-652,1161],[808,2192],[-229,735],[-61,2209],[-302,523],[-941,-637],[-1219,1555],[-363,2225],[628,279],[-375,1097],[-6487,36],[-6,14983],[-876,836],[-327,933],[-1,2011],[519,2062],[-1015,784],[-869,-769],[-652,209],[289,1082],[-447,1192],[104,752],[-828,1016],[-964,2847],[-869,1963],[-217,1195],[-16642,77],[40,44016]],[[808900,331389],[-9,10396],[-7653,31],[21,7831],[-666,64],[-1562,2293],[-364,203],[-20010,-86],[-370,1871],[10,8560],[-7545,11],[-3998,53],[659,-220],[730,-1423],[-1068,-2190],[-1696,-1490],[-2086,-631],[-1114,1172],[147,1367],[-398,1042],[124,2349],[-14297,-26]],[[747755,362566],[-5837,11],[-1813,9],[-11,20805],[-11641,-1],[-3607,-2],[31,20954],[-2,181],[-147,83],[-73,131],[-49,556],[108,917],[141,203],[-18,18488],[15249,28],[7661,-47],[-32,-10324],[7770,-21],[7529,-17],[15,-10420],[7736,-122],[3,-2304],[-1358,240],[-465,-518],[-1329,-25],[-558,-375],[-4017,85],[35,-7400],[4,-10407],[53295,172],[139,41546],[7761,-41],[-61,35973],[-608,1422],[665,1936],[-8,22982],[31,20756],[7676,-39],[4,10400],[-7680,31],[-2,10363],[15336,-94],[20,10182],[-7654,32],[157,11488],[-15628,16],[-6047,-5],[-1782,116],[-6144,-46],[37,62141],[38495,52],[-17,-10313],[25186,-227],[5549,41],[6,20897],[30729,-20],[24,10384],[7707,4],[19,10313],[1604,283],[3655,1685],[1498,436],[659,86],[7726,237],[4281,-799],[4723,-1696],[1502,-257],[4874,-10],[215,-9],[7653,-7],[-3,5012],[521,546],[11,4894],[7153,-123],[-3,10384],[15396,42],[5,-20761],[3078,-107],[4634,85],[-6,-25689],[308,-3526],[-303,-1904],[7580,11],[104,-46511],[3775,-15],[-41,-10373],[-3740,22],[-1,-5362],[-17817,69],[-423,-48],[341,-1094],[43,-5532],[751,-247],[2880,-139],[1257,-395],[1163,-1132],[2129,-4439],[930,-1188],[579,-324],[870,-223],[3104,-229],[616,-258],[3767,-2546],[2101,-676],[2500,-379],[1590,-60],[4946,-662],[1527,-110],[2,-2565],[-23008,-223],[14,-20565],[-1860,-13],[-84,1341],[-478,16],[-1390,-964],[-178,-398],[4002,-5069],[14,-14303],[-203,-1384],[-989,-2282],[-1455,2],[-1172,-339],[-16,-3147],[-444,-1473],[413,-4528],[15,-19391],[3840,-235],[143,-20618],[-133,-320],[-68,-3211],[-1092,-1840],[-667,-3083],[-2044,-1668],[-236,-82],[-18718,-67],[-118,-62112],[-7788,13],[-1905,287],[-12549,-267],[-289,-1769],[-597,-448],[4,-4936],[-130,-3140],[-233,-96],[-7116,8],[11,-31605],[0,-1651],[2,-1499],[7,-11346],[-1,-1877],[9,-3890],[-2267,7],[61,-10369],[-1832,2],[-1841,413],[-1422,-487],[-2545,-112],[-9688,3],[-1811,-12],[17,-2408],[-3772,-162],[-119,11346],[74,1815],[-5540,43],[-5947,12],[-17,-4483],[-361,-50],[-253,-359],[-444,-549],[-339,-581],[-169,-638],[-36,-409],[120,-491],[94,-120],[315,-403],[121,-279],[373,-556],[397,-263],[121,-32],[89,-200],[18,-4224],[2010,43],[-16,-2446],[-1990,-9],[13,-5039],[-10995,-129],[72,-12039],[493,885],[710,344],[662,-312],[1083,-1865],[445,-2406],[-806,-442],[216,-769],[-1732,-918],[-265,-605],[-132,1556],[-674,296],[-1,-10787],[1542,-2521],[613,-900],[-12,-769],[-240,-786],[-698,-1178],[-1205,-1375],[-77,-3194],[118,-3546],[-22957,-153],[19,16290],[-324,2278],[302,2696],[9,20257],[-15254,31],[-41,9637],[-222,715],[-7096,29],[24,10893],[-6314,0],[62,20784],[-1475,313],[-472,-376],[-1911,66],[0,-10332],[-3805,-147],[-33,20028],[-63,987],[-7592,-111]],[[885366,399406],[398,200],[350,360],[367,1280],[2754,-36],[21,5199],[-3880,39],[1,-1068],[533,21],[596,-87],[102,-115],[3,-1341],[-1241,3],[-5,-2600],[1,-1855]],[[518597,383780],[7716,27],[16,10378],[7612,-15],[15,10384],[7688,-36],[7278,-23],[6,10383],[6923,-58],[737,939],[33,3104],[5231,-3505],[2398,-1394],[0,850],[7676,-10]],[[571926,414804],[-5,-5426],[15337,-9216],[-4,-6159],[10247,-12],[1098,-671],[58,-4689],[3975,83],[-2,-5094],[3813,-22],[3846,-25],[35,-15709],[3804,96]],[[614128,367960],[-42,-5048],[-1837,-82],[6949,46],[-492,-1398],[-553,-85],[-319,-2380],[-3457,-1285],[-1118,-809],[-2900,-595],[-123,-34899],[-21076,0],[31,-9545],[490,-810],[1411,-123],[-16,-9010],[-156,-490],[850,-918],[1448,-971],[5392,-1110],[-1,-4089],[3607,-9],[41,-56085],[35,-11396],[-76,-708],[72,-801],[52,-39044],[-9632,-35],[-2848,-150],[-2093,422],[-707,-264],[-7469,-17],[-152,5206],[-7590,3],[-34,15526],[-7570,-53],[-598,-1692],[512,-1384],[50,-8568],[-853,842],[-1070,447],[-5356,-86],[140,31106],[-22863,150],[20,10431]],[[518620,363063],[-23,20717]],[[495952,537770],[61,1844],[-36,11003],[13472,-39],[774,-7],[-8,2029],[3,8360]],[[510218,560960],[15320,-19],[72,10],[-2,-10402],[8511,-8]],[[534119,550541],[24,-585],[-60,-41631],[-7678,29],[-25,-20788],[-13,-10367],[-7680,17],[-10,-10379],[-15334,61],[1,-5190],[-2,-2614],[3822,14],[2,-2347],[-1892,-263],[-1936,10],[-1,-1116],[0,-207],[640,340],[5318,764],[1683,13],[7695,-26],[-2,-10216],[-7689,20],[1,-211]],[[510983,445869],[2,-245],[-619,369],[-945,134],[-6097,-1],[-8,2416],[-3824,114],[-1726,44],[-1004,22],[-1023,-1],[11,2596],[11,2594],[-17,1232],[-3818,-297],[6,1664]],[[335089,321708],[9502,9],[2222,769],[2169,-722],[1429,-51],[26,10288],[-31,4998],[709,1735],[-695,1511],[-11,22964],[7489,32]],[[357898,363241],[271,23],[30485,-62],[-3,10357],[-7679,-21],[-8,41462],[-7676,-15],[18,10446],[0,10383],[-316,737],[330,1524],[-9,8113],[3854,48],[-24,4916],[-3831,231],[7,11315],[2032,877],[1713,-210],[1037,-687],[1922,-744],[1022,207],[2320,1157],[1180,277],[3535,419],[1669,-403],[4660,-1726],[3663,-2769],[2193,-3585],[474,-647],[3356,-2367],[1455,-976],[190,-124],[-8,5115],[3976,18],[-3416,4928]],[[403924,464949],[-1,143]],[[510983,445869],[13508,-8038],[-13510,-74],[2,-12466],[7673,-9],[-36,-20706],[-23,-20796]],[[449775,311340],[-9,-10429],[-6700,11],[-18588,-14],[-540,651],[-225,24],[-255,-26],[-88,-63],[-231,-423],[-133,-100],[-2574,-44]],[[420432,300927],[-1076,55],[-7625,-42],[-115,111],[-10,10251],[-7620,58],[0,2560],[-489,-359],[-1461,391],[17,2498],[-5619,91],[-97,5199],[-22937,-56],[-4,-3796],[176,-1279],[-637,-1398],[3,-1785],[654,-910],[-204,-1449],[17,-1718],[-688,-1995],[654,-1176],[-12,-3175],[481,-1062],[-80,-745],[-297,-215],[-15638,-64],[-5961,41],[-7453,-16],[-1661,-8],[0,10390],[-7651,3],[-10,10381]],[[533140,664773],[6,10404],[3822,-4],[17453,89],[1980,-65]],[[556401,675197],[7678,100],[0,-10471],[7699,55],[10,-10391],[9742,59],[-124,-1494],[1390,70],[975,-603],[318,-947],[1707,-1990],[744,-555],[-399,-1321],[987,100],[86,-24495],[7658,86],[49,-10473],[-7,-20780]],[[594914,592147],[-30,-10441],[-7678,5],[-70,-20800],[-7656,-24],[-20,-10397],[-7463,3],[-8004,3],[73,359],[3,10254],[-1316,274],[-886,-477],[-8671,8],[-273,-10402],[3001,3],[74,-11014],[24,-5546],[3588,-4745]],[[559610,529210],[-3561,29],[-7705,-195],[-77,15181],[-1640,2363],[-2976,3946],[-1891,0],[-7641,7]],[[510218,560960],[-10,51923],[15429,-30],[33,10378],[7467,30],[3,41512]],[[335040,498182],[15381,-113],[-20,-10358],[7702,47],[18,-20852],[7505,4],[-2,-20756],[-7508,-11],[6,-10380],[2,-10379],[7531,17],[-7,-10422],[-7539,23],[-220,-40950],[104,-477],[-95,-10334]],[[335089,321708],[-14690,62],[-489,47],[-98,18],[-22,10407],[-7504,38],[15,31020],[-9,7888],[-9,23249],[40,31115],[1,15089],[-62,328],[72,26149],[7387,-89],[18,-10371],[11497,-44],[3829,-25],[-30,31205],[5,10388]],[[122835,995469],[1729,-1414],[3196,-1953],[1657,-1641],[1912,-2321],[1429,-2453],[2010,-3795],[1167,-1761],[3280,-4222],[370,-332],[-11,-1108],[1113,-1454],[2108,-2078],[1128,-803],[3272,-3323],[1845,-2845],[989,-1275],[319,-899],[2539,-4201],[2012,-2861],[2476,-2844],[2942,-3089],[1667,-1373],[821,-1536],[895,-556],[1654,-2420],[1801,-3303],[1238,-6935],[-61,-638],[184,-327],[1273,-3908],[739,-3079],[559,-2465],[282,-2829],[-98,-1897],[-796,-3043],[-1346,-1847],[-1919,-2105],[-771,-229],[-1567,-1734],[-869,-1766],[-978,-3730],[-660,-3467],[368,-4873],[-256,-4024],[-881,-2584],[-892,-1620],[-489,-474],[-2433,-3206],[-1137,-1309],[-2017,-2668],[-1075,-1963],[-587,-1914],[-830,-1342],[-916,-2453],[-1135,-3714],[-536,-3501],[86,-1112],[800,-20],[-27,-217],[2388,-73],[1792,46],[-9,-24033],[-204,-1343],[281,-1544],[452,-910],[1398,-572],[-14,-2589],[1261,-156],[715,-1079],[66,-9199],[-1880,34],[-364,1457],[-1285,-1035],[-1280,-1970],[-241,-823],[861,-1121],[276,-1089],[-553,-618],[-1784,164],[-2063,-21],[-2029,-2133],[-542,-1078],[-305,-2608],[416,-2890],[619,-1018],[1654,-853],[1637,-1365],[2317,-2766],[716,-1170],[-13544,-81],[-1861,200],[-28658,-3],[-17768,29],[-13212,5],[-2188,4],[-61,150],[-5,1497],[-218,-779],[-198,-330],[-346,-335],[-380,-198],[-11555,13],[-18274,32],[-12648,59],[-1865,-237],[-2206,-46],[70,-7904],[444,-1742],[-1118,-1227],[-3225,-18],[-1,-6661],[-2981,-23],[-1974,1282],[61,1398],[-474,353],[-1941,195]],[[18578,785894],[-40,14420],[-2245,169],[-5710,-32],[-483,185],[-750,1196],[-1696,1033],[-321,1683],[-34,1990],[-309,906],[18,1743],[734,1490],[-2570,183],[-1347,372],[-987,-394],[-2838,9],[82,20914],[15451,-177],[-9,20757],[1343,8],[140,1],[436,-41],[387,31],[5453,-17],[3,5248],[7751,-63],[14,-5212],[15506,23],[21,10378],[4030,96],[3569,-89],[23233,-7],[13,10383],[7736,-7],[44,51934],[6,10285],[7763,-2],[32,7303],[733,268],[648,1573],[-13,1090],[773,278],[1383,1113],[618,1259],[1389,35],[999,-1736],[150,-810],[960,-7],[0,10400],[3738,13],[14,10354],[4059,-1],[22,26000],[10210,0],[794,179],[2566,1492],[788,1376]],[[268726,853609],[1975,1488],[4,2145],[7750,-23],[5,5214],[7631,14],[-14,10310],[15494,-5],[-15,20733],[7731,-19],[-12,10362],[7752,-4],[-10,10385],[7742,-12],[1,10370],[22574,49],[597,345],[-4,9946],[15530,-16],[-7,10383],[7763,-25],[33,10358],[23001,-53],[11,-10353],[7744,-33],[100,-10358],[7729,-17],[1109,-2897],[1557,-3474],[242,-4025],[4819,-225],[26,-15585],[-270,-1495],[267,-1703],[25,-12110],[7600,-12],[16,-10366],[23255,24],[-15,-10376],[0,-10488],[-5,-10247],[-4238,-6],[-27,-5560],[4267,-142],[3,-4672],[-3,-5189],[-8,-15522],[-7733,-2],[1,-5172],[8,-14160],[116,-1383],[-7427,8],[-15936,35],[-29864,99],[-296,33],[-33,-20392],[-34,-470],[-15453,21],[-14,-10370],[-30682,-56],[-10,-20657],[-15296,7],[-138,10380],[-7704,39],[-41,-5190],[-7702,21],[8,-3734],[-1004,-427],[-3451,253],[-2458,813],[-354,1057],[-670,290],[-1622,3200],[-1098,3055],[804,926],[-1157,23],[-877,1568],[-60,831],[-1280,813],[-110,1096],[-476,491],[-1317,2364],[-403,1839],[-1939,1128],[-707,654],[-1489,4137],[-623,3058],[694,1653],[-1074,3467],[-1380,1814],[-183,720],[-453,4579],[-1173,2371],[-635,1766],[-379,2273],[-795,2600],[-797,1844],[-2282,326],[-3054,-2],[-6669,-109],[-1024,1014],[-238,1506],[224,1437],[-39,6429],[1704,434],[2739,-7],[1188,-139],[1845,3254],[307,199],[137,7275],[-98,2738],[-67,-3468],[-2160,-127],[125,2222],[-808,866],[-275,2228],[479,671],[-200,725],[-1083,1337],[-152,2981],[-778,1530],[143,2472],[422,656],[32,1977],[-1479,2640],[54,911],[1817,698],[-2,3874],[-795,142],[-305,-1197],[-1368,-288],[-405,-558],[-751,2874],[-3138,4410],[925,1642]],[[533140,664773],[-7467,-11],[24,10377],[11,25641],[3,36625],[4593,26],[948,2452],[-160,692],[604,616],[1062,-216],[469,-591],[33,17857],[7643,58],[218,41526],[15662,-55],[-26,10407],[7718,-17],[-117,18612],[-28,12608],[15563,-56],[-60,20783],[1628,-32],[101,405],[1676,-123],[1165,-89],[89,-2035],[391,-2048],[744,-2493],[2295,-4690],[2913,-4269],[1499,-2825],[1561,-2654],[449,-832],[1660,-1908],[1841,-1837],[1802,-2394],[1393,-2340],[247,-899],[377,-3393],[332,-1771],[2209,-4212],[2242,-1429],[606,-1075],[582,-2138],[224,-3960],[-149,-4426],[856,-2521],[67,-3252],[454,-1571],[1226,-1603],[1008,-2001],[115,-2053],[1225,-1813],[1663,-4004],[1039,-2107],[-68,-3001],[-150,-4755],[1070,-5319],[1057,-1805],[-6841,-1175],[5,-2856],[-7755,6],[13,-10373],[-15512,11],[37,-20731],[-7752,-17],[-419,-90],[-7115,14],[-41,1],[-23191,9],[-2028,-158],[-5692,-7],[-4,-2094],[246,1260],[1560,538],[925,-2601],[-1122,-556],[158,-1293],[2080,-2436],[939,1161],[876,193],[984,-882],[476,-1733],[-864,-951],[1391,-2269],[70,-654],[-42,-18734],[3562,-22],[11924,39],[-17,-10399],[-7745,-28],[23,-20811]],[[808900,331389],[6,-10396],[-11456,36],[33,-20799],[2557,-10],[-24,-1305],[-412,-234],[406,-451],[-36,-8988],[-15324,131],[-26,-31150],[-7627,79],[-20,-20778],[7636,-66],[-34,-62260],[-7628,-2],[21,-10279],[-7638,-24],[13,-20669],[9223,-5],[2687,-1788],[671,-1278],[548,-371],[1729,-311],[353,481],[51,3583],[1078,-309],[6576,31],[-48,-41474],[-2801,-1],[-1651,1095],[-1354,-1076],[-1869,-1],[-366,-629],[-161,-661],[567,-1326],[-17,-7746],[-7596,-30],[-1783,-274],[-2709,-22],[-3117,-220],[19,-9914],[-2082,20],[18,4790],[-5527,17],[-2,5586],[-7651,51],[-6909,9],[-19,5751],[-517,2414],[-132,2198],[-7547,44],[-15,10376],[-4,93],[43,334],[-7,61705],[-15215,-16],[-11,5267],[11,5157],[-3,5159],[-21,5063],[4781,109],[5720,6951],[1081,1110],[2827,2352],[840,2],[18,31112],[-131,10466],[260,6786],[-164,42964],[133,1079],[416,1476],[533,2315],[19,2218],[-7629,5992],[9,31099],[15278,-60],[-23,20599]],[[594914,592147],[7698,-37],[-18,-10404],[7749,-30],[-39,-10392],[7696,-47],[15310,67],[-32,-20838],[-703,-111],[200,-19569],[-23,-177],[286,-32776],[15214,-33],[35,-4740],[36,-5678],[897,269],[1549,-211],[5233,101],[58,-10124],[-76,-411],[55,-146],[26,-46600],[-7648,-141],[24,-5110],[8,-5247],[-3,-5101],[-2738,58],[-563,-1636],[-2520,-942],[-1832,-5],[-21,-4030],[-372,-3687],[-7097,-119],[-19,-10378],[-476,-21],[-7210,27],[-7645,23],[13,-26502],[-1819,503],[-2019,8]],[[571926,414804],[4,10396],[-7675,-4],[-261,51982],[7704,21],[-55,10409],[-42,10392],[-7702,-14],[63,19482],[1242,-41],[457,-770],[386,633],[2156,513],[-8593,11407]],[[122835,995469],[209,368],[-4309,3828],[20810,173],[7154,31],[39032,124],[26,0],[7600,6],[-6,-13179],[7775,-30],[-2,-10272],[-11,-5158],[102,-15579],[3752,0],[13,-10358],[3871,-4],[-12,-10387],[7923,-5],[4040,10],[2002,1064],[-21,372],[523,-939],[220,-542],[363,-941],[214,-442],[292,-489],[4178,-6331],[1717,-2188],[983,-1218],[900,-1338],[-83,-38434],[15,-411],[3050,-13],[704,32],[-20,-10372],[-307,1],[-68,-4577],[-3410,-25],[11,-5751],[-8,-5036],[-10,-15695],[1,-10366],[-7721,-6],[-14,-20723],[7725,3],[1,-5163],[7721,-30],[11,-5198],[7600,-58],[1637,-8],[-92,-30982],[-30,-20738],[-23,-10351],[-3863,-7],[-12,-5165],[-3868,-38],[-1,-5176],[-7717,-5],[-17,-20739],[-15413,-12],[-7730,-36],[-42,-18216],[-1286,19],[-667,-356],[-748,-2322],[-1668,-2447],[-543,727],[-2590,-3087],[-1837,-2404],[-612,-1352],[-758,-987],[-540,-181],[-8189,244],[-3468,-760],[-30650,-82],[-15424,25],[12,10364],[-30032,135],[-268,539],[-379,356],[-15,-11383],[-15461,-16],[-15132,-10],[-8039,58],[-1,20],[-772,242],[6,442],[90,189],[517,579],[156,302],[45,50018],[7,6347],[483,1154],[-496,1634],[9,1310],[-111,-89],[-7496,102],[132,-10462],[-15379,55],[15,6287],[201,1813],[1079,2308],[-14055,56],[-1460,-133],[-263,106],[-997,78],[-3304,-112],[-2310,140],[-9539,5],[-38,11531],[211,263],[-58,35879]],[[335040,498182],[-3802,33],[-32,9638],[422,564],[-4246,179],[-8,10393],[15375,-131],[1,10106],[91,183],[3064,145],[12162,-3],[62,10548],[12109,125],[409,-557],[1252,-2402],[323,-365],[877,-452],[620,-387],[71,-6689],[7760,5],[1,-217]],[[511592,207151],[2,-7977],[-85,-2427],[-32,-20745],[-70,-53783],[16,-365],[-27,-8272],[-22,-20772],[-7190,30],[-459,111],[-216,-150],[-14894,-17],[-14,-31144],[-22718,-18],[-15171,-3],[-6819,-42],[-1290,-252],[-232,2991],[7,1854],[147,1388],[497,3672],[61,748],[19,10389],[-7572,2],[-110,739],[7,9445],[-7537,230],[-5587,-54],[-81,501],[-1753,2593],[-27,7288],[174,2417],[-184,7999],[-16,6664],[-258,764],[263,3100],[-7589,74],[-121,10169],[-15097,-68],[-33,41564],[7609,111],[-6,10303],[15240,25],[-8,7083],[68,1689],[-106,4639],[38,7361],[-82,1387],[29,19379],[-7604,-20],[-11,10404],[7691,-227],[144,31391],[-151,31608]]],"bbox":[-102.546534,47.602717,-99.718158,48.9990233],"transform":{"scale":[0.00000282837882837882,0.0000013963076963076954],"translate":[-102.546534,47.602717]}}
