{"type":"Topology","objects":{"foo":{"type":"GeometryCollection","geometries":[{"type":"MultiPolygon","arcs":[[[0,1]]],"properties":{"postal_code":"57385","realtor_list_price":205666.667,"realtor_list_price_yoy":0.4586,"realtor_list_price_base":"NA","realtor_active_listings":3.333,"realtor_active_listings_yoy":2.3333,"realtor_active_listings_base":-0.1205,"realtor_new_listings":2,"realtor_new_listings_yoy":2,"realtor_new_listings_base":"NA","realtor_days_on_market":28.667,"realtor_days_on_market_yoy":3.7778,"realtor_days_on_market_base":"NA","zhvi":231602.068,"zhvi_yoy":0.0336,"zhvi_base":0.2411,"zori":"NA","zori_yoy":"NA","zori_base":"NA"}},{"type":"MultiPolygon","arcs":[[[2,3,4,-1]]],"properties":{"postal_code":"57359","realtor_list_price":"NA","realtor_list_price_yoy":"NA","realtor_list_price_base":"NA","realtor_active_listings":2,"realtor_active_listings_yoy":0.5,"realtor_active_listings_base":"NA","realtor_new_listings":0,"realtor_new_listings_yoy":"NaN","realtor_new_listings_base":"NA","realtor_days_on_market":"NA","realtor_days_on_market_yoy":"NA","realtor_days_on_market_base":"NA","zhvi":"NA","zhvi_yoy":"NA","zhvi_base":"NA","zori":"NA","zori_yoy":"NA","zori_base":"NA"}},{"type":"MultiPolygon","arcs":[[[-4,5,6,7]]],"properties":{"postal_code":"57301","realtor_list_price":252953.571,"realtor_list_price_yoy":-0.2612,"realtor_list_price_base":0.5512,"realtor_active_listings":56.667,"realtor_active_listings_yoy":-0.0659,"realtor_active_listings_base":0.0536,"realtor_new_listings":28,"realtor_new_listings_yoy":0.5,"realtor_new_listings_base":0.2338,"realtor_days_on_market":43.548,"realtor_days_on_market_yoy":-0.3535,"realtor_days_on_market_base":-0.1912,"zhvi":254764.451,"zhvi_yoy":0.016,"zhvi_base":0.5677,"zori":959.5,"zori_yoy":"NA","zori_base":"NA"}},{"type":"MultiPolygon","arcs":[[[-7,8]]],"properties":{"postal_code":"57311","realtor_list_price":363625,"realtor_list_price_yoy":"NA","realtor_list_price_base":"NA","realtor_active_listings":1.333,"realtor_active_listings_yoy":-0.5556,"realtor_active_listings_base":-0.1881,"realtor_new_listings":0.667,"realtor_new_listings_yoy":"Inf","realtor_new_listings_base":-0.7457,"realtor_days_on_market":83,"realtor_days_on_market_yoy":"NA","realtor_days_on_market_base":"NA","zhvi":"NA","zhvi_yoy":"NA","zhvi_base":"NA","zori":"NA","zori_yoy":"NA","zori_base":"NA"}}]}},"arcs":[[[404880,676818],[63,-9216],[-11784,-118],[274,-31503],[-69325,149],[-35838,-200],[-10214,-85],[-466,-9],[-146,-20066],[-12207,-279],[-10723,-139],[-2,20352],[-46509,-274],[-12438,-54],[-9332,-61],[-1048,-114],[-69623,-549],[-78,-20452],[-23127,-123],[123,-20403]],[[92480,593674],[-46069,-545],[-34532,-122],[-11409,-90],[372,41057],[-842,61159],[46291,351],[14,61373],[-97,40896],[22401,104],[35,16465],[23,2531],[5762,-2421],[3813,-1272],[3654,-190],[2681,454],[7321,2536],[-2,1981],[0,457],[-47,4129],[-190,16316],[-23230,-82],[-16,4159],[798,1514],[-814,1737],[-3,33659],[23287,132],[-19,-20801],[23248,335],[-38,20661],[69912,363],[-118,81866],[29,10242],[1,103],[34732,1],[194,10255],[12084,52],[11857,140],[11627,142],[23190,247],[-35,16248],[1076,183],[18461,-159],[23924,-2],[4113,-7],[41604,-422],[3283,-151],[25,-37680],[23359,194],[-356,-40570],[10964,-185],[7134,131],[713,-1007],[226,-65],[3097,292],[315,-111],[-27,-457],[2,-312],[570,-38568],[30,-60576],[200,-2201],[-147,-18617],[-25308,-76],[-3606,-680],[-3248,559],[-14833,273],[343,-41041],[-221,-19884],[-464,-20448],[17,-5318],[59,-4167],[48,-5467],[50,-5681],[87,-20643],[23297,-121],[11748,-14]],[[404880,676818],[58164,-238],[22839,-231],[269,10],[-130,10233],[-285,29578],[47284,374],[-66,-20564],[45686,-141],[224,-40045],[23334,-240],[28,-20391],[134,-20300],[21390,-328],[-3037,-918],[328,-2268],[-2158,21],[33,-2988],[-2452,761],[1024,-2321],[-3253,386],[-2486,-1514],[402,-1577],[-3216,-452],[-1975,901],[1,-2803],[-3473,-129],[-474,-1482],[1828,-1867],[-2119,-645],[-506,-1867],[-4392,-679],[-1316,1804],[-2120,-1418],[-1682,1384],[-1461,-1193],[-4534,161],[-5262,-2032],[-181,-1897],[-2961,-1701],[3696,-5460],[1790,-994],[4459,491],[985,-705],[368,-3246],[-1314,-2123],[379,-4108],[13385,-154],[-143,-19675],[-9580,111],[-1710,-2649],[-3320,-2304],[-275,-1587],[3408,-804],[4447,938],[4293,-469],[2659,-2186],[-437,-32656]],[[601399,512622],[-25426,43],[-2946,-3344],[-365,-2608],[1642,-1063],[3139,163],[1168,-1063],[-1169,-2094],[-1790,-1256],[-2923,-517],[-4832,963],[-1256,-2563],[3820,-5037],[-680,-1621],[-6017,-960],[-829,-1652],[715,-1518],[-74831,-1248],[485,-20289],[-20938,-1504],[-23013,1141],[187,11037],[-317,9488],[-11528,109],[-2521,27],[-9357,104],[-12772,835],[-10979,411],[-13387,424],[-9889,155],[-11887,134],[-11348,128]],[[351555,489447],[-27,11017],[-33,12732],[-4377,74],[-761,20837],[-22385,-206],[37,16278],[-23173,4725],[-7,-807],[-34107,260],[-11962,-88],[-68,-20162],[-23160,-112],[38,20229],[-46461,-285],[104,-40862],[-16179,-186],[-59599,-747],[-1224,301],[-2600,-392],[-12864,-197],[-267,81818]],[[601399,512622],[4718,30],[45809,-235],[-508,-23915],[-23058,373],[-739,-40763],[23165,-326],[-596,-20387],[23120,-279],[-301,-20415],[23125,-62],[-215,-20462],[507,-20428],[-22916,-23],[582,-20473],[133,-4992],[135,-5316],[190,-6211],[106,-3979],[22979,-126],[534,-20495],[9937,-22],[13082,-33],[449,-17463],[3981,-3018],[4953,-9],[1184,-2237],[-693,-2395],[4840,-3384],[9438,-5653],[138,-6791]],[[745478,263133],[-121,-20478],[-26646,601],[-19493,-575],[-120,-20387],[-98,-16307],[2412,180],[5261,-4156],[208,-170],[3590,-3069],[2538,-1600],[2858,-2102],[-861,-845],[846,-554],[1794,-2585],[-3227,-2297],[2237,-113],[1893,-2123],[3403,-541],[155,-4332],[-23121,-255]],[[698986,181425],[-23131,-17],[-380,9250],[-11068,26],[20,9726],[-20249,-51],[-552,2297],[-1883,2574],[-2322,966],[-3045,-1998],[260,-1900],[-1886,-355],[-638,5281],[-2900,-1964],[79,-2031],[-1326,-1767],[-23289,160],[657,-20447],[-366,-20567],[272,-20423],[-22768,-99],[-23274,189],[-11764,-20],[-11240,-18],[-23428,-31],[-23099,-206],[-22844,-159],[-58118,-383],[-11093,263],[-489,-22],[-11202,-106],[-11895,-100],[-131,20193],[-5077,-4],[-11866,-9],[-6193,-4],[-19,16156],[-5,4355],[33,9476],[1225,72959],[23088,19],[-1110,35982],[-10469,59],[42,4891],[102,7496],[-12963,307],[-20157,401],[-1681,428],[-37,32999],[11028,-231],[10388,-692],[445,41830],[-232,61620],[-9,9416],[-817,11442],[-55,20865]],[[745478,263133],[23123,-104],[-406,20426],[23137,-96],[-2908,102347],[417,40893],[23104,-101],[738,36896],[-342,1603],[-2232,3757],[-762,3771],[1008,3105],[2487,4293],[181,1300],[529,27951],[-157,2330],[19800,-121],[3739,489],[8040,-387],[11486,-202],[3352,-60],[11830,-64],[7781,-56],[3389,-11],[-194,-12020],[-126,-10791],[-420,-24079],[45958,-3461],[-452,-75156],[23291,-76],[1685,-14758],[462,-6250],[-22745,113],[93,-20333],[46024,-52],[499,-61012],[22962,28],[150,-20375],[-23103,16],[45,-11131],[-23145,104],[24,-9244],[5,-9634],[2,-525],[-22950,211],[-7,-10279],[-52,-20426],[-22862,205],[-29,-9753],[11416,-20],[318,-20994],[-799,-10127],[11430,-139],[-865,-20355],[96,-5040],[-11534,55],[77,-5322],[-11448,8],[521,-30157],[11485,25],[11584,32],[193,-10473],[95,-10079],[-16835,-12],[127,-10165],[-6270,-155],[10,-20362],[-82,-10216],[12810,23],[14,-20359],[-3493,24],[-759,-18269],[-22760,-253],[-13680,-70],[-9218,-14],[398,18628],[-21403,-40],[-2733,-15],[-33451,-70],[-15733,-87],[-27996,-90],[-22946,-96],[-12125,-55],[-10650,-38],[-120,9711],[-83,10634],[-125,10101],[-121,10293],[-136,20448],[-23127,99],[-981,61109],[-12,9893],[10311,60],[-72,10594],[-10239,-107],[-30,20453]]],"bbox":[-98.491747,43.486652,-97.626456,44.196751],"transform":{"scale":[8.652918652918645e-7,7.100997100997097e-7],"translate":[-98.491747,43.486652]}}
