{"type":"Topology","objects":{"foo":{"type":"GeometryCollection","geometries":[{"type":"MultiPolygon","arcs":[[[0,1]]],"properties":{"postal_code":"70342","realtor_list_price":"NA","realtor_list_price_yoy":"NA","realtor_list_price_base":"NA","realtor_active_listings":8.667,"realtor_active_listings_yoy":-0.1034,"realtor_active_listings_base":-0.097,"realtor_new_listings":0,"realtor_new_listings_yoy":-1,"realtor_new_listings_base":-1,"realtor_days_on_market":"NA","realtor_days_on_market_yoy":"NA","realtor_days_on_market_base":"NA","zhvi":151635.813,"zhvi_yoy":-0.0651,"zhvi_base":-0.1067,"zori":"NA","zori_yoy":"NA","zori_base":"NA"}},{"type":"MultiPolygon","arcs":[[[2,3,4,5],[6]]],"properties":{"postal_code":"70538","realtor_list_price":178052.273,"realtor_list_price_yoy":0.1567,"realtor_list_price_base":0.1404,"realtor_active_listings":44.667,"realtor_active_listings_yoy":0.2182,"realtor_active_listings_base":-0.2741,"realtor_new_listings":7.333,"realtor_new_listings_yoy":0.375,"realtor_new_listings_base":0.2319,"realtor_days_on_market":126.818,"realtor_days_on_market_yoy":0.3456,"realtor_days_on_market_base":0.2123,"zhvi":104116.046,"zhvi_yoy":-0.036,"zhvi_base":-0.1771,"zori":"NA","zori_yoy":"NA","zori_base":"NA"}},{"type":"MultiPolygon","arcs":[[[-5,7,-1,8]]],"properties":{"postal_code":"70392","realtor_list_price":175800,"realtor_list_price_yoy":-0.0529,"realtor_list_price_base":0.2481,"realtor_active_listings":20.667,"realtor_active_listings_yoy":0.1923,"realtor_active_listings_base":-0.3962,"realtor_new_listings":3.333,"realtor_new_listings_yoy":0.25,"realtor_new_listings_base":-0.3784,"realtor_days_on_market":74.4,"realtor_days_on_market_yoy":-0.0582,"realtor_days_on_market_base":-0.1456,"zhvi":157051.691,"zhvi_yoy":0.0128,"zhvi_base":0.2357,"zori":"NA","zori_yoy":"NA","zori_base":"NA"}},{"type":"MultiPolygon","arcs":[[[-3,9]]],"properties":{"postal_code":"70514","realtor_list_price":144000,"realtor_list_price_yoy":0.3787,"realtor_list_price_base":"NA","realtor_active_listings":4,"realtor_active_listings_yoy":0.2,"realtor_active_listings_base":-0.2034,"realtor_new_listings":0.667,"realtor_new_listings_yoy":0,"realtor_new_listings_base":1.3824,"realtor_days_on_market":221,"realtor_days_on_market_yoy":5.1389,"realtor_days_on_market_base":"NA","zhvi":"NA","zhvi_yoy":"NA","zhvi_base":"NA","zori":"NA","zori_yoy":"NA","zori_base":"NA"}}]}},"arcs":[[[921071,486949],[1036,1695],[12503,16195],[12673,14841],[4285,4939],[6644,3958],[4519,2079],[6817,463],[6944,-5350],[3330,-5826],[1791,-10798],[761,-4996],[1400,-5757]],[[983774,498392],[842,-4117],[1239,-2922],[913,-5562],[1538,-10937],[1254,-3997],[6949,-18462],[1749,-4630],[1308,-6070],[433,-7355],[-505,-4083],[-1187,-2797],[1565,-842],[-7379,-9940],[-8894,-16084],[-3212,-5303],[-7138,-7063],[-8519,-13789],[-6587,-20783],[-18961,-9489],[4134,74009],[93,6856],[-2582,-986],[-2949,-1830],[-647,-430],[-239,614],[-270,-178],[-1848,4327],[-2231,2701],[284,279],[3062,3966],[-2783,6699],[1688,2495],[237,5905],[-1252,10532],[315,1583],[-1919,4174],[-3453,7514],[79,550],[5602,6949],[-2044,5892],[-2762,-1387],[-3494,-3594],[-545,-770],[-120,-170],[-1143,-2059],[-2865,6769],[-459,2372]],[[448978,894433],[18863,-33765],[541,-4617],[-1936,-16674],[293,-8816],[4438,-1748],[5446,-7810],[-4497,-1383],[155,-224],[7937,-12421],[-386,-361],[1304,-3095],[402,380],[4726,-11821],[837,-1601],[1638,-2511],[5178,-5328],[1098,0],[2764,8567],[5137,-46],[304,-2906],[-1121,-7092],[293,-1512],[6289,8663],[5462,8216],[-716,5459],[-5726,8851],[-1058,5777],[687,5225],[5312,18345],[1528,4075],[661,1843],[3963,12320],[8196,19634]],[[526990,878057],[2873,8426],[4331,15175],[861,8493],[1069,27705],[861,10607],[2124,292],[973,989],[8744,12891],[-1757,4949],[-8663,-12916],[-378,1520],[-1215,2954],[-1133,2494],[8856,13122],[3946,17697],[-6436,3249],[-1764,1376],[-407,279],[1313,2582],[4796,58],[9553,-2502],[3970,-4569],[3969,-1283],[6743,1527],[5308,-1336],[7980,1102],[5110,2256],[1338,-1034],[-550,-3958],[4133,-10407],[3617,-3286],[-1180,-1461],[2558,-7366],[4719,-6936],[2240,-1400],[5427,-13452],[3498,-3041],[1888,0],[5817,-3711],[1611,1705],[7430,-180],[1337,-1339],[7664,2133],[9983,1705],[-236,6394],[6054,6027],[1729,-1461],[6485,-13271],[2437,-6088],[476,-15912],[-315,-5357],[-1689,5782],[275,6596],[-1414,-2821],[2003,-20029],[196,-10532],[4677,-10652],[6561,-7977],[3419,-5783],[8291,-5908],[1728,-4080],[-1023,-1947],[-1258,-9188],[234,-8341],[982,-5966],[3103,-6150],[4126,-2133],[1728,-2922],[5498,-2986],[2790,-5419],[2750,-2010],[0,-3164],[-2321,-14488],[587,-10960],[-2556,-16677],[-788,-10532],[-943,-5538],[196,-5786],[1176,-6147],[2945,-9804],[2826,-5295],[1334,-6452],[-120,-11141],[548,-4080],[-669,-10774],[2157,-15221],[1491,-3469],[5105,-2925],[4985,-7127],[1750,-6008],[91,-6654],[1450,-13149],[-709,-4019],[4006,-3594],[1726,-4203],[2550,-1766],[2827,-4325],[6908,-1283],[5259,-4630],[3805,-5605],[3205,-2547],[5105,-8200],[4564,-12087],[11697,-5533],[3985,-3751],[1042,-629]],[[784968,573469],[-12704,-57534],[-430,-3836],[-2510,-8949],[-38,-2372],[-6701,-29409],[-91,-1840],[-144,-1021],[-1125,-4048],[-1305,-7193],[-136,-1254],[-1313,-3397],[-871,451],[-1451,-5461],[-26538,-122137]],[[729611,325469],[-37436,-175157],[-13627,-92507],[-845,-21626],[-9960,9242],[-2235,655],[-3887,1138],[-15922,4665],[-24828,-1796],[-18965,-7305],[-26657,-9297],[-7233,-3541],[-5329,-7143],[-9947,-6041],[-9086,-7690],[-24486,-4123],[-11545,-4943],[4816,9369],[4776,6288],[1964,6821],[7790,16682],[936,3125],[2946,9830],[409,13674],[64,2152],[-1628,5245],[-3742,12049],[-151,488],[-12298,19365],[-1250,23076],[2118,14360],[1954,12902],[-1422,7687],[-3553,17293],[-4917,9555],[1088,1217],[3770,15268],[-5042,9696],[1007,3788],[-1859,12865],[732,13414],[-1144,5095],[-235,8267],[982,4561],[1865,170],[1619,5225],[-72,8983],[-1783,2936],[-275,6518],[12140,10411],[7478,1777],[4627,2685],[3338,330],[6494,-2614],[9472,4149],[6953,12487],[1274,5643],[1900,3556],[-2489,-6295],[-160,-1214],[281,-1169],[1208,5653],[6179,10901],[1291,-371],[5197,9770],[845,3270],[-1259,4019],[4404,8752],[10772,24208],[2396,-853],[4919,8516],[2261,5988],[1015,3264],[-155,8174],[5071,13385],[4415,5308],[2296,4282],[2815,2016],[801,3209],[4133,-1860],[989,3552],[532,2502],[-2904,27942],[-3276,12504],[-4100,11956],[1116,14594],[14506,15646],[5303,10439],[5333,23583],[7549,8891],[-688,731],[8656,11693],[677,-226],[3793,10841],[-20478,24555],[-1769,1453],[-2496,847],[-4917,-698],[-4800,-943],[-23649,28941],[-3466,4027],[-317,1413],[-333,-826],[-5360,-13287],[-2252,-5587],[-10991,-25506],[-110,-1485],[-6830,1591],[-6527,-919],[-12315,-380],[-18019,1068],[-8215,15338],[-3502,-10833],[-2257,-1506],[-83529,43997],[-11080,-19548],[-6823,-10848],[-1127,-3310],[-2528,-765],[-5405,-10835],[-11359,-12188],[12,-3344],[-4304,-14538],[-6587,5376],[2413,3238],[-393,3775],[3328,7658],[3608,11093],[-2120,4625],[1792,5669],[-8852,778],[-3858,1092],[-7617,-359],[-7340,1283],[-1296,-608],[-23635,257],[-21712,1530],[-3495,-727],[-7655,794],[-2356,-489],[-15625,1039],[-12104,-75],[-2437,423],[-1376,510],[-25956,13959],[999,-6383],[2372,-2659],[300,-6843],[1905,-5307],[-2301,-12124],[673,-3121],[3415,-184],[1061,-2008],[-3533,-791],[2007,-3748],[1565,2295],[2205,-9858],[2474,-5905],[-1126,-13417],[-7179,-5568],[-1429,-1108],[-6352,2633],[-9580,11751],[-9667,11529],[-469,560],[-8737,8394],[-10658,274],[-12967,-1371],[-18651,-6303],[-11190,-4933],[-20606,-13707],[-8348,-8221],[-25046,-16722],[-7964,-8014],[-12640,-9257],[-3731,-5210],[-12611,-6029],[-3553,-9595],[-9321,-10387],[-5422,-4967],[-8704,-7130],[-9769,-5759],[-3553,10421],[-8171,821],[-3730,5759],[-2665,2741],[-4618,0],[-354,-5626],[-5952,-2486],[-4474,978],[-372,6638],[3988,7302],[5060,4902],[14709,14249],[3204,3104],[5684,8774],[4263,6303],[2843,12063],[-935,10997],[20894,30785],[59391,78038],[481,693],[124727,163334],[7604,9905],[-2039,-9990],[35874,-16007],[11905,-2253],[6680,4261],[4950,-3472],[15669,-433],[2414,9659],[6478,1200],[1949,2394],[2025,4808],[4780,16397],[3507,4041],[4418,-649],[5994,-2611],[1278,-1461],[2697,4734],[4513,-1900],[2589,5374],[3307,-3062],[3768,7498],[22569,-20621],[-1591,6383],[2908,4086],[2274,10168],[-80,10652],[1201,2853],[2707,-1341],[32262,-25767],[12059,42276]],[[654128,591118],[4416,-5297],[7190,-5422],[1713,1379],[-259,-3012],[278,-1448],[5232,-8546],[10965,-13170],[792,10889],[-3628,8742],[-3445,4850],[-6484,98],[1640,11622],[-791,1758],[492,1443],[1333,4516],[1139,7472],[1817,13149],[-12429,2685],[-586,147],[-3230,-28046],[-248,-1267],[-4969,-773],[-938,-1769]],[[784968,573469],[2944,-1581],[2982,1889],[2159,6208],[-400,14716],[-1300,9781],[-2200,11443],[4826,7613],[-197,6269],[-3064,7853],[12161,-773],[8766,-10177],[8245,-17651],[3730,-7061],[5613,-2980],[5300,-670],[5025,3775],[3964,305],[7772,2678],[13817,-9470],[4402,-4872],[5142,2495],[6869,-1281],[8006,-6210],[1569,-2558],[-5769,3777],[1726,-3836],[4357,-4385],[4513,-6941],[8358,-10841],[12083,-13582],[4551,-5849],[4668,-4078],[4436,1820],[4867,4136],[5263,11316],[3914,3538],[5924,7797],[1137,3713],[4985,7186],[7731,4632],[4002,245],[4712,-3528],[825,-7669],[-1216,-4811],[-430,-8218],[1100,-7122],[4084,-9980],[2983,-4014],[5062,-4624],[4005,-6208],[941,-4808],[-2902,-9619],[-1450,-8705],[-1785,-4160]],[[921071,486949],[-2496,-4078],[-4483,-13101],[-2136,-8298],[-1396,-6033],[-2414,-11496],[-2523,-11757],[-5070,-14156],[-7457,-8437],[-8188,-2855],[-2765,1107],[-859,346],[-594,-1639],[-402,-2186],[-125,-763],[2609,-1038],[-52,-550],[-734,-7600],[-4079,-42964],[78,-19636],[1583,-10960],[89,-3631],[-4621,-2744],[-38159,-14923],[-5650,-69],[-32185,7007],[-13357,898],[-13578,1586],[-33476,12147],[-9020,4343]],[[448978,894433],[3965,13728],[17219,-27350],[2876,11646],[8412,-2797],[10631,-3313],[14843,-3031],[15184,-2837],[1121,-287],[2922,-1665],[839,-470]]],"bbox":[-91.880999,29.526327,-91.211962,29.902783],"transform":{"scale":[6.69037669037672e-7,3.764563764563775e-7],"translate":[-91.880999,29.526327]}}
