{"type":"Topology","objects":{"foo":{"type":"GeometryCollection","geometries":[{"type":"MultiPolygon","arcs":[[[0,1]],[[2,3]],[[4,5]],[[6,7,8,9,10,11,12]]],"properties":{"postal_code":"28560","realtor_list_price":344429.87,"realtor_list_price_yoy":-0.0392,"realtor_list_price_base":0.741,"realtor_active_listings":161,"realtor_active_listings_yoy":-0.0203,"realtor_active_listings_base":-0.238,"realtor_new_listings":51.333,"realtor_new_listings_yoy":-0.0723,"realtor_new_listings_base":-0.0686,"realtor_days_on_market":75.182,"realtor_days_on_market_yoy":0.1113,"realtor_days_on_market_base":-0.0573,"zhvi":270531.385,"zhvi_yoy":0.0233,"zhvi_base":0.8317,"zori":1685.574,"zori_yoy":0.0355,"zori_base":"NA"}},{"type":"MultiPolygon","arcs":[[[13,-13,14,-4,15,-6,16,17,18,19]]],"properties":{"postal_code":"28562","realtor_list_price":404980.017,"realtor_list_price_yoy":0.0703,"realtor_list_price_base":0.7098,"realtor_active_listings":201.667,"realtor_active_listings_yoy":0.0689,"realtor_active_listings_base":-0.2518,"realtor_new_listings":78,"realtor_new_listings_yoy":0,"realtor_new_listings_base":-0.0555,"realtor_days_on_market":70.342,"realtor_days_on_market_yoy":0.0839,"realtor_days_on_market_base":-0.0313,"zhvi":316802.684,"zhvi_yoy":0.0227,"zhvi_base":0.7688,"zori":1589.668,"zori_yoy":0.0539,"zori_base":"NA"}},{"type":"MultiPolygon","arcs":[[[-11,20]]],"properties":{"postal_code":"28519","realtor_list_price":"NA","realtor_list_price_yoy":"NA","realtor_list_price_base":"NA","realtor_active_listings":5.667,"realtor_active_listings_yoy":1.125,"realtor_active_listings_base":0.476,"realtor_new_listings":0,"realtor_new_listings_yoy":"NaN","realtor_new_listings_base":"NA","realtor_days_on_market":"NA","realtor_days_on_market_yoy":"NA","realtor_days_on_market_base":"NA","zhvi":"NA","zhvi_yoy":"NA","zhvi_base":"NA","zori":"NA","zori_yoy":"NA","zori_base":"NA"}},{"type":"MultiPolygon","arcs":[[[21,22]]],"properties":{"postal_code":"28587","realtor_list_price":"NA","realtor_list_price_yoy":"NA","realtor_list_price_base":"NA","realtor_active_listings":2,"realtor_active_listings_yoy":1,"realtor_active_listings_base":-0.1927,"realtor_new_listings":0,"realtor_new_listings_yoy":-1,"realtor_new_listings_base":"NA","realtor_days_on_market":"NA","realtor_days_on_market_yoy":"NA","realtor_days_on_market_base":"NA","zhvi":207170.748,"zhvi_yoy":0.13,"zhvi_base":0.8623,"zori":"NA","zori_yoy":"NA","zori_base":"NA"}},{"type":"MultiPolygon","arcs":[[[23,-22,24,25,26,27]]],"properties":{"postal_code":"28556","realtor_list_price":405458.333,"realtor_list_price_yoy":-0.3118,"realtor_list_price_base":0.2361,"realtor_active_listings":11.667,"realtor_active_listings_yoy":0,"realtor_active_listings_base":-0.492,"realtor_new_listings":2,"realtor_new_listings_yoy":0,"realtor_new_listings_base":-0.0665,"realtor_days_on_market":47,"realtor_days_on_market_yoy":-0.3974,"realtor_days_on_market_base":-0.5168,"zhvi":332996.067,"zhvi_yoy":0.0928,"zhvi_base":0.8248,"zori":"NA","zori_yoy":"NA","zori_base":"NA"}},{"type":"MultiPolygon","arcs":[[[28,29,30]]],"properties":{"postal_code":"28526","realtor_list_price":"NA","realtor_list_price_yoy":"NA","realtor_list_price_base":"NA","realtor_active_listings":1,"realtor_active_listings_yoy":-0.7857,"realtor_active_listings_base":-0.7872,"realtor_new_listings":0,"realtor_new_listings_yoy":"NaN","realtor_new_listings_base":-1,"realtor_days_on_market":"NA","realtor_days_on_market_yoy":"NA","realtor_days_on_market_base":"NA","zhvi":137118.816,"zhvi_yoy":0.0196,"zhvi_base":0.6745,"zori":"NA","zori_yoy":"NA","zori_base":"NA"}},{"type":"MultiPolygon","arcs":[[[31,32,33,-28,34,-2,35,36,37,-9]]],"properties":{"postal_code":"28529","realtor_list_price":596500,"realtor_list_price_yoy":"NA","realtor_list_price_base":"NA","realtor_active_listings":4.667,"realtor_active_listings_yoy":1,"realtor_active_listings_base":-0.0422,"realtor_new_listings":0.667,"realtor_new_listings_yoy":"Inf","realtor_new_listings_base":-0.3538,"realtor_days_on_market":130,"realtor_days_on_market_yoy":"NA","realtor_days_on_market_base":"NA","zhvi":203139.331,"zhvi_yoy":0.1412,"zhvi_base":0.9349,"zori":"NA","zori_yoy":"NA","zori_base":"NA"}},{"type":"MultiPolygon","arcs":[[[38,39]]],"properties":{"postal_code":"28537","realtor_list_price":"NA","realtor_list_price_yoy":"NA","realtor_list_price_base":"NA","realtor_active_listings":0.667,"realtor_active_listings_yoy":-0.3333,"realtor_active_listings_base":"NA","realtor_new_listings":0,"realtor_new_listings_yoy":"NaN","realtor_new_listings_base":"NA","realtor_days_on_market":"NA","realtor_days_on_market_yoy":"NA","realtor_days_on_market_base":"NA","zhvi":"NA","zhvi_yoy":"NA","zhvi_base":"NA","zori":"NA","zori_yoy":"NA","zori_base":"NA"}},{"type":"MultiPolygon","arcs":[[[40,-20,41,-29]]],"properties":{"postal_code":"28523","realtor_list_price":"NA","realtor_list_price_yoy":"NA","realtor_list_price_base":"NA","realtor_active_listings":2.667,"realtor_active_listings_yoy":0,"realtor_active_listings_base":0.2008,"realtor_new_listings":0,"realtor_new_listings_yoy":"NaN","realtor_new_listings_base":-1,"realtor_days_on_market":"NA","realtor_days_on_market_yoy":"NA","realtor_days_on_market_base":"NA","zhvi":183822.413,"zhvi_yoy":0.0255,"zhvi_base":0.7449,"zori":"NA","zori_yoy":"NA","zori_base":"NA"}},{"type":"MultiPolygon","arcs":[[[-30,-42,-19,42,43]]],"properties":{"postal_code":"28585","realtor_list_price":289875,"realtor_list_price_yoy":0.056,"realtor_list_price_base":1.3389,"realtor_active_listings":11.667,"realtor_active_listings_yoy":0.2963,"realtor_active_listings_base":-0.1382,"realtor_new_listings":0.667,"realtor_new_listings_yoy":-0.5,"realtor_new_listings_base":-0.7253,"realtor_days_on_market":107,"realtor_days_on_market_yoy":1.3778,"realtor_days_on_market_base":0.2131,"zhvi":125309.563,"zhvi_yoy":-0.0366,"zhvi_base":0.5308,"zori":"NA","zori_yoy":"NA","zori_base":"NA"}},{"type":"MultiPolygon","arcs":[[[-35,-27,44,45,-36,-1]]],"properties":{"postal_code":"28571","realtor_list_price":520714.286,"realtor_list_price_yoy":0.1618,"realtor_list_price_base":0.6596,"realtor_active_listings":65.667,"realtor_active_listings_yoy":0.2086,"realtor_active_listings_base":-0.3308,"realtor_new_listings":9.333,"realtor_new_listings_yoy":0.2727,"realtor_new_listings_base":0.0969,"realtor_days_on_market":127.286,"realtor_days_on_market_yoy":0.3594,"realtor_days_on_market_base":0.0867,"zhvi":398568.602,"zhvi_yoy":0.0147,"zhvi_base":0.72,"zori":"NA","zori_yoy":"NA","zori_base":"NA"}},{"type":"MultiPolygon","arcs":[[[-18,46,-43]]],"properties":{"postal_code":"28573","realtor_list_price":157000,"realtor_list_price_yoy":-0.4228,"realtor_list_price_base":"NA","realtor_active_listings":6.333,"realtor_active_listings_yoy":0.0556,"realtor_active_listings_base":-0.4966,"realtor_new_listings":1.333,"realtor_new_listings_yoy":0,"realtor_new_listings_base":-0.1751,"realtor_days_on_market":85,"realtor_days_on_market_yoy":-0.213,"realtor_days_on_market_base":"NA","zhvi":129224.297,"zhvi_yoy":-0.0472,"zhvi_base":0.4518,"zori":"NA","zori_yoy":"NA","zori_base":"NA"}},{"type":"MultiPolygon","arcs":[[[47,-39,48,-25,-23,-24,-34],[49]]],"properties":{"postal_code":"28515","realtor_list_price":317500,"realtor_list_price_yoy":0.1472,"realtor_list_price_base":"NA","realtor_active_listings":11.333,"realtor_active_listings_yoy":0.36,"realtor_active_listings_base":-0.1213,"realtor_new_listings":1.333,"realtor_new_listings_yoy":-0.6,"realtor_new_listings_base":-0.5642,"realtor_days_on_market":81,"realtor_days_on_market_yoy":0.7532,"realtor_days_on_market_base":"NA","zhvi":181951.067,"zhvi_yoy":0.1683,"zhvi_base":0.8576,"zori":"NA","zori_yoy":"NA","zori_base":"NA"}},{"type":"MultiPolygon","arcs":[[[-32,-8,50]]],"properties":{"postal_code":"28527","realtor_list_price":"NA","realtor_list_price_yoy":"NA","realtor_list_price_base":"NA","realtor_active_listings":"NA","realtor_active_listings_yoy":"NA","realtor_active_listings_base":"NA","realtor_new_listings":"NA","realtor_new_listings_yoy":"NA","realtor_new_listings_base":"NA","realtor_days_on_market":"NA","realtor_days_on_market_yoy":"NA","realtor_days_on_market_base":"NA","zhvi":222934.719,"zhvi_yoy":0.0283,"zhvi_base":0.7215,"zori":"NA","zori_yoy":"NA","zori_base":"NA"}},{"type":"MultiPolygon","arcs":[[[-46,51,-37]]],"properties":{"postal_code":"28510","realtor_list_price":476537.5,"realtor_list_price_yoy":-0.11,"realtor_list_price_base":0.6722,"realtor_active_listings":23.667,"realtor_active_listings_yoy":0.2909,"realtor_active_listings_base":-0.0886,"realtor_new_listings":5.333,"realtor_new_listings_yoy":0,"realtor_new_listings_base":0.8006,"realtor_days_on_market":90,"realtor_days_on_market_yoy":0.125,"realtor_days_on_market_base":-0.0634,"zhvi":354191.494,"zhvi_yoy":0.064,"zhvi_base":0.8902,"zori":"NA","zori_yoy":"NA","zori_base":"NA"}}]}},"arcs":[[[696937,434395],[710,-5520],[1273,-15830],[-139,-12611]],[[698781,400434],[-1386,-636],[-2744,1482],[-4519,-1134],[107,4787],[-6723,1042],[-5150,5108],[-3021,625],[-894,-3126],[-1974,-387],[4,2976],[533,5550],[486,2798],[1857,2518],[2555,7620],[333,2772],[-3661,5488],[-2759,2652],[-8905,5705],[-3180,4650],[1884,-288],[8567,4117],[25995,6031],[593,-24459],[158,-1930]],[[521468,458174],[1487,-6706]],[[522955,451468],[-1578,-12],[91,6718]],[[523550,448784],[429,-1932],[186,-843],[2858,-3819],[269,-360],[4377,-14627],[6102,-5150],[1820,-1537],[1043,-9613],[18,-745],[16,-606],[285,-11465],[97,-3904],[614,-1248],[2330,-4743],[2587,-5266],[8436,-17169],[4586,-16724],[3728,-7121],[41,-459],[3110,-35074],[1356,-7496],[1593,-8809],[1143,-6319],[428,-7639],[483,-8636],[2246,-9083],[6092,-16436],[12291,-16237],[133,-176],[4045,-5343],[8760,-16021],[621,-1135],[4586,-12974],[6283,-5362],[1165,-993],[890,-760],[10560,-10269],[-13047,-29460],[-1994,-5750],[-691,-6743],[298,-3876],[1564,-7171],[684,-1884],[200,-1229],[-10,-1582],[-286,-694],[-931,-1175],[-899,-6212],[-2475,-4951],[2493,5514],[656,5397],[1399,2173],[-42,1899],[-3540,1524],[-1721,-3990],[-1475,-1230],[-380,61],[-1177,-190],[-1632,-1287],[-5519,-9813],[-1343,-4493],[416,-3335],[-198,-361],[-410,3191]],[[599097,97024],[-430,6779],[-180,13658],[663,12454],[55,5220],[-383,9953],[-997,8051],[-53,307],[-1761,7033],[-2550,5712],[-7574,9407],[-3935,4708],[-227,338],[-3000,5801],[-1143,2963],[-667,2405],[-7146,31991],[-2197,15905],[-6074,27545],[-1855,8329],[-11980,53793],[-1643,-2175],[-1569,7100],[-4257,19261],[-406,1838],[-756,2808],[-1898,8165],[-29,131],[-5033,23310],[-3019,12489],[-4196,2989],[-653,2200],[-2814,-3236],[-1677,1625],[-182,3088],[3096,9130],[548,-6608],[2281,-784],[707,-2867],[1747,248],[-5218,22508],[-1971,1949],[-181,3801],[-2662,381],[-1278,3493],[405,1466],[2263,1369],[938,5073],[452,-821],[875,-2297],[163,228],[158,1865],[1696,1681]],[[446306,700809],[1778,-3687],[1390,-9760],[658,-2191],[7367,-17689],[1333,-3559],[1689,-2978],[1733,-1053],[3508,505]],[[465762,660397],[598,-747],[3861,-9073],[1835,-9809],[2677,-7282],[2278,-9042],[724,-4934],[-423,-4149],[-1375,-4805],[-90,-3590],[956,-2858],[7059,7003],[21274,56276],[814,1917],[391,-2071],[47,3145],[13362,31517],[4302,8717],[-222,-2561],[2348,1818],[4625,-593],[2324,-2461],[7194,2847],[9620,16374],[1248,2508],[1643,10378],[1861,7321],[4260,4467],[1064,-5896],[8139,11621],[1247,4822],[4017,3332],[822,4214],[1493,2166],[2937,1822],[3743,5660],[22368,-40622],[-4522,-8587],[-3053,-10615],[-839,-10162],[2310,1230],[3658,7475],[1966,2703]],[[604303,719873],[-95,-771],[8217,9564],[3852,-7757],[8504,4003],[7132,-33405],[17684,-63679],[4268,587],[6166,-11743],[3276,481],[2039,-2946],[11046,-23342],[4756,8447],[633,-16129],[-233,-9412],[-762,-4864],[-2004,-1107],[1668,69],[4321,-265],[237,-3380],[-3317,-7278],[-1728,-642],[1326,-1771],[-1035,-3109],[-253,-7665],[-6849,-3745],[819,-3032],[-1366,-5505],[294,-3021],[-335,-13984],[-632,-4728],[-2133,-2250],[-1641,-13679],[-2194,-3474],[-2120,-1287],[-2784,-4025],[-2152,-10134],[-1282,-1570],[-866,-4472],[-986,-778],[-2668,3292],[-2451,352],[-2058,-1192],[-1906,2103],[-3058,-11109],[-2128,-2737],[-324,-2504],[1248,-6684],[-2276,-7897],[-2734,-1464],[-706,-3713],[-2942,-10524],[-3628,-5576],[-1463,-7485],[-937,-11481],[-1025,-6452],[-2283,-6442],[-216,-2875],[2496,-11337],[276,-5117],[-525,-2761],[-16194,-24554]],[[610272,341918],[-3602,3146],[-789,-3558],[-4378,2926],[-834,7527],[-1849,6418],[-1675,5816],[-1895,6579],[-508,-170],[-2472,-825],[-773,-258],[-4156,2084],[-1681,843],[-16,-7],[-3413,-1489],[-1365,-595],[-2919,-1255],[-4377,7944],[-8756,11705],[209,7941],[-4194,5405],[-4978,10479],[-2879,17857],[-6277,20633],[-963,3164],[-929,11002],[-2918,4596],[-4587,-1252],[348,4045],[43,500],[651,7569],[180,2885],[225,3602],[12,198],[-61,282],[-1707,7870]],[[536989,495525],[352,398],[805,1062],[758,2351],[-144,5004],[2078,-4360],[685,954],[130,159],[1200,1479],[4104,6276],[1270,166],[1744,2071],[558,668],[2505,3013],[-1319,11322],[-7849,14092],[256,1295],[-1300,1623],[-2495,-2031],[-2535,-4586],[-3588,-4727],[-593,209],[-1612,941],[-261,-3688],[-739,-1297],[87,-957],[-1848,-3387]],[[529238,523575],[-70,560],[-464,2378],[-1379,7061],[-33,168],[-2275,5805],[-18,44],[-3127,833],[-89,323],[-1995,7196],[-127,210],[-468,772],[-2949,4865],[-5212,3758],[-4377,7100],[-5004,-1253],[-192,-676],[-1475,-5171],[459,-3124],[135,-925],[386,-2626],[62,-424],[4210,-7906],[80,-149],[3019,-5672],[758,-6606],[63,-549],[-1434,-8212],[-25,-143],[1236,-991],[566,-454],[283,-226],[4737,-7595],[1471,-2358],[45,-72],[1394,-4225],[60,-182],[6062,-18374],[7,-571],[191,-15502],[-606,-1062],[-963,-1687],[-99,-175],[-1251,-6687],[111,-500]],[[520941,460551],[-2246,1714],[-758,-2751],[-274,3034],[-635,8101],[-97,1201],[582,6090],[208,2965],[-5703,-479],[-196,-2982],[-1617,-151],[-1784,-202],[-198,-15],[-2530,-2795],[-2280,-2100],[-1417,-758],[116,-2299],[687,-666],[563,1487],[583,240],[195,-1760],[-49,-92],[-1525,-3228],[-5291,164],[-6451,-3049],[-2382,-411],[-2936,1451],[2210,4525],[-233,1143],[-555,8976],[-256,4011],[483,5630],[-409,561],[2040,9665],[573,-763],[1189,2901],[3843,11058],[-14476,9156],[-1650,-3763],[-6661,15794],[-198,-658],[-1093,-5243],[-15724,9756],[-4954,3064],[-708,438],[8085,8961],[846,1222],[603,-1388],[1682,-6012],[5051,5587],[-2053,4871],[-4502,16408],[-591,2639],[-3001,10258],[-560,1637],[-1339,3630],[-942,2056],[-662,1429],[-292,683],[-3276,11226],[-8110,17523],[-1060,3266],[-437,3341],[113,4302],[112,8163],[-490,28448],[265,3763],[2231,9072],[5706,20213]],[[427750,716132],[4198,-4955],[4877,-1882],[4655,-6242],[3013,-2712],[1813,468]],[[520941,460551],[527,-2377]],[[522955,451468],[595,-2684]],[[599097,97024],[-1472,627],[-474,-870],[-1023,-1425],[-930,4517],[-97,5482],[-9237,35740],[-16020,22049],[-5686,-7841],[-1066,-337],[-21327,-1122],[-1121,-266],[-3790,-2903],[-1764,-516],[-8213,-1113],[-1207,-694],[-4090,-6483],[-814,-1004],[-23728,-26380],[-2780,-3301],[-13936,-23944],[-859,-1854],[-14031,-33564],[-731,-2609],[-1347,-7615],[-3192,-23170],[166,9210],[329,19227]],[[460657,46865],[989,57432],[310,19009],[1352,143798],[12455,10931],[806,445],[10087,9169],[710,3175],[-8681,12074],[-2808,6326],[-7237,7386],[-5309,-1807],[1510,2460],[1022,18018],[109,8313],[-6300,-28],[-909,-788],[1131,-10061],[-589,-2995],[1021,-3383],[213,-4834],[2724,-6752],[-448,-262],[-3769,976],[-2980,2958],[-2529,1004],[-4162,-1614],[-27580,34881],[-6,3015],[1177,3197],[124,4169],[-666,2308],[-1911,9],[1968,6207],[-4733,10826],[-2834,-1324],[-3860,3705],[-1425,3717],[-2856,-5666],[-709,-5157],[-1546,-1081],[-1360,1893],[-1721,-5731],[-4915,-6448],[-997,133],[-3868,-7804],[-797,-6896],[-2437,-71],[-1865,2370],[-756,-898],[-691,-4497],[-1248,-1371],[-1851,485],[-1834,3896],[-3018,-273],[-1782,1356],[-967,2456],[11,3400],[1307,2999],[-429,4463],[-2612,-552],[910,3765],[-1590,-2446],[-3152,-2974],[-2949,-4134]],[[365907,359742],[1047,3853],[-2327,1762],[-2516,4869],[-2417,441],[1777,12370],[3819,4530],[-3333,14588],[-1260,1371],[-10637,3696],[-363,900],[1074,16374],[1811,6932],[-356,5333],[-7152,-4665],[-2221,-3642],[-3100,-6595],[-879,982],[-2161,32932],[-1412,10392],[1044,18969],[-4891,5821],[-24134,28706]],[[307320,519661],[-1365,54143],[-1050,10034],[-634,9741],[9071,-497],[-2956,12152],[4696,7768],[4809,-3052],[252,2259],[46206,-28366],[0,7376],[-17115,10693],[99,9280],[563,3539],[1705,28861],[9904,105],[-2788,4622],[-2032,4525],[11588,17319],[4452,10837],[-208,711],[1776,5823],[-2980,20923],[-3720,1979],[-3069,11419],[1624,3943],[4395,-435],[2595,-4475],[4060,-342],[1566,3296],[145,12053],[-514,8657],[318,6345],[1101,2656],[2129,641],[3622,-344],[2178,3986],[1321,541],[2448,-3098],[1713,-297],[1982,2265],[1493,3541],[1982,836],[2839,-4033],[1493,-346],[3230,1377],[1811,-3002],[1418,-10084],[-146,-3494],[-1151,591],[-74,-5606],[856,-5116],[4453,-4184],[2961,-51],[2569,934],[1321,-2067],[-1762,148],[1981,-6543],[3915,-2019],[2995,-3501],[359,1504]],[[536989,495525],[-316,1458],[-2309,9608],[-401,1671],[-3752,7520],[-973,7793]],[[854676,614063],[-1883,-771],[-3616,-4137]],[[849177,609155],[-2698,5860],[-5543,8625],[-1365,3692],[-1526,2546],[-6258,7622],[235,1631],[-194,2290],[-9,37],[-1811,2220],[900,6319],[-1745,15635],[-3300,3932],[5198,19928],[634,-24],[3684,-2802],[-300,-2649],[632,-4966],[-3567,-4311],[-1790,-4054],[-726,-5778],[2862,-1513],[6523,-6210],[13499,20981],[3131,3064],[1775,-656],[4467,-8926],[445,-4699],[-456,-7325],[-446,-894],[-1759,-1414],[-2492,-1096],[-1340,-2598],[-894,-4211],[-428,-5295],[-430,-12753],[0,-7001],[591,-10299]],[[717679,487494],[7997,13726],[757,492],[12684,-11318],[7041,10921],[372,1912],[-724,8638],[3632,380],[2853,-1295],[676,4254],[-1551,2678],[-1400,8219],[2003,13155],[1046,-490],[4717,8128],[2217,-4114],[1904,-1479],[5910,1577],[6011,-12215],[3911,-19187],[999,3086],[2885,2748],[-663,2228],[27,8623],[-988,5314],[-1953,4427],[485,1356],[6100,4585],[-249,4126],[592,2821],[-283,7652],[315,3378],[1520,-694],[1291,1925],[2288,-1119],[3567,1585],[2953,-3683],[-99,-1585],[1733,-4940],[706,1749],[3313,-3913],[2387,-469],[4349,1878],[4123,2199],[5166,4136],[4835,6644],[3256,5000],[8263,10458],[3830,5622],[3245,6508],[3220,8574],[1916,3902],[2313,3558]],[[854676,614063],[3174,1302],[5493,-288],[11599,-3327]],[[874942,611750],[267,-18708],[6253,-1670],[11257,6681],[8547,-5011],[3335,-13361],[4169,835],[2768,-300],[4945,-535],[2502,11274],[-208,7933],[-2294,7515],[-1250,4175],[7087,11272],[6462,-4592],[2919,3340],[3335,-2087],[1459,-7516],[-625,-5845],[3127,-4592],[9380,-20458],[2710,-11694],[2918,5011],[3753,6683],[2805,-10128],[-5098,-9918],[-3336,-13364],[-4586,-12529],[-5211,-18379],[-1876,-22560],[-5212,-8354],[-1250,-16713],[-2502,-8774],[-6462,-1255],[-10423,-4177],[-460,-684]],[[914147,453265],[-705,5358],[-5473,3244],[-1958,-4772],[-3388,2639],[-2917,-2942],[2440,1031],[470,-1699],[-1870,-4029],[-3090,103],[-1084,-3365],[395,-1855],[-2015,-655],[771,-4616],[-2698,2585],[-860,-1820],[-6146,5351],[377,-1723],[-2625,-508],[-2979,634],[-2848,5140],[-1237,-271],[-721,4526],[-1974,5445],[-1777,333],[-1043,5492],[-309,4983],[1257,12270],[1116,3339],[600,6685],[-423,6822],[-5810,-5123],[-2279,-7325],[-1096,-9972],[-3774,-27784],[-4793,-12368],[-1180,-1915],[-5981,-5398],[-833,-1987],[-4411,3369],[-4839,-2301],[-1003,795],[-1751,5750],[-2676,2873],[-4340,-1266],[-4197,-4134],[-2242,-2231],[-1949,-451],[-3891,1971],[-4519,7213],[-1832,3962],[-2193,6892],[-2452,3478],[-108,-5049],[-3716,8750],[97,3831],[-781,3159],[-3181,-3286],[-2151,-8266],[-2954,-6049],[-52,-3320],[-2145,-5999],[-2356,-2955],[-3131,-453],[-1008,-4227],[2393,-8593],[-9611,-13114],[-5434,-6184],[-6156,-7426],[-27478,34804],[-12092,39120],[-6621,-9734]],[[718907,460047],[-1228,27447]],[[304230,874457],[-2541,3468],[-1175,-2067],[-735,-4820],[-1323,-2950],[1787,-3888],[1494,-835],[0,-3052],[1321,99],[613,-2263],[-1714,-1229],[-1593,-6837],[2498,-3937],[-515,-5064],[709,-1969],[1495,4034],[2105,-396],[-858,-6493],[490,-3640],[1762,-1674],[563,-2901],[-3428,-836],[-809,-3541],[1739,-344],[1174,-4822],[-270,-2656],[-2472,396],[-1273,-1229],[1126,-2265],[1616,393],[366,-2508],[-1321,-984],[-1447,-5756],[2119,1600],[2339,-171],[169,-1780],[-1282,-2675],[-3467,-1358],[-1352,378],[-426,-4297],[682,-3428],[-3941,9472],[-3081,-4768],[-300,-625],[-1437,-3653],[-498,3294],[-3501,-1771],[-1656,-3721],[-3894,-1333],[-1210,-2481],[1267,-3578],[3812,-5737],[-2803,-931],[-2007,-2510],[-2569,-4723],[-4723,2461],[-833,-396],[-5065,-6295],[-1834,-5905],[1713,-4721],[-19129,-14861],[-19189,9506],[-5678,-18993],[-6534,-3114],[-9441,-11511],[-196,-3934],[-1591,-2458],[-2202,-886],[-3939,-5849],[-1374,-8171],[-17580,10849],[43,-754],[-5936,-12938],[45373,-62461],[34103,-47069],[127,-176],[1625,-2243]],[[258318,579176],[-536,131],[-1540,399],[-983,-4557],[-17758,3317],[-13020,4365],[2285,23423],[-1276,1053],[-8983,-21911],[-4545,1590],[-2610,10327],[1909,13475],[-12221,16490],[1584,-33598],[489,-3090],[-26874,8930],[-3611,-8043],[-122,-6590],[1488,799],[-1390,-6605],[-2798,-2643],[-1291,-3885],[-298,-4697],[-1109,-5703],[469,-3270],[1854,-4994],[-622,-2656],[329,-6279],[-386,-3767],[3532,-563],[6280,-4686],[4914,-2832],[-4527,-9855],[-3822,-6010],[-1716,3301],[-258,3801],[2012,5830],[1432,2361],[-1261,2007],[-1062,-223],[-551,-4274],[-681,-271],[-2264,3116],[-1577,-2809],[-36,-1725],[-2281,-3032],[-1102,2372],[-3097,2927],[11,1452],[-1924,2538],[-1466,6704],[-1091,1582],[-1467,-2327],[-3689,1450],[-2182,1818],[-1431,2325],[-1209,-567],[-2699,1734],[-2456,-2942],[-705,5619],[198,7944],[-288,2267],[327,7413],[-516,1522],[-2975,2099]],[[137125,571253],[-2031,3021],[-1983,4661],[-711,5464],[170,14361],[-3729,10355],[-3470,-7725],[-3408,-13553],[-3640,6829],[-4858,10484],[-1941,6902],[-2689,4027],[7,3072],[-11587,101070],[2105,-1435],[6832,-2811],[4108,-247],[1936,578],[10614,5501],[11275,6092],[784,4158],[95,1792],[-18562,11215],[-10996,4725],[1927,2548],[2889,5626],[2792,5453],[1238,6275],[1874,6169],[3416,5930],[5627,-12798],[2909,-4353],[1143,920],[-47,5623],[1769,1287],[7124,10192],[813,-2226],[1004,9373],[4863,2946],[8928,19070],[4602,-8262],[5629,11118],[1370,-2706],[2131,17648],[-8900,17947],[2953,2830],[-128,4018],[-901,4794],[-2829,18926],[4516,2934],[340,2413],[-1894,3244],[-1025,4551],[419,5119],[7465,3517],[348,1681],[730,13743],[845,2473],[5608,1040],[830,1545],[-544,21873],[-479,2473],[744,4373],[-632,3028],[711,4295],[1817,1614],[599,-1421],[3019,177],[2016,-2508],[1101,5213],[1724,-1375],[2164,1306],[1709,-1631],[986,1253],[-545,6049],[2986,-1253],[685,-2940],[359,6473],[-732,6272],[2020,3455],[8870,4777],[2937,2995],[1074,-846],[679,-4919],[1377,-2531],[494,795],[2694,-4599],[2708,-3143],[2008,-3400],[2263,-1280],[5446,-271],[1978,-838],[2425,518],[2923,-625],[2352,-1545],[4006,-7755],[4416,-3146],[527,735],[2389,-2115],[2702,-3689],[4630,-2463],[3956,-3090],[1885,-6566],[1321,-1128],[4436,337],[2730,-1165],[3148,-339],[7438,-3986],[5981,-1279],[956,-939],[2596,-6266],[4152,-10236],[1441,-8247],[896,-10239],[806,-2822],[1867,-1512],[3029,2181],[2509,-5284],[710,-3621],[-57,-5120]],[[604303,719873],[8733,22773],[23177,12108],[3815,16237],[3286,14240],[1885,8133]],[[645199,793364],[11065,-20225],[32299,-59529],[1053,-1489],[3790,844]],[[693406,712965],[-201,-71021],[99,-13757],[78,-13877],[295,-1154],[10827,6255],[963,-7323],[8015,4388],[952,-5277],[21,-634],[13077,-14004],[-3103,-6227],[138,-9553],[27,-1401],[-4153,-3228],[-4831,-1762],[987,-10806],[-1374,516],[-3213,-1593],[204,-1463],[4505,-266],[12,-2151],[-1764,-2529],[2317,-505],[1017,-2134],[1602,-24],[-3721,-4439],[-1507,-6732],[844,-10819],[2160,-43951]],[[718907,460047],[-5596,-9310],[2542,-20713],[-7673,-3953],[-612,3010],[-2592,6657],[-8039,-1343]],[[698781,400434],[-491,-27217],[88,-2308]],[[698378,370909],[276,-3201],[609,-6649],[1055,-6749],[1830,1173],[1250,351],[1366,-13203],[-3052,-249],[1342,-10834],[570,-12007],[98,-7736],[2837,-8505],[-4386,-3569],[-1714,16215],[-6600,3923],[-1425,439],[-5001,-24],[-5325,2858],[-1110,-5995],[-1446,-2529],[474,-3644],[-1112,-2588],[-1517,-7404],[-1125,389],[-3601,-6524],[828,-8088],[-1392,-6719],[464,-4416],[-1132,3163],[-970,-6307],[1482,-3268],[-936,-3687],[827,-5336],[832,-2445],[733,-292],[-2411,-6460]],[[670996,250992],[-280,349],[-1405,427],[-98,30],[-2046,621],[-3335,1257],[-7295,14640],[-5629,11713],[-7088,10875],[-3127,10875],[-6684,7102],[-4572,-830],[-417,-6691],[-4795,8365],[-4352,913],[-8107,10725],[785,2581],[3336,6272],[-834,7527],[-4781,4175]],[[972930,735965],[-1686,5957],[-2038,1006],[-1762,2563],[-1663,-140],[-1985,2600],[-4558,475],[-1093,-851],[-1515,2057],[-3490,-1784],[-3413,3664],[-5428,-980],[-1744,1784],[-1451,6824],[-1028,-2290],[-6568,1949],[165,2161],[-313,598],[-584,-763],[-175,-303],[-704,-593],[-1470,1469],[203,-43],[-318,213],[-245,-277],[-3652,6489],[-3059,1539],[-21,-1820],[216,-873],[94,-563],[-223,-1953],[-1833,-369],[-278,79],[-3025,129],[-1722,4439],[-2549,-1985],[-1848,10308],[-8377,51029],[-1628,-120],[246,2845],[-1547,4215],[-2257,991],[253,1854],[-2578,8475],[-2600,-318]],[[893679,845652],[369,2357],[-770,5622],[1387,9140],[947,97],[781,5314],[-1113,3470],[1898,5056],[324,-3425],[1058,1397],[957,4358],[1299,2327],[194,-3081],[1264,60],[5215,-3675],[2340,-548],[2604,1395],[3297,4949],[964,590],[747,-3493],[1692,709],[707,-2517],[5496,-3373],[-1580,-8999],[2503,9848],[3535,-1376],[387,-2643],[3799,-8049],[2914,-4134],[-1542,-2338],[-2797,-2239],[-2134,-3099],[-6199,-20426],[1934,-5327],[1171,-5632],[1792,-3094],[2909,460],[2333,-1369],[2962,-247],[3067,1463],[1111,2278],[5242,5419],[811,297],[7416,-8802],[-830,-6020],[4149,-4762],[2092,-757],[5828,-8648],[1824,-1621],[2645,-4972],[2786,-2],[600,3470],[399,-3294],[3208,292],[1708,-2623],[-257,-5765],[1105,-3342],[639,-5752],[1239,2031],[3009,-2096],[1009,-3543],[3331,-2013],[4367,-14156],[4586,-17938],[1592,-10716],[-4093,-8058],[-2837,4222],[-4865,7241],[-428,636],[-5095,2461],[-5312,2567],[-1684,813],[-93,134],[-2662,3804]],[[304230,874457],[2259,-9567],[3166,-5675],[4828,-3674],[2384,-181],[4651,-3833],[2292,-1126],[1784,1216],[592,3363],[2014,-1652],[2710,-4412],[1661,-6369],[-313,-9111],[1297,-14689],[469,-2129],[909,-2014],[2907,-1418],[1950,-2666],[2390,-1184],[3116,182],[1461,-2866],[2494,-1337],[2510,-3002],[1755,-3242],[2308,1534],[1977,-6635],[2664,-2617],[3231,-598],[1677,-3365],[893,-3610],[1663,-2389],[2990,112],[1288,-5822],[512,-4804],[2409,-1747],[1679,939],[836,-2534],[68,-6287],[1243,-3148],[2780,-2368],[3474,-788],[3107,4026],[1080,93],[2286,-3062],[2619,801],[2189,4962],[1899,739],[2656,-3537],[1521,-449],[4020,1137],[730,-516],[899,-2095],[1706,-11646],[-32,-2392],[-1250,-5097],[664,-5297],[3444,-3397],[2569,-578],[3949,984],[1524,-2765],[-690,-4038],[315,-1637],[1847,-494],[4006,-2484],[1484,-2070]],[[307320,519661],[-42171,50101],[-6256,8619],[-575,795]],[[365907,359742],[-9065,-11889],[-1403,-950],[-1558,-111],[-2460,1663],[-1677,-1638],[-1802,3638],[-1489,-1341],[-854,3918],[-1839,-2093],[-876,-5258],[-2497,-2792],[328,-18767],[-5555,-4029],[-9589,-2490],[-3489,-1526],[-8022,806],[-4357,1500],[-2338,1450],[-17927,-31688],[-1250,2535],[-2596,-5131],[-295,-1070],[-3572,-3515],[-47259,-91315]],[[234466,189649],[-45787,-90208],[-31320,34406],[-17138,18798],[-27241,29894],[-42,30],[-37662,11030],[-19378,5659],[-8546,2078],[-46827,11516],[-415,6472],[-110,36995],[10390,2989],[67,2035],[2429,6354],[1966,4227],[1552,580],[2791,4547],[1428,4723],[2454,38],[163,3247],[919,2231],[2496,462],[1035,1371],[275,4203],[1815,1252],[410,2502],[1212,1205],[1066,4108],[2405,4500],[-128,4143],[1321,13505],[556,1936],[2653,3459],[47,4616],[-3029,3954],[-452,2217],[316,4771],[-2309,3384],[-2951,17676],[1629,2647],[3079,2929],[11411,-38601],[734,4137],[-1337,4998],[-1298,7783],[-2620,6478],[-143,6414],[1673,-980],[6622,2388],[3162,-2394],[2409,-3558],[-2270,-1939],[-1857,-3236],[71,-3693],[-1090,-3176],[416,-1605],[2648,-1913],[592,-3010],[1078,-1038],[973,-4734],[1910,-1758],[1459,-3092],[-1289,-5230],[603,-1983],[997,-6872],[1718,-5926],[2557,3489],[1588,-1626],[2760,958],[6822,-9407],[3063,5073],[-249,5946],[-2013,305],[-5449,4162],[-1496,2899],[-994,4067],[-653,6129],[-775,2151],[376,4912],[2095,6504],[336,4680],[-1053,965],[-44,3075],[3758,1783],[3856,5658],[3374,3223],[902,-11657],[262,-733],[30689,13523],[-2557,8341],[5421,11436],[225,1016],[-1877,-414],[-5114,-3271],[-10017,-1351],[1938,8717],[-440,10089],[2176,11081],[1191,7538],[1194,4837],[-1453,9433],[-259,7093],[-1747,7299],[-473,7646],[-1996,9089],[178,5731],[-638,11085],[2342,-582],[3283,-2576],[1524,1792],[3642,576],[6775,-7188],[-64,10991],[-4693,20110],[-5431,14019],[-1081,3466],[-5231,20994],[3206,408],[7549,5512],[-943,12149],[1972,2323],[2168,455],[1705,-1382],[5423,-326],[711,-1711],[2811,-3195],[1113,62],[3636,5396],[1919,-389],[515,5396],[1449,-1225],[2047,496],[3137,4618]],[[914147,453265],[-5168,-7675],[2502,-7523],[-163,-8111],[-51,-2495],[-1522,-9367],[-558,-3429],[-2084,-7942],[-5420,-8778],[-5212,-5853],[-7296,-2924],[-10631,-9616],[-6463,-7525],[-3126,-5434],[-209,-6273],[-9290,-13217],[-5718,-6016],[-3250,-8691],[-503,-1344],[-2005,-4332],[-3414,-7377],[-1166,-1574],[-4110,-5549],[-1873,-160],[-2858,-244],[-2918,0],[-5212,-8782],[-4758,-5072],[-1912,-2039],[-1901,-2861],[-3035,-4567],[-1509,-9354],[-1893,-7896],[-3336,-4184],[-1250,-9620],[-7089,-1255],[-8963,-4184],[-2976,-4531]],[[787807,247471],[-2437,2933],[-553,-4195],[-4893,-3356],[-844,11180],[-1880,-834],[-1320,-2956],[-2831,-862],[-796,-3026],[-2473,-3399],[-884,1029],[1031,1605],[234,5834],[-345,3118],[1266,838],[-2665,593],[-1814,7381],[805,5140],[-1119,-1772],[-1062,-5744],[-3681,-2931],[-1046,4136],[-168,7510],[-45,-4179],[387,-7572],[-2204,-2774],[-2301,3958],[-3631,2153],[-1728,3201],[-1739,862],[-210,6367],[-2506,9951],[-2173,2269],[-350,3234],[622,3640],[-426,4800],[-1052,1403],[328,4326],[4515,5024],[-614,2669],[-270,6560],[-1330,-733],[-2359,226],[-1257,1212],[-5411,8365],[-1795,-3874],[-574,-4029],[-2691,2649],[-1609,-1523],[-2135,565],[-2859,5202],[-3691,6253],[-2098,13],[-1811,-2587],[-1489,483],[-1242,6898],[-1148,4592],[-2257,2043],[-2357,11324],[-722,15480],[-9722,2765]],[[460657,46865],[-7482,-5305],[-10268,-11872],[-10709,-1840],[-10864,-7071],[-4520,-11774],[-2192,-7119],[-1964,-1884],[-100,6992],[-903,1184],[-21293,6341],[-1316,-1966],[-4703,9150],[-1869,6033],[394,36691],[-38,5337],[-16479,1027],[-4338,-3102],[-10482,-254],[-2427,-2757],[-1295,4704],[-1077,941],[171,2566],[-461,14687],[-11,345],[-896,28440],[-952,5715],[-3107,-2028],[-2148,-3238],[-2431,906],[-12134,11722],[-2068,25755],[-7403,2759],[-80826,31699]],[[693406,712965],[1351,303],[22303,5359],[34940,7839],[95509,20884],[2599,556],[26070,5566],[1346,6317],[12950,61782],[2127,8227],[-623,3488],[260,4979],[1441,7387]],[[972930,735965],[-5999,8576],[-13551,2504],[-10005,3337],[-8339,-10011],[4587,-12517],[8754,-2920],[9589,-7510],[8756,-22532],[7296,-4173],[2085,-8346],[-4170,-19616],[-2919,-17947],[-6878,-419],[-2293,7097],[-417,9599],[-5798,2832],[-3583,-8258],[-13508,10650],[-9631,13140],[-7653,1877],[-2561,628],[-6462,-2089],[-3752,-5842],[-2919,-2087],[-209,-10851],[2502,-9599],[-3960,1251],[-2294,-2503],[626,-6679],[-2711,-3756],[-2084,2087],[-1876,-7515],[-5212,-2503],[-2918,-5011],[-6045,-3756],[-4586,-836],[150,-10517]],[[722161,558019],[2798,1577],[-17,1665],[-1204,578],[-40,-1923],[-2068,254],[531,-2151]],[[465762,660397],[1764,7351],[1095,2484],[2120,-34],[6673,-11780],[2565,1115],[415,4837],[-2806,4504],[-7847,5948],[-958,3898],[-2025,4701],[23,9296],[1459,-617],[1229,-6491],[905,-146],[2006,4478],[-50,4033],[953,1822],[-49,3737],[1590,1135],[-735,3885],[-391,-2068],[-1223,591],[-50,4919],[1443,1182],[1224,-1180],[2618,2117],[3351,1280],[1003,1378],[586,5907],[1272,4673],[1592,2411],[3547,1036],[1076,4575],[-2734,5189],[799,7181],[2114,2078],[1620,1640],[-724,3788],[783,4622],[1273,2460],[171,6395],[2348,6298],[1298,1279],[500,2845],[-3510,4523],[-6783,-7388],[-6968,35335],[-1017,4183],[-2419,4405],[-11864,19324],[-1212,7315],[637,10660],[-754,9089],[-1299,6184],[18907,17893],[4933,-2456],[2793,-4918],[4212,-737],[-270,2606],[1984,5559],[2032,-1474],[1226,836],[2204,5411],[4115,-3542],[1298,589],[1,22925],[-6541,1230],[-270,2166],[2743,72168],[1862,-393],[2452,1128],[-325,12229],[11267,-14098],[73022,-91398],[20,-43],[4731,-8666],[9471,-17365],[2838,-5191],[3196,-5866],[34902,-64008]],[[787807,247471],[-1884,-2869],[-1185,-1805],[-4358,-4373],[-5648,-5668],[-7669,-1184],[-461,-71],[-5866,-16455],[-2889,-5301],[-3246,-11909],[-17183,-6504],[-4325,-5250],[-4264,-5177],[-375,-455],[-2292,-10464],[-1889,6127],[-822,2663],[-1516,103],[-2627,179],[-7948,6414],[-13017,21020],[-1095,1768],[-2971,6623],[-3137,6996],[-4010,6353],[-2895,4588],[-4977,7886],[-8262,10286]]],"bbox":[-77.631562,34.884673,-76.491383,35.350053],"transform":{"scale":[0.0000011401801401801436,4.6538046538046867e-7],"translate":[-77.631562,34.884673]}}
