{"type":"Topology","objects":{"foo":{"type":"GeometryCollection","geometries":[{"type":"MultiPolygon","arcs":[[[0,1,2,3],[4]]],"properties":{"postal_code":"97910","realtor_list_price":"NA","realtor_list_price_yoy":"NA","realtor_list_price_base":"NA","realtor_active_listings":2.333,"realtor_active_listings_yoy":2.5,"realtor_active_listings_base":0.5174,"realtor_new_listings":0,"realtor_new_listings_yoy":"NaN","realtor_new_listings_base":"NA","realtor_days_on_market":"NA","realtor_days_on_market_yoy":"NA","realtor_days_on_market_base":"NA","zhvi":"NA","zhvi_yoy":"NA","zhvi_base":"NA","zori":"NA","zori_yoy":"NA","zori_base":"NA"}},{"type":"MultiPolygon","arcs":[[[5,6,7,8,9,10]]],"properties":{"postal_code":"97918","realtor_list_price":441571.667,"realtor_list_price_yoy":0.2715,"realtor_list_price_base":0.9698,"realtor_active_listings":13,"realtor_active_listings_yoy":-0.2353,"realtor_active_listings_base":-0.2018,"realtor_new_listings":4,"realtor_new_listings_yoy":-0.1429,"realtor_new_listings_base":-0.2561,"realtor_days_on_market":71.333,"realtor_days_on_market_yoy":0.2269,"realtor_days_on_market_base":0.4492,"zhvi":343703.634,"zhvi_yoy":0.0396,"zhvi_base":0.978,"zori":"NA","zori_yoy":"NA","zori_base":"NA"}},{"type":"MultiPolygon","arcs":[[[11,12,13,14,15],[16]]],"properties":{"postal_code":"83607","realtor_list_price":656214.495,"realtor_list_price_yoy":0.2167,"realtor_list_price_base":1.3559,"realtor_active_listings":129.667,"realtor_active_listings_yoy":-0.0932,"realtor_active_listings_base":-0.0703,"realtor_new_listings":72.667,"realtor_new_listings_yoy":-0.084,"realtor_new_listings_base":-0.1098,"realtor_days_on_market":48.899,"realtor_days_on_market_yoy":-0.0315,"realtor_days_on_market_base":0.2459,"zhvi":453242.742,"zhvi_yoy":0.0187,"zhvi_base":0.9014,"zori":2022.767,"zori_yoy":0.0329,"zori_base":"NA"}},{"type":"MultiPolygon","arcs":[[[17,18,-14,19],[20]]],"properties":{"postal_code":"83617","realtor_list_price":720703.704,"realtor_list_price_yoy":0.2507,"realtor_list_price_base":1.8104,"realtor_active_listings":100,"realtor_active_listings_yoy":-0.0536,"realtor_active_listings_base":0.6072,"realtor_new_listings":36,"realtor_new_listings_yoy":0.1489,"realtor_new_listings_base":-0.087,"realtor_days_on_market":70.667,"realtor_days_on_market_yoy":0.0334,"realtor_days_on_market_base":0.8247,"zhvi":462824.205,"zhvi_yoy":0.035,"zhvi_base":1.1411,"zori":"NA","zori_yoy":"NA","zori_base":"NA"}},{"type":"MultiPolygon","arcs":[[[-9,21,22,23,24,-2,25]]],"properties":{"postal_code":"97913","realtor_list_price":354900,"realtor_list_price_yoy":0.1149,"realtor_list_price_base":1.1701,"realtor_active_listings":8.667,"realtor_active_listings_yoy":-0.2353,"realtor_active_listings_base":-0.3106,"realtor_new_listings":0.667,"realtor_new_listings_yoy":-0.75,"realtor_new_listings_base":-0.8603,"realtor_days_on_market":72,"realtor_days_on_market_yoy":0.0992,"realtor_days_on_market_base":0.0995,"zhvi":279818.101,"zhvi_yoy":0.0312,"zhvi_base":1.185,"zori":"NA","zori_yoy":"NA","zori_base":"NA"}},{"type":"MultiPolygon","arcs":[[[-6,26]]],"properties":{"postal_code":"97903","realtor_list_price":"NA","realtor_list_price_yoy":"NA","realtor_list_price_base":"NA","realtor_active_listings":0.667,"realtor_active_listings_yoy":-0.5,"realtor_active_listings_base":"NA","realtor_new_listings":0,"realtor_new_listings_yoy":"NaN","realtor_new_listings_base":"NA","realtor_days_on_market":"NA","realtor_days_on_market_yoy":"NA","realtor_days_on_market_base":"NA","zhvi":"NA","zhvi_yoy":"NA","zhvi_base":"NA","zori":"NA","zori_yoy":"NA","zori_base":"NA"}},{"type":"MultiPolygon","arcs":[[[27,28,-22,-8,29]]],"properties":{"postal_code":"97914","realtor_list_price":353697.727,"realtor_list_price_yoy":-0.0486,"realtor_list_price_base":0.9139,"realtor_active_listings":64.333,"realtor_active_listings_yoy":-0.1857,"realtor_active_listings_base":0.3165,"realtor_new_listings":14.667,"realtor_new_listings_yoy":-0.1852,"realtor_new_listings_base":-0.356,"realtor_days_on_market":72,"realtor_days_on_market_yoy":0.153,"realtor_days_on_market_base":0.2832,"zhvi":307586.847,"zhvi_yoy":0.0259,"zhvi_base":1.0342,"zori":"NA","zori_yoy":"NA","zori_base":"NA"}},{"type":"MultiPolygon","arcs":[[[-10,-26,-1,30]]],"properties":{"postal_code":"97906","realtor_list_price":"NA","realtor_list_price_yoy":"NA","realtor_list_price_base":"NA","realtor_active_listings":1,"realtor_active_listings_yoy":0,"realtor_active_listings_base":"NA","realtor_new_listings":0,"realtor_new_listings_yoy":"NaN","realtor_new_listings_base":"NA","realtor_days_on_market":"NA","realtor_days_on_market_yoy":"NA","realtor_days_on_market_base":"NA","zhvi":"NA","zhvi_yoy":"NA","zhvi_base":"NA","zori":"NA","zori_yoy":"NA","zori_base":"NA"}},{"type":"MultiPolygon","arcs":[[[31,-18,32,33,-28]]],"properties":{"postal_code":"83661","realtor_list_price":372573.387,"realtor_list_price_yoy":-0.0402,"realtor_list_price_base":1.0091,"realtor_active_listings":53.333,"realtor_active_listings_yoy":0.0256,"realtor_active_listings_base":0.4177,"realtor_new_listings":20.667,"realtor_new_listings_yoy":-0.0606,"realtor_new_listings_base":-0.1389,"realtor_days_on_market":49.355,"realtor_days_on_market_yoy":0.0701,"realtor_days_on_market_base":0.3475,"zhvi":372842.161,"zhvi_yoy":0.0501,"zhvi_base":1.277,"zori":1408.333,"zori_yoy":"NA","zori_base":"NA"}},{"type":"MultiPolygon","arcs":[[[-33,-20,-13,34]]],"properties":{"postal_code":"83655","realtor_list_price":578630,"realtor_list_price_yoy":-0.0098,"realtor_list_price_base":0.9341,"realtor_active_listings":19,"realtor_active_listings_yoy":-0.4124,"realtor_active_listings_base":0.1143,"realtor_new_listings":3.333,"realtor_new_listings_yoy":-0.2857,"realtor_new_listings_base":-0.656,"realtor_days_on_market":60,"realtor_days_on_market_yoy":-0.021,"realtor_days_on_market_base":0.5521,"zhvi":498092.66,"zhvi_yoy":0.0424,"zhvi_base":1.2875,"zori":"NA","zori_yoy":"NA","zori_base":"NA"}},{"type":"MultiPolygon","arcs":[[[35,36,-3,-25]]],"properties":{"postal_code":"97901","realtor_list_price":"NA","realtor_list_price_yoy":"NA","realtor_list_price_base":"NA","realtor_active_listings":2.667,"realtor_active_listings_yoy":0.6,"realtor_active_listings_base":0.1325,"realtor_new_listings":0,"realtor_new_listings_yoy":"NaN","realtor_new_listings_base":"NA","realtor_days_on_market":"NA","realtor_days_on_market_yoy":"NA","realtor_days_on_market_base":"NA","zhvi":481766.223,"zhvi_yoy":0.0742,"zhvi_base":"NA","zori":"NA","zori_yoy":"NA","zori_base":"NA"}},{"type":"MultiPolygon","arcs":[[[37,-16,38,-36,-24]]],"properties":{"postal_code":"83660","realtor_list_price":514112.5,"realtor_list_price_yoy":-0.0288,"realtor_list_price_base":0.5876,"realtor_active_listings":21,"realtor_active_listings_yoy":-0.137,"realtor_active_listings_base":0.1122,"realtor_new_listings":5.333,"realtor_new_listings_yoy":-0.5294,"realtor_new_listings_base":-0.3423,"realtor_days_on_market":65.25,"realtor_days_on_market_yoy":0.45,"realtor_days_on_market_base":0.28,"zhvi":511961.832,"zhvi_yoy":0.0442,"zhvi_base":1.2697,"zori":"NA","zori_yoy":"NA","zori_base":"NA"}},{"type":"MultiPolygon","arcs":[[[-29,-34,-35,-12,-38,-23]]],"properties":{"postal_code":"83619","realtor_list_price":465085,"realtor_list_price_yoy":-0.068,"realtor_list_price_base":0.9443,"realtor_active_listings":33,"realtor_active_listings_yoy":-0.2774,"realtor_active_listings_base":-0.0332,"realtor_new_listings":10,"realtor_new_listings_yoy":-0.25,"realtor_new_listings_base":-0.286,"realtor_days_on_market":56.8,"realtor_days_on_market_yoy":-0.0824,"realtor_days_on_market_base":0.2463,"zhvi":413520.241,"zhvi_yoy":0.0236,"zhvi_base":1.0578,"zori":"NA","zori_yoy":"NA","zori_base":"NA"}}]}},"arcs":[[[1791,373209],[2349,-2002],[3646,-2710],[9573,-6145],[1691,-998],[1349,-985],[119,-662],[-521,-643],[1119,581],[-164,1571],[227,476],[73,3523],[485,-1034],[1024,-1392],[1389,-961],[975,-359],[3848,97],[1977,-339],[1910,815],[820,1134],[1063,91],[2198,-348],[4192,-848],[2124,-571],[2102,-777],[2198,-473],[4136,-1486],[3051,656],[1341,1131],[2088,1183],[-323,1050],[-1505,1665],[-1914,1441],[-665,1317],[110,462],[1267,915],[503,216],[2548,-623],[6615,444],[2908,-961],[1828,-920],[1238,-908],[502,-884],[-233,-1225],[1184,-546],[3187,-1193],[3975,-1373],[3946,-733],[2874,-429],[1659,-22],[1715,632],[2971,677],[999,-296],[2505,587],[2729,-253],[2431,-410],[5039,1068],[1161,133],[4463,-718],[2592,-952],[178,499],[1007,953],[842,70],[1059,655],[2190,908],[499,394],[1408,496],[2076,1024],[3700,1299],[4116,1784],[1057,604],[2260,968],[1314,774],[5651,2444],[6700,3349],[3165,1299],[2226,779],[2499,1079],[1150,655],[3566,1091],[2316,559],[2336,289],[2055,702],[2056,1302],[6875,4825],[2151,1233],[393,1919],[2224,1339],[6741,3380],[4223,2321],[3209,322],[1961,439],[5317,533],[1021,-69],[2040,329],[2944,1],[3218,-387],[1421,69],[439,500],[1611,311],[2358,-633],[787,-43],[1713,-742],[3757,-323],[131,1717],[-310,1578],[-855,1272],[-2536,2455],[899,833],[-1449,1592],[2,598],[1371,1371],[37,1101],[907,599],[1433,1358],[86,268],[-642,1696],[231,491],[-265,1251],[698,774],[-97,1014],[244,968],[1253,1343],[826,323],[1255,84],[304,2002],[784,605],[1374,2601],[2402,823],[1079,577],[1827,-71],[1378,959],[2921,331],[2109,-93],[3235,-1120],[836,-150],[1978,1145],[1492,343],[604,362],[2778,1068],[672,2064],[715,970],[1581,919],[-441,813],[240,1174],[-650,1937],[161,1580],[506,555],[1170,454],[275,1592],[582,6355],[133,589],[310,4210],[393,1394],[477,778],[-474,940],[1272,266],[658,668],[115,1130],[-339,2001],[-464,330],[414,204],[1881,-519],[3994,-100],[651,617],[2016,1113],[1352,110],[1351,-541],[2129,237],[594,-192],[1579,-1189],[3346,-801],[767,124],[823,-693],[1598,-274],[3257,-769],[2334,-265],[1314,459],[252,1039],[-1278,1049],[-184,629],[-843,1028],[-326,870],[20,2098],[678,900],[1040,62],[1012,619],[2672,1129],[1197,790],[1214,1498],[1671,1611],[845,1168],[582,158],[1836,-191],[1920,221],[1397,-23],[1502,-247],[2581,-138],[1670,134],[3458,-66],[874,-268],[576,183],[252,644],[1225,958],[671,1332],[-227,828],[122,1135],[1064,1462],[1681,1597],[-134,1210],[24,3317],[-212,1295],[-115,2948],[-849,2866],[137,1628],[-481,798],[-293,2185],[152,821],[-128,2088],[160,673],[178,3066],[-276,2912],[2068,1471],[-82,2013],[204,4076],[-97,2904],[-1839,2051],[816,148],[6077,-301],[4904,-85],[297,4629],[6624,-28],[1073,225],[2124,-21],[1414,-187],[1340,68],[1007,1070],[2460,1000],[2113,1297],[1101,1300],[104,1470],[-287,1222],[364,1557],[-276,2184],[-503,689],[-125,1001],[1086,1064],[990,639],[1243,1891],[1433,1670],[3126,1854],[599,190],[560,753],[-5,548],[579,979],[-81,1319],[197,584],[1193,1318],[1909,-1786],[1150,-438],[2244,-316],[2874,-215]],[[366218,547326],[242,-25612],[2118,552],[1524,643],[1004,94],[870,494],[2148,669],[1332,149],[1316,-202],[858,278],[847,-134],[958,-1274],[2099,-510],[667,-829],[935,-597],[-26,-1505],[1889,-783],[521,-677],[810,-147],[1292,-969],[1086,-487],[1235,-864],[47087,4],[35,-20696],[3843,505],[1880,525],[3955,1284],[1219,-68],[2751,-1118],[1664,-58],[1059,299],[1823,1345],[2484,3370],[1579,585],[1842,994],[794,1505],[-917,1504],[-245,933],[297,1066],[5236,2130],[476,501],[193,410],[-415,3911],[276,1280],[838,1201],[2632,2071],[1475,1439],[367,1006],[-141,1619],[-2155,1894],[-229,461],[62,3295],[-496,0],[204,620],[956,936],[751,3858],[-437,1313],[-884,1310],[-5563,5552],[-1972,1825],[-1469,1093],[-2745,1560],[-760,2703],[-622,2855],[-1579,2331],[-666,608],[-1981,570],[-3402,-600],[-287,457],[132,750],[2045,1998],[855,1167],[1069,2956],[183,2462],[372,2296],[602,783],[748,401],[2297,654],[1545,619],[556,752],[153,933],[-1048,1096],[-1869,877],[-3815,376],[-2104,875],[-243,610],[1301,1383],[1974,878],[1693,1297],[435,1026],[148,1346],[-315,2567],[-338,885],[-1852,2685],[-1123,2716],[-34,1218],[-588,2150],[-52,725],[-31,432],[-1372,1351],[-1060,2078],[-1081,1228],[-275,299],[-81,775],[838,2471],[515,769],[854,616],[580,823],[-552,3959],[-569,1773],[-523,640],[23,1049],[710,487],[930,101],[1535,774],[56,660],[127,1056],[832,1983],[-1273,486],[72,417],[992,479],[2485,282],[925,-250],[500,464],[105,1237],[-1349,1359],[162,447],[992,837],[1775,644],[3120,893],[587,370],[74,687],[-1782,1997],[183,586],[787,594],[3366,749],[2151,90],[1028,373],[607,909],[-1078,214],[-1819,-33],[-334,751],[937,1151],[605,333],[1428,132],[583,-544],[1664,-205],[2514,326],[2557,162],[1505,938],[352,638],[1846,2011],[1114,296],[1443,670],[2362,683],[3257,177],[1301,-533],[378,-733],[1767,-414],[2664,1182],[2582,1456],[11360,5823],[1833,1125],[903,1295],[-498,1102],[-3993,575],[-1638,862],[-278,316],[-141,596],[980,-1172],[825,256],[557,-421],[1249,557],[863,2],[3271,-1072],[542,-699],[570,-1891],[-362,-292],[468,-1966],[-1584,-313],[-230,-537],[-838,-546],[-46,-854],[-1013,-218],[-389,-670],[-1223,-1222],[-1011,-168],[-796,232],[-2188,-1316],[-261,-601],[-792,-118],[-21,-575],[-1333,-699],[289,-653],[-719,-122],[70,-953],[-728,204],[-785,-1822],[114,-544],[1139,-971],[102,-882],[442,462],[-93,1126],[690,559],[-467,710],[603,-113],[948,-1181],[489,128],[-571,-803],[1017,-1705],[76,-499],[2019,-1535],[1687,-503],[-224,-416],[956,-687],[-442,-720],[480,-1338],[-31,-699],[731,-981],[194,-680],[1065,-23],[754,-1027],[452,-185],[3368,403],[690,599],[998,-275],[753,171],[708,653],[1643,2565],[685,78],[491,-708],[2376,394],[1836,1256],[627,1599],[1259,2723],[259,1091]],[[526810,632003],[1323,-223],[838,-467],[557,-1124],[-98,-528],[970,-266],[1749,649],[1369,-33],[845,-1216],[1213,-181],[2031,564],[1807,109],[1077,272],[225,-474],[1868,-418],[2660,-1814],[987,-304],[3212,173],[2074,441],[1928,-345],[1091,70],[3072,-675],[1842,-100],[2348,153],[606,232],[3338,-66],[1921,-1246],[4290,505],[869,-877],[690,-1950],[171,-2774],[90,-2151],[-241,-4880],[-303,-882],[-577,-616],[496,-1334],[-702,-746],[237,-1925],[-389,-1139],[-492,-541],[-183,-1292],[186,-711],[-1343,-1538],[-2374,-536],[-708,-511],[-2071,-750],[-2095,-269],[-1031,-580],[-875,-860],[190,-1482],[-1407,-669],[-2673,-1735],[-511,-933],[1048,-583],[840,-149],[-232,-604],[-718,-522],[534,-788],[1506,-522],[658,-1114],[1722,-1599],[-1840,-1592],[603,-666],[-800,-841],[195,-3302],[1897,-2545],[2003,-1301],[312,-1325],[-196,-642],[878,-819],[1308,-730],[-1034,-2178],[324,-1143],[1085,-509],[458,-1063],[-122,-2249],[-669,-781],[355,-935],[669,-589],[-573,-2904],[205,-647],[708,61],[612,-562],[-243,-382],[692,-624],[-951,-15],[-852,-563],[343,-852],[-161,-919],[531,-555],[-148,-1700],[642,-1059],[1197,386],[1641,-498],[566,-558],[106,-904],[-837,-1020],[252,-772],[-1036,-1094],[45029,-103]],[[615414,549635],[4,-22134],[5,-25812],[2,-13212],[12,-63669],[1385,583],[3117,932],[1745,-517],[62,-433],[2348,-1534],[686,-738],[189,-2411],[1895,-426],[1388,789],[3832,1279],[1992,1404],[1451,749],[558,603],[2770,1206],[1251,-93],[2850,-645],[2125,-747],[1956,-897],[1720,-231],[1503,233],[755,523],[781,1130],[1799,121],[749,329],[1016,1240],[1614,147],[2356,-16],[1888,939],[1173,-42],[1237,-496],[977,1034],[2544,1834],[1763,707],[1778,117],[956,914],[-1115,281],[-488,843],[-128,2279],[-345,1433],[109,733],[1168,74],[502,893],[1447,53],[1482,429],[776,888],[811,172],[-208,-665],[654,-478],[3396,-650],[447,-333],[122,-948],[1718,-1183],[282,-928],[915,-477],[756,-2080],[777,-577],[733,-1936],[758,-681],[1929,-3825],[4009,-3577],[465,-1623],[-677,-1590],[-781,-350],[1274,206],[1512,-820],[1412,505],[1395,-195],[-1,-9380],[25583,-18],[-1740,-887],[-1113,-282],[-2302,-2303],[-2206,-1489],[142,-1794],[371,-985],[20,-1519],[-2114,-1679],[3071,-475],[-748,-1508],[558,-1195],[1529,-883],[1020,-1642],[1226,-624],[1387,-1174],[4411,-821],[1434,364],[2087,-209],[827,-1236],[1640,-749],[1355,114],[669,696],[1035,32],[876,862],[1386,416],[675,-237],[-453,-51443],[-866,-1088],[-1798,-1652],[683,-603],[-430,-1154],[-1415,-1434],[317,-1195],[2066,-1684],[-367,-634],[159,-780],[-334,-706],[1048,-1404],[762,-582],[428,-1123],[979,-951],[770,-90],[-893,-1384],[818,-3126],[-480,-326],[-108,-1759],[736,-359],[-119,-828],[369,-2388],[-305,-291],[-2475,-1180],[-770,-170],[-2706,260],[-736,-241],[-1536,269],[-980,-142],[-2287,-1427],[-65,-419],[983,-1598],[675,-411],[-912,-205],[1552,-621],[2140,-1093],[1420,-69],[1992,637],[731,-104],[726,-443],[755,-1215],[407,-1492],[1992,-1856],[5509,-4008],[1135,-383],[3145,-392],[437,-715],[-415,-448],[750,-469],[1082,-259],[1539,123],[1616,-720],[2246,-322],[2153,-137],[1574,244],[437,936],[706,255],[1049,-135],[1716,-1145],[1425,-541],[1064,72],[1491,-431],[2598,-2687],[1553,-2503],[843,-625],[901,-2842],[1998,-1089],[386,-508],[1368,-705],[524,-638],[3426,-1559],[1080,-288],[1434,-831],[3514,-1172],[1121,-532],[1515,-1183],[2609,-250],[3641,-76],[1297,-859],[653,-106],[581,846],[1725,848],[2851,-285],[2474,-642],[1371,-132],[2583,900],[-332,645],[758,329],[955,-596],[2235,269],[1802,1029],[54,1006],[2198,994],[1085,124],[251,606],[1820,136],[-914,661],[277,411],[224,589],[1446,1071],[1787,2381],[1165,554],[2227,639],[2168,-359],[2206,-176],[4240,335],[-987,-1218],[-79,-748],[1286,-800],[1904,-654],[730,-42],[159,-1205],[-475,-791],[318,-2348],[-269,-1695],[365,-758],[-729,-2339],[-62,-1788],[-1046,-1372],[-2933,-1924],[-1395,-489],[-2616,-1529],[-824,-187],[-1570,31],[-2824,986],[-1650,966],[-2009,555],[-6742,7],[-1003,-1523],[-2162,-4517],[-849,-1572],[-920,-1246],[-1543,-1215],[-1260,-717],[-542,-1587],[396,-668],[-781,-1596],[-65,-1334],[-824,-887],[482,-899],[-47142,-67],[-118,-14722],[-1048,1807],[-1157,743],[-369,599],[-183,2008],[-481,1143],[-1099,554],[122,579],[-378,1505],[-601,432],[-785,2483],[-984,1297],[2,1893],[-1262,822],[-1452,1340],[-2,1404],[-772,1026],[-512,1721],[-2167,1897],[278,830],[-2986,1518],[-559,544],[812,965],[-3852,547],[-1730,-374],[-3361,-415],[-856,384],[-2458,645],[-1871,-83],[-1157,593],[-1141,977],[-2109,1465],[-698,665],[-698,-769],[-508,447],[-317,1601],[-1602,124],[-2585,998],[-1555,353],[428,406],[286,1310],[-588,2172],[-555,821],[-842,2058],[-1174,1039],[127,738],[-905,2577],[-508,644],[-1588,1029],[-1253,1829],[-985,572],[-1476,20],[-2254,-458],[-1745,-645],[-1157,-655],[-3045,-832],[-2603,165],[-1413,623],[-1665,-801],[-2381,-11],[-2729,345],[-855,654],[-1570,156],[-1857,500],[-541,-457],[-602,229],[-1619,-582],[-2174,157],[-1635,395],[-3062,-529],[-1698,32],[-3158,-1777],[-1207,30],[-1479,-874],[-1954,-616],[-1480,488],[-1995,4149],[-1201,1335],[-840,29],[-3604,-736],[-1801,-606],[-918,-1170],[66,-677],[-476,-773],[-1912,-1484],[-928,-1490],[-944,-593],[-886,-2228],[149,-731],[-688,-2036],[-251,-1429],[819,-1717],[122,-1828],[523,-1427],[-213,-696],[586,-1123],[1901,-4756],[1260,-2131],[331,-968],[-276,-509],[-404,1596],[-1475,2224],[-1302,3554],[-888,1851],[78,1309],[-365,1112],[-572,3046],[-429,789],[31,2038],[-3251,-2018],[-1919,-291],[-1348,-583],[-872,-10],[-1078,-1124],[96,-1881],[-1189,-115],[-1173,-582],[-697,-758],[605,-1580],[2017,-2990],[-2343,1906],[-495,212],[-1598,-545],[-1194,-686],[-1367,9],[-347,843],[-1375,1236],[-191,1008],[-1517,1701],[-163,1063],[-1090,1415],[-1472,796],[-840,1402],[-465,315],[-238,1121],[503,1049],[-528,974],[1136,1718],[-1894,1732],[-255,880],[-1012,335],[-1375,-725],[-1425,120],[-1286,928],[-22,1465],[-555,758],[424,1320],[1033,1666],[-540,811],[77,1611],[-1409,829],[-1145,738],[46,-20618],[-26,-126],[-14,-70],[-171,-82764],[18,-33015],[28,-55330],[9,-17050],[4,-6535],[215,-9708],[-5,-12239],[-1,-2654],[-567,159],[-1236,1117],[-1185,1519],[-1523,1415],[-981,165],[-1161,741],[-1701,264],[-1751,707],[-1660,1445],[-1455,646],[-1243,759],[-1501,1451],[144,123],[-1177,2041],[1438,1981],[1838,1223],[-65,1258],[285,811],[-420,530],[-1125,713],[-2061,589],[-1526,855],[-1907,824],[-1520,931],[-3760,3042],[-545,254],[-1643,157],[-3110,-64],[-3063,441],[-3316,592],[-2338,2452],[-2601,1092],[-1266,954],[-1152,397],[-889,1353],[-533,1707],[-962,828],[-721,284],[-2957,651],[-740,35],[-2966,823],[-1446,1036],[-938,2358],[-1741,857],[-2101,2215],[-1401,803],[-959,1023],[-762,1142],[-868,298],[-1395,47],[-2407,678],[-602,1508],[-704,458],[-961,1806],[-456,435],[-1706,-106],[-1808,967],[-2126,467],[-1958,747],[-1445,380],[-1598,-106],[-2920,-1107],[-1433,233],[-2126,-594],[-473,92],[-638,594],[-1419,659],[-550,588],[290,1264],[-804,684],[-1409,319],[-531,-214],[-2902,827],[-1474,24],[-255,433],[1095,1027],[1403,566],[5,1214],[475,899],[123,1105],[-148,236],[-2768,1381],[-1277,1390],[128,1008],[-1022,144],[-940,873],[-1674,830],[-1423,2],[-561,541],[-2514,-632],[-2173,-165],[-1151,259],[-560,-347],[-1904,-645],[-1785,-1958],[-1234,-516],[-2799,-458],[-1238,-838],[-1000,-281],[-648,-699],[-935,-341],[-1208,-1192],[-1034,-331],[-515,-659],[-920,-356],[-1893,-137],[-231,-851],[-488,-481],[-1015,255],[-575,-537],[-803,-19],[-1571,-644],[-291,-760],[-553,199],[-548,804],[-537,60],[-1345,-1198],[-923,220],[-1090,-92],[-204,-1539],[521,-390],[-234,-1644],[-421,-785],[204,-1799],[415,-326],[3829,442],[3269,-58],[2168,-135],[-45,-1552],[384,-1067],[614,-546],[-1861,-299],[-1424,-3297],[-1500,-3000],[-601,-2405],[232,-523],[-67,-1142],[-663,-1617],[-1791,-1796],[-2801,-2123],[-1384,-1524],[-674,-1536],[-455,-469],[-3374,768],[-1252,425],[-3458,-254],[-3531,-945],[-3180,-1068],[-3207,-602],[-487,-514],[668,-435],[-1057,-556],[-3494,308],[-1120,-70],[-2896,-650],[-4180,-800],[-1069,180],[-232,721],[-945,-256],[-1860,349],[-1095,-877],[-7953,967],[-1127,-236],[-2200,194],[-4337,184],[-2491,-1293],[-1252,56],[-1850,-245],[-2619,68],[3042,2712],[2088,2201],[4183,7631],[654,1870],[-355,428],[448,362],[-117,1194],[227,644],[-554,837],[461,1253],[80,1088],[981,1629],[-2205,883],[-1590,3800],[-1476,436],[-1462,3257],[159,882],[1424,2069],[2796,2989],[1462,1912],[10047,7541],[1289,760],[1165,404],[7897,-2287],[6191,-1348],[2676,951],[2373,1538],[1343,1354],[3772,1888],[2466,1133],[2230,439],[2940,286],[2082,65],[1591,681],[529,799],[2011,1235],[3340,1118],[3771,768],[-1652,1090],[-867,288],[-604,681],[-808,402],[-730,907],[-1183,625],[-1318,1953],[-1841,1631],[-1224,1790],[-283,772],[-648,8788],[-161,546],[268,2032],[42,3099],[345,2751],[250,1120],[851,579],[353,1764],[-286,1478],[-339,215],[-625,-675],[-4030,-1819],[-4641,-1086],[-680,-351],[-2011,-481],[-1841,-1079],[-1260,-317],[-1131,-47],[-1823,406],[-1611,147],[-2606,-204],[-363,-201],[946,-766],[-361,-855],[300,-617],[-242,-1126],[-272,-2714],[-584,-745],[-101,-2297],[-1756,-579],[-2105,-1690],[-2186,-234],[-1547,-307],[-3202,-185],[-4714,-713],[-1102,-62],[-4447,558],[-3553,854],[-1759,72],[-2029,539],[-1473,-186],[-3148,587],[-2371,306],[-1046,269],[-3261,1566],[-3303,856],[-3000,594],[-470,208],[-4011,1013],[-1694,588],[-609,563],[-1249,390],[-3036,16],[-2912,832],[-2756,322],[-1522,488],[-1257,89],[524,-3753],[173,-37080],[2545,-1107],[668,-1406],[-345,-390],[-3620,-2329],[-699,-1110],[-7,-601],[-725,-616],[-1925,-3229],[-1818,-2401],[-59,-272],[-1899,-421],[-2534,-1364],[-1563,-1354],[-1870,-2159],[-10216,-13535],[-1987,-707],[-2747,427],[-2238,-249],[-1807,-629],[-3685,-1547],[-2495,-1588],[-2034,-1026],[-1728,-468],[-763,365],[-1337,30],[-1059,369],[-954,-681],[-993,-7],[-1614,580],[-1968,302],[-2049,66],[-746,273],[-3714,247],[-1232,-400],[-2978,-612],[-3599,-363],[-1447,399],[-713,-27],[-5224,573],[-597,91],[717,1758],[-160,1018],[1012,1307],[679,1997],[93,1052],[952,884],[344,820],[873,900],[33,1216],[691,1256],[-112,1194],[123,1423],[-537,467],[-879,72],[-1592,1233],[-315,800],[-1327,1563],[-71,1186],[256,973],[957,1533],[-1381,2392],[-1301,1410],[247,663],[-426,495],[-1290,699],[-727,950],[-152,612],[1102,971],[1421,1904],[-141,617],[308,1331],[378,502],[-662,1463],[-39,1427],[-710,2779],[-969,765],[-1072,1420],[81,4408],[730,2373],[647,839],[-199,2478],[-4031,-4658],[-665,822],[-2122,1326],[-113,-1071],[265,-556],[1589,-2214],[-255,-305],[-22762,18812],[-118,-1946],[249,-3135],[-314,-1148],[-174,-1605],[441,-4355],[-45,-3832],[404,-2326],[786,-2688],[517,-3104],[353,-1004],[262,-14357],[-6583,-2357],[-1916,-794],[-2736,-327],[-2923,132],[-4192,-576],[-2789,13],[-3022,-219],[-3585,-641],[-1109,-620],[-3291,-219],[-3663,470],[-1877,141],[-1871,560],[-2727,650],[2096,-6331],[-138,-363],[-1950,-1590],[-2205,-1224],[-1248,-892],[-1528,-1676],[1132,-1931],[1730,-4150],[362,-572],[1569,-5732],[5703,-2071],[2761,-2],[454,-1050],[-248,-6605],[-3174,-5421],[-2159,-4411],[-2219,-3996],[-2010,-1017],[-4665,-2050],[-8209,-208],[-135,4077],[535,1308],[455,1684],[367,608],[237,1531],[513,1268],[219,1243],[-694,853],[-158,2144],[1062,690],[297,1195],[-1068,784],[-6865,4010],[-1477,1242],[-752,129],[-399,20],[-2011,-1420],[603,-1551],[-603,-2263],[-800,-1022],[-4966,-2585],[-1535,-511],[-1220,-798],[-2007,-614],[-1483,-86],[-974,-299],[-1974,70],[792,-1782],[3411,-5355],[642,-727],[1431,-1130],[11670,-6561],[1004,-463],[359,979],[2458,648],[2917,-187],[-40,-408],[632,-2056],[629,-1557],[682,-2392],[434,-2006],[24,-1349],[593,-2249],[784,-1554],[1390,-4625],[291,-594],[607,-3096],[1653,-1630],[262,-1003],[776,-1242],[1247,-2662],[375,-1106],[-334,-1399],[613,-3386],[39,-5418],[354,-2833],[-2651,-2097],[-417,1110],[-13999,843],[-13175,-1551],[-7534,1075],[-779,159],[-12024,3070],[-2116,705],[-2938,772],[-4311,1571],[-8902,2930],[-5854,2478],[-2001,704],[-1055,96],[-1140,-205],[-1786,-622],[-12656,2790],[-2316,4609],[2115,4868],[-2963,5600],[-1592,1733],[-2695,2573],[-613,1515],[-2538,8608],[-802,1514],[-729,859],[-999,2706],[-25,972],[-655,1008],[-297,1029],[-417,279],[-11509,13420],[-2430,3229],[-3665,2520],[-2337,-460],[-1651,363],[-25222,7762],[-3922,-537],[-3470,897],[-2424,258],[-2411,618],[-4108,532],[-4786,-280],[-2654,-44],[-3911,-538],[-1689,81],[-3954,-505],[-1030,-282],[-10260,-5210],[597,-653],[193,-886],[-30702,-4588],[-710,200724],[-229,49440],[-6106,-35],[63,53585]],[[349295,322100],[1858,-2395],[2667,146],[-65,-1589],[1826,-1933],[-360,-717],[932,-269],[1029,-1635],[1342,-386],[2229,-1734],[1982,71],[-540,-1237],[1202,-563],[448,-656],[1288,-573],[1802,-401],[1385,108],[1254,-225],[1628,260],[1543,-211],[790,-493],[2327,-388],[2740,25],[1927,312],[788,468],[1745,-26],[706,342],[339,-775],[949,605],[3073,221],[1357,-79],[4615,-672],[826,-410],[1273,-1360],[1981,-873],[1180,-149],[38,14906],[-1453,199],[980,951],[-65,621],[-1560,1209],[-309,764],[-778,344],[167,641],[-675,210],[-526,990],[-1824,64],[-2597,1073],[-1278,-56],[-2204,484],[-2678,106],[-870,668],[-272,901],[-1540,-230],[-1217,725],[-760,72],[-515,754],[-2503,155],[-1125,554],[-311,1491],[-874,90],[-3,431],[-4210,34],[-313,-45],[-1071,104],[16,535],[-787,-573],[-1213,82],[-535,-513],[-2586,-373],[-344,-582],[-637,63],[-957,367],[-2074,-182],[-814,-1246],[-1092,-615],[202,-538],[-829,-917],[1079,-722],[838,-2255],[357,-2377],[-714,-138],[-38,-1763],[-2710,1637],[-6297,17],[-585,-926]],[[308699,896827],[1270,708],[1779,-316],[2045,680],[1912,328],[1353,821],[1498,256],[1288,678],[1034,871],[775,221],[1537,-350],[192,-548],[995,384],[2076,2315],[592,349],[568,-291],[1202,686],[2082,-676],[1380,329],[1101,7],[3660,524],[1868,95],[4356,-319],[278,423],[1632,-684],[5532,-446]],[[350704,902872],[656,-645],[2068,-283],[3273,-46],[3670,360],[1090,262],[4360,713],[3516,185],[-28,-1095],[372,-1321],[2720,87],[640,-760],[2506,1032],[2535,608],[628,-175],[871,284],[858,-343],[1383,-1001],[10051,-333],[1632,145],[1148,684],[147,155],[469,-203],[28,3551],[22,2491],[2389,-28],[2639,-1128],[1094,-1009],[2990,-822],[1394,-163],[716,-688],[2700,419],[839,800],[2864,383],[1897,936],[578,591],[2290,635],[949,649],[1911,189],[530,-1320],[1951,-1385],[-318,-594],[796,-1553],[-258,-798],[-1427,-1056],[-1298,-131],[-1362,-973],[-1718,689],[-1492,284],[-2675,6],[-1005,-818],[-1315,184],[100,-344],[3042,-1425],[1314,-804],[5013,-2446],[652,-131],[1641,-1839],[1241,-1823],[1544,-1340],[1171,-497],[1075,284],[-79,-1528],[1175,-1310],[3034,-2006],[253,-75],[661,-454],[385,-627],[108,-216],[64633,-215]],[[497941,883727],[593,-1851],[1311,-1526],[1095,-1892],[1527,-1595],[265,-783],[893,-901],[1575,555],[1939,267],[4287,-369],[1422,228],[863,-99],[993,278],[5090,-507],[631,-236],[1832,37],[1651,-817],[3276,-62],[1847,-240],[565,132],[1420,-980],[1725,-84],[1236,-240],[1436,-716],[790,-1559],[1520,-993],[1703,-871],[1228,-1404],[713,-481],[2748,-1353],[-777,-1486],[460,-513],[491,-13094],[2925,-22],[-228,-514],[477,-1114],[175,-1136],[582,-1621],[132,-1557],[306,-1002],[854,-1320],[326,-924],[2691,-3483],[343,-1834],[1367,-2239],[16,-1132],[820,-1395],[13,-758],[834,-410],[348,-985],[960,-372],[1097,-2091],[781,187],[794,-1756],[1184,-928],[800,-3],[761,558],[314,-810],[1382,221],[1968,-223],[3247,363],[2346,-553],[1482,452],[378,1084],[651,262],[2124,-338],[668,-775],[3746,-2197],[399,1380],[928,-581],[3064,-116],[592,586],[-375,-380],[248,-493],[-28,-2470],[-2330,-517],[-237,-648],[571,-304],[-177,-1044],[-23795,-105],[-223,-1604],[-4962,-16],[47,-4889],[-24,-5115],[2969,-575],[1894,-201],[31,278],[127,-942],[-716,0],[15,-1923],[326,-1029],[1097,-2195],[380,-262],[414,-1446],[-676,-205],[-377,-1897],[-413,-1076],[55,-1114],[-353,-2118],[1215,1],[265,-219],[-2,-189],[172,-614],[-69,-2719],[327,-1388],[-146,-857],[580,-1415],[1829,-324],[843,-474],[273,-646],[-913,-49],[-31,-572],[-689,-60],[-905,-573],[-81,-528],[1959,-1684],[-138,-877],[449,-390],[367,-1248],[1679,-2119],[794,-2460]],[[567202,771782],[345,-1299],[-1543,245],[-2588,-1874],[-1766,-980],[-3126,-1164],[-1261,-624],[-1980,-382],[-2287,1587],[-2231,1298],[-762,-984],[410,-861],[-330,-658],[-1029,-492],[-3505,-375],[-1864,1302],[-2735,1472],[-663,536],[-294,476],[-139,713],[-273,-797],[136,-1984],[258,-492],[3855,-3275],[787,-1688],[1318,-599],[-1083,-511],[-1513,-2899],[-3194,-2459],[-1555,225],[-799,-250],[-1237,158],[-844,-715],[-1193,-475],[-1553,-125],[-1381,197],[-3567,-89],[-1330,-547],[-876,-805],[-605,-136],[-732,241],[-1510,1141],[-615,1],[205,-1555],[-208,-1204],[764,-579],[475,-909],[-348,-365],[-2080,134],[-663,617],[-884,44],[-917,-341],[-1616,-2190],[-934,-481],[-2394,23],[-792,-229],[-34,2374],[-798,1054],[-1170,720],[-2679,-1038],[-1565,-992],[-708,-697],[-1110,-516],[-3484,601],[-910,53],[-1554,-456],[-1611,-124],[-1256,-333],[-2742,-328],[-2007,-4],[-934,-296],[-982,256],[-62,-743],[-883,-995],[-1097,-723],[-429,-1733],[9,-866],[-364,-1382],[-198,-3176],[717,-1922],[-264,-1342],[91,-1818],[-405,-2634],[1180,-1502],[74,-1191],[-232,-789],[-2572,46],[23,-14148],[-2306,-884],[-722,-619],[-440,-1334],[-882,-1928],[-1602,-1144],[-628,-193],[-866,-844],[-1053,-32],[-1431,-387],[-2749,-2421],[-782,-1282],[-752,-438],[-884,-1307],[-966,-2335],[-371,-539],[398,-767],[787,-508],[709,-997],[-29,-1135],[-699,-1123],[-1713,-327],[-796,-1822],[-2219,-1398],[-3032,-903],[-2856,-385],[-1264,-424],[-1658,-162],[-2497,-755],[-1992,-1209],[-893,31],[-1673,-363],[-1597,-963],[-2497,-972],[-672,-1444],[-1984,-1224],[-808,-1025],[765,-255],[268,-836],[-220,-2158],[1146,-1259],[1155,-2431],[-397,-533],[46,-734],[-786,-399],[-587,-1616],[546,-1100],[-316,-905],[-1652,-1013],[-1429,-1653],[-2406,-905],[-1134,-66],[-1666,246],[-1081,-690],[-495,-34],[-313,544],[-1250,832],[-1328,76],[-2267,622],[-2907,-874],[-616,-376],[-2052,-2587],[-1186,-513],[-1964,-2293],[-997,-1459],[-1381,-718],[920,-780],[-1225,-867],[-612,-1361],[-54,-1462],[-326,-334],[-292,-1502],[-278,-126],[-5133,-1671],[-1737,-88],[-310,-602],[-3472,-648],[180,-253],[-2466,-649],[1,-625],[-1561,-424],[-1971,-2269],[-2261,732],[-1237,-307],[-2646,-1121],[-454,69],[-1223,-1127],[-768,228],[-713,-221],[-1340,643],[-364,696],[-22,1076],[-735,-302],[-665,-1654],[-65,-983],[-1014,-429],[-4396,-1470],[-928,265],[-1723,-23],[-1597,-667],[-1096,-830],[273,-593],[-833,-1733],[-707,-833],[-182,-2341],[1220,-784],[1263,95],[507,-373],[-327,-1079],[-826,-43],[-2604,1213],[-837,-377],[-1800,422],[-649,503],[-1775,754],[-485,541]],[[367732,631793],[-656,82758],[-51,5959],[663,-22],[908,579],[297,1471],[1747,1211],[796,861],[663,256],[1499,2564],[3425,1253],[345,361],[100,2822],[610,175],[1579,-383],[633,1398],[3486,1840],[417,421],[106,2484],[-178,1205],[513,906],[842,417],[834,-96],[1618,523],[1093,651],[3008,2234],[3828,2384],[1257,1116],[2673,1686],[632,822],[-165,1244],[-1277,712],[-2014,1490],[-1855,939],[-794,618],[-392,915],[595,1196],[-382,613],[-392,2619],[361,1311],[-2070,-159],[-5439,1020],[-3892,-223],[227,25892],[-4822,15],[22,6402],[-38334,62],[-559,13],[-20,19927],[-9002,59]],[[330215,814314],[597,936],[987,518],[885,846],[1236,1809],[611,1188],[907,167],[64,970],[-1919,1311],[-1986,-411],[247,2538],[-2642,692],[-15,4168],[-211,853],[191,1506],[-846,365],[-1304,1576],[-29,1128],[-843,425],[-503,1575],[-685,830],[-1816,1660],[-297,523],[-1915,1742],[-479,721],[-1980,1137],[-739,858],[-77,1706],[-738,1323],[199,1692],[-449,771],[111,707],[-411,743],[-95,1269],[236,1038],[-1194,1067],[-732,1482],[-557,636],[-1040,1975],[-195,688],[-798,669],[-491,1129],[-2131,2084],[-588,44],[101,3917],[-485,571],[527,972],[1,826],[-1114,1306],[176,1444],[-644,721],[-202,848],[-1329,1091],[-450,1596],[185,2319],[-601,1432],[-1661,1063],[-283,646],[-1918,956],[1398,-416],[1247,228],[833,-685],[1928,252],[426,-145],[844,-857],[1088,-1806],[-149,17580]],[[703941,764568],[-170,14163],[211,3866]],[[703982,782597],[5029,-2386],[2408,-1360],[1657,-1065],[10030,-7230],[1009,675],[257,1621],[1369,-605],[4,-736],[1135,110],[802,-591],[-1461,-1594],[442,-155],[360,-990],[2132,-776],[814,-577],[445,-1080],[-335,-492],[1236,-831],[2565,-972],[829,-526],[-93,-576],[1461,-1630],[1646,-790],[1388,-1008],[652,-967],[5440,36],[-998,2238],[144,1257],[1409,69],[1297,-942],[1663,-2458],[7,-603],[1285,-1879],[1546,-100],[589,-531],[1550,-751],[-718,-2820],[3975,-1],[385,757],[126,1787],[692,1517],[1435,726],[403,1257],[1661,1279],[1113,344],[710,1112],[1016,759],[-66,1195],[839,323],[1244,-52],[1049,-457],[5313,-1724],[1873,-1901],[1028,-271],[162,2252]],[[775935,760484],[545,110],[469,-562],[1095,268],[976,-946],[500,-51],[854,-928],[-24,-1504],[845,64],[1004,-617],[401,318],[1185,-325],[274,-387],[1978,-444],[2393,-323],[3294,-1304],[11,-763],[1539,-154],[1734,93],[1278,-983],[796,95],[940,-795],[818,365],[1072,-536],[3342,-831],[796,-478],[1103,158],[985,-863],[2310,-289],[3226,-1401],[3493,-1189],[2313,-618],[1006,-653],[2526,-836],[3525,-365],[435,-1338],[344,517],[1006,583],[432,-437],[874,-176],[2851,159],[747,-1685],[852,-104],[324,-973],[-673,-1126],[314,-1202],[1091,-1716],[378,-1872],[1158,-375],[495,-1396],[1336,-1148],[896,-281],[1311,467],[728,3],[1873,-587],[1993,543],[1045,-375],[1540,102],[1128,-517],[1299,6],[1910,-296],[272,-5347]],[[850496,725239],[-13442,-54],[70,-6329],[-2690,127],[-7573,-12],[102,-969],[-323,-1161],[48,-1092],[-3442,81],[-2237,333],[-2796,-476],[-1287,-9],[-2718,-457],[-1123,447],[-1979,263],[-3619,-794],[1737,-1453],[1352,-2138],[-638,-494],[52,-1353],[-560,-470],[838,-1193],[1221,-868],[-21,-1412],[-5062,-5],[11,-6580],[319,-1],[194,-1207],[599,-436],[1345,1],[-15,-2490],[-1326,-735],[-1125,-460],[-4,-1261],[-16,-4936],[-7,-1684],[-101,-3277],[-65,-3309],[-244,-4251],[23,-212],[-1313,871],[-1773,-104],[-1195,-620],[-2445,-1826],[-1252,-301],[-2163,567],[-1423,-236],[1059,-490],[-1653,121],[-553,806],[2,42],[-189,119],[-380,85],[-472,5],[-698,-72],[-361,34],[-472,107],[-518,69],[-1198,103],[-289,-453],[-106,-655],[414,-968],[133,-638],[29,-90],[668,-948],[73,-1069],[-173,-529],[-433,-527],[-432,-259],[-1225,-417],[-1916,-150],[0,62],[-1353,-305],[-1140,-692],[-2169,-277],[-79,47],[-41,-36],[-3462,345],[-2075,-332],[-266,-19],[-1210,205],[-470,10],[-462,156],[-169,94],[-1005,1272],[-103,432],[-1575,1109],[-2090,353],[-223,-157],[-309,-402],[-39,-252],[-54,-198],[-2201,231],[-1712,178],[115,-741],[355,-381],[398,-239],[274,-501],[383,-45],[242,-281],[-58,-4331],[5070,4],[-4,1525],[4883,37],[253,-410],[13,-1141],[62,-43],[-18,-5744],[4,-121],[19,-762],[13,-1645],[15,-1643],[14,-1661],[-18,-1470],[-3,-1697],[-5,-639],[-9,-1155],[2031,16],[422,-642],[110,-709],[1281,904],[1269,3],[-15,457],[1043,8],[-770,-893],[975,-888],[462,-416],[890,-192],[-46,2395],[2607,7],[4578,27],[526,7],[2537,14],[26,-1729],[-7,-1653],[-2540,-24],[2,-762],[2534,-113],[3,-762],[2554,23],[-14,5033],[1267,10],[1273,17],[1274,5],[-2,-437],[1293,10],[-1,440],[1273,11],[1085,8],[1562,28],[36,-899],[1169,12],[-9,894],[626,3],[4,-463],[1439,-5],[-15,476],[2044,15],[3023,-1760],[479,-276],[1445,986],[-1372,829],[2698,-1485],[-123,260],[42,1476],[308,1],[311,0],[1751,-887],[2,-165],[7659,-4480],[5,-777],[-366,383],[-2535,682],[-899,751],[-800,-292],[1272,-776],[-1927,-1027],[-121,-1],[-775,-2],[-18,25],[-933,-17],[-132,-2],[-62,0],[-810,-5],[-1225,-8],[-751,-4],[11,-2312],[-2578,1455],[4,-824],[-2552,-34],[-1565,-394],[-819,97],[637,-2063],[1002,-2527],[29,-72],[-8,0],[-233,2],[-590,-10],[-3556,-48],[-2564,-17],[3,-1987],[2153,-1949],[291,-668],[-1560,-346],[-3424,-34],[-15,-1658],[-2550,-25],[-1385,-20],[-1159,-10],[5,-3301],[-2,-1450],[-3120,4708],[-43,-1],[-2642,-31],[-626,64],[-3330,-63],[-199,-1882],[-102,-11946],[3239,-1318],[2544,-1356],[5241,-2372],[1448,-378],[1690,-440],[491,-213],[2118,-920],[2919,-1045],[631,-270],[1280,-549],[742,-266],[420,1],[2,-152],[2197,-786],[351,-86],[731,-178],[-132,-4124],[-571,185],[-1321,337],[-1202,110],[-2731,1202],[-1202,151],[-1699,883],[-1681,347],[-1806,64],[-1268,316],[-2004,9],[-936,435],[-1775,349],[-958,648],[-3126,315],[-3507,-67],[-268,-3364],[-2839,-22],[1057,-722],[1335,-1479],[-1306,-591],[-577,-583],[2326,60],[-20,-9915],[17,-6587],[-20,-4957],[-5090,-41],[-5071,-22],[-12,1454],[-711,453],[-2304,26],[-1359,272],[-1701,1056],[-2505,465],[-849,411],[-600,649],[-1421,407],[-1759,1092],[-1566,454],[-2296,1112],[-2025,123],[-884,1032],[78,1089],[-404,1265],[-1872,-9],[-559,-433],[-1059,156],[-303,-293],[-776,-1057],[-264,-833],[377,-971],[-405,-579],[-52,-2364],[1022,-2023],[1495,-1271],[173,-1097],[-1997,1066],[-396,-302],[772,-851],[764,-1489],[1273,-1520],[1457,-779],[1500,-2178],[1059,-1142],[89,-518],[1002,-1010],[1982,-1433],[1055,-566],[3014,-2495],[2092,-1069],[2473,-1423],[6389,100],[-3,-5012],[91,-371],[383,-854],[479,-1044],[2753,639],[767,-672],[1236,-557],[732,-1139],[808,-280],[5523,-3566],[7604,11],[-4,-3285],[1868,-2315],[602,-2075],[892,-875],[2651,-1560],[-2190,263],[-1898,688],[-749,1679],[-1576,841],[-1340,-363],[-1509,1180],[-1438,446],[-1129,1087],[-2940,1469],[-1244,60],[-1686,1139],[-277,395],[-1906,758],[-1354,1301],[-556,910],[-1615,867],[-2016,1427],[-1040,314],[-318,520],[-1715,1761],[-293,375],[-3513,1958],[-1104,30],[-1050,493],[-1669,2392],[-947,780],[-2047,1618],[-347,553],[-1568,1087],[-1592,2211],[-2926,1654],[-2073,461],[-2527,1472],[-6232,2728],[-2302,1544],[-770,179],[-342,479],[-1519,1977],[566,1142],[-349,565],[-276,3358],[-916,1640],[-481,2255],[-446,526],[982,786],[57,1958],[-757,2302],[-208,1968],[271,639],[1955,3186],[149,1625],[-793,1054],[-1591,1174],[-1777,1279],[-2164,2300],[-332,670],[-2066,1821],[-1445,1417],[-353,708],[-1058,4405],[-1259,2397],[-2459,3004],[-871,1137],[-2336,1801],[-3040,1389],[-4312,1653],[-714,506],[-2590,2270],[-2304,1171],[-108,4450],[-213,2064],[-200,138],[-291,106],[665,467],[-16,3758],[-50,7075],[-5148,-80],[-51,5668],[1556,485],[260,379],[928,904],[1130,-337],[1544,-44],[1050,374],[2169,48],[818,-307],[2211,719],[2470,-254],[1127,147],[-7,2163],[3180,23],[972,-717],[1393,-2552],[1965,12],[69,6617],[2591,2],[-50,3327],[775,5],[53,465],[1154,-1],[-17,832],[601,800],[-20,1065],[2562,87],[-21,3715],[-2545,1873],[-1158,177],[-926,833],[-455,-4],[-25,-4260],[-4036,967],[-3460,-33],[-88,-1],[-27,17],[-2452,-102],[-106,5],[0,57],[-421,-1],[-1408,245],[-1371,743],[-1856,815],[25,1443],[-2383,-23],[-3176,1785],[-564,134],[-508,-156],[-682,-1794],[-307,-1],[-27,2036],[-2523,991],[-5077,251],[-4,2029],[-1528,1213],[-2483,1594],[-650,203]],[[694600,680658],[-86,3218],[29,1653],[-1673,2],[-866,1177],[9,1831],[572,-639],[1350,-700],[660,195],[68,1339],[4630,-898],[981,52],[2026,-568],[2299,-139],[5290,9],[-159,235],[-3447,1164],[568,476],[590,178],[1125,225],[923,64],[62,35],[-409,139],[2194,727],[1859,225],[2083,-202],[1777,756],[1411,105],[1531,-312],[-2968,843],[9,290],[-13,8271],[5196,7],[-1534,460],[-1707,1032],[5760,155],[28,2263],[592,982],[-871,1904],[-48,4828],[4240,-4],[-71,3373],[-1614,-79],[202,449],[243,2844],[-10631,4],[-12787,4],[11,6670],[-546,6752],[351,25157],[102,7358]],[[729352,688091],[1108,-645],[-934,-1601],[167,-9],[589,-31],[369,-59],[594,53],[587,118],[210,1],[-191,290],[1503,463],[778,47],[683,-178],[70,2373],[-1757,-18],[-762,485],[3,866],[-13,299],[-2508,-6],[-12,-231],[-2,-1448],[-482,-769]],[[775932,792849],[-62,2045],[-41,9446],[71615,-382],[42,13054],[20406,-168],[-58,15564],[85,10419],[40620,-277],[0,13626]],[[908539,856176],[493,626],[3138,1358],[1279,835],[1621,-160],[389,781],[852,347],[781,-935],[3169,-1367],[1026,-799],[3561,-1477],[214,-493],[1469,-60],[43,-656],[761,-826],[1279,-713],[23,-512],[1571,-514],[742,728],[2061,496],[1333,-132],[1140,-10095],[817,-8757],[437,-26344],[-1424,-2161],[-633,-354],[147,-1302],[77,-349],[1726,-1706],[1102,-317],[1062,-1607],[88,-411],[-607,-2649],[-931,-513],[-1328,-1304],[-389,-1217],[-699,-821],[-412,-1381],[-574,-940],[1138,-2564],[150,-1157],[704,-892],[-121,-685],[1176,-966],[661,-957],[-47,-1452],[1497,-662],[1127,-1566],[418,-58],[851,1713],[1660,1391],[-111,759],[715,1289],[1559,638],[1776,51],[1712,-166],[2758,-723],[837,1036],[-3084,999],[-169,1613],[546,659],[1540,-22],[1923,669],[686,831],[1939,190],[868,420],[1043,58],[757,20],[2250,-458],[1057,198],[3140,-1244],[825,-457],[3423,-2722],[781,-376],[1944,-184],[14,-1202],[-438,-384],[-2676,-629],[-957,-475],[-676,24],[1411,-1218],[1625,847],[2536,978],[4754,713],[1283,-471],[2567,-197],[1400,-242],[1741,-653],[2338,104],[2008,499],[2168,12],[1403,-397],[1783,-896],[853,-771],[693,-1780],[-276,-1716],[123,-1749],[433,-1102],[1197,-963],[1856,-819],[885,-651],[-2,-219],[81,-7887],[-217,-10281],[-1573,-1323],[-287,-778],[-861,-249],[-1866,305],[-2784,-9],[-729,-412],[-1461,707],[-195,-300],[-1986,-1027],[-369,326],[-3652,328],[-486,697],[-1582,114],[-212,-908],[-914,-1145],[281,-932],[-439,-1576],[-1881,-186],[-1278,-601],[-1502,104],[-1971,342],[-2125,885],[-1414,-426],[-1848,188],[-353,516],[-547,-311],[-805,670],[-1392,696],[-838,1225],[-1587,223],[-1680,-150],[-2424,899],[-643,811],[-1530,769],[-1119,64],[-841,-613],[-1802,175],[-1451,239],[-752,492],[56,-708],[-663,-1125],[-1149,362],[-801,-264],[-661,183],[-2242,1295],[-2556,445],[-2654,166],[-1659,303],[-4259,553],[-3043,-248],[-2788,-439],[-2252,-586],[-2987,-1255],[-2986,-280],[-2743,-1079],[-3504,-948],[-2731,-974],[-1810,-265],[-1157,-619],[-2201,-869],[-2394,390],[-275,6],[309,-718],[25,-453],[-81,-436],[-1936,-2553],[-559,-1588],[-3403,-5478],[-1743,-2867],[-1877,-3576],[-993,-2128],[-487,-1787],[-121,-1235],[-4562,1],[-10064,-30],[-27437,41]],[[775935,760484],[-74,3038],[-1515,984],[398,1672],[-873,1718],[-930,586],[-892,1621],[-907,626],[-1103,2299],[-1327,1112],[-1988,328],[-1078,438],[1094,-389],[2201,-411],[786,-467],[1453,-2187],[2879,-12],[-634,-1614],[1884,-980],[639,-96],[-120,1207],[78,10569],[1,10518],[25,1805]],[[781940,781939],[1428,-728],[-152,-1369],[729,-499],[3292,237],[2443,-1479],[-973,-1656],[54,-686],[674,-521],[3082,-100],[694,199],[329,-835],[2097,-1445],[817,-359],[717,-1534],[-853,-1611],[1453,-299],[1279,314],[860,-567],[1817,-751],[-453,-780],[298,-369],[190,-125],[271,-113],[605,-99],[1507,281],[566,-274],[26,-1038],[236,-496],[240,-210],[1062,-374],[361,-2],[887,-131],[1406,-728],[325,-572],[-136,-145],[-725,-319],[-8,-496],[984,-150],[705,287],[807,-23],[1259,-290],[1507,82],[461,269],[1058,312],[-829,509],[-1336,335],[-1153,1342],[14,512],[2213,-661],[2826,-1543],[2266,2482],[-940,156],[-1169,600],[-899,1410],[-992,507],[263,-1150],[-765,1734],[-493,506],[-2336,388],[-884,-314],[-694,73],[-461,159],[-414,362],[-379,818],[-806,352],[-1849,-316],[1039,-178],[-621,-14],[-2050,255],[-376,94],[-341,185],[-476,541],[-360,198],[-1086,85],[-732,266],[-845,694],[125,1172],[-1613,906],[-2503,1963],[-1934,866],[-1256,374],[-1508,1412],[-768,197],[-3276,1464],[-109,357],[-1388,414],[-2481,306],[-2342,107],[492,-733]],[[567202,771782],[2140,644],[1186,1335],[1639,2324],[3538,-1196],[815,-511],[3272,-1102],[2016,-39],[3190,-1538],[93,8339],[5111,-255],[5110,-6],[-8,1635],[9341,16],[533,-802],[393,776],[1051,-100],[1163,-789],[1233,70],[4443,-814],[2364,17],[17,4911],[10212,-15],[11471,-163],[7378,20]],[[644903,784539],[13,-338],[658,-1007],[2979,-906],[926,-976],[322,-1323],[311,-2041],[-1972,-2620],[-3007,-282],[1806,-415],[1243,291],[-322,-1507],[291,-769],[-1114,-1185],[-759,-280],[-2163,-1342],[-758,-1247],[-1971,218],[-194,1527],[-2314,3344],[-593,-626],[852,-1390],[148,-242],[713,-742],[629,-655],[461,-2054],[-135,-423],[99,-1469],[197,-1077],[-32,-51],[-3913,-6271],[65,-338]],[[637369,758343],[262,-1383],[504,-2650],[-68,-1085],[-303,-513],[-619,-416],[-3708,-1332],[-3903,351],[-4917,-885],[-1061,-191],[-4730,-1505],[-801,-1174],[-60,-87],[954,-1067],[2565,-755],[2107,-1098],[163,-2250],[-1250,-2182],[-2040,-18],[-2366,787],[-1886,-164],[-3437,-3261],[-507,-1877],[2527,-1700],[2223,-1124],[1035,-2004],[-287,-945],[-479,-1581],[-496,-706],[-1334,-1899],[-6,-22817]],[[615451,702812],[-671,-731],[-2038,-1087],[-2182,-1613],[-1577,-1670],[-1373,-890],[-3402,-1294],[-2922,-691],[-1449,-211],[-1670,-524],[-1110,-656],[-1835,-2038],[-2265,-968],[-1987,1127],[1135,1777],[2325,-2],[1126,1258],[-2,2053],[-3082,8],[168,1345],[773,1903],[-13220,12],[28,-4096],[-4065,-909],[351,-1242],[-315,-516],[-6923,-3004],[-1463,526],[-1161,906],[-1143,2469],[-29,1184],[-471,1928],[-554,53],[-6,-688],[-799,-716],[-739,24],[-1851,1423],[-2185,358],[179,-601],[-3046,-674],[1314,-892],[-1561,99],[1055,-922],[1224,-1579],[1531,-814],[218,-515],[-944,368],[-1202,-765],[-230,-1255],[-957,-74],[-566,501],[-1548,-2130],[20,-1604],[-1849,-1479],[-21,-492],[-2887,-2468],[2609,211],[492,-122],[-1833,-1065],[-1032,-832],[-2064,-1114],[-3890,-2731],[-2011,-1166],[-3413,-2690],[-7912,-5239],[-858,-433],[-2083,909],[-309,1692],[-502,167],[-940,1198],[-1238,183],[225,-684],[-657,-462],[829,-984],[-64,-1025],[623,-1882],[338,-1751],[-3193,-2188],[-1290,137],[296,-495],[-1022,-1024],[-3050,-2051],[-6488,-3677],[-958,-79],[854,-1782],[1247,-1473],[1106,-512],[87,-864],[1063,-1188],[-27,-665],[1157,-2240],[513,-644],[1893,-889],[-138,-1505],[680,-1109],[2399,-503],[1486,-907],[2140,282],[2699,825],[4125,467],[974,-519],[-1199,-776],[-1310,-370],[-1513,-1068],[-424,-554],[815,-1465],[-492,-536],[-1846,-1200],[-500,-1370],[1350,-830],[-532,-1729]],[[366218,547326],[-75,8009],[-64,6791],[1265,134],[713,874],[1267,569],[2556,497],[1401,97],[1582,364],[925,-54],[2394,1202],[1258,1249],[670,-16],[597,1202],[446,289],[-938,206],[-902,-384],[-1229,-65],[-585,862],[-758,215],[-1348,881],[-3797,247],[4127,328],[1330,497],[2364,1975],[1056,151],[-388,431],[424,632],[-69,722],[1192,1556],[-280,1000],[1341,1076],[579,1003],[780,359],[343,1260],[-614,1084],[-1969,314],[1451,1028],[86,1579],[-546,728],[208,1014],[-2222,511],[-2622,1027],[-1663,1704],[-87,1001],[669,304],[56,572],[-521,740],[-2588,2115],[-261,586],[-1898,1327],[-2382,2088],[-1369,523],[-148,12097],[-243,19966]],[[308699,896827],[133,5437],[-38907,-80],[1098,487],[327,750],[1072,1032],[232,1131],[-1811,1810],[-327,1077],[-1446,230],[-479,918],[679,1214],[-192,852],[-2189,1326],[-777,924],[402,1290],[-281,3775],[51,1590],[233,4599],[6688,64],[828,543],[1240,1271],[503,1449],[-107,1917],[232,614],[-341,1292],[101,1173],[1217,1941],[1413,1386],[1235,976],[123,525],[-3288,-14],[164,3115],[1827,927],[644,1041],[9,792],[935,1045],[-705,1320],[-1347,1180],[-3598,1213],[-1472,633],[-1882,425],[1611,240],[1002,752],[472,672],[-134,608],[-1981,1366],[-2249,2936],[-2848,2137],[-1599,895],[-2762,1144],[-766,582],[-19,708],[-2294,3893],[-796,319],[-1187,903],[1309,1495],[426,1752],[-441,1021],[914,1767],[-53,1012],[-769,1622],[720,2226],[1826,-17],[-1047,1290],[697,679],[-363,2065],[-1040,2049],[215,324],[-782,1102],[-232,1427],[-892,605],[-181,659],[935,26],[414,1116],[1209,2347],[19,1252],[383,575],[45,1374],[-215,769],[132,1355],[-1103,1528],[-168,1407],[2132,-365],[1269,262],[556,-638],[1177,-107],[1269,293],[1613,-456],[591,-1342],[2429,-378],[361,-364],[-370,-1153],[317,-1810],[1027,-269],[1161,-1205],[1509,-885],[2235,-2434],[1251,-3022],[808,-2519],[-14,-573],[1921,-1598],[667,-1097],[70,-655],[975,-1281],[2084,-882],[408,-589],[1145,-13],[2179,-1505],[2545,-153],[1430,-246],[1205,203],[1454,-947],[2126,-259],[878,-116],[1507,-987],[2121,379],[1504,-292],[1463,230],[1613,1066],[2617,1269],[652,46],[5199,-951],[1384,-5],[2380,-679],[2084,-2640],[633,-1421],[-914,-1142],[660,-701],[132,-1452],[1173,-412],[1856,-1177],[912,-988],[9800,-613],[1238,-273],[492,-795],[-804,-1286],[13,-1208],[458,-597],[1943,-1391],[2108,-2030],[-312,-756],[1069,-1977],[2189,-1414],[1253,-1394],[242,-833],[2254,-2018],[411,-1185],[1064,-2052],[331,-1012],[269,-1968],[-816,-369],[-979,-2325],[1665,-1937],[82,-537],[1379,-813],[1154,-1210],[1743,-648],[967,-768],[-70,675],[686,641],[695,1339],[-584,1297],[93,579],[976,1409],[1221,1054],[-619,644],[0,955],[410,426],[-924,938],[207,424],[2232,1231],[987,299],[56,1776],[905,424],[539,1224],[-1247,1669],[-652,299],[125,736],[657,203],[-644,1311],[356,2474],[997,1089],[207,878],[976,693],[-394,626],[434,1113],[220,1735],[477,548],[329,1547],[941,573],[727,1122],[1429,550],[867,713],[1251,1900],[150,1599],[595,1005],[19,852],[1062,-615],[1915,585],[4273,652],[1379,-688],[183,-815],[1604,-714],[1653,-399],[-217,-19915],[25224,200],[489,-989],[198,-2634],[242,-665],[-1139,-1499],[482,-1692],[-487,-861],[-1328,-1042],[131,-1535],[717,-1084],[-69,-929],[-1293,-1025],[19,-392],[1687,-951],[1203,-1273],[-54,-997],[-830,-1521],[-2115,-319],[-1901,-850],[-193,-1187],[517,-668],[-919,-51],[-1255,-673],[-432,-1182],[1017,-822],[1633,-939],[860,-1450],[311,-1008],[-1266,-1299],[-264,-1099],[-939,-511],[117,-534],[1133,-413],[250,-1775],[-172,-381],[-892,-809],[-678,-1366],[-1472,-558],[-1437,-1156],[-857,-1152],[900,-494],[-2269,-1412],[-1206,606],[-2824,2374],[-3295,1354],[-487,573],[-2124,804],[-809,1079],[-1752,1325],[-2291,336],[-483,1222],[-1241,-3100],[-210,-830],[696,-433],[-1668,379],[-557,329],[-981,2117],[-1587,1453],[-1522,770],[-3570,3147],[20,334],[-524,-3],[1044,-1140],[879,-1468],[-1670,-717],[-4992,-36],[-30,1651],[-2604,0],[16,-1343],[-491,-1106],[-1472,-1867],[328,-1460],[-181,-449],[-2981,-1760],[-2017,-1396],[-2184,-1116],[-1506,-953],[8,-307],[286,-508],[-1067,-467],[950,-265],[-21,-753],[-1802,-1429],[-63,-422],[270,-679],[1127,-1268]],[[682645,888460],[482,-2843],[-115,-944],[-828,-1735],[-978,-745],[-1525,-1162],[-461,-672],[-95,-1222],[-717,-685],[-4028,-2013],[-1032,-3210],[-266,-2067],[-243,-489],[-1110,-837],[-1318,-992],[-3395,-1977],[-1750,-2252],[-190,-614],[895,-1446],[-315,-960],[-2756,-3311],[-2066,-1378],[-43,-29],[-1108,-537],[-137,-67],[-1459,-706],[-7085,-1053],[-5204,-367],[-3599,-1200],[-1582,-1332],[190,-1605],[1229,-10396],[82,-699],[202,-1705],[196,-890],[165,-748],[63,-288],[348,-297],[234,-75],[8066,-2598],[257,-129],[25,-12],[2614,-1308]],[[654288,830865],[3682,-1842],[3073,-2849],[41,-104],[66,-168],[670,-1697],[18,-43],[19,-51],[79,-199],[445,-1127],[120,-304],[-187,-1003],[-181,-974],[-360,-1930],[-793,-664],[-2039,-1708],[-141,-234],[-1025,-1694],[269,-679],[406,-1026],[3356,-3890],[134,-1818],[-1333,-1038],[-2329,-249],[-8737,-508],[-4529,-2475],[-2396,-178],[-1401,-1076],[334,-739],[878,-411],[1149,-943],[345,-822],[1146,49],[1185,215],[2364,-325],[1265,-822],[-308,-1156],[-5453,-1841],[-940,-640],[387,-633],[3399,-301],[1864,-137],[433,-652],[-691,-1098],[-246,-1841],[-1042,-1732],[-2002,-1092],[-416,-891],[37,-986]],[[497941,883727],[-458,1520],[507,934],[-366,742],[-63,1226],[262,866],[-404,518],[514,463],[198,1489],[-684,1723],[-515,2368],[2,1542],[-473,1332],[-38,1862],[-1616,1367],[-820,1552],[415,1008],[191,1535],[712,1250],[94,3066],[-471,1247],[374,1249],[-124,1828],[265,1829],[1085,1735],[46,1303],[-1624,106],[1150,510],[876,908],[1265,637],[2062,758],[2923,758],[5048,1144],[1548,912],[1038,382],[869,1031],[727,497],[-80,852],[992,747],[6646,20],[238,4589],[2787,-3],[314,4202],[946,14],[1695,-1233],[2568,-908],[999,-646],[1241,-1310],[1430,-760],[2742,-750],[2284,-1142],[734,115],[1660,-560],[3148,-298],[2533,-440],[2714,-195],[2282,-448],[1541,-613],[392,-447],[1891,-326],[1507,174],[985,687],[5793,3127],[1307,407],[1060,688],[826,208],[4020,-377],[11984,-7689],[418,-572],[436,-2366],[1000,-1146],[1536,-587],[1150,-1031],[1627,-137],[1421,484],[791,-105],[2659,-1337],[2757,-333],[2257,105],[673,-123],[2185,-894],[2480,-292],[4177,473],[957,571],[1070,-416],[-342,322],[-527,149],[-455,55],[-823,-508],[-2226,254],[172,47],[791,1028],[1649,4894],[3284,1831],[2036,832],[2197,111],[1165,-170],[2576,-1110],[1690,-305],[4554,-2],[2205,0],[1369,-1],[7214,42],[2575,-551],[93,-20],[27,-5],[1517,-325],[1343,-287],[42,-9],[614,-662],[593,-639],[364,-881],[445,-1075],[-296,-1291],[-742,-1370],[23,-1767],[1828,-2140],[74,-1694],[-1215,-1951],[-562,-2355],[1034,-4890],[2254,-1216],[899,-207],[8159,-1160],[983,-140],[1192,188],[2411,923],[632,28],[1967,87],[5132,-1099],[696,-1410],[4232,-2403],[6630,-1675],[1352,-1188],[2219,-2538],[372,-2190]],[[1791,373209],[-2,4666],[-5,19662],[33,4864],[387,76447],[739,281],[3083,494],[516,1076],[3923,-739],[1055,-1214],[1894,-598],[2132,-920],[677,-611],[2554,40],[247,163],[-353,-731],[418,-1803],[794,-776],[1326,-787],[2523,-604],[663,162],[2660,-107],[3495,1620],[271,587],[-948,598],[-532,745],[-518,1756],[331,1374],[9,1317],[-864,443],[991,665],[115,871],[-1195,480],[-17,273],[1348,847],[-51,1113],[251,1364],[1660,815],[1934,772],[3159,938],[940,35],[1994,-1298],[1873,-582],[3797,-2374],[958,-506],[770,-1440],[629,455],[2232,-530],[1739,-798],[1909,215],[1348,533],[2510,365],[2890,-233],[1127,371],[4689,-571],[1318,-529],[-285,511],[872,808],[715,105],[774,-937],[-100,-673],[676,-1319],[2055,-751],[192,-359],[2072,8],[1278,-230],[1845,802],[685,-110],[3703,791],[2377,913],[1774,425],[1398,789],[1102,952],[3996,109],[2357,-395],[1119,187],[2325,1942],[1128,354],[1594,1042],[1352,1824],[46,783],[418,412],[667,1533],[3030,1292],[936,-54],[795,-439],[2788,-1021],[1670,528],[918,33],[4437,-1192],[3027,586],[-3180,2201],[-1459,510],[-1144,1276],[-1407,579],[-1085,170],[-2282,1240],[-1166,308],[-735,696],[-1484,644],[-1250,1120],[2,595],[-1873,445],[-1158,-58],[-1427,709],[-824,719],[-1280,231],[-1089,530],[-1063,867],[-1263,696],[-314,1302],[-1799,424],[-2095,181],[-1418,905],[-1121,130],[-1557,-328],[-3428,127],[-1869,934],[-1870,260],[-361,-177],[-2368,129],[-1182,1245],[-1061,1514],[-223,836],[-944,658],[72,859],[477,405],[-238,1688],[1149,-50],[717,307],[455,939],[-25,1695],[1066,591],[1085,1016],[-734,811],[-860,402],[-154,1195],[1048,872],[2177,-492],[2914,94],[785,150],[790,735],[1800,65],[-339,1782],[-505,1298],[-698,1116],[65,896],[-3015,2229],[-2984,438],[-1501,-191],[-1237,-1054],[-901,844],[-1026,608],[-1625,581],[-3495,-301],[-2396,-1085],[-1095,-1301],[-1737,-202],[-1684,137],[-1296,434],[-636,-70],[-234,972],[-1890,1188],[-952,787],[-1136,463],[-1060,146],[-858,446],[-3538,-728],[-1407,-579],[-1752,45],[-2164,-716],[-2353,-105],[-1491,196],[-1105,655],[-1195,382],[-951,-63],[125,563],[-2651,-526],[-717,81],[-1249,-591],[-424,-1038],[948,-1639],[765,-344],[-438,-1282],[89,-1451],[-399,-683],[-1254,-544],[-2517,25],[-1948,-817],[-344,-1771],[-726,-1274],[-2078,-262],[-738,458],[-1785,690],[-6156,-288],[-1412,496],[-901,32],[-894,-1028],[-2170,-499],[-1466,53],[-1834,-686],[-2412,-562],[-4364,555],[-1484,618],[-75,34833],[4,511],[29006,-175],[1419,-659],[2909,-138],[2252,-464],[3291,-10],[1305,515],[2768,673],[4055,-19],[839,-1090],[945,-307],[653,-655],[1663,-2149],[1380,-609],[584,-34],[1231,-620],[1028,-145],[1334,-1064],[2249,-1551],[51,-607],[-967,-977],[649,-412],[1121,-95],[3827,-670],[1354,165],[333,659],[2437,1204],[537,76],[1766,1254],[1441,571],[3136,346],[1306,462],[812,27],[2448,943],[3429,731],[2730,-1025],[2173,-1207],[2633,-1185],[560,-862],[1463,-930],[1517,-1428],[1715,870],[-1216,2656],[-119,1105],[859,1136],[533,1936],[216,1616],[1324,1578],[938,-38],[33195,-189],[-1527,1255],[-1714,471],[-521,1384],[-96,1019],[961,1069],[352,993],[-391,1154],[970,70],[690,588],[-326,1405],[-444,670],[87,600],[-1764,2836],[-186,1107],[-939,1345],[-1357,1166],[-732,1680],[-1147,1041],[-1364,965],[30,9472],[-278,599],[733,627],[-461,587],[5,3060],[587,457],[-599,959],[-16,11773],[5081,5],[1540,992],[1752,-63],[892,189],[525,367],[1117,1644],[1207,300],[389,955],[-87,716],[-846,1348],[-621,383],[-5675,-64],[-2057,1152],[-3142,1007],[-224,955],[-583,1079],[-680,390],[-836,987],[-325,814],[-1291,1357],[-83,616],[1961,4680],[61,369],[-76,5664],[611,2901],[1458,2877],[720,4571],[1339,4676],[76,1506],[696,2616],[-328,1589],[621,1390],[-599,830],[-318,1757],[-110,2795],[-825,1514],[230,643],[679,299],[123,515],[-995,1080],[-571,1185],[1046,-642],[1653,49],[1091,606],[943,-82],[198,-547],[2752,-1576],[1135,-516],[3984,-38],[1412,-681],[1545,-466],[1975,-220],[548,470],[1523,142],[1280,974],[1766,267],[1288,-629],[1090,-1936],[807,-362],[350,1123],[1032,-189],[2408,-1375],[3462,-315],[2330,464],[377,-449],[1727,-543],[910,-502],[636,976],[125,1239],[1900,2133],[961,507],[833,120],[358,600],[686,-229],[1182,403],[-362,824],[735,1057],[393,-156],[1601,374],[1463,-324],[2724,757],[1917,1062],[1324,93],[1096,-207],[2685,606],[1,5363],[23614,-30],[-170,42490],[-7,10507],[-739,926],[-442,1362],[1203,2735],[-32,737],[986,65],[213,-833],[498,517],[-375,886],[703,1469],[-707,815],[-708,351],[-1779,185],[-1569,1428],[-1523,405],[-765,655],[-494,838],[-988,590],[-2675,401],[-638,564],[424,365],[1778,-29],[2583,542],[1285,88],[506,595],[1218,-289],[3358,-84],[1604,-379],[1068,146],[701,1268],[2885,362],[776,232],[640,743],[220,1084],[678,587],[-894,1579],[69,1344],[379,1163],[776,493],[1730,335],[1162,807],[619,1348],[-363,849],[976,720],[1376,1383],[1370,584],[1915,333],[2390,1425],[-884,1036],[544,362],[-249,1071],[-1004,1119],[1019,210],[-1544,1861],[-1082,469],[-437,824],[-1068,637],[1481,-237],[1012,435],[1526,3005],[131,555],[857,843],[195,1680],[820,810],[-152,607],[289,1282],[-299,1021],[183,1253],[-403,1718],[-218,2245],[-590,1446],[-630,500],[56,684],[-733,1155],[1899,-16],[1465,745],[1835,516],[759,-745],[2079,-391],[2176,376],[3016,743],[1736,-686],[1133,148],[739,-872],[-277,-1495],[1064,-1348],[2789,-886],[3115,1233],[3139,522],[907,280],[1051,1087],[1187,19],[363,365],[3582,1178],[739,-95],[1051,427],[16875,4528],[1044,183],[3711,-146],[417,179],[233,1824],[820,2396],[3570,2362],[2759,1504],[6097,1900],[-26,2073],[1697,1072],[603,678],[1616,-220],[1117,89],[1320,578],[1118,117],[1734,-335],[675,467],[1157,194],[2353,-830],[2082,-273],[458,491],[888,-314],[1311,235],[2911,-477],[1435,237],[1911,-2221],[1854,275],[1249,619],[652,-40],[901,-1105],[612,-30],[547,732],[1532,1284],[1734,1006],[1272,422],[2657,1357],[353,387],[-485,655],[-1347,240],[-1781,-48],[-869,-550],[-682,422],[-3421,796],[1839,2129],[-106,633],[2922,2257],[-131,1616],[460,1349]],[[682645,888460],[1768,19],[275,-1254],[-173,-2369],[-660,-1799],[-501,-874],[97,1],[8745,-11],[53248,-358],[17228,-17],[-1506,2465],[2536,490],[2306,195],[1873,536],[1800,920],[1389,1973],[3395,1584],[1977,-177],[411,167],[-40,1091],[-647,792],[-1875,659],[-1275,263],[-583,567],[-520,1593],[-910,1159],[-96,3796],[-1574,-397],[-1515,8],[-839,1031],[78,515],[-1293,2286],[-338,1214],[-1167,2420],[662,2203],[-4854,574],[-1278,26],[-732,570],[-43,1505],[-283,534],[-1823,1334],[-106,852],[-1795,98],[-1269,-137],[853,1749],[1420,155],[2343,1023],[988,1000],[-63,1073],[-1588,796],[179,1691],[1384,1638],[988,2176],[3035,-993],[2156,-344],[1503,8],[1738,-1638],[777,-254],[2893,75],[1661,-90],[2339,1682],[719,887],[243,1088],[-354,646],[605,727],[5193,2846],[2836,-259],[1868,171],[1729,525],[2892,495],[366,460],[276,1577],[1331,1961],[767,3473],[560,833],[1203,151],[2526,151],[1988,-331],[2821,276],[934,228],[2160,895],[890,1747],[1396,2214],[2952,1539],[239,216],[-9,2389],[182,741],[1154,1459],[106,811],[648,1345],[4447,297],[775,-141],[1168,-1996],[2329,-3403],[2108,-4003],[9820,-16431],[2910,-6839],[11406,-28990],[7192,-10251],[1424,-4],[51642,-102],[-247,-25476]],[[775932,792849],[-1557,-5],[-1352,-223],[-911,777],[-2935,1623],[-651,716],[-428,1642],[-1629,973],[-1204,1887],[-390,928],[-715,637],[970,1122],[474,1574],[731,1617],[302,1556],[-578,1122],[11,948],[-474,883],[1101,1194],[-1095,2294],[-2584,2205],[-3271,2113],[-479,727],[-1564,1563],[-2059,-295],[-9,-554],[-801,-536],[-935,103],[-827,462],[-1733,-1124],[-753,-152],[-1476,-778],[-253,-755],[-1464,-189],[-109,-494],[-1402,-368],[-89,-634],[-1138,-371],[-1200,-855],[748,-1937],[-920,40],[-727,-1035],[-1673,-132],[-2549,1657],[-1526,-6],[-792,312],[-597,1015],[734,1364],[-116,599],[-2628,748],[-1227,649],[-2361,649],[-1292,200],[-3417,1122],[-359,-430],[-7,-1109],[-4079,1467],[-3184,9],[-3495,-202],[-625,-786],[501,12],[1922,350],[800,247],[566,-20],[424,-366],[2374,-141],[-1999,19],[-1387,358],[-2831,-571],[-1585,185],[-87,9],[-765,-9],[-502,12],[-333,37],[-1898,608],[-945,589]],[[707619,819695],[-1178,957],[-2279,613],[-1126,562],[-503,476],[-244,1544],[-631,811],[-649,247],[-1266,52],[-2093,-584],[-3849,-1671],[-835,-145],[-2216,479],[-2520,161],[-59,259],[-1498,1349],[-497,267],[-2196,124],[-609,-86],[-2243,1620],[-744,280],[-1336,162],[-2552,-388],[-1154,590],[-5014,1664],[-2162,1250],[-854,1361],[-560,508],[-131,-417],[-82,-270],[-206,-624],[-74,-383],[-694,391],[-1336,52],[-77,0],[-1244,-43],[-2424,43],[-3800,87],[-2396,-128]],[[703982,782597],[-8,172],[-17376,8215],[-3881,2016],[-2351,1518],[-4793,3456],[1980,14],[885,-511],[1518,-52],[811,-413],[1367,527],[1147,-643],[-1,1068],[5168,-24],[29,3310],[-12,3329],[40,6609],[5105,-5],[12,1617],[1025,1751],[4584,-19],[15,-3353],[824,-10],[1403,1274],[1489,2431],[1383,225],[18,2585],[-8,1703],[3137,0],[127,308]],[[615451,702812],[-2,-10888],[-97,-468],[59,-8221],[-51,-3918],[65,-5659]],[[615425,673658],[57,-4879],[-20,-999],[-47,-2399],[28,-5061],[-22,-14871],[-102,-3081],[-4,-128],[-45,-1620],[33,-1553],[75,-3156],[15,-3980],[-33,-706],[-33,-1965],[-17,-1091],[76,-6797],[14,-522],[0,-1734],[1,-4084],[2,-8628],[4,-22704],[7,-34065]],[[637369,758343],[456,3],[356,760],[1500,1732],[677,1622],[1322,2557],[-115,2453],[581,509],[921,135],[2065,1798],[2454,1414],[1404,1185],[436,821],[-208,2260],[1694,910],[-466,960],[2527,95],[7046,26],[1295,91],[3855,39],[-38,-2855],[15475,-4],[20,1644],[2110,-3],[-1684,1628],[1494,-163],[705,194],[12,3235],[2861,10],[774,-668],[-63,-986],[-1267,716],[-958,2],[203,-736],[-1345,160],[276,-1109],[1106,-579],[253,-508],[1075,636],[816,-705],[704,398],[574,-643],[1623,12],[1317,679],[1243,-144],[1589,-660],[494,-479],[-2303,82],[-69,-496],[1719,-1989],[-439,-238],[-1302,835],[-1605,-609],[-649,292],[-1335,-46],[-366,-590],[786,-708],[1838,-933],[987,-785],[438,-1234],[920,-725],[761,1335],[1342,1408],[1395,515],[1664,-1879],[2642,-2588],[1705,-2807],[1274,-1057]],[[694600,680658],[-54,-5080],[-10333,43],[6,3328],[-10243,-57],[67,3323],[-5124,-5],[-67,-9979],[-7818,-9],[-1026,1140],[637,847],[50,1312],[-6218,27],[-400,2547],[-2181,-8],[-1665,-554],[-791,432],[-993,4],[-2569,62],[-892,-169],[-1609,153],[7,831],[-10110,33],[22,-5017],[-661,-1163],[-990,-491],[-5645,-12],[-387,246],[-114,1418],[-9592,-14],[-482,-188]]],"bbox":[-118.232178,42.211238,-116.273402,44.411908],"transform":{"scale":[0.000001958777958777959,0.000002200672200672196],"translate":[-118.232178,42.211238]}}
