{"type":"Topology","objects":{"foo":{"type":"GeometryCollection","geometries":[{"type":"MultiPolygon","arcs":[[[0,1,2]]],"properties":{"postal_code":"99169","realtor_list_price":291789.2,"realtor_list_price_yoy":0.0022,"realtor_list_price_base":1.4158,"realtor_active_listings":14.333,"realtor_active_listings_yoy":-0.3175,"realtor_active_listings_base":-0.0928,"realtor_new_listings":3.333,"realtor_new_listings_yoy":0,"realtor_new_listings_base":-0.1515,"realtor_days_on_market":115.2,"realtor_days_on_market_yoy":1.0211,"realtor_days_on_market_base":0.5303,"zhvi":236178.431,"zhvi_yoy":-0.0331,"zhvi_base":0.945,"zori":"NA","zori_yoy":"NA","zori_base":"NA"}},{"type":"MultiPolygon","arcs":[[[3,4]]],"properties":{"postal_code":"99326","realtor_list_price":339000,"realtor_list_price_yoy":-0.124,"realtor_list_price_base":0.7033,"realtor_active_listings":9,"realtor_active_listings_yoy":-0.1562,"realtor_active_listings_base":-0.1597,"realtor_new_listings":0.667,"realtor_new_listings_yoy":0,"realtor_new_listings_base":-0.7755,"realtor_days_on_market":89,"realtor_days_on_market_yoy":0.3485,"realtor_days_on_market_base":0.6127,"zhvi":319929.076,"zhvi_yoy":0.025,"zhvi_base":0.7244,"zori":"NA","zori_yoy":"NA","zori_base":"NA"}},{"type":"MultiPolygon","arcs":[[[-2,5,-4,6,7]]],"properties":{"postal_code":"99341","realtor_list_price":"NA","realtor_list_price_yoy":"NA","realtor_list_price_base":"NA","realtor_active_listings":7.333,"realtor_active_listings_yoy":0.1,"realtor_active_listings_base":0.4057,"realtor_new_listings":0,"realtor_new_listings_yoy":-1,"realtor_new_listings_base":-1,"realtor_days_on_market":"NA","realtor_days_on_market_yoy":"NA","realtor_days_on_market_base":"NA","zhvi":206271.07,"zhvi_yoy":0.0123,"zhvi_base":1.0664,"zori":"NA","zori_yoy":"NA","zori_base":"NA"}},{"type":"MultiPolygon","arcs":[[[-3,-8,8]]],"properties":{"postal_code":"98857","realtor_list_price":340401.5,"realtor_list_price_yoy":0.1065,"realtor_list_price_base":1.1005,"realtor_active_listings":13.667,"realtor_active_listings_yoy":0.5185,"realtor_active_listings_base":0.5336,"realtor_new_listings":2.667,"realtor_new_listings_yoy":0.3333,"realtor_new_listings_base":-0.3198,"realtor_days_on_market":65.5,"realtor_days_on_market_yoy":-0.2906,"realtor_days_on_market_base":-0.1378,"zhvi":285512.935,"zhvi_yoy":-0.0006,"zhvi_base":0.9976,"zori":"NA","zori_yoy":"NA","zori_base":"NA"}}]}},"arcs":[[[218569,725650],[45,17248],[81763,-366],[-122,34118],[16291,-35],[-298,-34390],[13474,-5],[18642,347],[53,0],[520,-2],[32514,132],[237,25554],[23795,-83],[7128,355],[64041,543],[16238,2375],[16100,-686],[16575,1430],[-23,17945],[436,7466],[199,34379],[8202,122],[417,34450],[8578,71],[274,16623],[-974,42],[-16803,-686],[252,14756],[16694,0],[3998,-18],[117,17041],[16218,-19],[318,49493],[1566,567],[4959,-2811],[1464,-2241],[8586,-5837],[2958,1563],[3184,-1434],[11843,2277],[2592,1892],[2976,1433],[4339,-25],[9377,462],[4651,1162],[7325,2621],[1028,80],[9381,-2833],[6284,-1633],[2218,4490],[6474,4253],[656,1082],[2936,490],[4296,2331],[244,1022],[-801,27186],[16627,52],[32749,-136],[-77,-16933],[228,-1389],[-216,-1219],[-243,-32152],[16654,148],[-355,-17376],[3599,19],[-955,2553],[437,3375],[693,809],[4215,1971],[2261,-593],[2723,2158],[1722,702],[5215,-459],[3803,-1730],[1208,54],[5137,-2134],[3649,591],[3933,3562],[5833,510],[1954,1186],[2553,623],[1342,-738],[167,-2588],[2294,-14111],[-14,-3663],[-446,-2689],[-1910,-5974],[-216,-1146],[-212,-15732],[16519,-90],[16485,35],[49398,-11],[1766,-126],[-536,-296],[-1667,-2823],[-4230,-3403],[-329,-1299],[276,-3036],[-253,-8908],[-780,-3556],[429,-3603],[-153,-5222],[-54351,-24963],[-3074,-1890],[1132,-2351],[1063,-3650],[-6586,-24],[-5338,-4312],[-3450,-3213],[-2180,-3143],[-948,-2221],[-535,-2918],[-918,-1843],[-3159,-236],[-2731,378],[-183,532],[-230,1015],[-2661,-1275],[-22242,-178],[-136,-16988],[-7322,-366],[-3556,-2044],[-1834,-3439],[-6625,-11305],[12406,24],[8260,12],[-1239,3898],[84,3025],[9232,10030],[910,165],[17852,35],[1231,816],[2669,-816],[41677,-59],[-405,-49925],[321,-1264],[4436,4430],[2409,1678],[2088,508],[4062,2055],[5736,4773],[12265,13216],[876,1124],[1520,6211],[1362,3344],[410,2137],[1351,12473],[54,11607],[168,2760],[1190,8255],[981,3399],[535,4739],[1354,18796],[6631,-142],[3748,591],[3105,1193],[20988,11849],[2555,1028],[4772,1288],[1622,779],[5614,5175],[-437,3958],[254,4147],[-408,1984],[1896,1346],[1792,-120],[1307,-1511],[1153,-106],[2588,2056],[558,1605],[3598,3248],[375,3319],[638,1502],[3534,4766],[71852,597],[386,-46643],[447,-116656],[-165,-3600],[246,-55161],[66,-6641],[72,-7088],[-348,-51841],[-47018,-26],[-3700,-7816],[-2479,-7191],[-1102,-5277],[-1400,-9878],[-1918,-788],[-2822,-2493],[-4054,-1193],[-23672,-378],[-2540,-779],[-2784,815],[-4413,23],[482,17154],[-38,14767],[-245,1052],[-1973,1512],[-5578,-76],[-1260,360],[-1904,1760],[-3664,7277],[-2119,4749],[-619,2765],[298,11424],[-2585,5694],[-2142,2032],[-4635,2682],[-329,768],[-6111,-2800],[-4964,-5931],[-635,-1925],[-436,-3875],[-5556,-1887],[-1833,-1365],[-5256,-5382],[-3336,-876],[-2978,-227],[-8209,950],[-1348,-380],[-3672,-1863],[-7295,-4330],[-3233,-2660],[183,-481],[-7889,-7219],[-1014,-1429],[-199,58],[-2287,-6924],[-52,-3457],[407,-1646],[101,-3699],[-293,-1940],[-1356,-4335],[-615,-3941],[-1531,-15478],[-4968,-24724],[-946,-6348],[1936,-10988],[765,-2943],[1329,-3039],[2,-12672],[1020,-17285],[-23524,52],[-1454,349],[-3164,-339],[-4532,380],[-3204,-578],[-54672,-233],[-151,-2579],[-341,-15214],[-17924,-980],[-32319,228]],[[663884,468078],[157,18199],[1522,12],[-5,34422],[-8047,15],[-28,8650],[8083,-24],[161,8782],[2131,-656],[-1270,14224],[-3633,-1512],[-5629,-4241],[-15917,-13515],[-2019,-1181],[-5714,-1773],[-4497,-23],[-4260,-437],[-207,-1241],[-298,-6982],[-13591,-142],[2516,2446],[3411,2067],[-260,1619],[-176,28566],[-7992,-83],[-32652,-1595],[138,-3390],[-184,-6096],[-1552,2670],[-3595,2528],[-5614,2906],[-6731,1453],[10616,13362],[620,2327],[-1461,5021],[390,2256],[3136,5801],[573,4371],[-229,6179],[-3149,2717],[13969,9556],[12583,6049],[1122,55],[3172,-1450],[1696,471],[184,903],[-1752,-941],[-1180,400],[-3276,5165],[-3448,-2088],[-15567,-6813],[-4380,-3633],[-8429,-4547],[-963,4674],[-1187,3955],[-715,8717],[-1690,-1559],[-15374,224],[-206,8778],[160,8695],[643,8494],[191,19097],[92,17916],[-15894,-1642],[-19014,166],[589,-69265],[-933,-638],[-15167,23],[138,17142],[-32285,-614],[131,17417],[83,16997],[-64585,-247],[-132,23272],[-7890,-1087],[-115,-22245],[-6187,-130],[-1545,-508],[-184,-34461],[-131088,-130]],[[250195,621948],[528,9073],[168,8104],[48499,272],[306,34189],[-16000,-9],[-32797,198],[-8397,-391],[-7917,160],[77,7067],[-687,-69],[-4068,312],[-11342,3714],[10,3810],[-6,37272]],[[378124,344818],[8774,-61],[8711,-3188],[3734,3418],[7289,260],[-2151,-1535],[-3270,-3482],[-6084,-1000],[-2165,-745],[-8780,-7797],[-2728,-2907],[13063,-5],[152,-16810],[15948,-204],[12786,739],[15275,108],[32123,-24],[-42,-8761],[-42,-5238],[-138,-2694],[-321,-839],[-765,-1051],[-21240,-16053],[22441,-54]],[[470694,276895],[-53,-33829],[51,-7826],[1933,-3162],[-2348,-4897],[-3179,-4337],[-920,-2457],[-431,-4540],[665,-2673],[-1786,-3775],[-664,-3393],[-918,-2253],[-1898,-2742],[-1562,-1406],[-1488,-2911],[-5277,-2221],[-5238,-771],[-1718,-1055],[-1796,-2155],[-2412,-897],[-2842,-48],[95,-15590],[32315,-42],[534,-27953],[314,-1236],[984,-4453],[-1212,-2837],[-110,-834],[174,-12169],[-105,-287],[-245,-522],[-506,-862],[-1327,-2631],[-210,-3394],[840,-983],[1725,-2312],[72,-14999],[-316,-1609],[-1841,-4402],[140,-3496],[-404,-1448],[-2591,-2823],[-2471,-3338],[-303,-1039],[362,-9320],[-8078,64],[-1712,-185],[-4055,-1407],[-1817,-984],[-1902,-641],[-14012,343],[-4240,732],[-3268,1075],[-3812,-1682],[-6908,-839],[-1974,-1146],[-2042,-2906],[-3615,-1914],[-4937,-3662],[-474,-2259],[471,-3316],[-1015,-4824],[-3068,-3695],[-2769,-1341],[-1317,-1301],[-1849,-3005],[-908,-502],[-3415,-310],[-2075,-1696],[-1504,-2392],[-2027,-2028],[-3236,-6690],[-1587,-1538],[-6195,-9791],[-2748,-2074],[-2165,-2899],[-900,-4035],[15,-3143],[-919,-977],[-11180,92],[-57,8074],[-236,1020],[-2108,2466],[-395,1452],[1799,4114],[474,7788],[-1540,3311],[-1983,2051],[-1844,2724],[-757,3499],[1828,6401],[-751,313],[-2320,-849],[-1398,698],[1372,7724],[-162,1558],[116,17852],[-630,1310],[-888,-520],[-37410,-34],[-15634,27],[-770,297],[-6454,4891],[-3018,-63],[-3555,1948],[453,2037],[2277,2879],[1524,2946],[1021,4752],[-544,3772],[-2748,5869],[-1066,4980],[1795,-91],[289,32530],[230,19094],[-16453,-59],[-5246,400],[-58784,254],[-532,-47],[-12,9202],[-30843,589],[-35715,-5153],[-10019,5604],[4238,5850],[18,2094],[-887,2419],[597,4930],[-773,3604],[86,4027],[-513,2374],[985,4353],[2456,6025],[363,6644],[1551,2475],[-1106,1913],[322,1270],[-553,3132],[-1532,1490],[-255,1605],[-2728,4688],[-1370,3387],[-1154,132],[671,3066],[-94,1752],[-1919,4424],[454,2512],[-406,3417],[207,2890],[634,1869],[-634,2629],[1768,1256],[3753,-271],[10337,-255],[2524,423],[2044,1932],[-6354,10994],[-1015,3116],[940,4071],[-2496,1154],[-9472,2882],[-4615,1237],[23547,-126],[73775,-1466],[-87,28713],[5038,-6695],[333,-808],[9044,-17311],[2092,-3433],[567,-336],[16047,-319],[-80,17286],[16212,-110],[144,-17294],[16268,-224],[-160,17130],[32376,-177],[-115,16657],[20902,-16],[1754,4303],[822,2897],[-99,1362],[2784,35],[61,8410],[-1735,-10],[5184,17102],[18461,12],[16121,24]],[[663884,468078],[-378,-34703],[-115,-17331],[-32284,319],[-16116,165],[-99,-17271],[-15290,-121],[84,-17116],[-389,-33327],[-62,-331],[-206,-863],[-23,-224],[222,-603],[-85,-16563],[-16290,-59],[-399,-52312],[-32312,-67],[-47252,-396],[-32196,-380]],[[378124,344818],[321,33445],[-244,17532],[-16185,224],[-6218,-1040],[-3361,339],[517,3936],[966,1810],[4072,4727],[2597,3458],[1144,3997],[1935,2134],[99,3862],[3258,7480],[11206,15880],[3981,6346],[-51899,-168],[390,33303],[406,2457]],[[331109,484540],[413,3072],[298,46110],[-5002,-2588],[-956,-35],[-9522,1240],[-4605,-11],[-5155,555],[-3243,1441],[-742,626],[-3648,4773],[222,39139],[-459,8577],[-48943,-23],[428,34532]],[[331109,484540],[-32671,-206],[-32189,-207],[-16138,106],[-273,1],[-32330,-79],[-27,0],[-73696,539],[-11424,99],[-45546,421],[-644,-32],[-7335,83],[-40719,-75],[-15444,7],[-1550,2015],[-2020,646],[-68,1606],[1492,1168],[831,2534],[36,2475],[1160,3777],[-2349,6840],[-914,1651],[-1088,5863],[215,5597],[-1520,5265],[-1631,1989],[-1354,666],[-2159,-103],[-3065,1988],[-2462,4763],[195,6392],[-3257,4969],[-99,1329],[647,2203],[570,781],[951,2153],[252,1921],[-1039,3787],[509,1860],[-2203,4206],[-1342,894],[-1411,7218],[1946,49],[2995,485],[7195,828],[2202,-536],[4245,1123],[2659,1268],[1066,168],[4274,750],[4238,1325],[4941,539],[2008,-188],[4875,-2061],[1724,3],[2622,2017],[4854,2323],[4347,802],[2359,1589],[1685,416],[1132,-1085],[422,-2164],[3733,-689],[4243,1317],[2326,1798],[2491,-2472],[2171,-1446],[1331,1380],[2293,1391],[1981,2390],[2631,4521],[599,1815],[4323,-112],[975,874],[-1722,3207],[782,5656],[3391,542],[1274,-1594],[1233,408],[3522,2899],[1626,1871],[388,1315],[-1887,3468],[-294,1548],[602,1445],[2795,-1473],[1939,393],[168,3680],[-1330,915],[-3539,216],[-435,753],[2368,1261],[4214,-593],[1510,1877],[1297,135],[1686,1297],[3194,3798],[1759,1052],[857,2359],[-1443,2363],[189,2177],[1404,844],[1557,2891],[422,2895],[1029,1724],[2417,1207],[2492,-1042],[-195,-3161],[2265,-1340],[761,39],[4343,2528],[2288,572],[324,1878],[-1552,0],[-455,1257],[1773,1257],[1488,62],[2170,-86],[-669,2326],[211,2391],[4255,0],[38,26195],[-276,946],[470,16353],[6,418],[-14,4963],[1937,1764],[2426,33],[976,1114],[872,2942],[1892,247],[1762,-1763],[2844,-841],[1665,1360],[-111,4230],[2285,1763],[620,1826],[1659,1017],[1364,-893],[890,-2495],[1505,-1127],[5810,-1042],[78,21075],[48513,280]]],"bbox":[-119.266996,46.501525,-117.959554,47.347986],"transform":{"scale":[0.0000013074433074433163,8.464618464618444e-7],"translate":[-119.266996,46.501525]}}
