{"type":"Topology","objects":{"foo":{"type":"GeometryCollection","geometries":[{"type":"MultiPolygon","arcs":[[[0,1,2,3,4]]],"properties":{"postal_code":"61334","realtor_list_price":189750,"realtor_list_price_yoy":-0.0873,"realtor_list_price_base":"NA","realtor_active_listings":1.333,"realtor_active_listings_yoy":0,"realtor_active_listings_base":-0.5573,"realtor_new_listings":0.667,"realtor_new_listings_yoy":0,"realtor_new_listings_base":-0.1,"realtor_days_on_market":44,"realtor_days_on_market_yoy":2.1429,"realtor_days_on_market_base":"NA","zhvi":178719.611,"zhvi_yoy":-0.0046,"zhvi_base":0.6904,"zori":"NA","zori_yoy":"NA","zori_base":"NA"}},{"type":"MultiPolygon","arcs":[[[5,6]]],"properties":{"postal_code":"61316","realtor_list_price":"NA","realtor_list_price_yoy":"NA","realtor_list_price_base":"NA","realtor_active_listings":0.667,"realtor_active_listings_yoy":-0.7143,"realtor_active_listings_base":"NA","realtor_new_listings":0,"realtor_new_listings_yoy":"NaN","realtor_new_listings_base":"NA","realtor_days_on_market":"NA","realtor_days_on_market_yoy":"NA","realtor_days_on_market_base":"NA","zhvi":"NA","zhvi_yoy":"NA","zhvi_base":"NA","zori":"NA","zori_yoy":"NA","zori_base":"NA"}},{"type":"MultiPolygon","arcs":[[[7,8]]],"properties":{"postal_code":"60557","realtor_list_price":"NA","realtor_list_price_yoy":"NA","realtor_list_price_base":"NA","realtor_active_listings":1,"realtor_active_listings_yoy":0,"realtor_active_listings_base":"NA","realtor_new_listings":0,"realtor_new_listings_yoy":"NaN","realtor_new_listings_base":"NA","realtor_days_on_market":"NA","realtor_days_on_market_yoy":"NA","realtor_days_on_market_base":"NA","zhvi":"NA","zhvi_yoy":"NA","zhvi_base":"NA","zori":"NA","zori_yoy":"NA","zori_base":"NA"}},{"type":"MultiPolygon","arcs":[[[9,10]]],"properties":{"postal_code":"61320","realtor_list_price":177000,"realtor_list_price_yoy":"NA","realtor_list_price_base":"NA","realtor_active_listings":2.333,"realtor_active_listings_yoy":0.1667,"realtor_active_listings_base":0.6804,"realtor_new_listings":0.667,"realtor_new_listings_yoy":"Inf","realtor_new_listings_base":"NA","realtor_days_on_market":71,"realtor_days_on_market_yoy":"NA","realtor_days_on_market_base":"NA","zhvi":163635.2,"zhvi_yoy":0.062,"zhvi_base":0.8091,"zori":"NA","zori_yoy":"NA","zori_base":"NA"}},{"type":"MultiPolygon","arcs":[[[11]]],"properties":{"postal_code":"61323","realtor_list_price":"NA","realtor_list_price_yoy":"NA","realtor_list_price_base":"NA","realtor_active_listings":0.667,"realtor_active_listings_yoy":-0.3333,"realtor_active_listings_base":"NA","realtor_new_listings":0,"realtor_new_listings_yoy":"NaN","realtor_new_listings_base":"NA","realtor_days_on_market":"NA","realtor_days_on_market_yoy":"NA","realtor_days_on_market_base":"NA","zhvi":"NA","zhvi_yoy":"NA","zhvi_base":"NA","zori":"NA","zori_yoy":"NA","zori_base":"NA"}},{"type":"MultiPolygon","arcs":[[[12,13]]],"properties":{"postal_code":"61338","realtor_list_price":230000,"realtor_list_price_yoy":"NA","realtor_list_price_base":"NA","realtor_active_listings":1,"realtor_active_listings_yoy":0.5,"realtor_active_listings_base":-0.3988,"realtor_new_listings":1.333,"realtor_new_listings_yoy":"Inf","realtor_new_listings_base":"NA","realtor_days_on_market":4,"realtor_days_on_market_yoy":"NA","realtor_days_on_market_base":"NA","zhvi":"NA","zhvi_yoy":"NA","zhvi_base":"NA","zori":"NA","zori_yoy":"NA","zori_base":"NA"}},{"type":"MultiPolygon","arcs":[[[14]]],"properties":{"postal_code":"61363","realtor_list_price":"NA","realtor_list_price_yoy":"NA","realtor_list_price_base":"NA","realtor_active_listings":1,"realtor_active_listings_yoy":0,"realtor_active_listings_base":"NA","realtor_new_listings":0,"realtor_new_listings_yoy":"NaN","realtor_new_listings_base":"NA","realtor_days_on_market":"NA","realtor_days_on_market_yoy":"NA","realtor_days_on_market_base":"NA","zhvi":"NA","zhvi_yoy":"NA","zhvi_base":"NA","zori":"NA","zori_yoy":"NA","zori_base":"NA"}},{"type":"MultiPolygon","arcs":[[[15]]],"properties":{"postal_code":"61328","realtor_list_price":"NA","realtor_list_price_yoy":"NA","realtor_list_price_base":"NA","realtor_active_listings":1,"realtor_active_listings_yoy":0.5,"realtor_active_listings_base":"NA","realtor_new_listings":0,"realtor_new_listings_yoy":"NaN","realtor_new_listings_base":"NA","realtor_days_on_market":"NA","realtor_days_on_market_yoy":"NA","realtor_days_on_market_base":"NA","zhvi":"NA","zhvi_yoy":"NA","zhvi_base":"NA","zori":"NA","zori_yoy":"NA","zori_base":"NA"}},{"type":"MultiPolygon","arcs":[[[16,17]]],"properties":{"postal_code":"61340","realtor_list_price":"NA","realtor_list_price_yoy":"NA","realtor_list_price_base":"NA","realtor_active_listings":1,"realtor_active_listings_yoy":2,"realtor_active_listings_base":-0.1189,"realtor_new_listings":0,"realtor_new_listings_yoy":"NaN","realtor_new_listings_base":"NA","realtor_days_on_market":"NA","realtor_days_on_market_yoy":"NA","realtor_days_on_market_base":"NA","zhvi":"NA","zhvi_yoy":"NA","zhvi_base":"NA","zori":"NA","zori_yoy":"NA","zori_base":"NA"}},{"type":"MultiPolygon","arcs":[[[18,19,20,21,22,23]]],"properties":{"postal_code":"61373","realtor_list_price":173725,"realtor_list_price_yoy":-0.4396,"realtor_list_price_base":0.7614,"realtor_active_listings":11.333,"realtor_active_listings_yoy":0.4783,"realtor_active_listings_base":-0.2075,"realtor_new_listings":2.667,"realtor_new_listings_yoy":3,"realtor_new_listings_base":-0.372,"realtor_days_on_market":57.5,"realtor_days_on_market_yoy":-0.8278,"realtor_days_on_market_base":-0.1019,"zhvi":272005.788,"zhvi_yoy":0.0693,"zhvi_base":0.7148,"zori":"NA","zori_yoy":"NA","zori_base":"NA"}},{"type":"MultiPolygon","arcs":[[[24,25]]],"properties":{"postal_code":"61329","realtor_list_price":"NA","realtor_list_price_yoy":"NA","realtor_list_price_base":"NA","realtor_active_listings":7.333,"realtor_active_listings_yoy":2.1429,"realtor_active_listings_base":0.6559,"realtor_new_listings":0,"realtor_new_listings_yoy":-1,"realtor_new_listings_base":-1,"realtor_days_on_market":"NA","realtor_days_on_market_yoy":"NA","realtor_days_on_market_base":"NA","zhvi":147443.611,"zhvi_yoy":0.0637,"zhvi_base":0.5863,"zori":"NA","zori_yoy":"NA","zori_base":"NA"}},{"type":"MultiPolygon","arcs":[[[26,27,28,29,30]]],"properties":{"postal_code":"60470","realtor_list_price":"NA","realtor_list_price_yoy":"NA","realtor_list_price_base":"NA","realtor_active_listings":0.667,"realtor_active_listings_yoy":-0.3333,"realtor_active_listings_base":-0.7466,"realtor_new_listings":0,"realtor_new_listings_yoy":"NaN","realtor_new_listings_base":-1,"realtor_days_on_market":"NA","realtor_days_on_market_yoy":"NA","realtor_days_on_market_base":"NA","zhvi":205925.471,"zhvi_yoy":0.0761,"zhvi_base":"NA","zori":"NA","zori_yoy":"NA","zori_base":"NA"}},{"type":"MultiPolygon","arcs":[[[31,32,33,34,35,36,37]]],"properties":{"postal_code":"60551","realtor_list_price":416249,"realtor_list_price_yoy":-0.0892,"realtor_list_price_base":0.5028,"realtor_active_listings":4.333,"realtor_active_listings_yoy":-0.2353,"realtor_active_listings_base":-0.7101,"realtor_new_listings":0.667,"realtor_new_listings_yoy":-0.5,"realtor_new_listings_base":-0.8436,"realtor_days_on_market":41,"realtor_days_on_market_yoy":-0.0465,"realtor_days_on_market_base":-0.3018,"zhvi":305435.789,"zhvi_yoy":0.0549,"zhvi_base":0.6369,"zori":"NA","zori_yoy":"NA","zori_base":"NA"}},{"type":"MultiPolygon","arcs":[[[38,39,-31,40]]],"properties":{"postal_code":"61325","realtor_list_price":"NA","realtor_list_price_yoy":"NA","realtor_list_price_base":"NA","realtor_active_listings":1,"realtor_active_listings_yoy":0,"realtor_active_listings_base":-0.8065,"realtor_new_listings":0,"realtor_new_listings_yoy":"NaN","realtor_new_listings_base":"NA","realtor_days_on_market":"NA","realtor_days_on_market_yoy":"NA","realtor_days_on_market_base":"NA","zhvi":238886.43,"zhvi_yoy":0.0555,"zhvi_base":"NA","zori":"NA","zori_yoy":"NA","zori_base":"NA"}},{"type":"MultiPolygon","arcs":[[[41,42,43,44,45,46,47]]],"properties":{"postal_code":"61330","realtor_list_price":195000,"realtor_list_price_yoy":"NA","realtor_list_price_base":"NA","realtor_active_listings":2.333,"realtor_active_listings_yoy":0.4,"realtor_active_listings_base":-0.7124,"realtor_new_listings":0.667,"realtor_new_listings_yoy":"Inf","realtor_new_listings_base":-0.4025,"realtor_days_on_market":58,"realtor_days_on_market_yoy":"NA","realtor_days_on_market_base":"NA","zhvi":177900.477,"zhvi_yoy":0.0598,"zhvi_base":0.7614,"zori":"NA","zori_yoy":"NA","zori_base":"NA"}},{"type":"MultiPolygon","arcs":[[[-29,48]]],"properties":{"postal_code":"60437","realtor_list_price":210000,"realtor_list_price_yoy":"NA","realtor_list_price_base":"NA","realtor_active_listings":1,"realtor_active_listings_yoy":0,"realtor_active_listings_base":-0.5463,"realtor_new_listings":0.667,"realtor_new_listings_yoy":"Inf","realtor_new_listings_base":"NA","realtor_days_on_market":10,"realtor_days_on_market_yoy":"NA","realtor_days_on_market_base":"NA","zhvi":"NA","zhvi_yoy":"NA","zhvi_base":"NA","zori":"NA","zori_yoy":"NA","zori_base":"NA"}},{"type":"MultiPolygon","arcs":[[[49,50,51,52]]],"properties":{"postal_code":"61421","realtor_list_price":"NA","realtor_list_price_yoy":"NA","realtor_list_price_base":"NA","realtor_active_listings":2.333,"realtor_active_listings_yoy":2.5,"realtor_active_listings_base":-0.4438,"realtor_new_listings":0,"realtor_new_listings_yoy":"NaN","realtor_new_listings_base":-1,"realtor_days_on_market":"NA","realtor_days_on_market_yoy":"NA","realtor_days_on_market_base":"NA","zhvi":133686.803,"zhvi_yoy":0.0082,"zhvi_base":0.3324,"zori":"NA","zori_yoy":"NA","zori_base":"NA"}},{"type":"MultiPolygon","arcs":[[[-50,53]]],"properties":{"postal_code":"61345","realtor_list_price":"NA","realtor_list_price_yoy":"NA","realtor_list_price_base":"NA","realtor_active_listings":0.333,"realtor_active_listings_yoy":-0.75,"realtor_active_listings_base":-0.8196,"realtor_new_listings":0,"realtor_new_listings_yoy":"NaN","realtor_new_listings_base":"NA","realtor_days_on_market":"NA","realtor_days_on_market_yoy":"NA","realtor_days_on_market_base":"NA","zhvi":"NA","zhvi_yoy":"NA","zhvi_base":"NA","zori":"NA","zori_yoy":"NA","zori_base":"NA"}},{"type":"MultiPolygon","arcs":[[[54,55,56,57]]],"properties":{"postal_code":"61322","realtor_list_price":"NA","realtor_list_price_yoy":"NA","realtor_list_price_base":"NA","realtor_active_listings":3.333,"realtor_active_listings_yoy":0,"realtor_active_listings_base":0.1642,"realtor_new_listings":0,"realtor_new_listings_yoy":"NaN","realtor_new_listings_base":-1,"realtor_days_on_market":"NA","realtor_days_on_market_yoy":"NA","realtor_days_on_market_base":"NA","zhvi":"NA","zhvi_yoy":"NA","zhvi_base":"NA","zori":"NA","zori_yoy":"NA","zori_base":"NA"}},{"type":"MultiPolygon","arcs":[[[58,59]]],"properties":{"postal_code":"61311","realtor_list_price":"NA","realtor_list_price_yoy":"NA","realtor_list_price_base":"NA","realtor_active_listings":1,"realtor_active_listings_yoy":0,"realtor_active_listings_base":"NA","realtor_new_listings":0,"realtor_new_listings_yoy":"NaN","realtor_new_listings_base":"NA","realtor_days_on_market":"NA","realtor_days_on_market_yoy":"NA","realtor_days_on_market_base":"NA","zhvi":"NA","zhvi_yoy":"NA","zhvi_base":"NA","zori":"NA","zori_yoy":"NA","zori_base":"NA"}},{"type":"MultiPolygon","arcs":[[[-33,60,61]]],"properties":{"postal_code":"60548","realtor_list_price":410034,"realtor_list_price_yoy":0.0728,"realtor_list_price_base":0.8463,"realtor_active_listings":20.333,"realtor_active_listings_yoy":0.22,"realtor_active_listings_base":-0.5313,"realtor_new_listings":16.667,"realtor_new_listings_yoy":-0.0385,"realtor_new_listings_base":-0.227,"realtor_days_on_market":41.44,"realtor_days_on_market_yoy":0.7267,"realtor_days_on_market_base":-0.1116,"zhvi":329815.102,"zhvi_yoy":0.0559,"zhvi_base":0.8294,"zori":1097.5,"zori_yoy":"NA","zori_base":"NA"}},{"type":"MultiPolygon","arcs":[[[-47,62]]],"properties":{"postal_code":"61374","realtor_list_price":"NA","realtor_list_price_yoy":"NA","realtor_list_price_base":"NA","realtor_active_listings":1,"realtor_active_listings_yoy":0,"realtor_active_listings_base":"NA","realtor_new_listings":0,"realtor_new_listings_yoy":-1,"realtor_new_listings_base":"NA","realtor_days_on_market":"NA","realtor_days_on_market_yoy":"NA","realtor_days_on_market_base":"NA","zhvi":"NA","zhvi_yoy":"NA","zhvi_base":"NA","zori":"NA","zori_yoy":"NA","zori_base":"NA"}},{"type":"MultiPolygon","arcs":[[[63,-57,64,-17,65,66,67]]],"properties":{"postal_code":"61327","realtor_list_price":"NA","realtor_list_price_yoy":"NA","realtor_list_price_base":"NA","realtor_active_listings":2.667,"realtor_active_listings_yoy":0,"realtor_active_listings_base":-0.4924,"realtor_new_listings":0,"realtor_new_listings_yoy":-1,"realtor_new_listings_base":-1,"realtor_days_on_market":"NA","realtor_days_on_market_yoy":"NA","realtor_days_on_market_base":"NA","zhvi":231860.553,"zhvi_yoy":0.1077,"zhvi_base":0.9556,"zori":"NA","zori_yoy":"NA","zori_base":"NA"}},{"type":"MultiPolygon","arcs":[[[68,69,70,-2,71],[72]]],"properties":{"postal_code":"61370","realtor_list_price":"NA","realtor_list_price_yoy":"NA","realtor_list_price_base":"NA","realtor_active_listings":1.333,"realtor_active_listings_yoy":-0.6,"realtor_active_listings_base":-0.7024,"realtor_new_listings":0,"realtor_new_listings_yoy":"NaN","realtor_new_listings_base":-1,"realtor_days_on_market":"NA","realtor_days_on_market_yoy":"NA","realtor_days_on_market_base":"NA","zhvi":228794.263,"zhvi_yoy":0.1031,"zhvi_base":0.7136,"zori":"NA","zori_yoy":"NA","zori_base":"NA"}},{"type":"MultiPolygon","arcs":[[[-61,-32,73]]],"properties":{"postal_code":"60531","realtor_list_price":447400,"realtor_list_price_yoy":0.8455,"realtor_list_price_base":"NA","realtor_active_listings":5,"realtor_active_listings_yoy":0.5,"realtor_active_listings_base":-0.3931,"realtor_new_listings":0.667,"realtor_new_listings_yoy":0,"realtor_new_listings_base":-0.7633,"realtor_days_on_market":63,"realtor_days_on_market_yoy":0.575,"realtor_days_on_market_base":"NA","zhvi":283825.08,"zhvi_yoy":0.0366,"zhvi_base":0.7245,"zori":"NA","zori_yoy":"NA","zori_base":"NA"}},{"type":"MultiPolygon","arcs":[[[-60,74]]],"properties":{"postal_code":"61333","realtor_list_price":"NA","realtor_list_price_yoy":"NA","realtor_list_price_base":"NA","realtor_active_listings":1,"realtor_active_listings_yoy":2,"realtor_active_listings_base":"NA","realtor_new_listings":0,"realtor_new_listings_yoy":-1,"realtor_new_listings_base":"NA","realtor_days_on_market":"NA","realtor_days_on_market_yoy":"NA","realtor_days_on_market_base":"NA","zhvi":162167.328,"zhvi_yoy":0.1658,"zhvi_base":"NA","zori":"NA","zori_yoy":"NA","zori_base":"NA"}},{"type":"MultiPolygon","arcs":[[[-43,75,76,77,-25,78,79,80],[81]]],"properties":{"postal_code":"61312","realtor_list_price":49000,"realtor_list_price_yoy":-0.7407,"realtor_list_price_base":"NA","realtor_active_listings":1,"realtor_active_listings_yoy":0.5,"realtor_active_listings_base":-0.4402,"realtor_new_listings":1.333,"realtor_new_listings_yoy":1,"realtor_new_listings_base":11,"realtor_days_on_market":8,"realtor_days_on_market_yoy":0.6,"realtor_days_on_market_base":"NA","zhvi":"NA","zhvi_yoy":"NA","zhvi_base":"NA","zori":"NA","zori_yoy":"NA","zori_base":"NA"}},{"type":"MultiPolygon","arcs":[[[82,83,-45,84,-80,85,86,87,-58,-64,88,89,90],[-12],[91]]],"properties":{"postal_code":"61356","realtor_list_price":286661.111,"realtor_list_price_yoy":0.3952,"realtor_list_price_base":1.0875,"realtor_active_listings":23,"realtor_active_listings_yoy":0.2105,"realtor_active_listings_base":-0.7135,"realtor_new_listings":12,"realtor_new_listings_yoy":0.0588,"realtor_new_listings_base":-0.4124,"realtor_days_on_market":44.333,"realtor_days_on_market_yoy":-0.1644,"realtor_days_on_market_base":-0.3924,"zhvi":191094.626,"zhvi_yoy":0.0714,"zhvi_base":0.7538,"zori":"NA","zori_yoy":"NA","zori_base":"NA"}},{"type":"MultiPolygon","arcs":[[[-88,92,-86,-79,-26,-78,93,-11,94,95,-55]]],"properties":{"postal_code":"61362","realtor_list_price":162810,"realtor_list_price_yoy":0.0142,"realtor_list_price_base":0.5915,"realtor_active_listings":12.667,"realtor_active_listings_yoy":0.1176,"realtor_active_listings_base":-0.5271,"realtor_new_listings":3.333,"realtor_new_listings_yoy":-0.5833,"realtor_new_listings_base":-0.6256,"realtor_days_on_market":55.8,"realtor_days_on_market_yoy":0.6292,"realtor_days_on_market_base":-0.1941,"zhvi":153450.921,"zhvi_yoy":0.0489,"zhvi_base":0.6031,"zori":"NA","zori_yoy":"NA","zori_base":"NA"}},{"type":"MultiPolygon","arcs":[[[-77,96,97,98,-7,99,-69,100,-95,-10,-94]]],"properties":{"postal_code":"61354","realtor_list_price":199347.5,"realtor_list_price_yoy":0.1463,"realtor_list_price_base":0.6366,"realtor_active_listings":14.667,"realtor_active_listings_yoy":-0.0833,"realtor_active_listings_base":-0.509,"realtor_new_listings":13.333,"realtor_new_listings_yoy":0.25,"realtor_new_listings_base":0.1718,"realtor_days_on_market":32.7,"realtor_days_on_market_yoy":0.1424,"realtor_days_on_market_base":-0.5571,"zhvi":184044.148,"zhvi_yoy":0.0577,"zhvi_base":0.5609,"zori":"NA","zori_yoy":"NA","zori_base":"NA"}},{"type":"MultiPolygon","arcs":[[[-48,-63,-46,-84,101],[-16]]],"properties":{"postal_code":"61349","realtor_list_price":157500,"realtor_list_price_yoy":"NA","realtor_list_price_base":"NA","realtor_active_listings":1.333,"realtor_active_listings_yoy":-0.2,"realtor_active_listings_base":-0.6955,"realtor_new_listings":1.333,"realtor_new_listings_yoy":"Inf","realtor_new_listings_base":-0.2286,"realtor_days_on_market":11,"realtor_days_on_market_yoy":"NA","realtor_days_on_market_base":"NA","zhvi":158282.571,"zhvi_yoy":0.0815,"zhvi_base":0.7411,"zori":"NA","zori_yoy":"NA","zori_base":"NA"}},{"type":"MultiPolygon","arcs":[[[102,103,-8,104,-36]]],"properties":{"postal_code":"60549","realtor_list_price":365000,"realtor_list_price_yoy":"NA","realtor_list_price_base":"NA","realtor_active_listings":2,"realtor_active_listings_yoy":0.2,"realtor_active_listings_base":-0.5477,"realtor_new_listings":0.667,"realtor_new_listings_yoy":"Inf","realtor_new_listings_base":1,"realtor_days_on_market":171,"realtor_days_on_market_yoy":"NA","realtor_days_on_market_base":"NA","zhvi":326728.795,"zhvi_yoy":0.0743,"zhvi_base":"NA","zori":"NA","zori_yoy":"NA","zori_base":"NA"}},{"type":"MultiPolygon","arcs":[[[-21,105,-37,-105,-9,-104,106,-39,107,108]]],"properties":{"postal_code":"61350","realtor_list_price":346359.906,"realtor_list_price_yoy":0.1813,"realtor_list_price_base":1.1963,"realtor_active_listings":82,"realtor_active_listings_yoy":0.4909,"realtor_active_listings_base":-0.4598,"realtor_new_listings":35.333,"realtor_new_listings_yoy":0.1522,"realtor_new_listings_base":-0.2186,"realtor_days_on_market":52.151,"realtor_days_on_market_yoy":0.0904,"realtor_days_on_market_base":-0.2492,"zhvi":214236.02,"zhvi_yoy":0.0582,"zhvi_base":0.7035,"zori":1294.444,"zori_yoy":"NA","zori_base":"NA"}},{"type":"MultiPolygon","arcs":[[[109,-90,110,111,-52,112]]],"properties":{"postal_code":"61368","realtor_list_price":159900,"realtor_list_price_yoy":"NA","realtor_list_price_base":"NA","realtor_active_listings":2.667,"realtor_active_listings_yoy":1,"realtor_active_listings_base":-0.6662,"realtor_new_listings":0.667,"realtor_new_listings_yoy":"Inf","realtor_new_listings_base":1.4107,"realtor_days_on_market":22,"realtor_days_on_market_yoy":"NA","realtor_days_on_market_base":"NA","zhvi":141227.124,"zhvi_yoy":-0.0005,"zhvi_base":0.6154,"zori":"NA","zori_yoy":"NA","zori_base":"NA"}},{"type":"MultiPolygon","arcs":[[[-4,113]]],"properties":{"postal_code":"61377","realtor_list_price":168000,"realtor_list_price_yoy":-0.2727,"realtor_list_price_base":"NA","realtor_active_listings":3.667,"realtor_active_listings_yoy":-0.1538,"realtor_active_listings_base":-0.538,"realtor_new_listings":0.667,"realtor_new_listings_yoy":-0.5,"realtor_new_listings_base":-0.547,"realtor_days_on_market":64,"realtor_days_on_market_yoy":2.7647,"realtor_days_on_market_base":"NA","zhvi":124375.461,"zhvi_yoy":-0.0684,"zhvi_base":0.3476,"zori":"NA","zori_yoy":"NA","zori_base":"NA"}},{"type":"MultiPolygon","arcs":[[[-13,114,-91,-110,115]]],"properties":{"postal_code":"61379","realtor_list_price":123950,"realtor_list_price_yoy":-0.5392,"realtor_list_price_base":"NA","realtor_active_listings":4,"realtor_active_listings_yoy":2,"realtor_active_listings_base":-0.5362,"realtor_new_listings":1.333,"realtor_new_listings_yoy":1,"realtor_new_listings_base":0.0217,"realtor_days_on_market":82,"realtor_days_on_market_yoy":1.4848,"realtor_days_on_market_base":"NA","zhvi":131142.072,"zhvi_yoy":0.0629,"zhvi_base":0.8086,"zori":"NA","zori_yoy":"NA","zori_base":"NA"}},{"type":"MultiPolygon","arcs":[[[116,-22,-109,117,-70,-100,-6,-99]]],"properties":{"postal_code":"61348","realtor_list_price":194007.143,"realtor_list_price_yoy":-0.1661,"realtor_list_price_base":"NA","realtor_active_listings":6,"realtor_active_listings_yoy":0.125,"realtor_active_listings_base":-0.6463,"realtor_new_listings":4.667,"realtor_new_listings_yoy":0,"realtor_new_listings_base":-0.1947,"realtor_days_on_market":37.429,"realtor_days_on_market_yoy":-0.4426,"realtor_days_on_market_base":"NA","zhvi":169835.486,"zhvi_yoy":0.0424,"zhvi_base":0.5884,"zori":"NA","zori_yoy":"NA","zori_base":"NA"}},{"type":"MultiPolygon","arcs":[[[-111,-89,-68,118]]],"properties":{"postal_code":"61560","realtor_list_price":"NA","realtor_list_price_yoy":"NA","realtor_list_price_base":"NA","realtor_active_listings":19,"realtor_active_listings_yoy":0.0364,"realtor_active_listings_base":-0.5131,"realtor_new_listings":0,"realtor_new_listings_yoy":-1,"realtor_new_listings_base":-1,"realtor_days_on_market":"NA","realtor_days_on_market_yoy":"NA","realtor_days_on_market_base":"NA","zhvi":229601.353,"zhvi_yoy":0.0222,"zhvi_base":0.7847,"zori":"NA","zori_yoy":"NA","zori_base":"NA"}},{"type":"MultiPolygon","arcs":[[[119,-23,-117,-98]]],"properties":{"postal_code":"61301","realtor_list_price":185070,"realtor_list_price_yoy":0.2294,"realtor_list_price_base":1.2077,"realtor_active_listings":22.667,"realtor_active_listings_yoy":0.1724,"realtor_active_listings_base":-0.4428,"realtor_new_listings":13.333,"realtor_new_listings_yoy":0.3333,"realtor_new_listings_base":0.1243,"realtor_days_on_market":67.75,"realtor_days_on_market_yoy":0.1735,"realtor_days_on_market_base":0.0673,"zhvi":142277.912,"zhvi_yoy":0.0606,"zhvi_base":0.6677,"zori":"NA","zori_yoy":"NA","zori_base":"NA"}},{"type":"MultiPolygon","arcs":[[[-103,-35,120,-27,-40,-107]]],"properties":{"postal_code":"61341","realtor_list_price":208925,"realtor_list_price_yoy":-0.058,"realtor_list_price_base":0.4062,"realtor_active_listings":12.333,"realtor_active_listings_yoy":-0.119,"realtor_active_listings_base":-0.7459,"realtor_new_listings":7.333,"realtor_new_listings_yoy":0.1,"realtor_new_listings_base":-0.4491,"realtor_days_on_market":32.909,"realtor_days_on_market_yoy":-0.386,"realtor_days_on_market_base":-0.5112,"zhvi":214364.076,"zhvi_yoy":0.0572,"zhvi_base":0.6996,"zori":"NA","zori_yoy":"NA","zori_base":"NA"}},{"type":"MultiPolygon","arcs":[[[-56,-96,-101,-72,-1,121,-66,-18,-65],[-15]]],"properties":{"postal_code":"61326","realtor_list_price":167500,"realtor_list_price_yoy":"NA","realtor_list_price_base":"NA","realtor_active_listings":5,"realtor_active_listings_yoy":4,"realtor_active_listings_base":0.4243,"realtor_new_listings":1.333,"realtor_new_listings_yoy":"Inf","realtor_new_listings_base":0.0588,"realtor_days_on_market":28,"realtor_days_on_market_yoy":"NA","realtor_days_on_market_base":"NA","zhvi":178314.801,"zhvi_yoy":0.0031,"zhvi_base":0.7541,"zori":"NA","zori_yoy":"NA","zori_base":"NA"}},{"type":"MultiPolygon","arcs":[[[-19,122]]],"properties":{"postal_code":"61372","realtor_list_price":"NA","realtor_list_price_yoy":"NA","realtor_list_price_base":"NA","realtor_active_listings":0.333,"realtor_active_listings_yoy":-0.5,"realtor_active_listings_base":-0.7394,"realtor_new_listings":0,"realtor_new_listings_yoy":-1,"realtor_new_listings_base":-1,"realtor_days_on_market":"NA","realtor_days_on_market_yoy":"NA","realtor_days_on_market_base":"NA","zhvi":"NA","zhvi_yoy":"NA","zhvi_base":"NA","zori":"NA","zori_yoy":"NA","zori_base":"NA"}}]}},"arcs":[[[505197,314202],[3488,15]],[[508685,314217],[27471,49],[28523,-90],[53,-18442],[13843,132],[16,-1107],[13754,311],[1747,-192],[12215,205],[318,-18902],[14061,143]],[[620686,276324],[194,-28509],[-28132,-670],[254,-27830],[7431,114],[-19,-9989],[-7313,-16],[72,-8161],[-265,-910]],[[592908,200353],[-28,-2],[-5551,-118],[-7845,-141],[-4373,-61],[-30830,-407],[-11118,-61]],[[533163,199563],[-2894,-31],[-3154,-16],[-18150,-177],[-78,28859],[-69,28303],[-44,14626],[-52,23364],[-1094,455],[-4039,-199],[1621,12572],[-13,6883]],[[542463,408854],[3780,-27]],[[546243,408827],[32,-18866],[-5765,53],[-1896,3458],[-372,2820],[-2615,2652],[-65,-4339],[8,-4583],[-6065,-68],[-7314,-65],[-24,9316],[6245,52],[272,54],[867,379],[2915,4085],[-1364,2797],[1833,2321],[9528,-39]],[[795100,639692],[-63,5755],[313,1361],[873,922],[2175,288],[604,355],[865,1485],[2825,7355],[7450,44],[-11,-1220]],[[810131,656037],[-3629,-3919],[-1664,-6728],[-2106,-4521],[-2678,-7078],[-5409,-5680],[-126,152],[-190,230],[-419,506],[-1209,-2950],[-293,-1239],[-1359,3872],[-2135,2369],[-2971,-1841],[27,3168],[1915,549],[-21,5586],[4238,-1449],[3013,847],[-15,1781]],[[494305,537758],[5353,75],[7559,160],[2,-175],[117,-8613],[6,-496],[23,-1441],[24,-2891],[38,-5033],[26,-3221],[-9,-1230],[65,-6856],[-4001,-37],[-121,11272],[-2755,16],[-997,112]],[[499635,519400],[-228,4307],[-1466,3044],[-102,16],[53,86],[-1023,2785],[-374,4461],[-2190,3659]],[[335485,627532],[26,2345],[27,261],[164,646],[-157,145],[-76,292],[-18,1067],[2066,52],[1086,1417],[-19,2695],[1373,4],[-1,-462],[-27,-3642],[982,9],[87,10],[9,-1437],[-1087,-20],[3,-1426],[9,-2790],[-4611,-24],[164,858]],[[154943,686348],[86,-28218],[-10512,-345],[-3511,-159],[12,-633],[3510,-3327],[9994,-9287],[594,-394],[15,-9509],[-13908,-540]],[[141223,633936],[-185,16961],[-3480,-75],[-8,1948],[-1702,97],[-4645,-4558],[-2015,-1131],[1339,-3986],[-1125,-4848],[-2261,-3213],[-409,55383],[3506,48],[-247,19632],[24970,154],[-18,-24000]],[[487020,399399],[3584,27],[3571,28],[7110,534],[42,-9509],[-7100,-592],[-7144,-56],[-63,9568]],[[286814,739412],[222,2580],[1650,3753],[716,-145],[7926,193],[20,-4034],[71,-27839],[-160,-6126],[-10573,5],[128,31613]],[[437687,398676],[-22,4714]],[[437665,403390],[-21,4688],[-66,9447],[3541,69],[1235,25],[-167,4003],[696,-2862],[1702,392],[385,-1462],[2150,-5050],[763,-1650],[2438,-2534],[-1282,3064],[2583,-578],[85,-11916],[-3481,-93],[-4070,-119],[-2997,-63],[-3472,-75]],[[564832,663825],[5430,133],[19,2295],[1348,26],[271,1893],[514,411],[1804,-313],[581,-541],[556,-5],[625,648],[627,1921],[361,2247],[77,1462],[273,180],[-19,998],[-1444,-20]],[[575855,675160],[2486,2838],[1067,681],[8868,3349],[2770,1627],[248,5045],[51,-5326],[3605,4785],[3512,5837],[6240,64],[138,-18833],[28143,-748],[14103,-202],[7071,-4]],[[654157,674273],[190,-18819],[-3065,43],[-9,-9336],[10292,-116],[90,-9759],[14157,30],[220,-37818],[-14174,57],[267,-37706],[14030,-50],[44,-17970],[-2,-917],[28,-9443],[-14015,91],[76,-24657],[5777,-1367],[8248,-2204],[-6707,446],[-13,-10282],[3478,-158],[0,-4631],[0,-1251],[-3485,5],[-14110,4388],[-21386,8529],[-63,-12125],[-7125,2415],[-2877,213],[-796,427],[-2702,3511],[-585,4],[-176,-5455],[-122,-56]],[[619642,490312],[-234,-109],[-19162,-9225],[-1893,-457],[-6119,-143]],[[592234,480378],[31,23250],[2030,439],[-15,12485],[3802,592],[-1441,-2409],[2454,-76],[7932,206],[-690,1567],[-145,7652],[-48,363],[-2000,-103],[-151,3604],[-1182,357],[-29,5484],[8047,-447],[2393,233],[-126,3915],[3487,-19],[-2,3753],[817,721],[2510,-1771],[171,-104],[5,2105],[1,251],[-13037,444],[-618,4720],[-311,1676],[270,3319],[-396,11438],[-3324,0],[-5,-1469],[-10595,-192],[-42,8789],[13862,82],[-221,28288],[-162,35846],[-74,6812],[-215,14243],[-13759,333],[-28310,-339]],[[563148,656416],[1684,7409]],[[461206,566483],[2513,17],[-9,943],[-78,8565],[2154,13],[87,-5020],[1403,-12],[-45,5032],[3449,4],[11,-7012],[219,-2780],[7070,87],[26,-8397],[1490,-1010],[297,9],[0,1158],[2107,-1152],[3234,50],[131,2],[277,7],[7704,149],[37,1],[1110,-2041],[-652,-1739]],[[493741,553357],[-4211,139],[-1944,-142],[286,-4774],[-244,-9871],[-5954,36],[-11454,3378],[-484,349],[-2150,3030],[-44,1934],[0,40],[-101,9528],[-1816,-13],[-240,-11],[-627,-15],[-874,-1],[-73,6813],[-1631,75],[-1962,-1134],[-9,844],[410,564],[240,527],[200,597],[125,697],[22,536]],[[851405,354611],[7209,100],[-169,9343],[3584,-4],[60,9587],[2917,88],[13770,396]],[[878776,374121],[296,-18892],[7590,163],[315,-18924],[14064,285],[303,-18939],[5194,90],[125,2980],[904,2222],[5730,1301],[1919,138],[-84,12437],[14076,83]],[[929208,337065],[76,-9866],[70,-9008],[124,-18706],[257,-56830],[14046,168]],[[943781,242823],[17,-5771],[-2379,-1438],[-77,-2202],[-1041,-2298],[-50,-6045],[1238,-4414],[258,-4153],[-328,-6454],[492,-5067],[-10875,-45],[-135,-11686],[-41982,-603],[43,8412],[-563,3161],[-13576,-182],[-143,-4],[825,492],[6784,5304],[-13,3689],[-1932,55],[-59,9468],[-1932,-30],[-4735,-78],[-153,18921],[-14019,-245],[-755,75345],[-14089,-260],[-13970,-170],[-20,18884]],[[830612,335409],[-147,18945],[7163,73],[3869,203],[2798,-47],[7110,28]],[[749251,751733],[1278,-3982],[4650,-1844],[524,1350],[-1680,746],[254,3413],[26,-2291],[3652,-9],[48,6624],[1536,5],[-15,-4283],[2051,13],[224,-7032],[1443,-3914],[1419,646],[2334,-530],[1723,-2444],[853,657],[1207,-1252],[1210,393],[1285,-1210],[-1068,-1186],[206,-3392],[946,-796],[2648,1151],[283,954],[-128,6631],[-1345,1701],[-2265,1119],[-87,9303],[4761,-31],[5803,-44],[-39,3711],[-166,15774],[3089,-40],[10908,-143],[245,-3],[-270,7601],[-127,11239],[-3571,51],[-197,18943],[1105,-22],[-699,2902],[1423,4092],[2198,3336],[2026,-1007],[2177,2563],[415,2943],[2758,2438],[438,1480],[5600,-72],[253,-18860],[10359,-154],[3777,-29],[13968,59],[5915,102],[872,6152],[10901,382],[2183,853],[-340,3509],[-2954,11129],[4731,-22],[4273,-2898],[687,-736],[929,-40]],[[865894,827432],[86,-6294],[3504,-4],[90,-9294],[-3464,-30],[-20,-4726],[18485,-35],[13148,170],[-150,6436],[3428,104],[-30,-2201],[4631,274],[-52,2584]],[[905550,814416],[10892,32],[3126,-485],[66,-1556],[-97,-2877],[-3716,-3544],[-1449,-2227],[-164,-250],[-94,-143],[-1086,-724],[-323,-121],[-1434,-376],[504,-7333],[2210,-3116],[-584,-1774],[-387,-887],[-361,-1438],[333,-1353],[528,-1617],[786,723],[-11,-1438],[1992,221],[3988,-214],[247,-11838],[358,-18957],[187,-9459],[601,-28192],[201,-9775],[188,-9097],[-14164,-132],[307,-14558],[388,-23572],[-28279,-488]],[[880303,657851],[-37987,-701],[-747,1360],[-287,1764]],[[841282,660274],[1424,382],[4498,3238],[2660,3612],[1153,3757],[246,3236],[968,2852],[1886,808],[804,1544],[862,4989],[-24,3615],[922,3756],[-110,3445],[1304,6567],[-282,1330],[-1620,3269],[-6653,5463],[-1575,3416],[-291,-220],[-2133,3821],[-1136,5775],[834,3595],[1459,1076],[1234,2283],[877,5751],[1857,2352],[983,3217],[-1523,6806],[-184,1922],[-3633,-2023],[-2448,-2796],[-4070,-2853],[-1913,-2527],[-1913,-3332],[-1929,-5447],[-480,-5],[-4263,-46],[5588,19047],[-37659,57],[28,-3009],[-1774,-1281],[-5184,151],[80,-5281],[-3515,68],[131,-8268],[-928,-2033],[-1567,-3992],[-3814,-222],[-2003,694],[-2420,2189],[-2588,-352],[160,-15813],[-644,-1007],[178,-18512]],[[773142,695338],[-10627,-22],[-791,484],[-18861,-938]],[[742863,694862],[-1164,3684],[556,1108],[-1029,2256],[342,2225],[-251,3258],[2420,2671],[1583,3722],[2385,3491],[2484,2495],[2434,975],[1315,3107],[-366,782],[-4465,3437],[-4854,2513],[-3820,400],[16,1995],[-241,158],[-423,-14],[-1,1933],[622,10],[27,720],[724,27],[-730,4472],[-3184,38],[-672,1607],[-1026,3619],[-633,2840],[6999,173],[2817,2935],[4523,234]],[[670732,348373],[571,246],[-33,2389],[5598,99],[-54,29862],[871,8],[3394,-16],[583,9],[23125,303],[27976,558],[-180,18964],[138,27621],[232,536],[14013,271],[14253,589],[11976,146]],[[773195,429958],[14321,85],[359,-19496],[13753,153],[217,-18914],[14048,169],[-205,18866],[27985,513],[201,-19113],[14085,205],[160,-9562],[155,-9330],[-3740,-72],[-3145,-30],[16,-18821]],[[830612,335409],[-35100,-272],[-3476,-14],[-17636,-129],[103,-18886],[-3549,-9],[-77,18894],[-9463,32],[-31,18916],[-11011,-136],[62,-10035],[34,-8852],[-3114,-61],[-32,-10259],[-69,-2976],[-13,-3409],[-8,-2355],[-13838,-178],[-7029,-113],[-3456,-59],[124,8745],[-3685,-273],[-93,10379],[-10600,-289],[-70,9467],[-3488,-75],[154,-9595],[-6143,-142],[-7150,-775],[-4251,3637],[-1704,804],[-1306,-88],[-3646,-2464],[-1636,-514],[-1132,839],[-1361,817],[-5456,1509],[-860,1067],[-528,1393],[-374,3894],[275,1910],[753,2619]],[[362639,843852],[14071,22],[42014,56],[6993,122],[5849,401],[532,25],[1774,-312],[9447,108],[102,-9241],[-54,-9670],[23732,83],[19459,51],[1789,30],[-221,-272],[4,-78594],[2,-18960],[6277,-139],[66,-18666],[51,-9345],[3136,37],[116,-8925],[-2713,-39]],[[495065,690624],[-38266,-770],[-4249,-54],[-56,-2038],[-700,-1658],[-4891,-4455],[-1264,-1280],[-87,4526],[-618,1678],[-44,-3473],[-1597,12],[256,-5165],[-4594,-5032],[-4377,-4037],[-9367,-6601],[-7035,-4938]],[[418176,657339],[35,3285],[-10704,1198],[-1563,-2743],[-1044,-296],[-1910,1993],[-2909,536],[-3303,3321]],[[396778,664633],[56,5893],[-21632,91],[9965,12095],[4530,4496],[16,2309],[258,18933],[76,19909],[-920,-436],[-2765,-5169],[-1742,-213],[-1142,1689],[-602,4374],[-1445,1755],[-3779,-419],[-1793,544]],[[375859,730484],[99,16023],[-13185,-148]],[[362773,746359],[1400,1631],[177,1429],[-1714,2884],[642,5802],[1735,418],[2044,3214],[87,5771],[1201,596],[1647,-2944],[1311,864],[311,1517],[2224,1995],[2000,2708],[1446,269],[1912,1904],[1691,2471],[2779,1845],[156,2142],[1722,3439],[-9631,19],[-29,19007],[-7064,78],[-2781,-567],[490,-743],[-800,-3363],[980,-1606],[179,-2082],[-2380,-2590],[-866,-2619],[-1379,-1727],[-2024,-1043],[-1040,-2626],[-4631,-25]],[[354568,784427],[-12875,-293],[-2086,-624],[-544,41503],[889,-39],[1692,8],[14107,66],[92,9910],[6820,62],[-24,8832]],[[929208,337065],[-193,18819],[13173,132],[383,-18955],[9196,94],[4847,23],[359,-18987],[14318,49],[136,-19197],[-12908,-18433],[10673,97],[-2345,-2763],[-353,-2295],[1745,-1930],[743,-1554],[-539,-1042],[299,-1735],[-1743,-1499],[-2298,374],[-2276,-2912],[172,-1824],[-853,-1363],[-1525,-294],[-325,2106],[-2186,25],[13,-2237],[1661,-10],[1176,-765],[1852,744],[9253,16],[116,-19058],[28063,443],[157,-37821],[-28125,-299],[-93,18966],[-13880,-38],[-81,18647],[-14039,234]],[[57462,340732],[11232,1118],[1753,-73],[4552,-364],[1437,798],[415,1707],[370,6133],[-374,1502],[30,8399],[1308,687],[3049,104],[202,7088],[-178,585]],[[81258,368416],[4527,-81],[56547,-78],[14033,2],[4443,11],[9638,4],[-25,9531]],[[170421,377805],[6900,-3],[5,-9513],[17664,22],[-119,-8635],[6994,37],[41,6534],[-1605,2095],[4333,-1],[2199,17],[23208,182],[13116,-214],[1068,64],[-62,-6149],[6758,-188],[669,-48065],[-7139,-76],[-195,238],[-1,-8869],[-37,-13144],[1511,-1156],[665,-2899],[637,124]],[[247031,288206],[751,-1667],[-642,-2321],[818,-2320],[-2411,-2320],[242,-1755],[2145,-1876],[1414,-2619],[-819,-4014],[-751,-1699],[-2146,-1435],[-1479,-247],[-1723,-461],[-1398,930],[-244,-1309],[-8023,4079],[-1658,2321],[-1042,2645],[19,-16736],[-14073,52],[0,-2175],[-4,-4349],[-10,-12208],[-6630,125],[-24,-18975],[-3503,31],[1,-9871],[-10903,-36],[-7862,-182],[-26094,286],[-21914,142],[-6250,-30],[173,18948],[-21283,2],[-21354,-123],[86,9326],[-3313,-23],[-8632,-65],[-1827,1441],[-2580,1580],[-2290,-496],[-3422,4500],[-1480,3523],[-2342,1857],[-1059,2267],[1769,1675],[-264,1565],[-9139,459],[-98,23],[-97,9481],[3789,-124],[2255,3024],[2233,743],[1834,-715],[775,2261],[-1944,1874],[-331,2797],[1503,1932],[819,2379],[-2052,-117],[-1036,1777],[-949,-166],[-2054,-2284],[-905,218],[-1854,2084],[445,3147],[-2431,147],[-7511,289],[-1,9726],[-2891,3939],[-3690,-5],[-32,6177],[-3034,2387],[1811,6028],[2218,687],[271,2864],[939,3308],[1098,2351],[757,403],[10174,-411],[21,11521],[343,2369],[1226,3970]],[[57462,340732],[-1084,108],[-439,5036],[87,14997],[-5792,121],[-796,-2423],[-1969,-622],[-1795,-1403],[-3109,486],[-1126,-888],[-878,-2640],[-2136,-2130],[1,4293],[-661,1175],[-2732,1282],[-3139,2609],[-4073,252],[-1975,502],[-4876,51],[11,7353],[-14252,25],[3367,-7058],[-10096,135],[37,6981],[816,99],[3194,-124],[-1,5371],[-3109,-2],[-36,23303],[260,21397],[2,349],[14393,9787],[-323,852],[161,25055],[-13936,-545],[74,11601],[3001,-1367],[1076,3896],[2342,302],[412,1237],[1764,1568],[1873,3749],[3430,1598],[405,1012],[3035,173],[7469,16],[3012,235],[-70,3247],[-14438,-61],[-6,19368],[13416,13],[924,-1226],[3840,646],[3177,-86],[7388,-1025],[3874,1257],[3076,110],[22,9707],[77,9287],[7012,143],[20979,367],[23,-7811],[-1034,-2806],[-1955,-2503],[-502,-1938],[92,-19224],[-230,-3622],[11056,207],[-56,-6989],[3413,617],[3381,1363],[-220,-13920],[18,-5559],[162,-42517],[14553,-65],[6675,19],[-53,-18925],[-20962,-7],[-43,-3163],[-1085,-746],[33,-5433],[-4210,-45],[-1402,764],[-613,-992],[-40,-9087],[-4643,95],[217,-188],[61,-9392]],[[421125,497579],[-463,-6965],[585,36],[642,-78],[2873,130],[10,-580],[1099,-1731],[211,-322],[69,-216],[69,-214],[35,-111],[557,-2554],[2543,-3582]],[[429355,481392],[-392,-290],[-4147,-5051],[-394,-749],[-1290,-1898],[-735,-1075]],[[422397,472329],[-529,-568],[-1485,-1338],[-2661,-1122],[-4081,-744],[-2725,-1450],[-2945,-1769],[-3166,-1971],[-6869,-2496],[-3629,-1075],[-2795,-1543],[-4461,-1640],[-4569,-1335]],[[382482,455278],[123,22618],[4950,3078],[5638,3373],[3477,1131],[-1218,343],[554,3084],[1083,3894],[-500,4880],[5405,873],[5386,-1169],[3460,166],[5219,588],[5066,-558]],[[692419,103619],[4,1308],[14283,3612],[254,14659],[-6921,-231],[-7342,-250],[73,6326],[113,6299],[43,3111],[34,3231],[28512,1119],[102,9536],[212,19020],[13218,520],[1909,312],[697,-1470],[1616,-458],[-645,-2214],[1035,-1318],[-240,-1911],[-1199,-1776],[-1395,38],[-851,-860],[-1904,454],[-1012,-1738],[-582,-4103],[1021,-646],[-1216,-3461],[589,27],[2447,91],[14395,638],[-139,-9510],[-248,-19006],[14168,585],[-270,-19007],[-293,-18988],[-28239,-1210],[-60,-17451]],[[734588,68897],[-25,-2306],[-1226,-7],[32,1607],[-2133,2005],[-2861,-4090],[-711,377],[-781,2777],[-3027,-1615],[-1680,2012],[372,1857],[-895,1872],[-1197,275],[62,12016],[-28172,-1142],[73,19084]],[[865894,827432],[-60,2676],[-3667,207],[-1692,2069],[504,1258],[-1470,635],[-959,2869],[280,1436],[-1563,78],[-595,922],[891,1412],[3231,2109],[1240,3672]],[[862034,846775],[1866,2603],[-1213,1846],[-1143,3159],[819,775],[-1509,-204],[-2610,2715],[589,1338],[3017,-1212],[1,3960],[-53,461],[11,1751],[106,1845],[3330,-146],[708,-3],[2854,-93],[38,2392],[693,4455],[1526,2801],[4777,-40],[8,6562],[3112,2449],[1217,778],[-71,2464],[2356,5799],[-21,2071],[-1157,786],[-49,344],[-746,902],[20,1841],[-140,294],[-434,664],[-51,387],[-238,702],[-108,178],[-307,73],[-204,2371],[711,1967],[2762,2579],[-14,4213],[-3,871],[-437,191],[-651,281],[-1158,689],[-934,1684],[-471,554],[-3826,1017],[-1130,366],[1319,4275],[-3269,97],[-395,5960],[-3911,1588],[-67,6208],[-3615,-41],[-25,5080],[-10858,-155],[-2824,20],[-643,1398],[-2930,2149],[-332,24684],[14250,254],[-125,17222],[1476,474],[-222,583],[11,6005],[-16,5062],[13642,254],[6324,118],[921,16],[10853,277],[17221,216],[-548,-1912],[57,-7597],[7071,1866],[387,-32807],[137,-18193],[779,-1136],[2620,-407],[821,633],[970,-1142],[650,-2589],[1806,-748],[2357,638],[-559,-2377],[421,-1723],[-920,-1833],[393,-3059],[2207,758],[-329,-2979],[709,-7142],[851,-4820],[520,-2832],[337,-890],[2704,1238],[4961,2375],[-3,-460],[584,275],[814,-854],[380,-2763],[-552,-780],[-4494,-1619],[-2150,2743],[-121,385],[-2209,-1027],[-3,-3520],[18,-1137],[411,4],[567,-1053],[1763,32],[2742,40],[-3,999],[1513,-1283],[87,-3123],[790,-2628],[1842,-64],[6444,-79],[6006,-5074],[3858,-6544],[-16359,-62],[-2844,-10],[0,4493],[-6669,-156],[41,-4362],[191,-9581],[387,-18903],[-13312,-153],[585,-28314],[-14079,-177],[185,-9426],[76,-4724]],[[362773,746359],[-1148,-17],[-7084,85],[111,18098],[-84,19902]],[[366850,367200],[3463,19177],[389,1354],[425,1484],[28,97],[427,3275],[1374,8303],[1262,4345],[1530,3661],[2196,8777],[1233,3255],[963,3822],[1065,5711],[-190,2740],[-830,2892],[-2703,7834],[-178,1495],[354,2848],[2863,5656],[1961,1352]],[[422397,472329],[2738,-4010],[631,-3457],[-1023,-4644],[-2712,-4404],[100,-10603],[8496,456],[41,-3897],[-4709,-219],[-2455,698],[-1338,1299],[186,-26958],[124,-13314],[1962,8],[-13,-3648],[7277,52],[8,3635],[5955,67]],[[437687,398676],[-7097,-70],[-4663,-46],[-29,-8574],[-3332,-79],[8,-1315],[8105,281],[293,-27677],[133,-19655],[3522,55],[156,-19021],[-10994,-173],[612,-2417],[417,-7063],[54,2],[3423,-8602],[783,-5558],[743,-1392],[394,-432],[-1,-3050]],[[430214,293890],[-7189,1],[56,-18868],[-3195,-80],[-367,-4730],[30,-4744],[-10034,-340],[-1583,1059],[-2712,-841],[80,-11213],[-278,-2646],[-1225,-5278],[-1598,-3803],[-1915,-4398],[-316,-951],[-5205,72],[-171,-4497],[-1719,1406],[-1790,3140],[-574,8],[89,-1956],[-1226,-957],[-1676,-3085],[-1535,-8247],[-1755,-5921],[-5422,-9727],[-2062,-1351],[-4152,-617],[-2196,-1363],[-387,977],[701,473],[3455,1669],[3088,1848],[1652,1783],[2992,5878],[1185,4305],[575,4026],[334,12083],[-7,8398],[2752,11077]],[[386914,256480],[1271,5688],[1525,2870],[3381,5495],[668,2393],[127,2761],[-447,3385],[-1957,6604],[-1764,7341],[-1513,14772],[-961,3770],[-3469,7789],[-2286,3309],[-3989,8840],[-1611,4715],[-2054,2661],[-3734,3410],[-1241,1737],[-2207,4900],[-847,2865],[-518,3697],[242,4107],[1320,7611]],[[508637,333428],[756,-242],[26270,-19],[-49,37882],[14211,-47]],[[549825,371002],[27303,-121],[9596,378],[4736,257],[341,-10],[40,34007],[-865,2260],[-1643,1915],[933,661],[1682,4173],[779,983],[1772,-298],[3478,2201],[-178,1577],[909,1784],[2592,-655],[1440,356],[576,893],[117,5079],[4769,32],[-1497,-6453],[-3191,-4044],[-1729,-5683],[1306,-3273],[3025,1154],[1493,-1216],[1440,-1965],[420,-1160],[519,-4630],[2113,-5787],[6283,2995],[1547,182],[3687,-953],[3213,-2531],[1270,-837],[2857,-682],[1175,-1842],[2525,-8126],[4164,-3151],[1928,-2765],[776,-2293],[799,-6366],[2149,-3748],[2614,-2200],[7528,-3626]],[[654616,357474],[40,-2767],[-1332,-1794],[2303,-558],[227,-28242],[34,0],[13811,6],[7263,-4],[92,-9421],[75,-9493],[52,-8778],[-1203,-609],[-4616,11],[-4721,8],[-3747,-13],[106,-9471],[188,-9364],[-7100,-114],[-7184,-64],[-28218,-483]],[[508685,314217],[-48,19211]],[[628933,304695],[19802,133],[-97,9848],[-19743,-91],[38,-9890]],[[749251,751733],[1540,1275],[637,137],[-7,2810],[1283,-10],[-1275,1294],[-1576,13],[-8,3417],[-1694,-8],[70,-4644],[-4508,10],[-22,4598],[-1756,8],[107,7154],[-1737,7],[-44,3306],[7192,288],[-163,37913],[-3975,-198],[-80,8612],[2019,53],[2,2325],[1438,38],[-183,17507],[-164,14869],[-40,3981],[-3212,-148],[-3756,-172],[-3658,-169],[-253,18806],[4387,308],[-219,9489],[-4142,-169],[-201,9407],[-7034,-383],[-109,10609],[2015,1332],[1245,1423],[226,3959],[-93,10896],[3953,508],[534,606],[-592,1314],[-1,1151],[6584,-125],[-65,1902],[3584,-18],[97,-4485],[7247,329],[-9,3633],[-38,5763],[-57,11662],[-80,15740],[-102,14327],[3520,1616],[3708,1613],[6631,2603],[6780,1616],[172,-15401],[6941,-46],[-152,2003],[7422,-198],[119,2583],[390,-333],[368,-207],[922,-712],[1632,-1114],[172,-6881],[-46,-1521],[17472,9382],[5806,5507],[654,265],[2061,319],[1190,-489],[372,-324],[426,-232],[50,-4535],[388,-14123],[3382,-301],[194,-13942],[-14190,242],[194,-18924],[-4184,74],[-27,-8395],[-4618,64],[72,-5097],[4574,-105],[-42,-5371],[4370,-65],[14190,-214],[71,-18861],[280,-15222],[12,-3743],[14025,-34],[330,-18818],[12041,264],[11106,80],[698,-231]],[[734588,68897],[2681,-1275],[2514,-494],[8987,299],[388,-4813],[-490,-599],[-145,-4172],[-10508,-11350],[1801,8],[31,-17298],[-563,-24],[-1747,-5300],[293,-5557],[-1299,-769],[-2445,1465],[-207,-18537],[-14073,-481],[116,9549],[-8504,-305],[-6743,-234],[-9064,-295],[-3901,-116],[227,19098],[-13949,-234],[139,38143],[43,18317],[8,8876],[4,11006],[3244,-26],[5538,-484],[5455,324]],[[495065,690624],[55,-19001],[3020,31],[7916,-119],[122,-16550]],[[506178,654985],[3,-2391],[66,-9796],[-5557,-34],[117,-9176],[-5527,-69],[5,-4416],[154,-14575],[3254,40],[7790,99],[241,-19299],[-11177,105],[83,-10242],[3404,22],[3458,-8767],[-5011,-67],[2493,-4964],[-1030,-1781],[-2463,-1636],[-61,-1317],[5861,55],[4617,-9302],[-9867,-242],[-974,-6],[-230,-6],[-95,-622],[-109,-3245]],[[495623,553353],[-1882,4]],[[461206,566483],[-530,2455],[-743,1055],[-5993,4259],[-1070,1399],[101,18993],[-5758,-45],[-8327,-69],[-28,0],[-14124,31]],[[424734,594561],[-15,5459],[-6923,3913],[-28273,18525]],[[389523,622458],[52,14582],[7051,5182],[4047,95],[2050,-2554],[8086,-15906],[-81,-10375],[6954,-8],[7052,-6704],[217,25327],[46,5293],[3820,-11],[-116,4623],[-3666,-35],[83,9551],[-6997,-128],[-8362,65],[8417,5884]],[[469376,633080],[2198,-4458],[54,-329],[203,-2661],[5,-3468],[-900,-1206],[-2350,-40],[301,-5943],[-1786,-1002],[3575,68],[3540,52],[3703,73],[3332,64],[-92,19052],[-11,4721],[-4018,-65],[-10128,-156],[2374,-4702]],[[169321,671609],[28368,13],[26,9473],[14014,-260],[-9,9130],[3686,-106],[3026,-85],[7266,-225],[3458,41],[10519,221],[13982,-837],[7975,81]],[[261632,689055],[14357,-33],[53297,-180],[-31,19051],[1870,6],[-259,-905],[85,-319],[263,-169],[407,34],[378,289],[423,1061],[152,3488],[1023,2168],[3825,153],[562,-1923],[1883,-3873],[14813,462],[4020,51],[508,5087],[1022,2979],[1667,-743],[2244,2084],[1112,-1427],[889,1280],[-712,1517],[999,3423],[1266,595],[1311,2291],[-624,3540],[1534,686],[733,1547],[5210,-791]],[[396778,664633],[-86,-13064],[-17707,-15],[-71,-12475],[-819,2505],[-2488,1724],[426,-9788],[-977,-1073],[-4549,166],[-9399,-71],[-24,-11394],[-4554,-57],[7,1904],[-2986,-186],[-332,-3232],[826,-768],[-253,-6631],[2505,1331],[-47,-2947],[3629,46],[45,2957],[1106,18],[28450,55],[43,8820]],[[424734,594561],[-10,-9524],[-110,-17340],[4190,-3500],[7637,-7216],[-11858,178],[-32,-9956]],[[424551,547203],[0,-41],[-520,-4],[14,-8425],[-1103,77],[599,-1637],[1038,544],[0,-2356],[-500,-6882],[482,44]],[[424561,528523],[-50,-9596],[149,-18906],[-3407,-10],[63,-2453],[-191,21]],[[366850,367200],[-27201,489],[-4167,161]],[[335482,367850],[-423,5136],[68,2550],[621,4047],[-431,28982],[-127,1846],[-182,13697],[4059,-56],[1068,88],[6334,422],[1040,1095],[-242,976],[-360,2433],[-731,1012],[-66,1518],[-487,744],[-2454,2087],[-2948,147],[94,12365],[-1995,4833],[-1883,2559],[-1735,172],[-207,-2069],[-758,432],[250,-2689],[-1404,-2234],[582,-1686],[-173,-2013],[-88,-19443],[-1610,-2420],[-36,-7261],[-19560,442],[5,9082],[-36209,274],[-1820,1019],[-276,4288],[-657,2526],[711,690],[-214,6572],[4513,711],[1208,708],[6885,6302],[2194,1526],[2717,765],[199,16878],[-618,1698],[-364,3110],[1328,5113],[86,4694],[-14164,152],[117,9362],[-3128,27],[25,1639],[-1374,79],[-155,1097],[-2366,91],[4,1723],[-3424,28],[-58,2939],[-3481,-18],[-20,-7449],[-8402,-167],[33,-9155],[-19,-4293],[-852,-932],[-1043,-933]],[[253079,475708],[-2301,5874],[-515,312],[-4049,2693],[-8112,2829],[-1016,1263],[-177,929],[482,2609],[-3145,50],[-527,-35],[-3382,4172],[1147,-650],[-12140,15784],[257,8402],[7070,50],[-103,18429],[-7673,556],[-6237,-68],[-1920,3399],[-476,1493],[-367,-227],[-660,3344],[754,1606],[-675,3406],[-9,4283],[1064,1487],[1332,298],[1285,2827],[-1,2034],[-3217,1002],[-1121,3568],[7203,-145],[5579,-882],[3115,1076],[1813,-1140],[-39,2382],[-96,13500],[-7,2390],[-98,10554],[-10700,518],[-3087,-69],[-42755,711],[-254,75287]],[[354451,424227],[14285,-82],[-334,19592],[-3681,2768],[-1754,-4666],[-1018,2278],[-822,4969],[2170,3421],[-2524,7],[-6251,39],[-71,-28326]],[[424561,528523],[3,2002],[4999,47],[1171,-2656],[8208,688],[32,9240],[-2336,-36],[-3618,-986],[-1180,-21],[-1758,355],[3069,2579],[333,1840],[-1663,-13],[-32,5827],[-3549,-110],[-3689,-76]],[[495623,553353],[1,-880],[-1606,-2777],[147,-1118],[430,-2145],[-619,-7296],[329,-1379]],[[499635,519400],[-1124,-11624],[-1270,-2560],[-1487,-1123],[-664,-3043],[124,-916],[12387,233],[69,-6334],[7,-3227],[194,-21490],[20,-1643],[1,-109]],[[507892,467564],[-1972,-1387],[-10454,61],[-3443,1292],[-5753,573],[-1516,510],[-2175,948],[-1052,297],[-1367,260],[-1087,138],[-2461,-45],[-5440,-7],[-7961,1150],[-2298,945],[-483,380],[-3591,2570],[-3159,1523],[-1414,588],[-4602,1220],[-2409,858],[-4342,3389],[-1457,578],[-4515,121],[-3414,-621],[-465,-207],[-1707,-1306]],[[506178,654985],[7708,228],[6950,169],[14058,316]],[[534894,655698],[15,-19209],[589,-56631],[-13895,-385],[61,-18903],[3505,100],[57,-9580],[3209,56],[-54,9617],[7301,186],[80,-9359],[-4,-9528],[6013,149],[1121,33],[38,-2409],[-1153,-72],[1,-436],[14,-5923],[18,-7433],[1191,39],[29,-2666],[3724,111],[-34,-731],[1,-119],[0,-1022],[0,-2380],[1099,22],[4,-533],[-536,-29],[10,-503],[2646,25],[114,-1157],[13,-3042],[9,-3139],[-864,111],[-256,-545],[-52,-2606],[1136,48],[-16,-3216],[126,-7346],[-39,-3090],[11,-1652],[-37,-12],[156,-6497]],[[550245,486042],[-5662,-1732],[-311,59],[-1579,1160],[-2864,279],[6,-830],[0,-722],[3072,-1582],[1022,-1575],[3205,-8122],[2448,-1967],[-196,-722],[-18,-12039],[-1,-2319],[4588,-8205],[-31,-147],[-438,-168],[-2615,589],[-79,-4557],[4999,-545],[-6348,249],[-25,-3618],[-8813,-10340],[1921,77],[1176,-3242],[-1395,-150],[-303,-6927],[465,-13],[-6,-10079]],[[546243,408827],[10713,-68],[-8,-9370],[-7188,-30],[3,-9423],[62,-18934]],[[508637,333428],[-94,28326],[-33,9225],[-115,28187],[-4,1256],[-143,27935],[-356,39207]],[[261632,689055],[33,18608],[8044,66],[-13,9323],[-1566,3],[30,9603],[945,9],[-6,13894],[-49,5131],[-15584,-185],[-137,18915],[-317,49539],[-41,6874],[-29,4327],[11514,-81],[8,18745],[-14144,36],[-128,25162],[1804,-2298],[2982,-1406],[2201,-3012],[1780,-538],[3126,524],[2317,-183],[29,9431],[-2,10081],[6,13069],[4282,892],[379,-833],[2161,-742],[3408,-1900],[914,-1071],[2826,-31],[19,-9450],[7534,-91],[6600,-81],[16,-18839],[28025,121],[-56,9134],[3642,-1],[16,4636],[2879,-118],[86,-13666],[3344,-38],[3952,-75],[13996,22],[156,-18844],[14025,135]],[[841282,660274],[-541,-167]],[[840741,660107],[-4662,-671],[-1356,-856],[-3547,-1063],[-3870,-1869],[-2552,-37],[-3968,2659],[-891,1330],[-2623,-112],[-3392,-1028],[-1225,-814],[-1419,-1001],[-1105,-608]],[[795100,639692],[-2944,1950],[-2289,-2289],[-2911,2909],[-282,1897],[1271,3196],[2009,-494],[-338,-2067],[1051,688],[268,1841],[-913,4761],[-1463,-968],[-2208,-232],[-893,-1118],[-210,3235],[423,1775],[2141,861],[735,1559],[-990,1848],[-3787,2051],[-2429,4333],[979,4339],[2496,1327],[1111,-755],[488,2564],[3611,1298],[2862,-899],[-725,1854],[2134,778],[1348,2008],[969,2441],[217,1945],[-318,1625],[-2344,2214],[-1470,3955],[-357,2326],[324,2783],[-19524,107]],[[654157,674273],[6619,-61],[-77,18749],[14310,-66],[66289,1921],[1565,46]],[[840741,660107],[4,-104],[-2808,-1029],[231,-2225],[-1650,-1941],[-1807,-4203],[-2707,-3750],[-1222,-3121],[-648,-4202],[-719,-1863],[-389,-220],[-151,-2484],[886,-2321],[130,-2436],[295,-1490],[56,-11471],[-3402,-107],[22,-4804],[-6800,-103],[243,-10598],[-7005,-10718],[335,-4574],[927,-1330],[773,451],[808,-1979],[1312,459],[2660,-1912],[-118,-661],[-6561,-17],[340,-18933],[14119,-19],[-10,-10016],[-13959,-31],[143,-8940],[-7079,-27],[159,-9447],[-21236,-105],[29,-3561],[-7129,-331],[59,-5505],[2032,-72],[982,-324],[1557,-1076],[4502,-3727],[4105,-487],[1685,-568],[6637,-4150],[187,-7204],[-7024,1277],[6834,-3184],[13903,-5132],[5973,-2214],[288,-1728],[-256,-1760],[8916,-3848],[7318,-3389],[2706,-2143],[-292,-2543],[-1133,263],[-10518,4744],[-675,-449],[-5242,2648],[-2415,718],[-3208,32],[-135,-1598],[-975,1092],[-2502,-1117],[-3146,450],[130,1173],[-1221,983],[-5746,783],[-1286,462],[118,-5419],[-14141,61],[70,-16769],[35,-7377],[23,-4700],[-14136,-236],[48,-4636],[54,-4425],[14089,185],[129,-9631],[-14047,-226],[100,-9220]],[[670732,348373],[-664,2380],[-4473,1279],[-2014,2618],[-621,5534]],[[662960,360184],[1505,-60],[863,2083],[-89,2259],[3209,5503],[1267,443],[-125,15083],[-3937,147],[-11582,6459],[-5211,3524],[-5630,3437],[-1863,1993],[-2518,290],[-2691,1486],[7,1692],[5777,3756],[5660,4227],[4178,2118],[39,13653],[19993,20],[428,1044],[42,3973],[-509,1809],[664,1303],[-856,1321],[-19802,197],[-39,9405],[-10542,-83],[-35,19028],[459,1971],[429,705],[2495,-709],[3662,1519],[-230,-1960],[834,-995],[1814,-349],[6828,-83],[1392,947],[1484,-3651],[1913,-1006],[-5,4691],[-7779,3618],[-576,774],[-12194,4516],[-2750,1872],[-1708,3033],[-1751,-566],[-976,1904],[-2195,651],[-2883,1962],[-1973,236],[-1509,1017],[-2348,2858],[-1019,358],[-2814,-648],[-121,1353]],[[170373,463655],[2,-583],[13445,113],[-10,10003],[7328,-1],[10,9431],[29706,-333],[2370,-27],[448,12],[3036,-16],[2738,-38],[286,-17547],[3536,-1670],[1150,1869],[-465,4284],[1242,1547],[-775,1457],[2615,505],[2616,2171],[1463,-149],[2814,981],[775,-1995],[998,-357],[3034,-5862],[731,416],[-1284,2945],[65,1616],[1169,-372],[3443,291],[220,3362]],[[335482,367850],[-48760,433],[-8,-4036],[-13,-8675],[11,-19077],[-1320,56],[-893,1486],[-40,1346],[-1395,-52],[-263,-1670],[821,-2125],[-1029,-1622],[2694,33],[1410,-292],[-7,-19563],[-18,-19154],[-7238,138],[-25,-18895],[-4629,22]],[[274780,276203],[-8525,2],[-323,-1935],[-4799,210],[-199,982],[-1724,1072],[-3051,717],[-1237,804],[-1126,4701],[2234,2290],[-419,832],[-3251,1640],[-4643,1757],[-686,-1069]],[[170421,377805],[-19,18568],[0,47761],[0,384],[-268,21],[-13908,-247],[-52,19199],[14199,164]],[[592908,200353],[14575,309],[202,-33405],[14124,433],[-56,9513],[56321,1589],[50,-16531],[-5,-2457],[-14149,-385],[155,-37924],[37,-23639],[-28151,-7046],[-28148,-7178],[15,-1806],[-13283,-576],[-1602,84],[-33,15912],[-100,9],[-72,1603],[-3229,117],[22,1431],[-1922,65],[-1440,52],[-11,-18951],[20,-3493],[-7376,-1873],[-14140,-3611],[15,9612],[156,51],[-22,18981],[-29114,977],[-2375,2181],[24,2877],[-979,6085],[-2829,2411],[-844,3012],[1517,2595],[-20988,298],[-74,18901],[27523,-479],[-168,33799],[1191,364],[-1060,1418],[-22,11422],[-3522,742],[22,11721]],[[154943,686348],[14367,134],[11,-14873]],[[170373,463655],[21,19190],[-33,-21],[-59,16635],[-87,13821],[-278,26150],[-104,10281],[-1525,-24],[-9378,3722],[-6140,-440],[-1229,479],[-10159,1],[-57,18785],[-3546,-1303],[-3472,-2043],[-2650,-909],[-4121,-217],[-33,18581],[-37,4216],[621,5329],[5807,37933],[7309,115]],[[550245,486042],[2163,1264],[1547,330],[-1072,467],[-158,1776],[3154,-414],[3042,181],[3031,291],[1305,-10921],[3326,5735],[323,-1430],[336,-1490],[2374,3374],[2488,-181],[2562,-1690],[1765,-2347],[1517,-3921],[-201,2389],[298,1194],[3282,-513],[4153,1139],[6754,-897]],[[662960,360184],[-885,3041],[-1637,837],[-3570,-3885],[-1521,-2608],[-731,-95]],[[386914,256480],[-1075,-14],[-1457,-5244],[-1637,-10538],[397,-2963],[-7348,-49],[733,2970],[-1275,17],[-131,6492],[-3449,-52],[7,-9432],[-14205,-39],[-29,14154],[-336,2524],[-755,2411],[-27377,182],[-42045,352],[-8110,-2],[-2911,1201],[1944,2560],[-443,1873],[2740,4762],[-1129,3391],[-973,535],[-2785,-2114],[67,-1637],[-2476,445],[-1040,1249],[-112,3987],[2675,1310],[401,1392]],[[534894,655698],[7056,195],[7043,159],[14155,364]],[[880303,657851],[264,-19013],[14068,175],[35,-2567],[858,-54306],[14141,331],[535,-29169],[-14096,-299],[136,-8757],[17,0],[1075,-41723],[210,-9458],[7429,505],[116,-4386],[6867,250],[65,-1672],[-6659,-273],[64,-12467],[-6582,-4571],[-1752,-532],[-3237,331],[-2830,1536],[-825,-190],[-823,-2922],[1267,-725],[1422,-1159],[4718,-6094],[532,-1912],[809,-2331],[968,-1206],[1825,-1129],[538,-84],[4,-1423],[-53,-2656],[-1738,-29],[-577,-10],[-4980,-115],[174,-9711],[12027,282],[-721,-1841],[-498,-1041],[-561,-746],[-298,-198],[-1236,-444],[-642,-174],[-1352,-72],[-257,-117],[-1058,-884],[-142,-379],[67,-4064],[256,-14452],[3705,885],[4276,504],[3107,-17],[3115,521],[369,-24088],[-7389,-100],[155,-12890],[-379,-860],[-27847,-773],[-209,-5021]],[[505197,314202],[-24938,-396],[-13805,-253],[-853,-14],[-13238,-213],[-8057,-114],[84,-19208],[-14176,-114]],[[564832,663825],[-5186,-112],[-172,11439],[7225,-205],[9156,213]]],"bbox":[-89.858783,40.95078,-88.49023,41.719459],"transform":{"scale":[0.0000013685543685543741,7.686797686797675e-7],"translate":[-89.858783,40.95078]}}
