{"type":"Topology","objects":{"foo":{"type":"GeometryCollection","geometries":[{"type":"MultiPolygon","arcs":[[[0]],[[1],[2]]],"properties":{"postal_code":"72046","realtor_list_price":157800,"realtor_list_price_yoy":-0.1055,"realtor_list_price_base":0.0441,"realtor_active_listings":10,"realtor_active_listings_yoy":0,"realtor_active_listings_base":0.3312,"realtor_new_listings":3.333,"realtor_new_listings_yoy":0.6667,"realtor_new_listings_base":0.5933,"realtor_days_on_market":89.8,"realtor_days_on_market_yoy":0.6229,"realtor_days_on_market_base":0.2768,"zhvi":132993.867,"zhvi_yoy":0.0423,"zhvi_base":-0.1056,"zori":"NA","zori_yoy":"NA","zori_base":"NA"}},{"type":"MultiPolygon","arcs":[[[3,4,5]]],"properties":{"postal_code":"71652","realtor_list_price":"NA","realtor_list_price_yoy":"NA","realtor_list_price_base":"NA","realtor_active_listings":2.667,"realtor_active_listings_yoy":0.6,"realtor_active_listings_base":0.5207,"realtor_new_listings":0,"realtor_new_listings_yoy":-1,"realtor_new_listings_base":"NA","realtor_days_on_market":"NA","realtor_days_on_market_yoy":"NA","realtor_days_on_market_base":"NA","zhvi":155571.971,"zhvi_yoy":0.0496,"zhvi_base":"NA","zori":"NA","zori_yoy":"NA","zori_base":"NA"}},{"type":"MultiPolygon","arcs":[[[6,7,-4,8]]],"properties":{"postal_code":"71665","realtor_list_price":179787.5,"realtor_list_price_yoy":-0.0347,"realtor_list_price_base":"NA","realtor_active_listings":13.333,"realtor_active_listings_yoy":0.2121,"realtor_active_listings_base":0.0483,"realtor_new_listings":2.667,"realtor_new_listings_yoy":1,"realtor_new_listings_base":-0.2268,"realtor_days_on_market":82.5,"realtor_days_on_market_yoy":0.0123,"realtor_days_on_market_base":"NA","zhvi":171287.3,"zhvi_yoy":0.0154,"zhvi_base":0.1168,"zori":"NA","zori_yoy":"NA","zori_base":"NA"}},{"type":"MultiPolygon","arcs":[[[9,-7,10]]],"properties":{"postal_code":"71671","realtor_list_price":133666.667,"realtor_list_price_yoy":-0.1987,"realtor_list_price_base":0.3552,"realtor_active_listings":17,"realtor_active_listings_yoy":-0.2714,"realtor_active_listings_base":-0.2376,"realtor_new_listings":4,"realtor_new_listings_yoy":0.2,"realtor_new_listings_base":0.6426,"realtor_days_on_market":104.667,"realtor_days_on_market_yoy":-0.0803,"realtor_days_on_market_base":0.2532,"zhvi":108321.3,"zhvi_yoy":0,"zhvi_base":0.0951,"zori":"NA","zori_yoy":"NA","zori_base":"NA"}},{"type":"MultiPolygon","arcs":[[[-5,-8,-10,11]]],"properties":{"postal_code":"71660","realtor_list_price":"NA","realtor_list_price_yoy":"NA","realtor_list_price_base":"NA","realtor_active_listings":1,"realtor_active_listings_yoy":-0.4,"realtor_active_listings_base":-0.2164,"realtor_new_listings":0,"realtor_new_listings_yoy":"NaN","realtor_new_listings_base":"NA","realtor_days_on_market":"NA","realtor_days_on_market_yoy":"NA","realtor_days_on_market_base":"NA","zhvi":149830.096,"zhvi_yoy":0.0765,"zhvi_base":"NA","zori":"NA","zori_yoy":"NA","zori_base":"NA"}},{"type":"MultiPolygon","arcs":[[[12]]],"properties":{"postal_code":"72079","realtor_list_price":39900,"realtor_list_price_yoy":"NA","realtor_list_price_base":"NA","realtor_active_listings":0.667,"realtor_active_listings_yoy":0,"realtor_active_listings_base":"NA","realtor_new_listings":0.667,"realtor_new_listings_yoy":"Inf","realtor_new_listings_base":"NA","realtor_days_on_market":5,"realtor_days_on_market_yoy":"NA","realtor_days_on_market_base":"NA","zhvi":"NA","zhvi_yoy":"NA","zhvi_base":"NA","zori":"NA","zori_yoy":"NA","zori_base":"NA"}},{"type":"MultiPolygon","arcs":[[[13]]],"properties":{"postal_code":"72133","realtor_list_price":150000,"realtor_list_price_yoy":"NA","realtor_list_price_base":"NA","realtor_active_listings":1,"realtor_active_listings_yoy":0,"realtor_active_listings_base":-0.16,"realtor_new_listings":1.333,"realtor_new_listings_yoy":"Inf","realtor_new_listings_base":"NA","realtor_days_on_market":12,"realtor_days_on_market_yoy":"NA","realtor_days_on_market_base":"NA","zhvi":"NA","zhvi_yoy":"NA","zhvi_base":"NA","zori":"NA","zori_yoy":"NA","zori_base":"NA"}},{"type":"MultiPolygon","arcs":[[[14]]],"properties":{"postal_code":"72152","realtor_list_price":"NA","realtor_list_price_yoy":"NA","realtor_list_price_base":"NA","realtor_active_listings":0.667,"realtor_active_listings_yoy":-0.5,"realtor_active_listings_base":"NA","realtor_new_listings":0,"realtor_new_listings_yoy":"NaN","realtor_new_listings_base":"NA","realtor_days_on_market":"NA","realtor_days_on_market_yoy":"NA","realtor_days_on_market_base":"NA","zhvi":"NA","zhvi_yoy":"NA","zhvi_base":"NA","zori":"NA","zori_yoy":"NA","zori_base":"NA"}}]}},"arcs":[[[730809,847721],[2142,2289],[594,1735],[-635,2076],[-2586,3611],[101,13038],[534,20117],[-2144,2797],[10978,-215],[466,17149],[-629,2244],[421,504],[15252,-19153],[309,-1027],[21490,-387],[-5396,-2839],[-392,-10427],[1323,-3016],[1273,-782],[18,-1399],[-1380,-1117],[-3467,-930],[-1293,-824],[935,-1292],[-2656,-1219],[-402,-1134],[643,-1071],[-2111,-127],[1812,-965],[489,-1150],[874,112],[-2685,-4124],[-2455,-55],[938,-1344],[-964,-1797],[1189,-1038],[238,-1824],[-1158,185],[-1464,1072],[-1140,-962],[2268,-1235],[485,-1170],[2508,389],[-400,-988],[-1871,-632],[571,-1550],[2655,469],[-866,-1876],[1314,-848],[1181,405],[-76,-833],[-2660,-818],[-26537,671],[-9715,121],[2081,1184]],[[420074,960032],[33,13558],[20305,2993],[-60,-4702],[4290,-200],[-61,-5805],[4538,-138],[105,5907],[8560,17],[8560,-191],[204,6003],[10904,-265],[914,1520],[-145,1497],[-1921,1456],[4369,1613],[12973,3686],[4011,1123],[5,939],[4500,1840],[52,1501],[4571,-85],[-542,-1606],[4402,1151],[1476,553],[292,-43],[-135,2861],[8138,5],[-6,-720],[20786,5499],[622,-2587],[-80,-2278],[-930,-2970],[31063,-254],[243,-26],[18780,-474],[5699,51],[3717,-184],[292,-4],[743,-10],[180,-3],[-361,-11375],[38,-1836],[1269,-672],[469,-2051],[10836,-9510],[156,5509],[62,7551],[353,3571],[-794,1307],[542,100],[1237,-1533],[3078,-962],[3922,-113],[1945,-1322],[11257,-4461],[14286,-5663],[2931,-983],[6096,-246],[12630,-481],[-89,-1007],[6327,-111],[10990,-9578],[196,3],[-335,-14599],[-69,-6],[67,-44],[3327,-1414],[2772,-3787],[1659,-963],[9595,-4190],[193,-13893],[-123,-478],[-483,-11497],[-17655,177],[-14851,128],[2283,2452],[326,3768],[-1296,4718],[-1160,2178],[-3403,2858],[-1890,904],[-3581,710],[-2615,1025],[-3647,16],[-3184,534],[-5715,4218],[-105,789],[-13984,187],[-1388,-38],[276,-1790],[-577,-9964],[-844,42],[850,-1096],[-50,-417],[2039,-1535],[4659,-1839],[8556,-280],[3716,-1577],[963,-1284],[2,-4395],[-376,0],[-51,-1077],[-155,-2898],[-108,-7963],[6218,-175],[2580,906],[79,2640],[692,-7],[-58,-1537],[4707,-41],[-984,-668],[-89,-2463],[-185,-59],[-4242,81],[-46,-1215],[45,-549],[-46,-3006],[-61,-4386],[-357,3],[-8417,70],[-293,-13361],[-15416,41],[-4420,176],[-17,-5001],[280,-1790],[-716,-4078],[-241,-13009],[-85389,2447],[-144,-36],[-20256,688],[-9758,-6417],[-5651,-3852],[-723,-3991],[618,-410],[1766,-5010],[1837,-2227],[2404,-1596],[-15835,-271],[-1768,89],[-653,-126],[-4774,44],[232,-8922],[29,-1068],[-2951,79],[-26,-1995],[-17334,177],[79,1089],[91,9532],[-2722,208],[-2352,-469],[-3719,-1413],[-2800,-1407],[-1485,-1805],[-4877,-3338],[-1558,-709],[93,-1374],[-2299,18],[-29,-606],[-8385,-120],[-4331,852],[-16399,171],[-489,5804],[-11586,480],[-6496,-16],[-243,-13519],[-19591,216],[99,3533],[-3124,-151],[1210,1021],[1919,-41],[115,3029],[775,2717],[11987,116],[319,3040],[-5205,7111],[1941,3561],[464,3659],[1786,340],[-2139,343],[-5291,-3372],[977,-2471],[-293,-929],[-2322,-2368],[-807,-2319],[-553,-3844],[-3057,-7443],[-2719,-2117],[-1949,-689],[-9424,-2195],[-413,-842],[-4649,-292],[-3739,85],[-6976,616],[-3159,-650],[-8273,1067],[-4321,1977],[3269,3509],[3431,2702],[1048,163],[1369,-1186],[4203,-1432],[-2352,1609],[4677,-616],[1303,-893],[1812,-9],[-1598,1186],[-3120,865],[-6346,872],[-384,493],[2503,4483],[786,4949],[-390,3031],[1016,559],[1008,2165],[971,108],[977,1705],[-4987,2762],[-7066,3353],[-5124,1603],[-3352,1993],[315,-587],[-4785,1925],[-4695,1207],[-7050,2927],[-4351,2838],[39392,-559],[32,36926],[347,1628],[382,21742],[-1134,1625],[-13535,7802],[-760,516],[-1741,1944],[-668,2462],[-652,19124],[104,1264],[828,2703],[3624,7884],[5177,200],[12114,2404],[-11853,139],[-632,7741],[1186,2500],[2515,3601],[1865,4988],[5429,10911],[2666,-40],[-25,-6406],[2096,-19],[3184,602],[3075,-132],[436,-3249],[3428,151],[2258,2856],[5006,2761],[3973,100],[-62,-2961],[13475,-187],[2130,-109],[-683,-5808],[218,-6223],[375,-3309],[-15897,-3120],[2406,-1361],[578,-1392],[2340,-2598],[11502,-72],[25119,-282],[115,-337]],[[420074,960032],[-61,-23840],[10123,-172],[-13,-718],[1076,707],[26067,-152],[100,7253],[-1065,2987],[-2246,2826],[126,1834],[-951,90],[37,3267],[-4404,1192],[105,4525],[-8823,50],[-48,-9965],[-12005,10138],[-8018,-22]],[[84777,453820],[7864,3322],[10170,377],[2023,303],[8472,25],[3790,156],[10,-5807],[1404,-534],[373,-2091],[-351,-5177],[-3030,-567],[217,-3315],[-86,-4237],[-589,-1206],[-1237,-755],[-4074,-664],[6342,-435],[2552,-721],[4287,-4074],[19884,-20058],[5920,-5257],[3122,-2453],[226,-1763],[-177,-3314],[236,-2092],[873,-1115],[1817,-984],[1522,-1737],[4895,1690],[1457,753],[1217,-700],[4209,1335],[796,-903],[4015,428],[2447,-866],[2596,-186],[874,-830],[1476,284],[2796,-1759],[1249,-2310],[3574,-538],[4421,292],[974,-429],[2238,-1742],[733,-2653],[2854,-1678],[4515,-1086],[1139,-1044],[264,-1779],[-665,-1297],[460,-2727],[410,-407],[3499,-737],[1445,710],[2675,41],[2410,-1342],[3524,-739],[410,-3164],[979,-751],[165,-872],[1333,-54],[1089,1115],[1187,-57],[-416,-1651],[444,-877],[1672,-1132],[189,-3491],[458,-1305],[-2354,-1966],[-2185,-543],[879,-2153],[3335,-1527],[2261,-2958],[2432,-242],[986,1459],[1039,131],[1447,-1920],[1136,138],[350,1180],[2723,827],[441,-1665],[948,-1425],[276,-1656],[4736,-984],[2841,35],[3259,-1933],[1849,170],[5069,-1360],[962,738],[-1168,2013],[3794,-184],[256,1989],[1885,1434],[2880,1343],[3126,-1095],[-1374,-1612],[2855,57],[2411,-2856],[4222,-4598],[1813,-510],[1295,1780],[-1857,1067],[1660,817],[1398,-177],[3258,-3094],[2500,-792],[571,-1322],[1238,-945],[623,-1312],[1304,-590],[2057,-3357],[-635,-1574]],[[292886,328017],[-4124,-34],[-1706,-2316],[-2592,-599],[-1630,-1067],[-2022,-2050],[-2818,-738],[-3014,-1288],[-2346,-2034],[-1571,-2141],[-3318,-1846],[-5586,-4232],[-2268,-1197],[-5135,-4397],[-1963,-2067],[-2906,-755],[-2720,-2001],[-1337,-436],[-1245,-179],[-2356,410],[-2327,-796],[-4898,-41],[-4683,246],[-2165,2765],[-2384,-1020],[-3735,-327],[-1628,1178],[-1669,393],[-2879,-754],[-1669,-772],[-3767,-829],[-3741,-436],[-2155,336],[-438,922],[-3760,958],[-297,2565],[-2671,-172],[-725,505],[-14717,230],[-1414,-317],[-3711,-1312],[8796,-11180],[5616,-10146],[5998,-9892],[-29,-386],[-1895,517],[-26812,9678],[-883,321],[-2670,886],[-1512,262],[-1237,90],[-13116,-385],[-4075,-492],[-7854,-8],[-15167,-1412]],[[121956,280225],[-318,1450],[-712,696],[-1273,243],[342,1643],[-1148,499],[59,1819],[-2554,1548],[-1192,-524],[-1092,2643],[1504,1081],[2296,-73],[-1448,1106],[2293,1700],[897,1359],[-1224,211],[723,637],[-1597,956],[1099,294],[-855,650],[-159,2227],[-858,-106],[-1037,1055],[986,217],[-117,1699],[1200,2260],[-1679,153],[-1428,957],[1646,914],[-410,1326],[1237,-31],[403,1353],[-1308,176],[1023,634],[-1719,1257],[1418,913],[-2374,669],[1374,289],[-851,843],[1088,639],[-1201,-165],[-726,1277],[-744,2711],[-2107,1352],[-2031,419],[-547,-617],[-2720,-201],[-759,345],[281,2553],[1131,597],[-835,689],[-774,860],[-2513,-522],[-485,1424],[1471,-286],[-2027,1958],[570,1980],[-4288,1187],[-1185,1103],[-3067,517],[-1604,1073],[1118,1625],[-1311,-402],[-1510,548],[-680,989],[-4212,988],[56,776],[-1318,1193],[-885,-648],[-2592,484],[-1065,1209],[914,1212],[-1101,408],[-1236,-936],[-861,694],[-1427,-211],[-866,1057],[462,1705],[-1538,445],[-1636,2706],[44,1512],[-1195,276],[-911,-981],[-307,2307],[-2115,392],[305,897],[-1945,1640],[-333,1207],[-2609,-428],[1230,776],[-2689,639],[-1427,1545],[2399,277],[-1964,688],[1449,818],[-1316,648],[-663,1770],[1316,38],[-1134,2010],[-1114,977],[-330,1562],[566,830],[-1272,141],[-162,1431],[-698,-756],[-1578,741],[1943,742],[-700,1179],[-1034,-364],[4,1065],[2053,172],[-288,772],[-1612,405],[1018,1279],[-1450,752],[1584,549],[-1288,935],[769,423],[-932,804],[-122,2067],[-2857,840],[-663,963],[-1162,-702],[-488,548],[-1925,-61],[-553,737],[-2082,703],[508,425],[-1236,1363],[1381,2128],[-1091,1990],[854,761],[-785,498],[-1609,-521],[-74,944],[-1814,897],[1373,810],[-1116,2117],[-4267,1989],[-1751,1569],[309,1605],[-1348,2548],[-1018,624],[-1169,-233],[-605,818],[-2278,527],[171,852],[-1275,417],[-602,-618],[-2611,-216],[887,969],[-1541,589],[-294,1066],[-1654,-399],[-3129,925],[1919,377],[-1322,507],[1324,192],[-747,755],[1804,673],[-2018,1218],[-640,-1136],[-1167,1170],[1171,481],[-1709,1686],[-1218,173],[183,-1408],[-1564,-146],[-2329,382],[2123,1283],[-2636,280],[-288,916],[1613,-634],[1112,323],[-2353,1361],[-351,1314],[-2060,405],[-1210,923],[-631,-844],[-2917,1258],[-1104,195],[106,2403],[-2644,1036],[177,1133],[-1474,541],[1465,740],[-2936,785],[1404,2580],[41961,-542],[208,4472],[-1237,393],[-1757,2133],[-2003,3322],[-3319,3994],[-1761,2838],[-1724,4143],[-923,615],[1061,2395],[10563,-74],[2317,-304],[49,558],[14213,979],[1397,6],[3525,-673],[4162,-3142],[2059,-579],[2290,-290],[16130,-66],[1895,-607],[-1443,1452],[-2062,1001],[-1050,2715],[-1178,1247]],[[472767,279632],[-18,-21392],[-36,-11253],[0,-4736],[-1727,31],[-4938,0],[-1846,-443],[-294,-1066],[-3996,32],[-3142,17],[-8362,2511],[-776,536],[-6266,2],[-1109,-244],[-1836,-2772],[-3887,-1387],[-148,-402],[-98,-1591],[-6958,26],[-6023,-480],[14003,-17790],[-2141,-1344],[1142,-1778],[-7524,-8199],[-13717,107],[-38009,299]],[[375061,208316],[-422,1240],[-8091,9579],[-825,1632],[-186,1353],[39,9794],[-255,1460],[3485,172],[2984,1797],[1709,352],[2130,-205],[1777,673],[766,902],[3760,1394],[-3230,5266],[-344,1444],[-19,9654],[-1012,1813],[-2326,2034],[-7960,12706],[135,5775],[-118,2894],[9220,-63],[663,1218],[1993,944],[601,1931],[-1297,610],[564,1159],[-2337,1998],[-1935,-106],[-2297,-983],[-472,2237],[-1890,621],[-1803,-1436],[-978,200],[-1429,2083],[-3457,664],[115,944],[6036,1096],[1053,1881],[-3510,2441],[-6092,2805],[-3209,-272],[-2370,356],[-3696,71],[-4181,1034],[-2029,1494],[-1453,3332],[-2862,3797],[-2393,1677],[-260,1920],[-2132,2832],[-2083,1964],[-2466,-159],[-3308,-1633],[-3369,1366],[-898,-2504],[-2594,-364],[575,-1659],[-764,-1644],[-1601,-1159],[-2934,-732],[-1286,-1002],[-1226,-59],[-463,1708],[1425,785],[-259,830],[-3530,2056],[-3386,16],[-2711,408],[-3831,1650],[-1285,1457],[-2550,4261],[843,2277],[-2835,760],[-1563,1176],[-236,1688]],[[84777,453820],[-1826,902],[-2376,1747],[-1060,1960],[-776,2477],[-69,4405],[334,3109],[-373,902],[1070,2362],[1895,2026],[1394,812],[-108,3043],[717,2026],[-197,1296],[-1364,2157],[471,509],[11339,320],[1532,254],[4123,-115],[687,1657],[1679,1600],[-540,1771],[-1257,878],[-746,1304],[452,1403],[2611,1181],[4448,730],[1148,722],[-2637,3710],[13176,282],[101505,2370],[65,4489],[1105,-119],[1445,1691],[1226,541],[414,2607],[1712,-103],[875,1276],[-1045,67],[-31,1509],[4320,3673],[3630,-211],[79,3213],[3565,1823],[7068,1942],[2800,315],[54,713],[4378,1598],[4758,901],[432,527],[-82,3588],[4190,1034],[5781,518],[1676,-4130],[3067,-8874],[25,-4228],[2329,-149],[-5332,-3330],[3751,-3707],[703,-2160],[-108,-1969],[669,-2115],[45959,191],[4187,-10],[1289,677],[4549,1044],[509,1237],[2612,361],[1337,732],[-676,875],[1972,414],[4811,-468],[6405,-1539],[1242,1373],[5729,227],[973,357],[648,2104],[3781,2801],[2702,2799],[-354,7760],[3945,-1512],[2191,-474],[3646,868],[5653,3083],[2040,1611],[976,-1278],[-51,-2181],[815,-2059],[4031,-6605],[1944,-2010],[3956,56],[531,-10480],[17769,125],[-161,-662],[3,-7228],[8645,133],[12,-759],[11381,279],[1226,937],[-2152,1498],[598,2407],[2395,3070],[184,570],[20188,56],[7085,-11594],[3124,-6657],[-2738,-2463],[-3879,-821],[-2794,-1208],[68,-3763],[8680,36],[69,-15103],[-20778,-94],[511,-2476],[1055,-722],[161,-1145],[2643,-2283],[912,-1849],[706,-2627],[-1561,-215],[1754,-1097],[-1756,-513],[-26,-712],[1645,-398],[-733,-1555],[1178,-1155],[668,513],[581,-1930],[1036,-817],[-526,-996],[-1865,119],[561,-1850],[-2470,-2546],[-338,-825],[-1425,19],[407,-912],[-959,-432],[-91,-1272],[744,-257],[-1,-1583],[1250,-257],[-1775,-631],[1320,-668],[-1561,-603],[-53,-1304],[2118,-898],[-946,-400],[465,-980],[1555,712],[1346,-1885],[-371,-2340],[-868,582],[76,-3377],[2253,-479],[-41,-2268],[-960,-1159],[-2455,-924],[523,-1524],[-538,-635],[2531,-1417],[233,-1240],[-740,-1316],[1347,-650],[-366,-3233],[-2203,-744],[1917,-1082],[438,-1372],[-1133,-544],[674,-2026],[55,-1451],[-1698,-1546],[252,-1132],[-786,-1114],[687,-829],[-1076,-1723],[1326,-239],[-576,-712],[-1626,-104],[-84,-1415],[-1115,-32],[1981,-654],[-939,-1163],[5844,607],[18193,-68],[1107,-2968],[-295,-1672],[137,-5055],[1153,-1437],[-687,-2146],[163,-1542],[-965,-1081],[988,-2108],[3966,-815],[-107,-8527],[-5438,-3],[1521,-640],[-1857,166],[-575,-762],[1572,-1407],[1243,203],[-1119,-1077],[1165,-726],[-2503,-763],[1164,-793],[-510,-1114],[1120,-410],[-2013,-357],[-83,-1349],[1003,-396],[-348,-933],[1107,-1073],[1100,807],[1303,-2394],[1522,-1691],[-2069,-2296],[1527,69],[589,-726],[-653,-1543],[-1480,-1385],[84,-1046],[-1785,-320],[789,-564],[-879,-857],[-1857,315],[-1035,-937],[1237,-781],[-1119,-221],[1022,-789],[-2846,-469],[602,-758],[-1533,-970],[758,-982],[-1028,-1155],[596,-1524],[1112,122],[232,-1137],[998,32],[-1007,-2092],[698,-631],[-2767,-1205],[557,-1159],[-1681,-532],[2885,-220],[-420,-1218],[1695,-338],[-213,-1362],[-1462,613],[-582,-406],[596,-1244],[1249,-780],[-595,-600],[1741,-874],[1714,203],[-543,-1050],[1419,-755],[1343,-1314],[1669,-361],[1260,774],[5,-33342]],[[268172,208834],[4162,-38],[3519,-33],[34360,-202],[13511,-88],[-22,-3517],[-1664,-1725],[1615,-422],[10738,-1690],[1106,-539],[971,757],[179,7050],[38414,-71]],[[472767,279632],[6291,-4],[309,-506],[2088,-301],[841,-1024],[-504,-866],[1273,-392],[1029,-1610],[-554,-3134],[-938,-861],[1209,-915],[-1253,-1047],[510,-744],[-1111,-964],[-83,-1268],[1332,-676],[-2708,-2062],[1487,-1952],[-1699,-279],[-794,-713],[1977,-1213],[1384,-1762],[-1990,-610],[2695,-1812],[1629,266],[-704,-1118],[-1364,-19],[2036,-1893],[-38,-1872],[2527,-775],[801,339],[1138,-2273],[-433,-681],[-1828,-293],[1687,-469],[-69,-1492],[2843,-1352],[-1931,-1105],[1440,-1001],[-354,-1979],[1099,-221],[-304,-1290],[1382,-1605],[-1168,-1325],[466,-1755],[-1816,-280],[201,-838],[1337,-517],[-910,-1301],[1637,659],[1152,-1970],[-595,-983],[867,-1369],[-2378,-211],[905,-1550],[1525,-32],[-1022,-1086],[40,-1296],[-1442,57],[1509,-1188],[-1786,-206],[946,-853],[1184,-31],[-1454,-485],[-474,-2128],[-1448,-387],[1380,-943],[-1262,-601],[825,-755],[-1656,-2003],[-374,-1240],[-2608,437],[-1285,-969],[516,-596],[-1892,145],[-1652,-1714],[891,-762],[-1530,-302],[1808,-627],[-1691,-709],[1292,-1018],[-1879,-1074],[-2088,-2280],[-6495,33],[33,-22549],[-1048,-770],[-1649,-95],[1140,-1252],[-914,-639],[350,-1033],[-1263,-770],[-2233,356],[405,-1127],[-2635,-940],[188,-1241],[-2984,-377],[189,-2104],[-2286,-226],[566,-846],[-672,-1315],[-1506,657],[-618,-864],[1668,-1108],[-2501,92],[754,-1652],[-752,-1204],[-106,-2555],[540,-1935],[3093,-1314],[-1155,-2593],[-1988,-2087],[-2309,-3777],[-213,-1804],[-1935,-1203],[-2444,-2430],[434,-1435],[-617,-2048],[-3480,-4116],[-3226,-431],[-1155,564],[-1907,2105],[-2689,-36],[-565,-958],[1881,-1466],[-1,-940],[-2770,-1333],[-511,-695],[27,-601],[3628,-622],[806,-695],[-1631,-2275],[-473,-51],[1214,-1582],[2257,-1015],[1987,-1918],[-163,-2612],[562,-1879],[-6021,-2365],[-754,-1729],[-4139,-1238],[-2122,-319],[-3279,245],[-2717,-3023],[-1478,-3081],[-2554,-1916],[-2526,-883],[-2243,-2349],[-2427,-3530],[-3562,240],[-928,-777],[1805,-4189],[1620,-1261],[6237,-1269],[2248,631],[233,1191],[2056,306],[996,-503],[211,-1181],[-1617,-2275],[-218,-1337],[3759,-1780],[-416,-1164],[-1680,344],[-1129,-1863],[631,-920],[1621,-410],[614,-747],[680,-2513],[578,-603],[1963,743],[754,976],[3614,942],[2546,-656],[2697,-1878],[1001,-1427],[-170,-1207],[-3254,-917],[-468,-897],[262,-2498],[598,-575],[3675,-1234],[579,-561],[314,-2882],[-242,-2239],[-362,2],[-31572,71],[-56,-2245],[-1205,-698],[-902,-1629],[-1710,-224],[-4577,-2505],[-2759,-902],[-2030,2031],[-2554,1012],[-199,-2406],[-5157,-508],[-2767,-1764],[242,-2049],[831,-2009],[-1396,-845],[-187,-2650],[-1530,-1991],[-4376,-1956],[-1718,-150],[-2335,-1579],[-1313,-1618],[-2148,-138],[-1194,-765],[-3745,-1038],[-1771,-1918],[-2040,-488],[-3033,-1786],[162,-978],[-2469,-901],[-215,526],[-2442,450],[-1047,-865],[-1477,170],[-321,-1392],[-3272,-643],[-3311,575],[-6016,-5963],[-2073,-1856],[-13340,-4099],[-7371,3185],[-1824,1295],[-4123,-3003],[-2820,-3297],[-1800,-3100],[-3705,-6090],[-2748,-2174],[-10803,-5804],[-4100,34],[-7,2516],[-2457,3],[-1046,1811],[5914,3202],[1981,677],[873,2106],[-24,4668],[-1219,3628],[-7963,65],[-6429,-845],[-555,3646],[-3634,-1994],[-2361,-319],[-2577,-1577],[960,-428],[-2571,-870],[-1368,-976],[0,-2405],[1127,-19],[108,-1766],[-1395,-696],[3998,-4153],[-1315,-864],[-403,-1503],[644,-864],[-2924,-1091],[-3166,-1634],[-1717,1015],[1421,319],[779,976],[-2147,4417],[885,375],[-724,3458],[644,3101],[-1610,93],[401,1466],[-751,1635],[27,1090],[3650,1071],[-2791,1163],[-1450,5356],[-1610,395],[1690,3796],[-1827,3664],[134,3853],[-1503,337],[376,1428],[-1963,730],[-1367,74],[-1343,875],[178,1537],[332,1000],[-726,1352],[-2953,1277],[81,903],[-4433,4095],[-759,1863],[-772,1706],[1047,-93],[-81,789],[-3170,2443],[-1235,-245],[-1826,1014],[966,1372],[-1478,1804],[107,1691],[-1101,243],[133,1317],[-403,1052],[698,1015],[-1021,488],[886,958],[-1477,244],[483,902],[-2256,-244],[-1853,413],[966,1315],[-1906,225],[-82,1353],[-2229,-95],[-1049,2180],[-1880,544],[1181,470],[-1209,1164],[1906,771],[-1530,150],[-270,2443],[698,207],[-245,4096],[-699,1353],[2230,959],[-512,1052],[1048,695],[-1452,1635],[-1048,75],[-564,1296],[644,1466],[-620,1559],[1102,-150],[509,1335],[2149,282],[834,-733],[2418,584],[724,771],[1557,2630],[-28,2349],[3170,1542],[1210,-225],[213,758],[538,1515],[2014,1710],[2607,809],[644,1502],[994,-131],[-1317,1316],[832,394],[-564,1146],[1075,527],[-538,1559],[1236,-19],[-645,2086],[1075,-450],[885,1860],[1129,1014],[1988,19],[-510,1635],[2660,658],[322,639],[161,902],[-1209,1635],[17,1472],[18778,-699],[-395,2382],[234,3011],[-1797,2532],[-254,1426],[592,1188],[2273,2457],[1330,3301],[3438,-40],[119,9800],[1154,1570],[-10338,1345],[-2775,544],[-5205,1972],[-3499,1383],[-806,151],[140,2794],[1413,1111],[15597,10764],[97,36053]],[[268172,208834],[-68513,96],[-30771,77],[-44692,1741],[60,162],[-2126,2622],[226,2634],[1100,295],[-466,2011],[1801,3310],[-312,1315],[-2323,-820],[1171,2435],[-2742,-670],[1071,1131],[-1440,279],[-1247,1822],[1387,627],[-329,1059],[1456,474],[813,1105],[-2269,1503],[-2322,183],[99,1375],[-1999,1018],[1478,2265],[-1335,1493],[-2569,1275],[1510,632],[-1190,1726],[2205,1101],[-1129,542],[612,1455],[1533,388],[-792,984],[247,1607],[1621,767],[675,992],[96,1653],[1430,-242],[1157,1505],[-1960,1559],[2489,605],[-996,1178],[1160,725],[-1149,1446],[1026,453],[27,1339],[2163,504],[-917,768],[183,1307],[1636,-434],[-308,1097],[1727,686],[467,847],[-899,822],[1115,679],[806,1847],[-1216,652],[-522,1649],[-2828,602],[983,2062],[-1014,556],[-474,2250],[603,819],[-1443,2162],[-57,1284]],[[202706,802396],[16433,6635],[5313,-7449],[9757,-7031],[1029,-488],[4064,-37],[2900,-1621],[1636,966],[164,7501],[2315,1964],[2344,635],[689,3008],[3481,3127],[393,330],[2947,-54],[1252,-3067],[3722,-9179],[63,-162],[869,-2752],[3595,-11784],[308,-1],[1167,-225],[10558,-198],[-298,-17210],[2165,-21],[-8,-723],[2270,-27],[-6,1520],[4286,-106],[-24,1563],[1623,-8],[155,-1605],[7051,-109],[77,4523],[3981,-194],[2265,-474],[2988,490],[2709,906],[3502,-862],[1094,-736],[1586,-3206],[1328,554],[2226,-154],[1048,-884],[1706,540],[1294,-1840],[781,748],[2364,598],[716,-419],[4305,647],[2884,-847],[1293,-1676],[-11799,118],[-9098,-114],[-72,-11261],[-286,-521],[-3106,-793],[-3097,-206],[-3767,1894],[-4875,1729],[-2156,124],[-19,-2769],[2544,-4953],[-743,-309],[-156,137],[-4341,-50],[-15062,102],[3630,-11901],[-37800,595],[180,16426],[-2482,-25],[-3726,982],[-192,2030],[-11624,121],[1559,3925],[683,2734],[-1274,3902],[-58,1472],[-1764,-1245],[-1576,306],[-3163,-794],[821,-1141],[-6241,-2554],[-312,-777],[-1621,1653],[-1593,24],[1091,109],[1189,1859],[-399,3350],[905,649],[-1068,627],[-504,2885],[2557,1904],[-684,537],[2825,902],[1112,1462],[1856,607],[-12938,223],[865,2657],[-252,2780],[921,3482],[-1137,3484],[17,2406],[-1462,948],[-2655,340],[-13,8822]],[[831857,533356],[3890,7620],[306,1526],[114,1795],[3190,2850],[4037,1428],[3224,400],[5150,126],[4493,1921],[2796,2081],[-128,1828],[-2480,2463],[-2822,1812],[-1996,652],[-3722,49],[-4187,-430],[-3232,-786],[-2264,-575],[645,617],[1591,431],[1025,33672],[10257,-363],[3940,516],[2518,-207],[84,4188],[3469,64],[860,-248],[1515,770],[679,-1525],[-2039,-1072],[155,-1172],[-1641,-1128],[1698,-356],[340,-851],[-714,-958],[2850,-2881],[762,-1838],[1437,-1314],[2816,-1077],[659,-1595],[2288,-1054],[2541,-1795],[-1246,-3303],[-4415,-19099],[-1037,-2516],[-1532,-1498],[-7805,-5987],[3548,-6414],[3921,2377],[154,932],[4051,138],[536,-573],[4430,-1522],[13106,-297],[1379,-667],[2729,-55],[1318,-390],[9728,-1560],[4905,-2904],[22777,761],[1882,575],[5337,2326],[4299,1256],[5038,-104],[1909,-1078],[1554,-2094],[9118,-904],[7782,-3188],[3320,-1154],[14617,303],[3532,-446],[2030,-1132],[1284,-1907],[-39,-6855],[854,-1764],[1698,-1016],[3276,-853],[-1508,-832],[-2509,-531],[-2112,-408],[-3823,2251],[-4349,1856],[-6959,129],[-1746,-223],[-1800,-874],[-959,-1002],[-167,-2514],[945,-1700],[2363,-1881],[1718,-2879],[107,-2279],[-986,-2248],[-2129,-2294],[-3653,-1910],[-8552,-1150],[-817,-146],[-1344,-302],[-506,-142],[-1168,-285],[-2275,-437],[-4407,731],[-2425,1364],[-1630,1662],[-449,1800],[152,2099],[1470,3284],[-32,1082],[-1032,1021],[-6748,-1268],[-3397,-78],[-4198,525],[-2729,728],[-3224,1474],[-2445,1603],[-3323,2925],[-4557,4760],[-6993,7201],[-2447,1911],[-1988,1107],[-5441,2167],[-2530,706],[-5664,1165],[-6940,722],[-3610,-31],[-3573,-390],[-2123,-469],[-4158,-1570],[-1882,-1225],[-7947,-6521],[-2673,-1870],[-3250,-1837],[-3197,-1304],[-4864,-1241],[-4612,-172],[-3088,484],[-3489,909],[-2864,1480],[-2385,2527],[-1831,4673],[610,2695]],[[369847,781004],[4596,-97],[35133,-960],[3315,-203],[25454,-82],[94,5197],[-252,4053],[2078,-2018],[526,-1407],[1218,-1020],[1660,541],[1699,-362],[607,1204],[2716,1487],[-69,1524],[1036,1368],[3093,1137],[2823,34],[-398,13223],[301,-2335],[2027,-1361],[3622,-1171],[2409,-193],[7985,494],[1179,-163],[3311,-1768],[2678,2189],[5480,1897],[6175,196],[1441,46],[-105,-7953],[-1752,-3377],[-24,-3648],[34452,-338],[-443,-21360],[20056,-154],[31,-45658],[3969,-4122],[3361,-2985],[2355,-1548],[-1392,-461],[-142,-3589],[-469,-693],[-4782,-2998],[-3091,-3998],[-3454,-1686],[-2693,-780],[-1346,154],[-3043,-1311],[-437,-2228],[-1372,-1416],[994,-1506],[3231,-1402],[2229,-3811],[1690,-86],[2854,-1885],[350,-1389],[4044,-443],[474,-1700],[959,-605],[-5048,-6349],[-924,-882],[-1471,-810],[-5983,-2033],[-775,2731],[72,5966],[-546,4414],[-968,2517],[-1559,2128],[-3519,3541],[-3777,2178],[-8403,3396],[-2321,770],[-3446,-744],[-3700,-1884],[-1947,-2097],[-432,-1426],[-2635,-1392],[-1003,-1587],[-7809,-7233],[-1477,-926],[-4111,-1761],[-6987,-1678],[-9319,242],[-5710,1574],[-683,506],[-4067,600],[-1789,-1122],[-2781,5814],[-2304,3032],[-1134,1035],[-271,513],[-5632,5057],[-4602,3408],[-4086,2287],[-4954,1026],[-7584,1755],[-9565,3383],[-2090,1035],[-3061,1820],[-3207,2013],[-5281,3967],[-2114,2076],[-2410,1857],[-6135,6734],[-2449,3480],[-2696,4421],[-3131,7005],[-681,2619],[-188,4932],[247,2759],[795,2992],[1171,8598],[-263,3733],[-894,2748],[-1718,3144],[-2916,2892],[-3879,2564],[-3425,1957],[-4783,2354],[3917,-123]]],"bbox":[-92.457423,33.450808,-91.438831,34.669974],"transform":{"scale":[0.000001018593018593031,0.0000012191672191672205],"translate":[-92.457423,33.450808]}}
