{"type":"Topology","objects":{"foo":{"type":"GeometryCollection","geometries":[{"type":"MultiPolygon","arcs":[[[0,1,2,3,4,5,6]]],"properties":{"postal_code":"01225","realtor_list_price":337400,"realtor_list_price_yoy":-0.2193,"realtor_list_price_base":"NA","realtor_active_listings":8.333,"realtor_active_listings_yoy":-0.1379,"realtor_active_listings_base":-0.3871,"realtor_new_listings":1.333,"realtor_new_listings_yoy":-0.6,"realtor_new_listings_base":-0.4412,"realtor_days_on_market":77,"realtor_days_on_market_yoy":0.925,"realtor_days_on_market_base":"NA","zhvi":361841.583,"zhvi_yoy":0.0248,"zhvi_base":0.7761,"zori":"NA","zori_yoy":"NA","zori_base":"NA"}},{"type":"MultiPolygon","arcs":[[[7,8,9,10,11]]],"properties":{"postal_code":"01201","realtor_list_price":349818.421,"realtor_list_price_yoy":-0.0392,"realtor_list_price_base":0.7291,"realtor_active_listings":112.333,"realtor_active_listings_yoy":0.0212,"realtor_active_listings_base":-0.3817,"realtor_new_listings":50.667,"realtor_new_listings_yoy":0.0133,"realtor_new_listings_base":-0.0876,"realtor_days_on_market":46.842,"realtor_days_on_market_yoy":-0.0396,"realtor_days_on_market_base":-0.227,"zhvi":310700.628,"zhvi_yoy":0.0108,"zhvi_base":0.7863,"zori":1576.19,"zori_yoy":0.0036,"zori_base":"NA"}},{"type":"MultiPolygon","arcs":[[[12,13,14,15]]],"properties":{"postal_code":"01236","realtor_list_price":"NA","realtor_list_price_yoy":"NA","realtor_list_price_base":"NA","realtor_active_listings":5,"realtor_active_listings_yoy":0.0714,"realtor_active_listings_base":"NA","realtor_new_listings":0,"realtor_new_listings_yoy":"NaN","realtor_new_listings_base":"NA","realtor_days_on_market":"NA","realtor_days_on_market_yoy":"NA","realtor_days_on_market_base":"NA","zhvi":627458.537,"zhvi_yoy":0.0166,"zhvi_base":0.7172,"zori":"NA","zori_yoy":"NA","zori_base":"NA"}},{"type":"MultiPolygon","arcs":[[[16,17,18,19,20,21,22,-14]]],"properties":{"postal_code":"01262","realtor_list_price":1289125,"realtor_list_price_yoy":0.2719,"realtor_list_price_base":1.3668,"realtor_active_listings":24.333,"realtor_active_listings_yoy":0.5532,"realtor_active_listings_base":-0.6042,"realtor_new_listings":6.667,"realtor_new_listings_yoy":0.25,"realtor_new_listings_base":-0.1897,"realtor_days_on_market":56.4,"realtor_days_on_market_yoy":0.504,"realtor_days_on_market_base":-0.4333,"zhvi":782883.871,"zhvi_yoy":0.05,"zhvi_base":0.8386,"zori":"NA","zori_yoy":"NA","zori_base":"NA"}},{"type":"MultiPolygon","arcs":[[[23,-4,24,25,-9]]],"properties":{"postal_code":"01226","realtor_list_price":441356.25,"realtor_list_price_yoy":0.1657,"realtor_list_price_base":0.4782,"realtor_active_listings":20.333,"realtor_active_listings_yoy":0.2979,"realtor_active_listings_base":-0.3503,"realtor_new_listings":10.667,"realtor_new_listings_yoy":-0.0588,"realtor_new_listings_base":0.1568,"realtor_days_on_market":43.875,"realtor_days_on_market_yoy":0.7386,"realtor_days_on_market_base":-0.2634,"zhvi":348327.293,"zhvi_yoy":0.0208,"zhvi_base":0.7306,"zori":"NA","zori_yoy":"NA","zori_base":"NA"}},{"type":"MultiPolygon","arcs":[[[26,27]]],"properties":{"postal_code":"01070","realtor_list_price":"NA","realtor_list_price_yoy":"NA","realtor_list_price_base":"NA","realtor_active_listings":2.333,"realtor_active_listings_yoy":0.75,"realtor_active_listings_base":-0.4158,"realtor_new_listings":0,"realtor_new_listings_yoy":-1,"realtor_new_listings_base":-1,"realtor_days_on_market":"NA","realtor_days_on_market_yoy":"NA","realtor_days_on_market_base":"NA","zhvi":333523.774,"zhvi_yoy":0.0424,"zhvi_base":0.4274,"zori":"NA","zori_yoy":"NA","zori_base":"NA"}},{"type":"MultiPolygon","arcs":[[[28,29,30]]],"properties":{"postal_code":"01258","realtor_list_price":846000,"realtor_list_price_yoy":"NA","realtor_list_price_base":"NA","realtor_active_listings":5.333,"realtor_active_listings_yoy":-0.1111,"realtor_active_listings_base":-0.5532,"realtor_new_listings":1.333,"realtor_new_listings_yoy":"Inf","realtor_new_listings_base":1.4024,"realtor_days_on_market":24,"realtor_days_on_market_yoy":"NA","realtor_days_on_market_base":"NA","zhvi":744779.441,"zhvi_yoy":0.048,"zhvi_base":0.8188,"zori":"NA","zori_yoy":"NA","zori_base":"NA"}},{"type":"MultiPolygon","arcs":[[[31,32,33,34,35,36,-21]]],"properties":{"postal_code":"01238","realtor_list_price":541928.571,"realtor_list_price_yoy":-0.0585,"realtor_list_price_base":0.7983,"realtor_active_listings":19.333,"realtor_active_listings_yoy":-0.2267,"realtor_active_listings_base":-0.6162,"realtor_new_listings":4.667,"realtor_new_listings_yoy":-0.125,"realtor_new_listings_base":-0.3247,"realtor_days_on_market":49.143,"realtor_days_on_market_yoy":-0.1944,"realtor_days_on_market_base":-0.4469,"zhvi":425052.164,"zhvi_yoy":0.0101,"zhvi_base":0.7208,"zori":"NA","zori_yoy":"NA","zori_base":"NA"}},{"type":"MultiPolygon","arcs":[[[37,38,39,-15,-23,40,41,42,43,44,45,46,-29,47]]],"properties":{"postal_code":"01230","realtor_list_price":1007980,"realtor_list_price_yoy":0.0485,"realtor_list_price_base":0.7046,"realtor_active_listings":82,"realtor_active_listings_yoy":0.1549,"realtor_active_listings_base":-0.4778,"realtor_new_listings":16.667,"realtor_new_listings_yoy":-0.2187,"realtor_new_listings_base":-0.1707,"realtor_days_on_market":70.88,"realtor_days_on_market_yoy":0.1118,"realtor_days_on_market_base":-0.2717,"zhvi":639632.255,"zhvi_yoy":0.0198,"zhvi_base":0.8591,"zori":3522.5,"zori_yoy":"NA","zori_base":"NA"}},{"type":"MultiPolygon","arcs":[[[48,49]]],"properties":{"postal_code":"01029","realtor_list_price":"NA","realtor_list_price_yoy":"NA","realtor_list_price_base":"NA","realtor_active_listings":4,"realtor_active_listings_yoy":2,"realtor_active_listings_base":"NA","realtor_new_listings":0,"realtor_new_listings_yoy":"NaN","realtor_new_listings_base":"NA","realtor_days_on_market":"NA","realtor_days_on_market_yoy":"NA","realtor_days_on_market_base":"NA","zhvi":"NA","zhvi_yoy":"NA","zhvi_base":"NA","zori":"NA","zori_yoy":"NA","zori_base":"NA"}},{"type":"MultiPolygon","arcs":[[[50,-45,51,52,53,54]]],"properties":{"postal_code":"01259","realtor_list_price":790500,"realtor_list_price_yoy":-0.1158,"realtor_list_price_base":"NA","realtor_active_listings":7,"realtor_active_listings_yoy":-0.25,"realtor_active_listings_base":-0.3047,"realtor_new_listings":0.667,"realtor_new_listings_yoy":-0.5,"realtor_new_listings_base":0.2056,"realtor_days_on_market":72,"realtor_days_on_market_yoy":-0.4419,"realtor_days_on_market_base":"NA","zhvi":614702.02,"zhvi_yoy":0.0304,"zhvi_base":"NA","zori":"NA","zori_yoy":"NA","zori_base":"NA"}},{"type":"MultiPolygon","arcs":[[[-54,55,56]]],"properties":{"postal_code":"01222","realtor_list_price":"NA","realtor_list_price_yoy":"NA","realtor_list_price_base":"NA","realtor_active_listings":0.667,"realtor_active_listings_yoy":-0.6,"realtor_active_listings_base":-0.8862,"realtor_new_listings":0,"realtor_new_listings_yoy":"NaN","realtor_new_listings_base":-1,"realtor_days_on_market":"NA","realtor_days_on_market_yoy":"NA","realtor_days_on_market_base":"NA","zhvi":413928.766,"zhvi_yoy":-0.008,"zhvi_base":0.7623,"zori":"NA","zori_yoy":"NA","zori_base":"NA"}},{"type":"MultiPolygon","arcs":[[[57,58,59,-7,60,-5,-24,-8]]],"properties":{"postal_code":"01237","realtor_list_price":489950,"realtor_list_price_yoy":0.1489,"realtor_list_price_base":0.6024,"realtor_active_listings":34.333,"realtor_active_listings_yoy":0.1196,"realtor_active_listings_base":-0.3181,"realtor_new_listings":6.667,"realtor_new_listings_yoy":-0.375,"realtor_new_listings_base":-0.3303,"realtor_days_on_market":105.3,"realtor_days_on_market_yoy":0.8994,"realtor_days_on_market_base":0.1954,"zhvi":377241.699,"zhvi_yoy":0.0154,"zhvi_base":0.7197,"zori":"NA","zori_yoy":"NA","zori_base":"NA"}},{"type":"MultiPolygon","arcs":[[[-33,61]]],"properties":{"postal_code":"01242","realtor_list_price":"NA","realtor_list_price_yoy":"NA","realtor_list_price_base":"NA","realtor_active_listings":1,"realtor_active_listings_yoy":0,"realtor_active_listings_base":"NA","realtor_new_listings":0,"realtor_new_listings_yoy":"NaN","realtor_new_listings_base":"NA","realtor_days_on_market":"NA","realtor_days_on_market_yoy":"NA","realtor_days_on_market_base":"NA","zhvi":"NA","zhvi_yoy":"NA","zhvi_base":"NA","zori":"NA","zori_yoy":"NA","zori_base":"NA"}},{"type":"MultiPolygon","arcs":[[[-46,-51,62]]],"properties":{"postal_code":"01244","realtor_list_price":"NA","realtor_list_price_yoy":"NA","realtor_list_price_base":"NA","realtor_active_listings":2.333,"realtor_active_listings_yoy":0.4,"realtor_active_listings_base":-0.2903,"realtor_new_listings":0,"realtor_new_listings_yoy":"NaN","realtor_new_listings_base":-1,"realtor_days_on_market":"NA","realtor_days_on_market_yoy":"NA","realtor_days_on_market_base":"NA","zhvi":"NA","zhvi_yoy":"NA","zhvi_base":"NA","zori":"NA","zori_yoy":"NA","zori_base":"NA"}},{"type":"MultiPolygon","arcs":[[[63,-50,64,65,66,67]]],"properties":{"postal_code":"01253","realtor_list_price":676850,"realtor_list_price_yoy":0.1291,"realtor_list_price_base":0.916,"realtor_active_listings":19.333,"realtor_active_listings_yoy":-0.2267,"realtor_active_listings_base":-0.6095,"realtor_new_listings":2.667,"realtor_new_listings_yoy":-0.5,"realtor_new_listings_base":-0.6149,"realtor_days_on_market":62,"realtor_days_on_market_yoy":-0.2152,"realtor_days_on_market_base":-0.3928,"zhvi":529195.883,"zhvi_yoy":0.0393,"zhvi_base":0.8292,"zori":"NA","zori_yoy":"NA","zori_base":"NA"}},{"type":"MultiPolygon","arcs":[[[68,69,70,-27,71,-2]]],"properties":{"postal_code":"01256","realtor_list_price":"NA","realtor_list_price_yoy":"NA","realtor_list_price_base":"NA","realtor_active_listings":3,"realtor_active_listings_yoy":0,"realtor_active_listings_base":-0.4379,"realtor_new_listings":0,"realtor_new_listings_yoy":-1,"realtor_new_listings_base":-1,"realtor_days_on_market":"NA","realtor_days_on_market_yoy":"NA","realtor_days_on_market_base":"NA","zhvi":326643.388,"zhvi_yoy":0.0029,"zhvi_base":"NA","zori":"NA","zori_yoy":"NA","zori_base":"NA"}},{"type":"MultiPolygon","arcs":[[[-47,-63,-55,-57,72,-30]]],"properties":{"postal_code":"01257","realtor_list_price":714500,"realtor_list_price_yoy":-0.1262,"realtor_list_price_base":0.4785,"realtor_active_listings":13,"realtor_active_listings_yoy":-0.4935,"realtor_active_listings_base":-0.6619,"realtor_new_listings":2,"realtor_new_listings_yoy":-0.4,"realtor_new_listings_base":-0.7037,"realtor_days_on_market":96,"realtor_days_on_market_yoy":0.1241,"realtor_days_on_market_base":0.1203,"zhvi":519550.403,"zhvi_yoy":-0.0019,"zhvi_base":0.8334,"zori":"NA","zori_yoy":"NA","zori_base":"NA"}},{"type":"MultiPolygon","arcs":[[[73,-36,74,-68,75,-42]]],"properties":{"postal_code":"01264","realtor_list_price":"NA","realtor_list_price_yoy":"NA","realtor_list_price_base":"NA","realtor_active_listings":2.667,"realtor_active_listings_yoy":-0.1111,"realtor_active_listings_base":-0.7652,"realtor_new_listings":0,"realtor_new_listings_yoy":"NaN","realtor_new_listings_base":-1,"realtor_days_on_market":"NA","realtor_days_on_market_yoy":"NA","realtor_days_on_market_base":"NA","zhvi":669454.797,"zhvi_yoy":0.0077,"zhvi_base":0.5646,"zori":"NA","zori_yoy":"NA","zori_base":"NA"}},{"type":"MultiPolygon","arcs":[[[76,77,78,-59]]],"properties":{"postal_code":"01267","realtor_list_price":663909.091,"realtor_list_price_yoy":0.0501,"realtor_list_price_base":0.2511,"realtor_active_listings":32.333,"realtor_active_listings_yoy":-0.1019,"realtor_active_listings_base":-0.5108,"realtor_new_listings":7.333,"realtor_new_listings_yoy":-0.3125,"realtor_new_listings_base":-0.1105,"realtor_days_on_market":71,"realtor_days_on_market_yoy":-0.0824,"realtor_days_on_market_base":-0.2186,"zhvi":493910.117,"zhvi_yoy":0.0143,"zhvi_base":0.6284,"zori":"NA","zori_yoy":"NA","zori_base":"NA"}},{"type":"MultiPolygon","arcs":[[[-10,-26,79,-34,-62,-32,-20,80]]],"properties":{"postal_code":"01240","realtor_list_price":861043.182,"realtor_list_price_yoy":0.4094,"realtor_list_price_base":0.4491,"realtor_active_listings":26.333,"realtor_active_listings_yoy":0.0395,"realtor_active_listings_base":-0.749,"realtor_new_listings":7.333,"realtor_new_listings_yoy":0.1,"realtor_new_listings_base":-0.4243,"realtor_days_on_market":60.545,"realtor_days_on_market_yoy":0.2356,"realtor_days_on_market_base":-0.2805,"zhvi":604206.019,"zhvi_yoy":0.0341,"zhvi_base":0.7924,"zori":"NA","zori_yoy":"NA","zori_base":"NA"}},{"type":"MultiPolygon","arcs":[[[-11,-81,-19,81,82]]],"properties":{"postal_code":"01254","realtor_list_price":1170833.333,"realtor_list_price_yoy":0.956,"realtor_list_price_base":"NA","realtor_active_listings":10,"realtor_active_listings_yoy":-0.1176,"realtor_active_listings_base":-0.7139,"realtor_new_listings":2,"realtor_new_listings_yoy":-0.5,"realtor_new_listings_base":-0.3285,"realtor_days_on_market":74,"realtor_days_on_market_yoy":0.0045,"realtor_days_on_market_base":"NA","zhvi":631417.604,"zhvi_yoy":0.0136,"zhvi_base":0.6957,"zori":"NA","zori_yoy":"NA","zori_base":"NA"}},{"type":"MultiPolygon","arcs":[[[83,-82,-18,84,-16,-40]],[[85,-38]]],"properties":{"postal_code":"01266","realtor_list_price":1129790,"realtor_list_price_yoy":-0.1561,"realtor_list_price_base":0.7596,"realtor_active_listings":12,"realtor_active_listings_yoy":-0.28,"realtor_active_listings_base":-0.6537,"realtor_new_listings":3.333,"realtor_new_listings_yoy":0,"realtor_new_listings_base":-0.0852,"realtor_days_on_market":61.6,"realtor_days_on_market_yoy":-0.1979,"realtor_days_on_market_base":-0.2709,"zhvi":718378.259,"zhvi_yoy":0.0132,"zhvi_base":0.8621,"zori":"NA","zori_yoy":"NA","zori_base":"NA"}},{"type":"MultiPolygon","arcs":[[[-66,86,-52,-44,87]]],"properties":{"postal_code":"01255","realtor_list_price":508333,"realtor_list_price_yoy":-0.1492,"realtor_list_price_base":"NA","realtor_active_listings":16.333,"realtor_active_listings_yoy":0.5312,"realtor_active_listings_base":-0.4094,"realtor_new_listings":2,"realtor_new_listings_yoy":0.5,"realtor_new_listings_base":-0.2248,"realtor_days_on_market":69.667,"realtor_days_on_market_yoy":0.4823,"realtor_days_on_market_base":"NA","zhvi":462403.047,"zhvi_yoy":0.0373,"zhvi_base":0.7224,"zori":"NA","zori_yoy":"NA","zori_base":"NA"}},{"type":"MultiPolygon","arcs":[[[88,-70,89,-78]]],"properties":{"postal_code":"01247","realtor_list_price":277909.8,"realtor_list_price_yoy":0.0565,"realtor_list_price_base":1.0975,"realtor_active_listings":42.667,"realtor_active_listings_yoy":0.2427,"realtor_active_listings_base":-0.2028,"realtor_new_listings":13.333,"realtor_new_listings_yoy":-0.2,"realtor_new_listings_base":-0.0348,"realtor_days_on_market":52.4,"realtor_days_on_market_yoy":0.1686,"realtor_days_on_market_base":-0.2812,"zhvi":265839.194,"zhvi_yoy":0.0149,"zhvi_base":0.8644,"zori":"NA","zori_yoy":"NA","zori_base":"NA"}},{"type":"MultiPolygon","arcs":[[[-76,-67,-88,-43]]],"properties":{"postal_code":"01245","realtor_list_price":1290500,"realtor_list_price_yoy":0.4808,"realtor_list_price_base":"NA","realtor_active_listings":12.333,"realtor_active_listings_yoy":0.6087,"realtor_active_listings_base":-0.5268,"realtor_new_listings":2,"realtor_new_listings_yoy":-0.5,"realtor_new_listings_base":-0.365,"realtor_days_on_market":69,"realtor_days_on_market_yoy":0.5448,"realtor_days_on_market_base":"NA","zhvi":721285.271,"zhvi_yoy":-0.0128,"zhvi_base":0.5979,"zori":"NA","zori_yoy":"NA","zori_base":"NA"}},{"type":"MultiPolygon","arcs":[[[-79,-90,-69,-1,-60]]],"properties":{"postal_code":"01220","realtor_list_price":319078.571,"realtor_list_price_yoy":0.1065,"realtor_list_price_base":1.1265,"realtor_active_listings":26.333,"realtor_active_listings_yoy":0.7556,"realtor_active_listings_base":-0.2242,"realtor_new_listings":9.333,"realtor_new_listings_yoy":0.5556,"realtor_new_listings_base":-0.0305,"realtor_days_on_market":63.929,"realtor_days_on_market_yoy":0.5894,"realtor_days_on_market_base":-0.1314,"zhvi":270442.828,"zhvi_yoy":0.0238,"zhvi_base":0.8756,"zori":"NA","zori_yoy":"NA","zori_base":"NA"}}]}},"arcs":[[[523437,791194],[47027,-1752],[6333,-247],[1463,-55],[29675,-1092],[3810,-150],[52739,-2011]],[[664484,785887],[6010,-29936],[-22972,-17056],[-651,-482],[15881,-2462]],[[662752,735951],[-4914,-15710],[-23861,3404],[-6411,-20320]],[[627566,703325],[-60786,6518],[-30059,-42678]],[[536721,667165],[-35499,5213]],[[501222,672378],[27,2836],[-5682,841],[-680,103],[-4450,642]],[[490437,676800],[-8723,1279],[21018,28291],[-38600,5362],[7642,11017],[5848,8364],[-9177,1482],[7623,10702],[-9576,1403],[13720,19131],[3400,15361],[-7365,22716],[47190,-10714]],[[231792,635869],[7309,914],[21751,-10383],[11203,-8486],[8666,-4465],[5953,-2589],[8027,28086],[989,3438],[6946,-693],[5285,16516],[60457,85781],[5353,-1550],[2897,-4585],[-73,-8754],[-5867,-19879],[1262,-8824],[3995,-3748],[-2310,-1514],[-6680,-2327],[1531,-3082],[-1280,-1174],[299,-3367],[4429,-5978],[5047,-1828],[4487,-3290],[2225,2828],[4258,1251],[1275,2191],[3197,-4443],[429,-2810],[5425,-3760],[4012,-1225],[1594,1474],[5461,416],[-144,-3903],[-1595,-3297],[11036,-5181],[-2872,-2286],[3896,1262],[1919,-1375],[-3066,-3429],[3417,-3906],[38,-3529],[-1511,-1214],[1511,-187],[7788,-1051],[17747,-2379],[13460,-1797],[16579,-2224],[1447,-194],[29688,-3984],[2343,-311]],[[511025,631025],[-212,-730],[-5828,-19845],[-230,-800],[-3594,-11942],[309,-1623],[616,-691],[221,-358],[1570,-272],[-1483,-813],[-2716,-1019],[-3702,-12682],[-457,-1463],[-2854,-9113],[-5439,-17355],[-2554,-8264],[-377,-1249],[-2873,-9259],[-1245,-4015]],[[480177,529532],[-7031,-22125],[-24440,3474],[-16638,2311],[-9819,1368],[-10661,1482],[-12162,1689],[-16823,2336],[-48952,6791],[-1855,-10213],[-18623,2849],[-4253,-20738],[-16210,-71]],[[292710,498685],[-862,2821],[-2523,118],[-2182,-2377],[-2438,3499],[-1203,4787],[-2098,1133],[-4399,341],[1361,1190],[-12941,-2511],[-13186,-743],[-2809,-708],[-643,6282],[158,4112],[-4190,-2],[340,1387],[-2520,1842],[345,3359],[-50916,14785]],[[192004,538000],[3311,8143],[2262,5564],[30966,76172],[3249,7990]],[[223880,351774],[5118,-1467],[3236,-8063],[498,-5154],[784,-118],[-660,-3428]],[[232856,333544],[2068,-3738],[-100,-4198],[-3090,-3484],[-4425,-2078],[-738,-3576],[2215,-6854]],[[228786,309616],[-5345,-4769],[-898,-5015],[4051,-3752],[3522,-395],[4485,-2844],[767,-5836],[-6729,915],[-2869,2086],[420,-2333],[-3627,9492],[131,-765],[-6382,-104],[5359,-4336],[-2859,136],[239,-7124],[915,-2043],[6437,-3854],[-75,-13646],[-3061,-1362],[-1324,947],[-3671,-694],[-696,1774],[-2965,1288],[-1092,3024],[752,1508],[-3455,3288],[-301,1118],[-3622,3061],[-1076,1787],[574,5372],[-3342,5204],[-2045,4198],[-1869,2230],[268,2075],[-12810,418],[415,4106],[-5473,1504],[5879,670],[2333,2757],[-24036,6]],[[165711,309708],[3827,19788],[-13863,5875],[4139,6893],[3040,1971],[4211,3721],[1529,3641],[2309,2487],[8147,5020],[7132,778],[4934,2919],[4186,1056],[2946,4388],[1337,3592],[11591,141],[-2022,-3618],[-952,-4474],[-1905,-2469],[-307,-2437],[1946,-6984],[4959,-340],[4195,-1695],[6790,1813]],[[232856,333544],[1841,3271],[5161,3976],[3509,78],[1674,-1917],[3348,-680],[8134,2734],[4891,3113],[929,-5922],[18097,-181],[3835,3978],[492,2919],[-2693,2238],[-2913,-160],[-4778,3694],[-4556,-1264],[-6754,4120],[-4890,-3305],[-2739,1814],[-2457,5788],[-3637,2915],[1102,5955],[1014,1312],[6076,423],[1571,4588],[-12209,4161],[-1546,1402],[-4799,2055],[-2651,2123],[-2041,3101],[-1692,10241]],[[234175,396114],[395,32],[9769,762],[2800,27339],[14929,17650]],[[262068,441897],[16020,153]],[[278088,442050],[45667,341],[21173,157],[-23,-4309],[-27,-5148],[-17,-2960],[-52,-9668],[-100,-18703]],[[344709,401760],[-555,-36566],[-386,-24886]],[[343768,340308],[-78,-4952],[-40,-2111],[0,-165],[-4,-405],[-370,-24432]],[[343276,308243],[-61234,740],[-47936,575],[-5320,58]],[[511025,631025],[25696,36140]],[[627566,703325],[-19438,-60864],[10279,-1521],[-2280,-6518],[-14471,-49831],[-8502,204],[-10483,255],[-32654,787],[-18590,-57717],[-20450,560]],[[510977,528680],[-30800,852]],[[829550,710622],[5687,20423]],[[835237,731045],[154526,-21018],[299,-13404],[1877,-8265],[8060,-1058],[-7580,-25353],[6301,-32868],[-17433,-4751],[-4638,750],[69,2984],[-2055,4914],[-4454,3826],[-3600,5285],[3742,1681],[3279,2668],[2913,1367],[6765,936],[-6620,6225],[-3853,1154],[-5792,-959],[-8120,-729],[-9010,1944],[-503,-5411],[-2554,-3690],[-486,-2989],[887,-2143],[4343,-2759],[3905,-3815],[1830,-3323],[734,-4192],[-112464,17965],[-4721,11210],[-3869,3614],[2621,8926],[-1715,3175],[-74,3031],[1173,2875],[3954,6340],[779,2728],[-3436,422],[4655,16568],[-4160,1222],[-6022,-1588],[-4279,1755],[-5717,-473],[2406,1038],[2433,3751],[-83,11]],[[39476,162811],[13981,-5303],[4062,-2263],[54744,-44369],[12214,4410]],[[124477,115286],[13790,-24667],[-8464,-20477],[-4456,-10759],[-10144,-38528],[-3279,-5763]],[[111924,15092],[-79269,-1247],[-14996,53],[-9663,28350],[-7996,23460],[17194,42295],[16500,40584],[5782,14224]],[[344709,401760],[174,-9],[26,-2045],[19282,-82],[-659,2032],[-2733,3093],[781,2398],[18024,-167],[15583,-151]],[[395187,406829],[19574,-185],[-118,1813],[-3515,1752],[-1741,3343],[954,1385],[3299,1027],[442,863],[-387,5820],[-607,957],[-200,2846]],[[412888,426450],[92,5],[-188,2887],[-1179,3302],[1088,2111],[462,2199],[1560,1780],[2404,1564],[4435,990],[3274,3763],[-4327,-477],[975,3538],[-2129,1962],[3419,6825],[-2351,432],[-700,4357],[1292,2882],[5058,-4730]],[[426073,459840],[69541,-65194],[18046,8556],[32260,-28817],[-1135,-19134],[-333,-5806],[-744,-38259]],[[543708,311186],[-5320,2574],[-1648,2542],[-5138,6019],[-4402,2770],[-3871,3270],[-4553,2043],[-11060,1798],[-8069,-1711],[-7589,867],[-3430,-483],[-3434,-980],[-2046,-2582],[-4915,-6044],[-886,-2558],[-3706,-2045],[-3487,-578],[-5784,-3180],[-812,-985],[2641,-3630],[1039,-3105],[-2617,-3427],[-3242,1532],[-11274,7308],[-9014,4365],[-10388,-11514],[-7314,6168],[-5340,2242]],[[418049,311862],[-6936,2568],[-4431,1171],[-4961,3263],[-1334,3307],[-464,3502],[-6477,2803],[-14010,568],[-5119,1453],[2217,303],[-2247,3112],[-6462,1087],[-2830,2849],[-1606,-367],[-1478,-319],[-1803,6828],[-16340,-3682]],[[91268,290209],[7642,-4419],[9244,-2327],[666,3094],[-556,2079],[-3504,4144],[-3238,711],[-4160,1885],[-1291,3273],[3587,4279],[1779,3670],[-120,2172],[3013,3852],[74,2975],[4029,3552],[-900,2669],[-2499,1344],[606,2400]],[[105640,325562],[18,44]],[[105658,325606],[4133,-3214],[2467,-281],[2660,-2179],[6704,-7981],[1048,-12222],[5405,-3701],[-35,-11371],[9541,-33],[4697,-5794],[6473,-1034],[2539,3341],[-729,-2661],[3345,-2419],[-1668,-2619],[2581,-1461],[-568,-2814],[3056,-2567],[1063,-4171],[17077,-165],[-9736,47448]],[[343276,308243],[5994,-56],[23360,-214],[41512,-361]],[[414142,307612],[-20075,-21794]],[[394067,285818],[-46798,-51790],[2187,-1755],[6215,-2022],[4366,-4525],[5936,-3500],[1742,-4447],[3796,-4995],[12473,-4680],[4196,-6481],[7185,-4284],[609,-3281],[-1659,-3387],[688,-4155],[-1287,-5886],[15591,1664],[35450,-28876],[59836,7616]],[[504593,161034],[14084,-98824]],[[518677,62210],[-4354,2842],[-2627,3936],[-9508,12031],[-9438,8672],[-11226,7665],[-17585,10084],[-11225,3157],[-1363,-3422],[-7166,511],[-3893,-1742],[-6265,418],[-1444,-1243],[-3095,-3313],[1135,-3367],[-679,-3443],[-8192,-3999],[-1130,-1586],[1378,-3987],[1514,-1314],[-1326,-2247],[1899,-4391],[-1021,-964],[-2176,743],[-4947,-5392],[-5070,803],[-4009,2626],[-2499,277],[-5695,6787],[-544,1616],[-3247,2224],[-3726,518],[642,-3491],[-3433,-1249],[-3655,-4593],[2159,-1572],[-2880,-3123],[-3212,187],[-4680,-1553],[-2020,3017],[-2621,1898],[-2277,-147],[1593,3091]],[[370769,79175],[1024,-2337],[2814,-2106],[610,-1957],[3421,-160],[3976,1959],[1320,3761],[3755,4323],[4089,6046],[2513,-205],[2172,1368],[15289,38078],[-6268,-496],[-1522,-965],[-7264,-1069],[-6695,-54],[-2331,-957],[-1173,-1997],[-3799,4906],[-3475,1620],[539,2579],[-8350,2054],[-3559,1879],[-6032,563],[-3023,-859],[540,-6149],[-3912,-575],[-5092,-2406],[-5855,-4084],[4897,-2314],[807,-2801],[-20,-5133],[3092,-8609],[-7446,-7563],[-2030,-14],[-9621,-2203],[-5821,863],[-6163,-1998],[-2347,2826]],[[319829,94989],[-3407,6556],[-1352,10066],[-5914,-7890],[-3511,-1945],[-3048,-2957],[-3044,-1793],[-4999,1436],[-10061,-3155],[-2062,1031],[-763,2752],[763,3125],[44,5216],[-1364,4541],[-1400,2459],[2001,1303],[508,2076],[-2402,5025],[3474,1061],[867,6057],[3049,1835],[-11589,5013],[-26485,32983],[-24993,227],[-2288,14],[673,-17140],[-3597,639],[-3924,-759],[-8228,-466],[-4387,-1660],[-1855,-3957],[-6309,-3076],[-4669,283],[-4499,-3464],[-7339,-4654],[-2819,-2600],[-8231,-3357],[-4464,4205],[575,-3526],[-47872,512],[9569,-15719]],[[39476,162811],[11046,27171],[25058,61638],[15688,38589]],[[672574,277050],[34931,3505],[11538,-4995],[6714,-1932],[4581,-367],[7268,801],[985,-2486],[5182,-8209],[2210,-6400],[4202,-6661],[-248,-1866],[-2460,-5552],[651,-7553],[-3667,-6834],[-69,-4949],[1574,-3775],[-549,-5724],[1496,-2834],[3330,-3078],[2084,-4277],[-71,-4783],[6104,-113],[-16426,-51973],[-42305,4834]],[[699629,151829],[-2067,1488],[1300,9209],[5712,6061],[-2895,4297],[-1978,152],[-4649,-1428],[-6671,-3120],[-3915,1674],[7124,2152],[985,4369],[1279,16515],[8700,11417],[6188,-270],[639,2499],[-1600,81],[-442,3805],[-4876,4872],[-5125,6280],[-8891,9132],[-5016,6239],[-5396,5071],[-4330,7836],[-4790,6497],[-1102,8710],[2996,6219],[1765,5464]],[[323355,68627],[12361,1143],[7782,440],[-693,-2856],[1247,-3181],[2090,-1812],[3211,63],[5532,-2630],[-1861,-1944],[1466,-676],[2545,4019],[1319,3729],[3852,2056],[5611,8430],[671,3473],[2281,294]],[[518677,62210],[8141,-57428]],[[526818,4782],[-90421,2321],[-1972,96],[-2984,87],[-633,18],[-93653,2720],[-2074,63],[-2995,70]],[[332086,10157],[-4125,27720]],[[327961,37877],[-4606,30750]],[[332086,10157],[-45932,1080],[-3299,78],[-20068,472],[-309,7]],[[262478,11794],[-1816,2251],[-3094,754],[-498,2402],[-2391,1686],[-1373,-1120],[-2667,-31],[-2832,2922],[1834,1882],[7736,872],[-1259,1547],[-4744,-786],[-1976,1268],[2227,1453],[-2728,2720],[7345,1441],[2135,1524],[2169,5193],[461,2954],[2210,1061],[-97,184],[2772,878],[-892,3989],[5522,-1989],[3510,4501],[3523,-7],[-1583,2791],[1224,1469],[3478,973],[2217,2534],[-1607,3420],[2818,5497],[-856,2270],[6493,327],[553,-666],[541,-3063],[3948,-3662],[2606,-1138],[7461,-5100],[23113,-17118]],[[231792,635869],[12186,29977],[8233,20036],[8829,21490],[19765,48103]],[[280805,755475],[2822,-2356],[7841,-2254],[4026,-283],[4422,-2003],[4498,-3421],[2234,-890],[8778,-7432],[1074,-1679],[3799,-1158],[11727,266],[3757,-1107],[4239,1603],[4514,2834],[4015,3957],[6599,2791],[5711,1228],[7969,-939],[22912,32482],[-23955,3241],[18131,57324],[141813,-3715]],[[527731,833964],[-4294,-42770]],[[490437,676800],[-1952,-1153],[-986,-6043],[-2316,-2187],[615,-1603],[2662,-1140],[-3012,89],[-8433,-6076],[-1767,-4700],[-2148,-2097],[3340,-4789],[486,-3075],[2286,-1004],[4029,6060],[5448,4971],[4595,14337],[2459,2357],[480,1357],[4476,-464],[523,738]],[[395187,406829],[508,6652],[-1601,1702],[3402,1680],[2816,5009],[1135,-886],[4296,6762],[1797,-687],[5348,-611]],[[323355,68627],[-3854,26044],[328,318]],[[543381,294218],[63263,7103],[802,-1986],[-3112,-2374],[-263,-2034],[2395,-2896],[976,-4074],[44101,3290],[2622,-16047],[18409,1850]],[[699629,151829],[-14440,1616],[810,-4973],[-2405,-1624],[2484,-4799]],[[686078,142049],[-5729,-522],[-5828,-1397],[-3418,445],[-10093,63320],[-4461,2589],[-8502,667],[-70052,-7040]],[[577995,200111],[-1988,1042],[-7343,1438],[-2163,1960],[-2059,-1965],[-3720,5792],[-7104,5794],[1698,92],[2011,4013],[3011,1094],[3385,3998],[-1739,10417],[70,-2000],[-2317,-3443],[-2269,623],[-3438,-1569],[24,-1074],[-9398,1177],[-2084,-1337]],[[542572,226163],[809,68055]],[[664484,785887],[26337,-1016],[1980,25944],[585,7349],[3516,45672]],[[696902,863836],[81629,-3650]],[[778531,860186],[-109,-2216],[2605,92],[2025,-1510],[-1332,-1500],[1248,-3500],[4110,-777],[3965,-2955],[3985,-171],[1510,-1495],[-1699,-2351],[3704,-1000],[2330,-1857],[2462,-358],[7709,924],[3143,995],[3823,245],[-1617,1922],[2214,868],[1053,2090],[5177,-445],[10666,-8020],[1399,408],[582,2757],[4542,-733],[2413,-2119],[2278,306],[2141,911],[640,1982],[-768,3973],[3646,2501],[2953,3093],[3080,-378],[9925,162],[5111,-646],[-5581,-17494],[-32627,-102845]],[[829550,710622],[-166798,25329]],[[262478,11794],[-54291,1277],[-46686,1098],[-32980,776],[-10416,245],[-6181,-98]],[[414142,307612],[3907,4250]],[[543708,311186],[-327,-16968]],[[542572,226163],[-26,-3625],[-148479,63280]],[[280805,755475],[25851,62918],[8695,21161],[51517,125385],[1635,3978],[12771,31082],[80313,-1441],[880,-15],[77652,-1394]],[[540119,997149],[-3547,-45456],[-14845,640],[-375,-4596],[-579,-7091],[-8,-77],[-319,-3867],[-1648,-20126],[14847,-542],[-3114,-37504]],[[530531,878530],[-2274,-36418],[-526,-8148]],[[510977,528680],[-36,-2750],[1905,-3456],[8674,-7509],[8546,-6250],[4945,-4444],[10285,-10979],[-3995,-932],[-2060,429],[-627,-2509],[2960,-615],[125,-2068],[5652,-3165],[3258,-5746],[-2171,-2494],[-6441,833],[-684,3219],[-5931,-4828],[-3501,3021],[-928,2175],[-5807,6188],[900,3069],[-4696,2677],[-5710,1148],[-4010,1782],[-7495,912],[-14620,6496],[-3254,-348],[-3592,1442],[-2031,-5729],[-3777,593],[-316,3218],[-3470,1227],[1098,1498],[-4720,865],[-6249,-889],[-2810,-521],[-5595,-2559],[-3934,-2660],[-6219,-894],[-6642,-21186],[-15103,-7383],[3172,-9718]],[[278088,442050],[-4474,23958],[4462,201],[2309,116],[-238,12799],[13516,-24],[-3670,19575],[2717,10]],[[262068,441897],[-79166,-140],[-30042,-44]],[[152860,441713],[15706,38635],[14221,34980],[4503,11076],[4714,11596]],[[105658,325606],[14660,36061],[497,1221],[26663,65588],[3297,8109],[2085,5128]],[[234175,396114],[-9333,-730],[-962,-43610]],[[91268,290209],[11033,27140],[3339,8213]],[[686078,142049],[2138,-1689],[1070,-4913],[-1477,-725],[-604,-2490],[850,-3341],[3259,-4983],[991,-3625],[3628,-2856],[4509,-4795],[279,-1809],[-3366,-3203],[-3750,-1519],[-5459,-1206],[-5401,-3175],[-353,-1911],[1662,-1387],[-47,-1689],[-1603,-1623],[-3066,-1234],[12,-2882],[1051,-3178],[1693,-10840],[17688,-33389],[5726,-5502],[-5627,-6818],[5861,-3522],[2941,-796],[2316,-1827],[1169,-3697],[-4145,-10722],[1179,-3398],[3933,-7305],[-116003,2977],[-70314,1805]],[[504593,161034],[-655,3198],[32216,2156],[-953,7880],[7768,-2076],[4715,-2371],[6980,-174],[2804,-639],[11643,629],[-1024,4591],[1559,5787],[-2909,3130],[2092,10918],[-597,2055],[-8746,2155],[18509,1838]],[[540119,997149],[33157,-594],[82456,-1480],[16434,-294],[48566,-872],[9795,-175],[30072,-540],[-1088,-54449],[15460,-770],[5337,-6160],[5221,-3144],[5573,-1587],[4992,-5651],[1302,-2664],[3115,-1674],[3633,-295],[-7584,-4215],[-6011,-2528],[-2273,2423],[-7840,2320],[-9214,-2460],[-3440,-3039],[573,-3450],[4275,-4187],[-12405,-5662],[-11975,-4218],[1560,-2256],[-926,-3174],[1105,-2004],[3686,-2790],[944,-3266],[-1057,-1815],[2270,-1694],[2236,-4024],[4232,-845],[4626,2034],[2366,-1660],[2866,-26],[-1481,-3676],[6139,-3125],[1715,-3277]],[[696902,863836],[566,6947],[-58057,2702],[-2549,119],[-7163,333],[-9359,434],[-19523,908],[-25373,1180],[-44913,2071]]],"bbox":[-73.508142,42.039862,-72.87032,42.74594],"transform":{"scale":[6.378226378226378e-7,7.06078706078704e-7],"translate":[-73.508142,42.039862]}}
