{"type":"Topology","objects":{"foo":{"type":"GeometryCollection","geometries":[{"type":"MultiPolygon","arcs":[[[0,1,2,3,4]]],"properties":{"postal_code":"83234","realtor_list_price":331950,"realtor_list_price_yoy":0.0214,"realtor_list_price_base":"NA","realtor_active_listings":14,"realtor_active_listings_yoy":0.2353,"realtor_active_listings_base":1.0311,"realtor_new_listings":1.333,"realtor_new_listings_yoy":1,"realtor_new_listings_base":-0.5008,"realtor_days_on_market":78,"realtor_days_on_market_yoy":-0.2277,"realtor_days_on_market_base":"NA","zhvi":326140.704,"zhvi_yoy":0.0463,"zhvi_base":1.0112,"zori":"NA","zori_yoy":"NA","zori_base":"NA"}},{"type":"MultiPolygon","arcs":[[[5,6,7],[8]]],"properties":{"postal_code":"83202","realtor_list_price":408373.171,"realtor_list_price_yoy":-0.0292,"realtor_list_price_base":0.8076,"realtor_active_listings":94.667,"realtor_active_listings_yoy":0.0365,"realtor_active_listings_base":1.0609,"realtor_new_listings":27.333,"realtor_new_listings_yoy":0.025,"realtor_new_listings_base":-0.0979,"realtor_days_on_market":55.293,"realtor_days_on_market_yoy":-0.2528,"realtor_days_on_market_base":0.4535,"zhvi":397483.238,"zhvi_yoy":0.0129,"zhvi_base":0.9265,"zori":1212.915,"zori_yoy":-0.0021,"zori_base":"NA"}},{"type":"MultiPolygon","arcs":[[[9,-4]]],"properties":{"postal_code":"83281","realtor_list_price":"NA","realtor_list_price_yoy":"NA","realtor_list_price_base":"NA","realtor_active_listings":1,"realtor_active_listings_yoy":-0.25,"realtor_active_listings_base":"NA","realtor_new_listings":0,"realtor_new_listings_yoy":"NaN","realtor_new_listings_base":"NA","realtor_days_on_market":"NA","realtor_days_on_market_yoy":"NA","realtor_days_on_market_base":"NA","zhvi":"NA","zhvi_yoy":"NA","zhvi_base":"NA","zori":"NA","zori_yoy":"NA","zori_base":"NA"}},{"type":"MultiPolygon","arcs":[[[10,11,-1,12]]],"properties":{"postal_code":"83214","realtor_list_price":"NA","realtor_list_price_yoy":"NA","realtor_list_price_base":"NA","realtor_active_listings":3.667,"realtor_active_listings_yoy":2.6667,"realtor_active_listings_base":1.0954,"realtor_new_listings":0,"realtor_new_listings_yoy":"NaN","realtor_new_listings_base":-1,"realtor_days_on_market":"NA","realtor_days_on_market_yoy":"NA","realtor_days_on_market_base":"NA","zhvi":"NA","zhvi_yoy":"NA","zhvi_base":"NA","zori":"NA","zori_yoy":"NA","zori_base":"NA"}},{"type":"MultiPolygon","arcs":[[[13,14,-7]]],"properties":{"postal_code":"83201","realtor_list_price":378734.851,"realtor_list_price_yoy":-0.0343,"realtor_list_price_base":1.1555,"realtor_active_listings":148.333,"realtor_active_listings_yoy":-0.0241,"realtor_active_listings_base":0.2849,"realtor_new_listings":44.667,"realtor_new_listings_yoy":-0.0946,"realtor_new_listings_base":-0.2548,"realtor_days_on_market":53.388,"realtor_days_on_market_yoy":-0.0383,"realtor_days_on_market_base":0.1785,"zhvi":337143.014,"zhvi_yoy":0.0171,"zhvi_base":1.0317,"zori":1137.334,"zori_yoy":0.0083,"zori_base":"NA"}},{"type":"MultiPolygon","arcs":[[[-14,-6,15,16,17]]],"properties":{"postal_code":"83245","realtor_list_price":613214.286,"realtor_list_price_yoy":0.0054,"realtor_list_price_base":"NA","realtor_active_listings":16.333,"realtor_active_listings_yoy":-0.3378,"realtor_active_listings_base":0.9295,"realtor_new_listings":4.667,"realtor_new_listings_yoy":0.75,"realtor_new_listings_base":0.9955,"realtor_days_on_market":106.571,"realtor_days_on_market_yoy":0.1159,"realtor_days_on_market_base":"NA","zhvi":499210.494,"zhvi_yoy":0.02,"zhvi_base":1.0123,"zori":"NA","zori_yoy":"NA","zori_base":"NA"}},{"type":"MultiPolygon","arcs":[[[-17,18,19,-11,20]]],"properties":{"postal_code":"83250","realtor_list_price":"NA","realtor_list_price_yoy":"NA","realtor_list_price_base":"NA","realtor_active_listings":3.667,"realtor_active_listings_yoy":0,"realtor_active_listings_base":-0.4696,"realtor_new_listings":0,"realtor_new_listings_yoy":-1,"realtor_new_listings_base":-1,"realtor_days_on_market":"NA","realtor_days_on_market_yoy":"NA","realtor_days_on_market_base":"NA","zhvi":431652.863,"zhvi_yoy":0.0099,"zhvi_base":1.0579,"zori":"NA","zori_yoy":"NA","zori_base":"NA"}},{"type":"MultiPolygon","arcs":[[[21,-2,-12,-20]]],"properties":{"postal_code":"83246","realtor_list_price":620000,"realtor_list_price_yoy":0.0087,"realtor_list_price_base":"NA","realtor_active_listings":26,"realtor_active_listings_yoy":0.0541,"realtor_active_listings_base":1.0042,"realtor_new_listings":3.333,"realtor_new_listings_yoy":0.6667,"realtor_new_listings_base":0.4012,"realtor_days_on_market":71.8,"realtor_days_on_market_yoy":-0.0341,"realtor_days_on_market_base":"NA","zhvi":451768.005,"zhvi_yoy":-0.0119,"zhvi_base":1.039,"zori":"NA","zori_yoy":"NA","zori_base":"NA"}}]}},"arcs":[[[384920,247433],[897,2574],[3810,545],[1813,1494],[1387,3818],[1557,1930],[-682,2628],[1509,4733],[3735,461],[2504,1661],[8102,1863],[3418,2325],[5544,694],[2401,-718],[9680,1779],[6282,718],[923,5011],[2400,976],[8094,1867],[3923,187],[2385,855],[8663,845],[2678,1174],[36,1987],[5774,1370],[1681,1517],[-221,5986],[3217,580],[3292,2374],[11,5350],[-3415,1179],[-4713,563],[180,2732],[8364,625],[3221,-671],[7508,417],[5252,1752],[2440,3027],[2977,756],[26944,76],[2113,-388],[17979,-6540],[3495,-151],[4818,817],[13599,-2794],[5371,217],[4106,-1914],[-3041,45940],[-371,2079],[-4922,16508],[2035,33],[7017,-4498],[1539,1950],[3931,-16677],[1334,-2],[1808,-4919],[2354,-1516],[21634,1514],[7159,-329],[6096,-1169],[4444,-270],[4098,2021],[4474,553],[1896,3912],[2003,1603],[447,2518]],[[643907,352971],[2686,-2162],[3256,-1142],[731,-2297],[153,-6209],[-733,-3745],[-2612,-3164],[1085,-2093],[2121,-1755],[727,-2824],[-1440,-1248],[-1400,-3231],[30419,-92],[88,-17836],[13696,-72],[2884,274],[10645,3080],[7384,-625],[8595,-1484],[2380,347],[2815,-1370],[3497,-285],[3106,1339],[911,1145],[5276,1880],[5191,2319],[6186,1810],[10806,895],[4522,-2402],[10433,-1366],[10424,1734],[1866,758],[3115,2570],[755,4009],[2907,3839],[279,3370],[3223,3194],[1539,3778],[837,-808],[6916,-2377],[719,-1370],[8916,-4746],[2916,-829],[4640,36],[2998,1229],[1759,-148],[2149,1656],[3867,-677],[1317,-2285],[3382,-3235],[6527,-2141],[5985,376],[3251,2822],[3993,1976],[9376,-344],[2732,163],[4334,1160],[13263,-144],[31079,1235],[3612,270],[3907,1587],[6677,4414],[2628,2788],[2456,4224]],[[941659,338742],[57,-7603],[27943,-187],[-47,-26291],[2250,-44],[258,-17290],[13749,-13],[348,-27034],[-85,-26807],[13867,83],[-230,-36007],[-28103,43],[52,-2325],[489,-76973]],[[972207,118294],[-11445,-2455],[-61908,-1023],[-54788,6891],[-1272,1249],[-1741,4593],[-384,5978],[1158,2602],[3908,3973],[1088,3265],[-13473,-16],[-8846,-4600],[-4603,-1371],[-12580,-2260],[-1556,-1708],[-117,-1975],[-1556,-1763],[537,-3433],[-1174,-1145],[-2246,-5866],[-3128,360],[-611,1093],[-5188,1602],[-4659,462],[-1247,-665],[-4131,2451],[-11053,422],[-3656,-690],[-2399,1899],[-3795,-4151],[-3826,-2174],[508,-1369],[-2301,622],[10129,-13685],[5833,-4563],[4283,-2042],[8473,-3370],[16410,-10627],[9576,-8107],[5445,-5402],[-2180,-848],[-2713,1357],[-4383,-1496],[2327,-3021],[-6096,169],[-174,-12710],[-4994,-837],[-8121,-3403],[-1615,801],[-8710,-892],[-2356,-902],[5237,-135],[-5290,12],[-771,-128],[-1847,27],[-1456,-270],[-983,-584],[-2587,-60],[-442,-379],[-1912,-68],[-2914,-773],[-2251,-1600],[255,-9618]],[[761896,35938],[-40392,-18],[-72477,49],[-6979,-195],[-1269,2528],[-1915,926],[-224,2001],[-2617,2454],[-5630,2010],[-4922,3079],[-4259,-2390],[-4838,-810],[-5865,-50],[-5811,1713],[-5222,-39],[210,3062],[-4639,2669],[-2758,387],[481,3243],[-600,2347],[1249,1658],[-1000,3936],[-3832,3500],[-1814,3283],[-3527,476],[-2203,1719],[-37,1822],[-2212,447],[-2364,3396],[-4492,4255],[-1656,225],[-965,2228],[123,2718],[-2830,3074],[-1884,3063],[-7916,5522],[26,3055],[-1316,1462],[-2823,6285],[-2754,2100],[848,1365],[-775,2348],[-49306,-55],[-48670,-91],[40,-10621],[-5434,-6100],[-900,-3229],[-6017,-4719],[1892,-2504],[-5604,-1466],[-3059,-1654],[-4853,-6289],[564,-3071],[-1591,-1190],[-4474,-1356],[-16201,318],[-821,1033],[-4452,1561],[-5873,4239],[-4121,1500],[-599,1529],[-3852,2088],[-3598,231],[-11023,-5736],[-973,923],[-6851,877],[-1542,-288],[-4532,995],[-2954,-290],[-151,3469],[-2110,3526],[1049,2478],[-982,2705],[488,4573],[-2201,2234],[-1228,5237],[2406,2394],[208,2261],[7260,5615],[-398,1921],[7564,4086],[5905,7064],[1520,2736],[2871,1491],[2206,-200],[1108,1536],[-520,3327],[-1178,1352],[1092,2213],[3433,3823],[2604,1606],[971,3571],[2721,477],[3259,3649],[9567,4559],[239,5490],[-553,4741],[4122,830],[570,1981],[-1203,6153],[-813,843],[-279,4292],[-2081,2295],[1360,2105],[-734,1184],[1677,6389],[-1782,1805],[-507,2765],[1021,1535],[-744,1633],[3783,4049],[310,1817],[-2900,3305],[-526,3610],[-1619,1337],[474,2324],[-1893,1740],[-202,4744],[1195,1648],[-1432,892],[1668,4028],[-3579,4138],[-407,5298],[-4249,805],[-6543,2405],[-2129,73]],[[627322,802527],[-163306,-410],[-71207,403]],[[392809,802520],[267,7280],[399,10890],[-133204,-49],[-12607,-5],[-11493,-52],[-3478,-90],[-6439,144],[-11378,1],[-2052,-2],[41,-8585],[-227,-1279],[-2261,-3578],[-4193,-2],[-1250,-109],[-9579,-32],[-332,0],[-576,1680],[-1592,1524],[-2630,1147],[-845,180],[-580,107],[-1159,67],[-1812,-59],[-801,-109],[-73,5],[0,-14],[-4998,-301],[-1910,0],[471,-2526],[844,-747],[-1035,211],[-560,-5689],[-1960,124],[-6682,24],[26,-109],[1604,-6998],[-1731,-4059],[-4119,-2310],[-4269,-11],[-33,3064],[-3952,-46],[-23,4161],[-74,6108],[-14024,-23],[-1648,-15],[-105,-1244],[-3672,99],[-1587,-5],[3,1144],[-9210,-50],[-739,-426],[1,-1065],[-1857,-16],[-5,-1551],[-1372,-222],[-835,220],[0,1701],[674,-389],[1,1223],[-686,544],[-6959,-15],[-17,-6427],[10,-400],[-60,-757],[29,-2219]],[[114496,792583],[-11465,4843],[-16751,6898],[-70,3380],[-3693,-502],[-3615,3931],[-1926,2186],[2838,4333],[-3751,1665],[-3246,257],[-3477,1785],[-120,1000],[-3302,2137],[-624,2407],[-2747,5387],[-5333,1914],[-6135,957],[-7177,3524],[-2316,1367],[2977,2687],[-2092,1857],[3679,871],[-2270,1676],[1338,1785],[-630,2580],[-2457,1679],[-3428,6442],[-2913,1077],[2214,1234],[-875,907],[-5792,1695],[325,1535],[-4603,2243],[-2488,2735],[-1242,-1838],[-5197,294],[515,-1757],[-2513,375],[-1082,2169],[-1519,-1904],[-2176,1567],[887,1366],[-2504,88],[662,2655],[-934,284],[-1559,-39],[2358,142],[-6596,550],[1727,1655],[-5398,697],[277,1526],[2753,598],[-1121,1451],[992,1798],[2571,-1112],[3106,1668],[-55,2007],[2690,-2054],[2614,1940],[1174,-3867],[-129,2619],[1889,1634],[-298,1505],[1984,-692],[2881,-2475],[-10,-1294],[-2689,-1594],[-203,-1886],[4140,-1180],[-3553,2943],[2699,1418],[396,1525],[-1536,1323],[6988,969],[1217,-373],[-6541,3948],[2784,1532],[-5122,1526],[-2903,-1071],[-1974,2780],[-3148,-563],[2263,4462],[2668,-2441],[-1325,2496],[-3682,202],[2252,2415],[7322,1310],[1259,921],[4975,-284],[2454,1037],[2198,-1023],[5904,1470],[-353,1709],[1282,2727],[2232,1485],[2583,-1567],[3362,-69],[1365,-2428],[5114,1783],[-383,2652],[3011,1384],[5220,1056],[6823,1572],[4464,3260],[5507,-1140],[2958,1355],[779,-631],[2863,2269],[437,607],[-102,25712],[209,16375],[759,1213],[1485,7],[19427,69],[6670,312],[34482,-157],[13766,9128],[41113,57],[4068,312],[19673,-422],[-91,-8873],[13021,-10],[17,11365],[512,6902],[9283,-489],[1031,59],[3967,-86],[39,-8930],[19809,-36],[8014,-314],[1156,-142],[-10512,-5759],[931,-3335],[-3696,-2146],[-2941,-3843],[175,-2402],[-1958,-1298],[-132,-1159],[2864,-2395],[1057,-4058],[2130,30],[11648,3554],[16530,3063],[11125,569],[17044,2238],[17844,5570],[10905,2544],[5875,1923],[9392,2487],[2849,-29],[55218,31896],[8679,-5823],[-5257,-3758],[2079,-19554],[-2676,-6160],[0,-1668],[13118,241],[3739,-462],[7892,-2712],[2712,117],[-4288,-1234],[-6814,132],[-2897,-1524],[-38,-2622],[2391,-233],[9260,532],[8371,-1169],[2107,-1222],[6773,-6129],[691,-1187],[-4557,11],[2200,-3090],[3406,-691],[504,-1796],[2073,-1344],[4445,-1286],[1967,-2488],[-800,-1757],[1818,-3072],[8950,-2472],[1529,-3397],[2265,-834],[5745,-1226],[1806,-1654],[7526,-466],[5273,-2605],[8338,23],[3833,-1078],[5605,727],[2637,-1520],[2840,-189],[758,1382],[4711,2972],[567,2082],[1686,1079],[2136,4354],[3171,2068],[427,1744],[3802,1973],[2830,481],[5777,2231],[5414,875],[1752,-62],[1205,-4008],[2580,-4127],[8382,-36],[6472,-815],[5605,-2589],[5408,-1688],[-99,3803],[1048,2299],[4173,-2510],[256,-1539],[4524,-3774],[6294,-2719],[2471,-2924],[2394,-441],[2590,-2249],[1905,-470],[8592,-3985],[5923,-1641],[695,-2849],[-2587,-2110],[-6179,-971],[-4821,-2592],[-4946,-242],[-6664,-5244],[-2140,-2271],[-4506,1070],[-1529,-603],[672,-2214],[-2021,-2442],[152,-2709],[-1987,-1640],[-3162,-5587],[-4255,-3267],[194,-813],[-50,-1750],[3780,-1072],[4190,-3942],[3019,-1810],[977,-4751],[4908,-987],[2954,-1983],[7174,-1043],[3691,149],[1211,-4805],[3615,-3411],[-170,-1032],[-795,-5565],[-1849,-3304],[-109,-2810],[-2430,-3304],[364,-1432],[-4427,-3370],[-1518,-3089],[-8259,-3409],[-2013,-3250],[4316,-2563],[5588,-902],[3271,-1083],[594,-1080],[-3706,-8517]],[[196367,946225],[30411,117],[86,6141],[-14194,48],[14,2369],[-13516,316],[-2801,-8991]],[[972207,118294],[-172,-28411],[-2462,-17978],[69,-62920],[14,-8985],[-26745,140],[-41986,55],[-13825,10],[-41922,54],[209,18398],[-283,2091],[171,15423],[-6326,27],[-77053,-260]],[[406063,439569],[3742,-462],[5167,-2165],[12528,-2899],[3415,-435],[-808,-2963],[389,-4287],[3445,-3026],[4836,-2748],[677,-2401],[-776,-1648],[11178,-2507],[4362,2244],[3256,758],[5213,-304],[50,-6599],[2939,-20],[279,3535],[3063,2476],[3643,1934],[980,2732],[3441,2303],[1475,6178],[2157,1722],[1982,4125],[1927,1428],[780,314],[6443,129],[4945,-17],[5641,-3011],[-901,-33],[4649,-2502],[-987,-1540],[1604,-1607],[2727,-399],[808,-2591],[4817,-2318],[392,-1561],[4349,462],[818,-989],[-1653,-2883],[4274,400],[-445,-1409],[5814,-3235],[-1537,-1357],[5250,-731],[-2565,-1615],[3499,794],[2471,-1852],[-1537,-820],[7276,-2855],[1876,55],[2780,-3107],[2980,-1275],[3745,-3716],[1102,-1730],[-319,-2774],[-1653,-1818],[4155,-6367],[3326,343],[6956,-962],[-9017,20469],[6085,-615],[7702,-14285],[1779,-3298],[1041,-17],[-1705,3582],[7300,940],[7235,5061],[5294,2612]],[[592217,398412],[7284,3517],[2606,1667],[3124,3447],[5244,3133],[8622,734],[6167,-912],[4473,-2451],[3023,-313],[5329,944],[-1455,-3177],[35,-10255],[1227,-4254],[1380,-1857],[167,-3085],[2832,-5463],[-1926,-5892],[1095,-6215],[1158,-2796],[-293,-1977],[1390,-1801],[-215,-7076],[423,-1359]],[[384920,247433],[-2860,240],[-3907,-1725],[-1334,-3146],[-5438,-599],[-3448,-1180],[-1637,-2241],[-4039,-102],[-783,1316],[-3299,389],[-4102,-1432],[-7147,173],[-14313,-2645],[-4034,2130],[-2786,3735],[-437,2521],[1304,4237],[1646,1036],[-51,10161],[-27812,70],[-44,8837],[-7083,36],[-3,8849],[-13920,161],[-65,8828],[-6067,6],[76,13532],[-69,4298],[-50436,-21],[-28,67047],[6100,-36],[23,13486],[35018,-10],[43,4426],[6883,22],[102,20231],[-4820,23],[-471,13768],[562,30974],[13917,139],[0,26748],[5515,101],[47760,-466],[1852,-20],[-826,-53591],[71200,-855],[401,12685]],[[392809,802520],[-254,-17873],[-467,-2685],[1684,-1567],[1393,-9381],[-544,-3349],[873,-3242],[-432,-1238],[-3669,3266],[-264,-18239],[-52101,258]],[[339028,748470],[-765,6],[-12732,15],[-19961,-442],[564,-419],[951,-2753],[-284,-3623],[-2399,-4187],[-106,-1190],[-3696,-2200],[-4434,-3270],[-1105,2142],[-2345,-773],[-1053,2581],[-4871,-1395],[-3296,247],[-881,2807],[-2517,-582],[-1654,1435],[-3615,1213],[-1482,-349],[-541,1433],[-1713,-426],[-507,1312],[437,1720],[3028,4725],[-2834,895],[-2209,-3203],[-7989,-57],[0,9220],[-6950,0],[25,4411],[-13841,0],[205,1508],[-4293,-1802],[464,-1384],[-2275,-2796],[-3407,-15317],[-93,-1822],[-1453,-157],[-561,-98],[-4860,10861],[-5627,103],[-831,1649],[-5422,478],[328,4930],[-3243,-1783],[-1703,1529],[-2266,-447],[-4336,-2347],[-4432,-2410],[6202,-4669],[1275,-899],[4984,-3711],[9196,-6973],[167,-121],[1278,-958],[-2880,346],[-8695,-419],[-4511,4062],[-6850,3934],[-827,-503],[-2652,2286],[-6521,5557],[-3703,2621],[-1381,972],[-11344,8294],[-6388,4768],[-7527,5626],[-9933,7581],[-4538,3362],[-6006,4007],[-21298,8962]],[[627322,802527],[-2221,-2055],[-9782,-190],[-3569,-565],[-1094,-3398],[-2094,-3300],[-266,-3128],[2861,-1876],[1054,-2068],[4100,-4783],[4950,-1765],[4229,-7062],[2210,-2101],[264,-3644],[1155,-4344],[-1132,-1657],[1774,-1197],[1133,-2378],[-1350,-3087],[-458,-5884],[-649,-746],[365,-5505],[-555,-1874],[3673,-800],[2166,-1866],[-1512,-2673],[-3152,-2128],[1339,-1766],[-106,-2344],[1218,-3141],[4820,-4408],[5649,-481],[3114,-2262],[-1637,-1965],[1654,-3986],[4940,-1967],[-1125,-3652],[-460,-4333],[2647,-3071],[-130,-2649],[-2852,-745],[-2998,-2254],[-1758,-5503],[-2861,-3420],[-10492,-569],[-6465,722],[-3081,-2650],[-20,-2240],[1631,-2884],[-1682,-7033],[-3739,-2336],[-2296,-604],[1328,-2214],[50,-2921],[-1038,-1492],[2091,-3477],[4084,-5211],[312,-2789],[1961,-4257],[-227,-3759],[-630,-3781],[-1154,-2191],[543,-3762],[-1315,-3310],[124,-1530],[3741,-4496],[325,-4420],[1378,-4049],[-241,-1649],[2238,-1099],[2964,-3700],[2493,-1205],[3880,-4557],[1562,-4053],[3570,-2969],[6557,-238],[5521,-8021],[1887,-1077],[2397,-4747]],[[659133,579938],[-125250,455],[-2530,488],[-6596,-964],[-21862,-12],[-7811,58334],[-2133,11667],[-331,-44],[-36,118],[-2767,-305],[-3164,531],[-1327,23],[-554,58],[-1235,-810],[-2639,1400],[-131,2535],[-4499,1420],[-275,1988],[-3624,1355],[26,466],[-727,260],[-385,-188],[-1224,-156],[-448,408],[541,219],[174,485],[-529,31],[-1010,-382],[-538,-12],[-515,460],[-986,301],[-195,204],[-5740,-23],[3394,-1304],[15659,-9761],[1399,-1409],[-1320,-918],[-4076,71],[-17557,-8515],[-27,-2941],[-6333,-6703],[408,-1645],[-4539,-7174],[-12256,0],[-2854,-823],[-978,-1765],[-10110,-1952],[-1957,0],[-109,-2892],[-14031,-1322]],[[405526,611195],[-31,6932],[-23,6169],[-14494,4],[-342,2694],[313,1262],[150,27506],[-3565,58],[-3369,601],[-4318,3342],[-18020,1442],[-4846,1924],[-2098,2286],[-2549,420],[5405,1054],[3545,-1788],[5726,519],[6171,-697],[-2547,-2088],[1038,-695],[796,1649],[2647,-1731],[8173,1595],[4357,20],[12,334],[-28428,3266],[-10821,63],[9977,211],[3,1329],[4651,19],[-17,4667],[24769,-2001],[3279,-78],[175,9933],[-499,1708],[-2944,1708],[135,27690],[-37029,173],[-20,467],[-77,2848],[2076,3018],[4300,3915],[808,6584],[-1855,3961],[-2919,3811],[-3729,1729],[-5147,7032],[-4757,1509],[-560,901]],[[659133,579938],[566,-5618],[-667,-3417],[-1876,-3020],[1075,-2933],[4435,-4905],[147,-2473],[2327,-982],[1396,-5179],[4514,-4135],[3376,-711]],[[674426,546565],[44,-9465],[-2145,-2299],[-6426,-1589],[-1496,-2206],[618,-1716],[-3630,-2571],[-3824,-728],[-4320,-2443],[-444,-2138],[-2220,-407],[-1219,-1540],[-397,-757],[6029,-3423],[6914,-2899],[441,-2567],[-3766,-3189],[-264,-1452],[1789,-2947],[-1373,-3018],[838,-1696],[-2012,-3357],[1281,355],[3422,-1760],[1188,-3663],[-296,-1763],[-5906,-6575],[-1304,-2904],[716,-4178],[3230,-2772],[2763,-5282],[4477,-4625],[-2201,-2279],[-4473,-2425],[-5995,-191],[-4613,-1609],[-6780,1950],[-5537,2989],[1818,-3428],[-1418,-1560],[5628,-303],[2558,-1667],[8224,874],[-9060,-1322],[-5091,842],[-2779,1236],[-2180,2268],[-71,2456],[-2546,1589],[-4478,63],[-6996,-1267],[-3504,-1931],[-1353,-2864],[-4420,1224],[-5758,-1249],[-2941,-2366],[445,-1283],[-2568,-385],[-2079,1397],[-1498,-2509],[1198,-1852],[-2240,-1336],[-1930,903],[-1508,-1615],[-7162,-1056],[-33,-1635],[-3201,-637],[-6119,919],[-1612,-1787],[20,-22350],[2374,-703],[-705,-2528],[2134,-328],[2043,1461],[1302,-1159],[3076,867],[4801,-1499],[-1031,-1169],[6,-3275],[-870,-3358],[-2047,-1856],[4140,-1389],[-1172,-3005],[3285,-2442]],[[406063,439569],[-52,27503],[-555,32496],[13806,1078],[-82,22431],[-10512,-1625],[-1195,1665],[11609,9740],[-278,37275],[-14554,750],[117,9722],[239,18015],[920,12576]],[[674426,546565],[5889,-1276],[3161,-1270],[3599,-86],[4574,1868],[5010,875],[4302,-682],[6390,3284],[430,1601],[2994,1634],[6437,1502],[4881,402],[2199,779],[673,3306],[4086,3264],[132,2655],[5186,3753],[6076,2368],[125388,8],[-5603,-3172],[-712,-1418],[3886,-5808],[-1359,-6425],[3813,-1741],[-150,-1943],[1705,-2402],[-911,-651],[1058,-2409],[4940,-2906],[3779,205],[3826,-2625],[3752,-3506],[-2885,-3670],[799,-3528],[-426,-1828],[-2692,-4259],[-4700,-212],[-3312,-5265],[28126,-5],[-122,-48367],[27972,20],[-42,-4358],[7109,-26],[124,-18266],[6058,41],[952,7],[-27,-34935],[801,-776],[67,-71580]]],"bbox":[-112.575903,42.256276,-111.875475,43.065605],"transform":{"scale":[7.004287004287028e-7,8.093298093298076e-7],"translate":[-112.575903,42.256276]}}
