{"type":"Topology","objects":{"foo":{"type":"GeometryCollection","geometries":[{"type":"MultiPolygon","arcs":[[[0,1,2]]],"properties":{"postal_code":"74632","realtor_list_price":"NA","realtor_list_price_yoy":"NA","realtor_list_price_base":"NA","realtor_active_listings":3.333,"realtor_active_listings_yoy":2.3333,"realtor_active_listings_base":"NA","realtor_new_listings":0,"realtor_new_listings_yoy":"NaN","realtor_new_listings_base":"NA","realtor_days_on_market":"NA","realtor_days_on_market_yoy":"NA","realtor_days_on_market_base":"NA","zhvi":142177.346,"zhvi_yoy":0.0792,"zhvi_base":0.4736,"zori":"NA","zori_yoy":"NA","zori_base":"NA"}},{"type":"MultiPolygon","arcs":[[[3,4,5]]],"properties":{"postal_code":"74641","realtor_list_price":375000,"realtor_list_price_yoy":0.2998,"realtor_list_price_base":"NA","realtor_active_listings":2.333,"realtor_active_listings_yoy":-0.2222,"realtor_active_listings_base":-0.4152,"realtor_new_listings":1.333,"realtor_new_listings_yoy":1,"realtor_new_listings_base":0.1196,"realtor_days_on_market":61,"realtor_days_on_market_yoy":0.7429,"realtor_days_on_market_base":"NA","zhvi":162162.216,"zhvi_yoy":0.0549,"zhvi_base":0.6015,"zori":"NA","zori_yoy":"NA","zori_base":"NA"}},{"type":"MultiPolygon","arcs":[[[6,7,-5]]],"properties":{"postal_code":"74652","realtor_list_price":"NA","realtor_list_price_yoy":"NA","realtor_list_price_base":"NA","realtor_active_listings":"NA","realtor_active_listings_yoy":"NA","realtor_active_listings_base":"NA","realtor_new_listings":"NA","realtor_new_listings_yoy":"NA","realtor_new_listings_base":"NA","realtor_days_on_market":"NA","realtor_days_on_market_yoy":"NA","realtor_days_on_market_base":"NA","zhvi":111575.898,"zhvi_yoy":0.028,"zhvi_base":0.3733,"zori":"NA","zori_yoy":"NA","zori_base":"NA"}},{"type":"MultiPolygon","arcs":[[[8,-7,-4,9,10,-1]]],"properties":{"postal_code":"74647","realtor_list_price":194450,"realtor_list_price_yoy":-0.269,"realtor_list_price_base":1.0278,"realtor_active_listings":10,"realtor_active_listings_yoy":0.5789,"realtor_active_listings_base":-0.1294,"realtor_new_listings":3.333,"realtor_new_listings_yoy":0,"realtor_new_listings_base":1.0295,"realtor_days_on_market":55.6,"realtor_days_on_market_yoy":-0.0107,"realtor_days_on_market_base":-0.1671,"zhvi":138395.001,"zhvi_yoy":0.0878,"zhvi_base":0.6,"zori":"NA","zori_yoy":"NA","zori_base":"NA"}},{"type":"MultiPolygon","arcs":[[[-2,-11,11]]],"properties":{"postal_code":"74631","realtor_list_price":115361.111,"realtor_list_price_yoy":0.1565,"realtor_list_price_base":0.5333,"realtor_active_listings":19,"realtor_active_listings_yoy":-0.2297,"realtor_active_listings_base":-0.3308,"realtor_new_listings":6,"realtor_new_listings_yoy":-0.25,"realtor_new_listings_base":-0.2121,"realtor_days_on_market":61.667,"realtor_days_on_market_yoy":0.0526,"realtor_days_on_market_base":0.0218,"zhvi":62438.447,"zhvi_yoy":-0.0472,"zhvi_base":0.5009,"zori":"NA","zori_yoy":"NA","zori_base":"NA"}}]}},"arcs":[[[244077,999168],[-31,-17375],[-563,-2410],[603,-2722],[21,-158083],[-105,-22101],[-10,-23250],[18844,0],[-52,-22622],[-21,-22886],[-18812,126],[-42,-91109]],[[243909,636736],[-28168,423],[-28123,110],[20,-30537],[-834,-4959],[834,-9980],[-9591,-63],[69,25754],[-597,6575],[-1902,8735],[-1881,4654],[-4920,-22],[-282,-45570],[-9404,-141],[67,-23046],[-3076,3],[-893,2071],[-4369,675],[-3586,3412],[-1916,7679],[-373,11773],[224,16831],[-624,3110],[-4823,5951],[-2382,2081],[-3959,6211],[-2438,2109],[0,-3255],[-6903,10232],[-8750,-126],[3296,-45413],[-730,-314],[-43298,-596]],[[74597,591103],[21,45476],[-10428,-189],[-1314,-1098],[-7112,1036],[73,45601],[-55740,-423],[-82,91184],[-15,42074],[182,4570],[-49,178779],[69,0],[49841,306],[14163,87],[16664,103],[13039,56],[7878,27],[23056,77],[20,0],[43744,146],[46947,158],[18878,63],[9645,32]],[[586632,296411],[8041,-5596],[1780,-3232],[2095,-94],[33,15017],[18932,-9447],[71,17654],[2165,4874],[22,2134],[-2098,57],[-14436,370],[-495,5640],[-1247,-3449],[-3353,13288],[-3946,3518],[-3236,6534],[-2612,11710],[-2199,20111],[-237,5675],[-1574,12713],[-31,11996],[-714,9409],[-1930,9048],[1809,10922],[30,7971],[-1308,6823],[-2612,286],[-1633,4598],[-655,7039],[1989,-2944],[863,1654],[-2378,7109],[772,4237],[-2228,4956],[-1634,6317],[-1746,13649],[1915,2533],[2659,-377],[21858,95],[281,45601],[0,189],[84,28936],[42,62204],[64529,-125],[1220,5994],[-102,16449],[1826,-1230],[923,2601],[1088,-2385],[-61,4297],[1778,2448],[3536,-5056],[474,897],[-772,-2840],[558,-9431],[-1076,-4501],[1496,-2360]],[[675188,640897],[39,-4839],[18785,414],[-119,-44582],[-13959,-298],[55,-5819],[-1910,-524],[139,-3653],[2008,1977],[1169,-5184],[-933,-3252],[3182,-1274],[-69,-5248],[-2538,-3364],[2875,-4325],[-767,-4547],[1217,-3092],[48,-7526],[-270,-6],[-258,-9334],[-1300,-2790],[-416,-8825],[-1114,-2831],[1411,-2950],[-775,-2787],[1786,-5235],[5176,-3295],[-2222,-9924],[-83,-6183],[-1703,-417],[-1506,-4605],[795,-2648],[2810,100],[-41,-7165],[-1687,1051],[787,-5024],[-1525,-2812],[-232,2545],[-1550,-5706],[-536,3515],[-1615,-373],[-1590,4048],[-779,8346],[-1355,-2426],[1391,1434],[637,-9620],[975,-6923],[2967,-5285],[-992,-3336],[2794,-3154],[1078,3047],[1143,-4265],[-498,-2464],[-4789,-12582],[-1548,2624],[-248,-5762],[-1569,-914],[-2068,1946],[766,-4519],[-2298,-4645],[-1260,-7027],[-1743,-2662],[-4338,6858],[-1026,8078],[-3426,631],[-1560,-279],[3892,-2476],[-306,-5063],[2837,-10890],[-604,-5775],[-2686,-4915],[-3701,-2479],[-996,-7470],[-2482,-10761],[-2858,3003],[549,-8389],[-436,-3044],[5372,-5103],[-5451,4196],[-376,-7360],[-1031,-5605],[-2750,-3264],[-1281,1974],[2646,-4278],[3211,-690],[-666,-4407],[867,-5366],[-739,-2012],[2930,-11330],[-1747,-9409],[-1468,-2674],[1684,-69],[-219,-44839],[4888,-13],[-5,-15049],[10023,6880]],[[670103,264534],[1104,-4033],[36,-5897],[763,-8769],[-2165,-19483],[-1604,-8612],[-3124,-10502],[-2053,-4230],[-3904,-3672],[-3879,-2304],[-5072,857],[-4909,2128],[-4870,5090],[-1854,1042],[-3655,-728],[-8396,12319],[-4894,9123],[-2418,1864],[-3254,349],[-7272,-5631],[-3587,-885],[-5340,1761],[-1290,-1067],[-7430,-18749],[-8222,-22657],[-2368,-4616],[-112,49841],[-4630,91],[-57,22776],[-13850,-169],[203,3289],[-261,14531],[5131,1224],[5641,-4112],[2690,2376],[-196,5684],[-4692,-35],[28,11274],[4808,132],[20,11314],[5021,1851],[6442,-888]],[[675188,640897],[97,18310],[65196,264],[109,25333],[148,132989],[2215,22],[197,181249]],[[743150,999064],[8935,787],[4880,148],[4804,-8],[22315,-39],[107,0],[5267,-213],[84409,-694],[17862,-147],[82088,-674],[-601,-7038],[-1508,-4171],[443,-20397],[-1996,-10338],[4553,211],[3362,4161],[6663,207],[4819,1215],[774,-1651],[2432,-24925],[1307,-6390],[3805,-8914],[1098,-9911],[28,-4381],[-1700,-17450],[-4998,-5737],[-1786,-4020],[-4313,-1140],[-3032,936],[-6041,-15498],[-1220,-5816],[-142,-13159],[5278,-28617],[968,-15472],[1469,-13508],[6180,-295],[3893,-3810],[5408,-7338],[1039,-3085],[-359,-8753],[-6036,-15466],[-5049,-13913],[-8124,-30710],[-810,-5053],[-3066,-9927],[-2947,-13869],[-2976,-12312],[-6824,-13573],[-107,-6412],[1931,-4212],[-10667,-367],[1570,-1381],[-121,-18633],[-1306,-1450],[-78,-23595],[-13,-17340],[-3271,-11415],[-1693,-4164],[-3389,-10985],[-388,-5386],[-2912,-11992],[-4755,-17807],[-2258,-857],[47,-51621],[1016,204],[8648,-7749],[4250,816],[4511,-935],[505,-6177],[1666,-5103],[-156,-19982],[1142,-6977],[-1092,-3327],[560,-15830],[928,-5609],[3280,-9136],[36,-5464],[1135,-5753],[2651,-4535],[5508,-2397],[-2126,-6823],[-228,-7574],[1549,-5429],[-3857,-12340],[3234,-76],[1750,-2084],[2818,-8907],[2402,1221],[5608,-653],[6261,1862],[2252,-8477],[-1485,-6679],[-923,-10125],[-2850,-12783],[-1780,-2510],[258,-6663],[-198,-600],[-9442,-147],[-8733,-804],[-2975,-4067],[-1154,4686],[-24677,-462],[131,-98280],[-161,-3246],[-4173,-14484],[-887,-8659],[844,-5052],[3829,-9698],[460,-2298],[-74,-19122],[319,-10351],[1357,-8439],[-364,-4218],[-1442,-5803],[-253,-74413],[-493,-6754],[424,-2495],[-47481,25],[-2876,248],[-9291,2483],[-32395,13134],[-15114,6183],[1068,3775],[765,22158],[-394,10438],[3303,1074],[181,6669],[1307,904],[-237,12710],[-2126,4310],[-1794,2313],[-3715,1189],[-2599,-1177],[103,5894],[3290,1651],[5247,210],[2431,5103],[2046,716],[90,3951],[1719,716],[106,5759],[-3480,678],[-2933,5922],[-736,5185],[-1655,1723],[-5184,-5122],[-2774,-5138],[774,8713],[-921,9201],[1426,3716],[-1150,2897],[807,6246],[-508,12616],[-6831,-169],[-2165,4742],[-2253,1001],[-267,11204],[684,7831],[-2847,1293],[-22686,-173],[31,20767],[-635,2668],[1179,17544],[-5258,-129],[-839,5998],[-1347,3421],[2534,3204],[1319,4805],[988,11889],[1295,3041],[675,7231],[119,9321],[-37281,170],[-353,21219],[58,24301],[-9123,94],[-37840,-317],[-27,-45175],[-35349,-119],[2815,-8201]],[[244077,999168],[8901,30],[19207,64],[47162,158],[8883,30],[9866,-89],[16334,-147],[2411,-69],[9258,11],[7436,8],[3780,-69],[61103,6],[2371,0],[93,-2],[406,-9],[9618,-211],[56855,282],[8541,151],[34131,9],[9748,187],[3524,67],[5028,98],[13916,-154],[249,-3],[1488,72],[26897,245],[9149,-51],[50,0],[46477,-109],[114,0],[28773,-1011],[3274,1004],[44030,-602]],[[586632,296411],[-6142,4880],[-2790,4671],[-1037,-4024],[-120,7755],[-3264,860],[-2254,-7689],[-2135,-3305],[3913,14729],[-297,2944],[-2820,10200],[-2522,-1726],[-1277,1217],[3294,4099],[-120,9265],[-921,7039],[-2405,5097],[-1157,-1509],[-296,-5891],[1099,-3948],[-297,-3880],[-1720,-1798],[-3433,3857],[-4835,7482],[-1371,-646],[393,3926],[-3598,-1130],[-690,2439],[-1084,-3063],[-1800,1628],[-2143,7385],[-759,-2181],[-1421,7987],[-18478,-113],[491,45508],[-18896,-63],[21,45508],[-9,11013],[-33,11392],[-37578,-132],[-5,-22305],[-84,-45413],[-18489,-691],[63,45414],[-18844,314],[-18687,-32],[-37531,816],[-18771,189],[-116,-20149],[-536,-1792],[-17472,361],[73,22145],[-18865,188],[41,4447],[-18848,126],[-18755,169],[31,17585],[63,23055],[-18813,-188],[125,45030]],[[262721,545463],[18802,257],[0,45477],[-37604,62],[-10,45477]],[[262721,545463],[-18812,352],[-281,-112878],[-18646,314],[0,-22233],[6904,-63],[2443,-3],[9257,-719],[-48,-34651],[6,-11139],[-11,-45476],[18761,-282],[-85,-22406],[-40,-22945],[9478,-53],[111,-22619],[94,-22584],[-31838,-157],[-752,-2627],[-711,-11462],[-75,-10046],[1308,-6792],[2275,-47],[1799,-6380],[4147,-3716],[1421,-3663],[-4,-3424],[-1102,-3512],[-1148,-7780],[-2942,-4588],[-1902,-684],[-3010,1311],[-4332,452],[-1519,-1763],[-1527,-3726],[-1112,-5294],[2975,-7206],[590,-7140],[-993,-3622],[-2753,-3951],[-560,-4736],[2245,-11255],[2469,-8822],[-111,-4579],[-1369,-2420],[-5668,-1227],[-2733,-7595],[-4488,-13332],[-2273,-945],[-1543,1224],[-332,3224],[-1413,1475],[-2450,-4557],[-527,-5612],[3496,-11710],[4066,-5661],[2898,433],[769,2567],[1701,-521],[1092,-2938],[476,-2893],[-46,-1209],[-68,-875],[-211,-1240],[-829,-2944],[-368,-700],[-3000,-4007],[-4056,6333],[-2087,6616],[-1253,1491],[-1708,-1127],[-248,-3895],[1315,-11744],[1494,-4883],[4793,-9833],[-13773,279],[-282,66629],[-18666,408],[-199,43499],[-5318,377],[-1001,1569],[-12295,126],[-125,45319],[-18646,471],[-31,-91015],[-18635,-408],[-52,45539],[-37197,-1130],[0,22983],[-18782,147],[-31,19647],[-396,2856],[344,3766],[-10,41679],[-18104,-32],[-699,189],[-20,45539],[18760,282],[-344,136586],[-18583,-471],[-104,90921],[18687,753],[-28,67524],[7,22707]]],"bbox":[-97.462474,36.680658,-96.503535,36.999286],"transform":{"scale":[9.589399589399598e-7,3.186283186283154e-7],"translate":[-97.462474,36.680658]}}
