{"type":"Topology","objects":{"foo":{"type":"GeometryCollection","geometries":[{"type":"MultiPolygon","arcs":[[[0,1,2,3]]],"properties":{"postal_code":"34974","realtor_list_price":334652.174,"realtor_list_price_yoy":0.0152,"realtor_list_price_base":1.2182,"realtor_active_listings":128.667,"realtor_active_listings_yoy":-0.0469,"realtor_active_listings_base":0.0956,"realtor_new_listings":30.667,"realtor_new_listings_yoy":0.2432,"realtor_new_listings_base":0.2693,"realtor_days_on_market":92.739,"realtor_days_on_market_yoy":-0.1411,"realtor_days_on_market_base":-0.1073,"zhvi":277927.081,"zhvi_yoy":0.0018,"zhvi_base":0.9552,"zori":1762.5,"zori_yoy":"NA","zori_base":"NA"}},{"type":"MultiPolygon","arcs":[[[4,5,6,7,8]]],"properties":{"postal_code":"34953","realtor_list_price":449513.089,"realtor_list_price_yoy":-0.0024,"realtor_list_price_base":0.741,"realtor_active_listings":426.333,"realtor_active_listings_yoy":-0.0477,"realtor_active_listings_base":0.1455,"realtor_new_listings":127.333,"realtor_new_listings_yoy":-0.1473,"realtor_new_listings_base":-0.2647,"realtor_days_on_market":65.874,"realtor_days_on_market_yoy":0.0209,"realtor_days_on_market_base":0.3357,"zhvi":397935.599,"zhvi_yoy":-0.004,"zhvi_base":0.7509,"zori":2637.247,"zori_yoy":0.0292,"zori_base":"NA"}},{"type":"MultiPolygon","arcs":[[[9,10,-7,11]]],"properties":{"postal_code":"34984","realtor_list_price":483485.616,"realtor_list_price_yoy":-0.0395,"realtor_list_price_base":0.6979,"realtor_active_listings":154.667,"realtor_active_listings_yoy":-0.0794,"realtor_active_listings_base":0.5562,"realtor_new_listings":48.667,"realtor_new_listings_yoy":0.2167,"realtor_new_listings_base":0.2359,"realtor_days_on_market":73.233,"realtor_days_on_market_yoy":-0.0188,"realtor_days_on_market_base":0.1347,"zhvi":394492.57,"zhvi_yoy":-0.0137,"zhvi_base":0.7327,"zori":2363.378,"zori_yoy":0.0116,"zori_base":"NA"}},{"type":"MultiPolygon","arcs":[[[12,13,14,-5,15]]],"properties":{"postal_code":"34986","realtor_list_price":399000,"realtor_list_price_yoy":-0.0486,"realtor_list_price_base":0.3787,"realtor_active_listings":330.333,"realtor_active_listings_yoy":-0.1072,"realtor_active_listings_base":0.1493,"realtor_new_listings":91.333,"realtor_new_listings_yoy":0.1709,"realtor_new_listings_base":-0.0354,"realtor_days_on_market":74,"realtor_days_on_market_yoy":-0.1853,"realtor_days_on_market_base":0.1337,"zhvi":372417.593,"zhvi_yoy":-0.0302,"zhvi_base":0.5172,"zori":2241.709,"zori_yoy":0.0283,"zori_base":"NA"}},{"type":"MultiPolygon","arcs":[[[16,17,18,19,20,21]]],"properties":{"postal_code":"34947","realtor_list_price":323372.727,"realtor_list_price_yoy":-0.0499,"realtor_list_price_base":0.7558,"realtor_active_listings":81.667,"realtor_active_listings_yoy":0.4848,"realtor_active_listings_base":1.9392,"realtor_new_listings":14.667,"realtor_new_listings_yoy":0.1579,"realtor_new_listings_base":0.2658,"realtor_days_on_market":84.818,"realtor_days_on_market_yoy":0.2292,"realtor_days_on_market_base":0.4241,"zhvi":280860.786,"zhvi_yoy":-0.0058,"zhvi_base":1.0795,"zori":2132.5,"zori_yoy":0.0746,"zori_base":"NA"}},{"type":"MultiPolygon","arcs":[[[22,23,24,-18,25]]],"properties":{"postal_code":"34946","realtor_list_price":310299.462,"realtor_list_price_yoy":-0.1751,"realtor_list_price_base":0.2743,"realtor_active_listings":37,"realtor_active_listings_yoy":0.4605,"realtor_active_listings_base":2.6314,"realtor_new_listings":8.667,"realtor_new_listings_yoy":0.625,"realtor_new_listings_base":2.2411,"realtor_days_on_market":86.154,"realtor_days_on_market_yoy":1.076,"realtor_days_on_market_base":0.2538,"zhvi":250856.27,"zhvi_yoy":0.0049,"zhvi_base":1.0937,"zori":"NA","zori_yoy":"NA","zori_base":"NA"}},{"type":"MultiPolygon","arcs":[[[26,27,28,29,30]]],"properties":{"postal_code":"34996","realtor_list_price":454990.132,"realtor_list_price_yoy":-0.1027,"realtor_list_price_base":-0.1137,"realtor_active_listings":162,"realtor_active_listings_yoy":-0.1873,"realtor_active_listings_base":-0.121,"realtor_new_listings":25.333,"realtor_new_listings_yoy":-0.2549,"realtor_new_listings_base":-0.3458,"realtor_days_on_market":119.289,"realtor_days_on_market_yoy":0.209,"realtor_days_on_market_base":0.21,"zhvi":426489.003,"zhvi_yoy":0.0026,"zhvi_base":0.5518,"zori":2695.3,"zori_yoy":"NA","zori_base":"NA"}},{"type":"MultiPolygon","arcs":[[[31,-27,32,33,34,35]]],"properties":{"postal_code":"34957","realtor_list_price":501514.153,"realtor_list_price_yoy":0.0147,"realtor_list_price_base":0.4089,"realtor_active_listings":254.667,"realtor_active_listings_yoy":-0.1803,"realtor_active_listings_base":0.1861,"realtor_new_listings":56.667,"realtor_new_listings_yoy":0.1486,"realtor_new_listings_base":-0.0616,"realtor_days_on_market":86.847,"realtor_days_on_market_yoy":-0.162,"realtor_days_on_market_base":0.0578,"zhvi":418699.859,"zhvi_yoy":-0.0235,"zhvi_base":0.5674,"zori":2560.005,"zori_yoy":0.0418,"zori_base":"NA"}},{"type":"MultiPolygon","arcs":[[[-21,36,37,-14,38]]],"properties":{"postal_code":"34981","realtor_list_price":420187.824,"realtor_list_price_yoy":0.0119,"realtor_list_price_base":0.5706,"realtor_active_listings":35.667,"realtor_active_listings_yoy":0.2738,"realtor_active_listings_base":1.0624,"realtor_new_listings":11.333,"realtor_new_listings_yoy":1.4286,"realtor_new_listings_base":1.5732,"realtor_days_on_market":58.647,"realtor_days_on_market_yoy":-0.2225,"realtor_days_on_market_base":-0.0918,"zhvi":367718.459,"zhvi_yoy":0.0077,"zhvi_base":0.7782,"zori":"NA","zori_yoy":"NA","zori_base":"NA"}},{"type":"MultiPolygon","arcs":[[[39,-16,-9,40,41,-2,42]]],"properties":{"postal_code":"34987","realtor_list_price":482307.886,"realtor_list_price_yoy":-0.0096,"realtor_list_price_base":0.669,"realtor_active_listings":390.333,"realtor_active_listings_yoy":0.0363,"realtor_active_listings_base":1.7275,"realtor_new_listings":99.333,"realtor_new_listings_yoy":-0.0132,"realtor_new_listings_base":1.1316,"realtor_days_on_market":73.678,"realtor_days_on_market_yoy":-0.1108,"realtor_days_on_market_base":0.2194,"zhvi":447511.154,"zhvi_yoy":-0.0198,"zhvi_base":0.4743,"zori":2455.376,"zori_yoy":0.0132,"zori_base":"NA"}},{"type":"MultiPolygon","arcs":[[[43,44,-35,45,46,-37,-20]]],"properties":{"postal_code":"34982","realtor_list_price":297534.286,"realtor_list_price_yoy":0.0946,"realtor_list_price_base":0.7369,"realtor_active_listings":155.667,"realtor_active_listings_yoy":-0.0843,"realtor_active_listings_base":0.5634,"realtor_new_listings":37.333,"realtor_new_listings_yoy":-0.1765,"realtor_new_listings_base":-0.1357,"realtor_days_on_market":74,"realtor_days_on_market_yoy":-0.0408,"realtor_days_on_market_base":0.1951,"zhvi":256363.299,"zhvi_yoy":-0.0199,"zhvi_base":0.767,"zori":1899.583,"zori_yoy":0.0627,"zori_base":"NA"}},{"type":"MultiPolygon","arcs":[[[-38,-47,47,-12,-6,-15]]],"properties":{"postal_code":"34983","realtor_list_price":408050.223,"realtor_list_price_yoy":0.032,"realtor_list_price_base":0.7169,"realtor_active_listings":221,"realtor_active_listings_yoy":-0.1445,"realtor_active_listings_base":0.1026,"realtor_new_listings":74.667,"realtor_new_listings_yoy":-0.1515,"realtor_new_listings_base":-0.2231,"realtor_days_on_market":65.598,"realtor_days_on_market_yoy":-0.0809,"realtor_days_on_market_base":0.2798,"zhvi":361471.507,"zhvi_yoy":-0.0134,"zhvi_base":0.7725,"zori":2396.008,"zori_yoy":0.0073,"zori_base":"NA"}},{"type":"MultiPolygon","arcs":[[[48,49,-30,50,51,52,53]]],"properties":{"postal_code":"34997","realtor_list_price":490432.432,"realtor_list_price_yoy":0.0045,"realtor_list_price_base":0.4873,"realtor_active_listings":257.333,"realtor_active_listings_yoy":-0.2891,"realtor_active_listings_base":-0.0316,"realtor_new_listings":74,"realtor_new_listings_yoy":-0.0593,"realtor_new_listings_base":-0.2041,"realtor_days_on_market":77.874,"realtor_days_on_market_yoy":-0.1376,"realtor_days_on_market_base":0.1428,"zhvi":429453.413,"zhvi_yoy":-0.0069,"zhvi_base":0.5952,"zori":2100.223,"zori_yoy":0.0318,"zori_base":"NA"}},{"type":"MultiPolygon","arcs":[[[-25,54,-44,-19]]],"properties":{"postal_code":"34950","realtor_list_price":228168.966,"realtor_list_price_yoy":0.0378,"realtor_list_price_base":0.9168,"realtor_active_listings":85.667,"realtor_active_listings_yoy":-0.0517,"realtor_active_listings_base":0.838,"realtor_new_listings":19.333,"realtor_new_listings_yoy":-0.0333,"realtor_new_listings_base":0.1757,"realtor_days_on_market":101.517,"realtor_days_on_market_yoy":0.4061,"realtor_days_on_market_base":0.5148,"zhvi":192065.07,"zhvi_yoy":-0.0621,"zhvi_base":0.881,"zori":1691.333,"zori_yoy":0.037,"zori_base":"NA"}},{"type":"MultiPolygon","arcs":[[[-41,-8,-11,55,56,-49,57]]],"properties":{"postal_code":"34990","realtor_list_price":646421.717,"realtor_list_price_yoy":0.0003,"realtor_list_price_base":0.5364,"realtor_active_listings":255.667,"realtor_active_listings_yoy":-0.2125,"realtor_active_listings_base":-0.2485,"realtor_new_listings":66,"realtor_new_listings_yoy":0,"realtor_new_listings_base":-0.2004,"realtor_days_on_market":79.182,"realtor_days_on_market_yoy":-0.1374,"realtor_days_on_market_base":-0.0376,"zhvi":612030.054,"zhvi_yoy":0.0079,"zhvi_base":0.717,"zori":2702.667,"zori_yoy":0.0597,"zori_base":"NA"}},{"type":"MultiPolygon","arcs":[[[-29,58,59,60,-51]]],"properties":{"postal_code":"33455","realtor_list_price":690408.955,"realtor_list_price_yoy":0.0817,"realtor_list_price_base":0.4165,"realtor_active_listings":137,"realtor_active_listings_yoy":-0.1612,"realtor_active_listings_base":-0.1356,"realtor_new_listings":29.333,"realtor_new_listings_yoy":-0.1852,"realtor_new_listings_base":-0.2511,"realtor_days_on_market":91.864,"realtor_days_on_market_yoy":-0.118,"realtor_days_on_market_base":0.0985,"zhvi":524313.732,"zhvi_yoy":-0.0018,"zhvi_base":0.6741,"zori":2352.778,"zori_yoy":0.0348,"zori_base":"NA"}},{"type":"MultiPolygon","arcs":[[[-61,61,62,63,-52]]],"properties":{"postal_code":"33458","realtor_list_price":707639.113,"realtor_list_price_yoy":0.0089,"realtor_list_price_base":0.5536,"realtor_active_listings":184.667,"realtor_active_listings_yoy":-0.3467,"realtor_active_listings_base":-0.3357,"realtor_new_listings":82.667,"realtor_new_listings_yoy":0.0973,"realtor_new_listings_base":-0.2798,"realtor_days_on_market":57.339,"realtor_days_on_market_yoy":-0.1931,"realtor_days_on_market_base":0.0293,"zhvi":623949.033,"zhvi_yoy":0.0184,"zhvi_base":0.732,"zori":2803.161,"zori_yoy":0.0342,"zori_base":0.751}},{"type":"MultiPolygon","arcs":[[[-53,-64,64]]],"properties":{"postal_code":"33478","realtor_list_price":1375120.37,"realtor_list_price_yoy":0.0087,"realtor_list_price_base":1.1533,"realtor_active_listings":74.333,"realtor_active_listings_yoy":-0.1617,"realtor_active_listings_base":-0.338,"realtor_new_listings":18,"realtor_new_listings_yoy":-0.2286,"realtor_new_listings_base":-0.4288,"realtor_days_on_market":76.407,"realtor_days_on_market_yoy":0.0122,"realtor_days_on_market_base":0.1925,"zhvi":882654.376,"zhvi_yoy":0.0305,"zhvi_base":0.8576,"zori":"NA","zori_yoy":"NA","zori_base":"NA"}},{"type":"MultiPolygon","arcs":[[[-42,-58,-54,65,-3]]],"properties":{"postal_code":"34956","realtor_list_price":634965,"realtor_list_price_yoy":-0.236,"realtor_list_price_base":"NA","realtor_active_listings":11.667,"realtor_active_listings_yoy":0.5217,"realtor_active_listings_base":0.2588,"realtor_new_listings":4,"realtor_new_listings_yoy":0.5,"realtor_new_listings_base":2.8337,"realtor_days_on_market":64.667,"realtor_days_on_market_yoy":0.2259,"realtor_days_on_market_base":"NA","zhvi":319430.766,"zhvi_yoy":0.015,"zhvi_base":0.6151,"zori":"NA","zori_yoy":"NA","zori_base":"NA"}},{"type":"MultiPolygon","arcs":[[[66,-22,-39,-13,-40,67,68]]],"properties":{"postal_code":"34945","realtor_list_price":554776,"realtor_list_price_yoy":-0.2371,"realtor_list_price_base":0.9809,"realtor_active_listings":39.667,"realtor_active_listings_yoy":0.6081,"realtor_active_listings_base":0.8651,"realtor_new_listings":10,"realtor_new_listings_yoy":1.1429,"realtor_new_listings_base":1.0309,"realtor_days_on_market":71.267,"realtor_days_on_market_yoy":-0.3909,"realtor_days_on_market_base":-0.1251,"zhvi":409022.296,"zhvi_yoy":0.0121,"zhvi_base":0.8291,"zori":"NA","zori_yoy":"NA","zori_base":"NA"}},{"type":"MultiPolygon","arcs":[[[-36,-45,-55,-24,69]]],"properties":{"postal_code":"34949","realtor_list_price":471765.625,"realtor_list_price_yoy":0.0056,"realtor_list_price_base":0.4274,"realtor_active_listings":269,"realtor_active_listings_yoy":-0.0756,"realtor_active_listings_base":0.0798,"realtor_new_listings":42.667,"realtor_new_listings_yoy":0.2075,"realtor_new_listings_base":0.1544,"realtor_days_on_market":99.688,"realtor_days_on_market_yoy":-0.1416,"realtor_days_on_market_base":-0.0875,"zhvi":409788.433,"zhvi_yoy":-0.02,"zhvi_base":0.443,"zori":2761.111,"zori_yoy":0.084,"zori_base":"NA"}},{"type":"MultiPolygon","arcs":[[[-26,-17,-67,70]]],"properties":{"postal_code":"34951","realtor_list_price":326497.255,"realtor_list_price_yoy":-0.0091,"realtor_list_price_base":0.8338,"realtor_active_listings":154,"realtor_active_listings_yoy":-0.1098,"realtor_active_listings_base":0.7288,"realtor_new_listings":34,"realtor_new_listings_yoy":-0.1905,"realtor_new_listings_base":-0.0715,"realtor_days_on_market":90.647,"realtor_days_on_market_yoy":-0.1194,"realtor_days_on_market_base":0.477,"zhvi":297482.261,"zhvi_yoy":-0.0137,"zhvi_base":0.7769,"zori":"NA","zori_yoy":"NA","zori_base":"NA"}},{"type":"MultiPolygon","arcs":[[[-46,-34,71,-56,-10,-48]]],"properties":{"postal_code":"34952","realtor_list_price":328951.957,"realtor_list_price_yoy":-0.0418,"realtor_list_price_base":0.442,"realtor_active_listings":283,"realtor_active_listings_yoy":-0.0841,"realtor_active_listings_base":0.3338,"realtor_new_listings":76.667,"realtor_new_listings_yoy":-0.0496,"realtor_new_listings_base":-0.1415,"realtor_days_on_market":75.226,"realtor_days_on_market_yoy":-0.0223,"realtor_days_on_market_base":0.2043,"zhvi":320725.5,"zhvi_yoy":-0.0189,"zhvi_base":0.77,"zori":2051.673,"zori_yoy":0.0353,"zori_base":"NA"}},{"type":"MultiPolygon","arcs":[[[-33,-31,-50,-57,-72]]],"properties":{"postal_code":"34994","realtor_list_price":316781.25,"realtor_list_price_yoy":0.2646,"realtor_list_price_base":0.3001,"realtor_active_listings":162,"realtor_active_listings_yoy":-0.1706,"realtor_active_listings_base":0.1363,"realtor_new_listings":42.667,"realtor_new_listings_yoy":0.4222,"realtor_new_listings_base":0.3118,"realtor_days_on_market":84.094,"realtor_days_on_market_yoy":-0.1392,"realtor_days_on_market_base":-0.0536,"zhvi":235624.787,"zhvi_yoy":-0.0287,"zhvi_base":0.5548,"zori":2204.931,"zori_yoy":0.0312,"zori_base":"NA"}},{"type":"MultiPolygon","arcs":[[[-60,72,-62]]],"properties":{"postal_code":"33469","realtor_list_price":788822.581,"realtor_list_price_yoy":0.0773,"realtor_list_price_base":0.3973,"realtor_active_listings":146,"realtor_active_listings_yoy":-0.276,"realtor_active_listings_base":-0.08,"realtor_new_listings":41.333,"realtor_new_listings_yoy":0.2917,"realtor_new_listings_base":-0.0559,"realtor_days_on_market":78.806,"realtor_days_on_market_yoy":-0.2795,"realtor_days_on_market_base":0.0506,"zhvi":720443.554,"zhvi_yoy":0.0256,"zhvi_base":0.8424,"zori":3926.333,"zori_yoy":0.1267,"zori_base":"NA"}}]}},"arcs":[[[458992,620286],[30,-11861],[-862,-26],[307,-64695],[313,-8568],[115,-57030],[86788,61]],[[545683,478167],[1451,20],[760,67]],[[547894,478254],[1512,-1042],[11392,114],[-817,-53190],[-420,-6778],[-770,-3282],[-3150,366],[322,-1268],[9155,-372],[-2395,6],[-2111,-960],[-1130,-1824],[3749,-9372],[1021,49],[2659,-2680],[1590,-3934],[-1888,-5253],[-491,-3202],[-2320,-5265],[-937,-205],[-1096,1492],[-1256,4655],[-175,-38208],[-2049,358],[-3015,-1897],[-1934,2231],[-5,6669],[-1443,3797],[-5421,130],[-2297,479],[-959,-1042],[-3381,252],[-779,1237],[-7600,-4711],[-1501,-2379],[-1952,-1060],[-2170,554],[-1968,2799],[-1118,-81],[-2388,-4913],[208,-2010],[888,-24],[-85,-8018],[-21491,23644],[-18273,19079],[-4316,-6510],[-939,-3290],[158,-3205],[1056,-3045],[5185,-12293],[4580,-13895],[32480,-85921],[1812,-6520],[5841,-45901],[177,-3217],[-3271,-41482],[88,-3615]],[[524456,154301],[-7060,-2049],[-4342,-849],[-804,-1320],[198,-2996],[-1763,2718],[-1933,-123],[4079,-4012],[3837,-18728],[1251,-10601],[178,-5380],[-5916,-25],[-945,9940],[-4007,28867],[-12180,48591],[-5815,28351],[-3392,13321],[-12769,41115],[-1470,6247],[-3672,18372],[-2428,4520],[-2502,2444],[-2355,2933],[-1177,2443],[-7501,24940],[1680,2352],[-1618,4562],[-367,5099],[-1542,651],[-4259,4664],[-1027,5316],[293,3255],[-8516,21262],[-3156,2928],[-8737,13452],[-2863,2712],[-365,1698],[-8621,11463],[-6608,10491],[-5064,7207],[-3334,3465],[-12598,7116],[-2881,2087],[-863,696],[-3980,4240],[-3150,2828],[-7001,7361],[-6525,5775],[-2594,1186],[-988,274],[-3851,-1250],[-1118,5884],[-26,-13],[-729,-37],[-1668,-301],[-1053,-634],[-7003,-2957],[-1313,-525],[-15,-1624],[-2601,-1140],[-476,-97],[-2128,-742],[-12379,-8217],[-2342,-3112],[-3580,-6842],[44,-2654],[-1025,-1002],[-3032,-6581],[-3591,-6865],[-1737,-2533],[-1387,-3600],[-2275,-3520],[-5415,-9677],[-2970,-9033],[-2223,-8413],[1223,83],[-213,-4381],[-1979,780],[55,-1530],[1831,351],[1848,-1686],[291,-3452],[1261,-2824],[-421,-815],[-4770,624],[-2204,1130],[-1957,2246],[465,2664],[-1119,-1116],[-835,1222],[-852,-771],[633,-1278],[-583,-13305],[-1606,1718],[-5846,-9272],[-6071,-15956],[-1634,-1261],[-6258,-226],[-1524,2447],[-5366,-113],[-707,-507],[-12482,-18223],[13550,-12338],[1589,562],[2516,1823],[2302,38],[2301,-1768],[2707,275],[-1799,-7375],[-1666,-1425],[-1952,-2702],[-1376,-3021],[-1973,-6555],[486,-4332],[2037,-6687],[-5354,-7587],[-1387,-3876],[-1957,-3077],[-685,-2035],[964,-3284],[2467,-5360],[4840,-1385],[-12770,-17961],[-2001,-17384],[-15020,-12748],[-12515,-5818],[-6882,-17248],[-6133,-10805],[-6507,-15378],[-5632,-7689],[-11890,4572],[-8134,-5819],[-34792,-3325],[-6633,-7897],[-20328,-1441],[-314,4728],[-2164,21316],[-831,9530],[-37,9289],[-117,22188],[-1079,7857],[-670,2719],[-926,-843],[-30021,-621],[766,14337],[-766,17666],[-450,3322],[-1408,-596],[-202,-1458],[-8325,-3051],[-28,20132],[843,1067],[-1201,5122],[84,8274],[-14644,-621],[-1,21787],[1685,72],[-21114,39081],[-921,115],[-4446,-1073],[-8401,-1302],[-12167,6305],[-6068,-90],[-21,657],[21894,361],[-764,129984],[17704,260],[-20,228],[-59,773],[-21499,40829],[-4454,8486],[-4339,8142],[-2208,4767],[-3287,8],[297,20880],[4022,-237],[1652,106],[297,973],[2508,-754],[9559,-4292],[76037,-43195],[924,-1604],[3904,3681],[1819,117],[19907,83],[-167,59972],[25781,-127],[8034,-362],[2249,-2193],[1503,-3021],[4741,-1323],[529,3795],[-362,1067],[1636,3313],[-576,1922],[542,2650],[-4387,22222],[-976,3086],[-1032,2224],[-790,-431],[235,-2272],[-538,-651],[-241,596],[265,2626],[1486,1356],[-1918,-674],[1488,2609],[1018,-1694],[594,1136],[2354,513],[499,2315],[1499,-95],[830,-1055],[5,-3061],[910,-2314],[2714,-616],[145,-2850],[1870,-1315],[1222,2681],[1603,542],[-4,-2090],[-2341,-3537],[-1124,-3443],[1002,-1702],[356,-5460],[-1069,-1186],[-332,-2116],[731,-210],[687,-3964],[-1553,-169],[-70,-4715],[961,904],[-350,-2066],[-1101,-1024],[1311,-1173],[-762,-2370],[276,-3753],[-1144,-1365],[-853,-4541],[1571,815],[1512,-5813],[-1297,-1931],[1031,-2456],[-739,-2948],[481,-1197],[909,2958],[-345,-4249],[165,-2078],[1227,1134],[2632,-5049],[-1086,60],[1080,-4830],[1538,-216],[4103,-2271],[2035,-2688],[1853,127],[1172,-722],[-326,-4282],[-1419,2403],[-781,-474],[1879,-4007],[-248,-1090],[-1662,1052],[703,-2027],[136,-2700],[9774,6750],[9329,153],[117,-20588],[1021,-1074],[4762,227],[1563,2673],[1553,806],[1744,-286],[-1130,-1546],[-784,-4325],[2541,-463],[1091,1539],[4202,-4934],[-817,-1271],[2414,-2964],[1585,-660],[-889,-774],[-581,-2775],[5094,-4012],[11036,-827],[2724,-5603],[203,1449],[-55,554],[-1582,3491],[-7205,15574],[-105,1774],[1416,2419],[2502,1295],[4396,7390],[-402,1437],[643,3680],[246,7815],[19780,-18],[26085,-37],[13103,-25],[3612,-4],[3685,3],[1501,334],[5683,-1],[2050,28],[4016,-157],[95,-2280],[1046,0],[8,2278],[1019,66],[-4,-2337],[2909,-4],[-6,1025],[206,1311],[1322,-40],[5680,52],[894,-25],[15,-2280],[1926,69],[-15,2211],[3280,299],[1737,954],[5785,3720],[2712,2176],[1768,1202],[1943,739],[4187,956],[12833,2624],[4190,1928],[9827,5887],[1349,422],[4631,-1140],[3018,562],[2690,2633],[2049,3515],[1161,2097],[788,914],[15211,14335],[8688,7596],[1973,2265],[8623,11423],[10538,11103],[4924,4641],[6667,5551]],[[687868,600774],[171,375],[2195,5284],[460,1413],[200,636],[2049,-213],[14057,-59],[14578,0],[7405,-104],[1164,492],[2382,1713]],[[732529,610311],[892,-2626]],[[733421,607685],[5398,-16017],[4795,-14234],[5391,-15880],[107,-329],[2335,-8234],[1752,-10489],[685,-4283],[2161,-13674],[1452,-9257],[1453,-8593],[766,-3152],[7432,-25813]],[[767148,477730],[-6649,-64],[-15116,333],[-13931,280],[-2202,-392],[-1317,-379],[-21735,283]],[[706198,477791],[118,21862],[-241,4649],[-1231,5603],[-1756,4395],[-5649,10860],[-1732,5571],[-3363,12172],[-1383,5043],[-1613,6037],[-2388,10638],[-3230,14752],[-238,6526],[964,6243],[2289,6132],[1123,2500]],[[773931,575591],[4,-182],[711,-3054],[-2341,-6209],[-1593,-2971],[-1107,-1864],[-282,-858],[-913,-1832],[974,-5897],[2135,-7141],[527,-1462],[99,-680],[1031,-2298],[-774,-154],[2042,-5711],[2242,-3217],[1103,-747]],[[777789,531314],[-917,93],[417,-4989],[359,-349],[-576,121],[0,635],[-192,611],[-861,-2989],[-17,-1980],[-16,-1761],[3607,-71],[-105,-21655],[13672,31],[821,-3228],[-26,-7558],[6856,173],[326,-5213],[2315,-5166],[-36207,-304],[-97,15]],[[733421,607685],[227,167],[474,306],[20,851],[2020,-898],[15256,-141],[1980,-46],[764,-674],[3149,-9260],[2902,-8518],[890,-923],[6162,-380],[3304,-3093],[2398,-6135],[964,-3350]],[[670666,684106],[13062,-98],[10022,14887],[98,13272],[530,4314],[1411,-4]],[[695789,716477],[5137,-12],[282,762],[3056,-2797],[8786,12917],[4126,15],[0,163],[1096,-15],[98,-44],[2326,-15]],[[720696,727451],[6539,-22040],[1748,-7702],[400,-6288],[1,-1839],[-9,-5637],[-26,-10757],[-2,-13368],[-43,-16159],[0,-251],[-6,-15333],[736,-9066],[2323,-8188],[172,-512]],[[687868,600774],[-237,380],[-4880,7701],[-150,237],[-5128,8161],[-18116,28938],[-554,882],[221,342],[163,234],[2507,3529],[4698,6970],[2791,4156],[1408,2070],[59,8986],[5477,1710],[-921,4960],[-4250,207],[-290,3869]],[[682005,868909],[6718,-51],[7,398],[18591,-277],[7325,-101]],[[714646,868878],[7342,-156],[3662,-687],[9300,-216],[1759,-439],[-13,467],[370,-68],[14345,-376]],[[751411,867403],[0,-420],[-3,-466],[-80,-4171],[-29,-2718],[861,40],[-18,-2708],[-865,-52],[-14,-2650],[855,-87],[-475,-5286],[-413,19],[-8,-2702],[403,22],[-4,-1775],[-401,44],[-10,-3209],[-75,-5867],[918,-47],[9,-5368],[-962,15],[-18,-5386],[-63,-4217],[-133,-7857],[1354,-59],[-3,-2068],[-1373,6],[-50,-1637]],[[750814,808799],[-98,-5593],[9,-251]],[[750725,802955],[-1693,-222],[-8260,0],[-4562,-15],[-1386,-442],[-521,-342],[-2232,-2385],[-5120,-5575],[-5097,-2738],[-9,356],[-5195,-2723]],[[716650,788869],[3,8744],[42,14137],[-45,1871],[-463,4204],[-1680,6738],[-4344,16536],[-1596,3560],[-1184,1485],[-15219,13102],[-8118,7080],[-2041,2583]],[[729761,997954],[3561,-49],[751,26],[131,0],[477,0],[313,0],[17458,-101]],[[752452,997830],[7292,-46547],[3386,-21185],[3072,-16068],[5556,-25019],[1353,-6680],[-705,-3709],[1906,-2359],[2575,-11720]],[[776887,864543],[-2840,-3],[-5362,-1308],[-1159,-393],[-1652,-568],[-1028,1037],[-519,1430],[-1251,2608],[-11665,57]],[[714646,868878],[240,20915],[-27,13618],[-3493,66],[-467,7132],[-3142,141],[-294,1163],[47,32323],[470,6],[7075,-163],[16558,-220],[7225,-79],[7,10613],[-1686,435],[4,8515],[-808,1332],[-1316,4819],[-753,-195],[-1856,4566],[-95,3762],[-1067,440],[-171,2474],[654,1068],[-1457,1882],[-1498,-1534],[-802,-1450],[-1388,-3679],[264,13235],[2270,3133],[-276,3252],[897,1506]],[[855417,487432],[5724,-12],[468,-2],[5230,-31],[-23,9150],[357,1243],[3065,-160],[174,2890],[5031,232],[181,-7],[9199,-154],[-5135,14490],[-297,984],[-7524,20829],[-803,2801],[-2917,7709],[-182,687],[2729,699],[3797,2310],[1212,-444],[-148,-2182],[1784,-626],[2919,1067],[1646,1645],[1590,-496],[1937,-2166],[1126,-2231],[446,-4363],[2447,-1035],[-2255,-146],[773,-2712],[1614,399],[2027,-1428],[-4196,12537],[-3800,13604],[1236,625],[230,-328],[132,-315]],[[885211,562495],[5654,-19941],[16733,-49851],[5385,-16043],[232,-689],[5826,-17357],[691,-3087],[774,-3456],[-181,-2403],[2010,-11164],[3919,-14670],[-199,-488],[-2666,-6540]],[[923389,416806],[-2163,6],[-3340,704],[-5027,-547],[-4326,601],[-2961,2611],[-3373,-106],[-868,-77]],[[901331,419998],[-7524,-515],[-3204,2694],[-1862,4816],[-4704,-182],[-840,-1105],[-2674,2349],[-1498,370],[-1328,-1592],[-2133,1640],[-1359,703],[-9007,297],[-402,12],[-2765,-2052],[-3245,3338],[-6407,10849]],[[852379,441620],[-347,2261],[15,5343],[3195,-29],[15,2479],[533,188],[26,2811],[-3736,24],[14,5398],[1481,10],[14,3473],[-1448,553],[18,1416],[236,4084],[2708,356],[961,-4188],[191,346],[66,225],[-33,195],[-94,334],[-708,1792],[-301,5893],[389,5971],[-157,6877]],[[836888,735263],[14635,-46462],[3300,-10477],[477,-4143],[1183,-5285],[3335,-13725],[1051,-4325],[5031,-18694],[1214,-4510],[9486,-35244],[4715,-16164],[3896,-13739]],[[855417,487432],[-2436,-1503],[-12829,-4569],[-1,6291],[0,4402],[-4952,1621],[-124,376],[1736,1275],[3165,1699],[-10,1196],[2521,1426],[-522,729],[-586,3201],[-33,2741],[5,2655],[-17,251],[-1631,-53],[-1985,-19],[-163,23],[-4818,17],[-6203,214],[-614,2760],[-154,-58],[-412,2498],[-598,2619],[327,2910],[-989,22],[-1497,6547],[-172,14],[-368,1642],[-635,-2798],[-6567,-3669],[-2573,1204],[-202,3749],[-1184,4408],[-2070,10],[-17,4029]],[[808809,535292],[183,1607],[102,21511],[76,5121],[531,0],[213,5],[773,154],[15090,-483],[10060,-308],[-1030,5436],[188,6865],[-767,9706],[-1443,5874],[-535,4232],[-258,1480],[-2094,6391],[-1809,1924],[-1622,1627],[-793,1554],[-535,2308],[-36,3732],[9,1328],[3359,-37],[5668,-66]],[[834139,615253],[2281,-15],[187,59],[267,80],[76,-189],[3419,231],[-2,-1982],[5780,-88],[-641,1729],[-3388,10175],[-1759,4393],[0,1118],[-20518,63587],[-7618,25113],[-4691,17995]],[[807532,737459],[4487,-491],[6065,-1700],[4950,-1828],[9014,-2309],[1241,136],[847,1710],[1021,238],[1164,431],[567,1617]],[[750725,802955],[48,-2054],[175,-7889],[37,-1832],[115,-4841],[775,-1110],[-740,-325],[54,-3093],[0,-4734],[459,-685],[1370,7],[14,-2706],[-1852,-759],[-9,-2826],[-18,-2856],[0,-3629],[0,-197],[0,-3069],[-57,-3387],[1165,-1194],[1049,-1754],[332,-833],[431,-4815],[2526,-3174],[1071,-2065],[141,-3226],[-2715,-5541],[2413,-6134],[268,-992],[-640,-1664],[-2635,-10551],[-663,-5348]],[[753839,709679],[-2779,459],[9,1230],[2705,87],[304,2518],[-3289,9],[61,2860],[-178,-15],[-3,-627],[-8024,93],[-2880,8],[94,5375],[-1805,21],[-31,5408],[-1769,124],[-793,118],[-14765,104]],[[695789,716477],[2808,10811],[2807,10902],[1898,5936],[2386,4597],[5865,9578],[-151,532],[89,133],[2067,3537],[1096,2559],[652,1971],[128,426],[700,3106],[360,2765],[156,15539]],[[565564,720013],[1708,-803],[12715,-2084],[5029,-586],[803,-433],[3961,-194],[6455,888],[8746,44],[22107,-259],[96,12310],[2805,854],[1402,-2428],[10097,40],[112,0],[4,-10641],[7185,83],[13,-11003],[2330,21],[944,6064],[3946,4415],[24,-5074],[3542,10],[3785,495],[7058,-788],[208,-634],[27,-26204]],[[706198,477791],[-335,4],[-13365,164],[-14868,202],[-43683,510]],[[633947,478671],[-86053,-417]],[[545683,478167],[1213,1811],[-705,1442],[337,103362],[-590,14018],[-14382,-193],[44,9559],[-8897,29],[-304,895],[-2936,2566],[-1906,2425],[-251,16376],[246,21921],[5364,4734],[1334,204],[2235,2045],[1893,611],[-550,4528],[1332,12411],[520,895],[-2416,7231],[-2501,9484],[363,2793],[971,1769],[1236,-407],[395,4992],[1130,1506],[-25,2870],[-815,512],[45,2545],[-1945,6012],[8538,4764],[14400,5783],[4697,257],[2707,-2632],[2008,115],[6619,-5766],[477,379]],[[750814,808799],[2522,-133],[-98,-5238],[9267,-473],[2281,-148],[1489,-59],[2735,1583],[0,-1583],[3484,-45],[-9,-1198],[1141,976],[5677,2],[3374,-8890],[-238,-4310],[730,0],[2344,15],[210,129],[8752,145]],[[794475,789572],[2302,-8987],[10755,-43126]],[[834139,615253],[-382,1323],[-2568,56],[9,7547],[-365,1708],[-3425,11893],[-5004,17289],[-2112,8448],[-7405,21070],[-2757,9808],[-4837,59],[590,-1420],[-36,-1429],[-26247,-9],[-7143,47],[-9,2913],[-7261,3],[17,-2963],[-7239,-34]],[[757965,691562],[-3,2978],[-2992,728],[-1190,7163],[-92,2955],[37,365],[-145,2657],[259,1271]],[[757965,691562],[18,-7688],[2680,-268],[311,-4701],[2219,-2275],[-814,-3545],[-2942,-32],[284,-1003],[280,-1003],[495,-1783],[1983,-2728],[-1046,-4281],[1033,-686],[30,-409],[1870,-3773],[-255,-831],[805,-555],[1036,-1922],[2897,-870],[3995,-3740],[2507,-3167],[589,-2764],[-1439,-1129],[-2592,160],[-908,-1726],[2809,-1162],[924,-1987],[-2485,-1816],[290,-2172],[2200,-1981],[1986,2282],[1310,-493],[37,-3549],[1221,-2602],[2080,-1522],[-14,-1378],[-3272,-2411],[4791,-1835],[914,-3684],[-2304,-4156],[1178,-4682],[-870,-2620],[-779,-1912],[-974,-2002],[-1505,-5997],[-330,-4671],[-2080,-5723],[364,-5489],[-683,-3708],[-1878,18]],[[749116,248163],[27188,16012],[1224,1048],[1671,2994],[14597,35287],[5102,12339],[7499,18203],[3005,5766],[1661,1962],[1948,4276],[1564,903],[3493,432],[2819,1527],[3832,6986],[1213,3455],[35,2265],[-955,5039],[452,2809],[3513,8008],[961,3222],[1222,3683],[197,2143],[-1225,4336],[603,3776],[1925,5830],[2586,4267],[2501,2126],[780,1530]],[[838527,408387],[1580,-917],[1398,-463],[1442,521],[3644,2305],[7249,4650],[3977,2589],[2203,1402],[465,293],[944,599],[-845,518],[-649,2129],[1367,515],[795,-2732],[1388,895],[790,508],[-3216,5346],[-8797,14723],[117,352]],[[901331,419998],[1745,-3657],[2337,-5564],[3263,-5305],[1951,-1263],[1159,-1430],[3174,-4339],[820,-1913],[-271,-2304],[1672,-8777],[1553,-4809],[3338,-5408],[6024,-12249],[-641,177],[-11859,-8000],[-12068,-8002],[611,-1029],[-119,-245],[-944,939],[-12149,-7839],[-11881,-1964],[-562,-1732],[-3674,-1555],[2730,-13777],[-422,-1548],[-2169,-251],[-701,-5253],[-2734,-2509],[-4565,-2803],[-122,-3630],[-2160,-582],[-14246,-53],[-3648,6],[411,-2899],[-3406,-3675],[-2542,103],[-1325,-661],[3868,-15040],[1400,-5130],[6357,-18590],[1358,-5082],[707,-4596],[733,-9197],[1381,-15728],[436,-2870],[1867,-6886],[2127,-4648],[1364,-2228],[22130,-32177],[7136,-10449],[1518,-297],[757,-344]],[[893050,162936],[13532,-375],[-34,-10106],[12382,-361],[882,-1166],[-707,-1897],[-98,2476],[-756,90],[-1681,-4991],[-695,-407],[-83,-5260],[-667,-1352],[-3241,-1651],[-641,-1736],[-1554,-308],[-799,-1490],[-4839,-2493],[9964,-22757]],[[914015,109152],[-167,2],[-9932,22675],[-1108,-569],[-4186,-98],[-1210,586],[66,8941],[-3684,98],[-690,1343],[-7022,25],[66,10725],[-1101,1204],[-301,-1278],[-44082,145],[-3033,-131],[-15956,685],[5,18774],[-13584,-33379],[-721,-2678],[-447,-4406],[-125,-20868],[-15752,158],[-31486,317],[-6062,53],[-24590,278],[-8778,-6]],[[720135,111748],[-246,15060],[-10831,12144],[2030,10883],[-190,2735],[881,1188],[-1581,1964],[-542,1849],[-770,8233],[-3333,7521],[-969,3128],[679,3256],[2612,-750],[930,-1743],[839,792],[6284,-5564],[11151,-808],[4333,-2454],[2953,84],[136,34817],[3241,-1122],[2579,3983],[4872,8463],[3092,1810],[767,1255],[158,6326],[14038,647],[91,21990],[14577,7007],[1211,6877],[-160,1595],[-1643,1434],[-2958,-2117],[-25085,-14663],[-165,595]],[[776887,864543],[2780,-13174],[3904,-17523],[330,-1478],[2787,-10628],[2829,-13235],[4958,-18933]],[[777789,531314],[2264,-2181],[2215,-1572],[4271,-2954],[2080,-820],[5029,-3526],[4237,-3032],[4534,-3302],[6215,-7084]],[[808634,506843],[611,-774],[1846,-6965],[1553,-6353],[2695,-6534],[326,-407],[7079,-4899],[511,-467],[3313,-6506],[136,-472],[3,-17314],[181,-4919],[303,-7865],[1158,-5788],[244,-2640],[1856,-3937],[4995,-11508],[2400,-1807],[1166,-2850],[-102,-4801],[-381,-1650]],[[749116,248163],[-44529,-26220],[-156,-130],[-4441,-2612],[10,2660],[-7811,17577],[-94,6337],[-15119,31],[265,55821],[-59,25301],[-14583,56],[109,21099],[21900,-41],[1,3363],[1025,293],[2241,-2159],[3644,-1052],[333,42928],[-3750,-33],[138,-3066],[-1005,-3132],[-412,-4360],[114,-6194],[342,-2318],[-1371,-3475],[-2010,918],[-2512,4513],[-1325,5326],[-388,7397],[-1005,4301],[-1250,-13],[1,21378],[-14480,1040],[304,64182],[-29292,453],[-4,339]],[[923389,416806],[-860,-2111],[1578,-6814],[4514,-16614],[801,-5534],[4039,-16813],[1520,-9556],[1334,-8797],[3100,-12240],[4339,-14284],[1579,-4354],[570,-1571],[4148,-11434],[490,-1457],[933,-2776],[7396,-22006],[1485,-8538],[3009,-9021],[15879,-62059],[4500,-30444],[2393,-16188],[4603,-19094],[944,-5398]],[[991683,129703],[-2953,25],[-624,4735],[-1625,6589],[-4881,13238],[356,6362],[-1811,13167],[-15798,63290],[-699,1370],[-335,-105],[-2593,-807],[-1125,-75],[1375,-2245],[866,-2624],[4213,-23112],[584,-2616],[6970,-28146],[-2350,-188],[-2141,7826],[-2444,467],[-2395,4537],[-2311,-930],[-2056,-1127],[-2370,-505],[-2189,817],[-1227,-222],[-4441,-4217],[-724,-330],[-4876,21],[-7699,-3464],[-3208,-4862],[-575,-2493],[460,-9435],[126,-3283],[-174,-873]],[[933009,160488],[-1624,-86],[218,-1165],[-2298,1564],[-1500,123],[1198,-3828],[-1752,913],[-1817,2477],[-881,-618],[898,-1931],[-1446,-586],[-234,2542],[-1933,-2157],[82,-1532],[-1101,-2443],[334,-1513],[-1724,-221],[-537,295],[-12168,386],[50,10039],[-13724,189]],[[933009,160488],[1120,-799],[-806,-3615],[-2222,-222],[892,-1515],[2833,178],[249,-5873],[-608,-876],[2191,-2585],[2552,-71],[3332,-4193],[1567,-615],[1179,-1630],[-268,-2689],[2080,-2628],[2806,-355],[1028,-2680],[-523,0],[5114,-11192],[480,-6903],[1784,-2474],[9572,-8961],[695,-652],[534,888],[3903,-3167],[695,-165],[9120,-2210]],[[982308,95484],[-2492,-5282],[-338,-3489],[-205,-10793],[245,6],[-211,-11657],[-153,-7343],[-61,-2890],[-111,-5323],[-372,-17365],[-186,-9639],[2,-196],[-482,-21513],[-7407,108],[-4566,65],[-12431,123],[-3626,111],[-249,7],[-1445,-20],[-2031,-231],[-5522,21006],[-113,312],[-2248,8574],[-288,1110],[-2709,10240],[-5095,19226],[-1280,4757],[-221,868],[-279,1091]],[[928434,67347],[-2489,9452],[-3705,13258],[-3713,8709],[-4512,10386]],[[928434,67347],[-496,-804],[-14260,-17953],[-4162,-5213],[-2605,-3022],[-504,-1385],[-50,-6863],[-137,-11122],[-148,3],[-14975,1301],[-28976,-323],[-7,530],[-10480,-197],[-2165,7],[-9749,77],[-5523,508],[-372,9],[-14189,590],[-1468,1012],[-57,-1645],[-164,-1015],[-255,-876],[-180,-453],[-2256,-4443],[-3576,3955],[-4128,7078],[-1327,1181],[-2347,1312],[-900,-1630],[-2208,763],[34,-3342],[-10843,183],[-3341,5363],[49,2426],[-40727,-13],[0,-1289],[-2233,-1],[-9664,1250],[-72,10246],[-14190,172],[115,21895],[260,44645],[-23,1484]],[[720135,111748],[-52660,-1046],[-34412,403],[-721,-113],[257,5318],[137,49210],[-14404,-327],[-57,22395],[-801,1921],[-19030,8772],[-4446,938],[-17846,-5165],[-21857,-17653],[-3525,-3078],[-1593,-1],[-3357,-2772],[0,-1325],[-2621,-2085],[-476,-1051],[-465,310],[-11736,-9776],[-2387,-1278],[-3679,-1044]],[[634488,999104],[15201,-30616],[8337,-16848],[107,-474],[1729,-6007],[1078,-15],[1684,-5089],[81,-356],[15371,-61447],[1033,-3433],[1667,-3817],[1229,-2093]],[[565564,720013],[-5907,4937],[-4326,3929],[-2244,600],[-1876,-322],[-4138,-1678],[-13479,-5963],[-27352,-15362],[-1793,-1334],[-2489,-3252],[-14826,-27880],[-1122,-2312],[-4422,-12003],[-504,-2366],[-1988,-12254],[-1192,-4455],[-2753,-5538],[-2989,-2825],[-4568,-2855],[-5045,-5513],[-3559,-3281]],[[458992,620286],[-228,74688],[-534,142097],[-605,10504],[222,23845],[-408,40072],[-140,2767],[-55,84160],[-94,1219],[90347,71],[43699,-272],[3284,562],[7662,-249],[32346,-646]],[[752452,997830],[227,1],[13826,37],[8457,30],[1427,103],[1936,-10963],[6838,-36469],[9914,-36560],[2522,-13445],[1267,-8172],[2767,-10720],[2219,-6582],[-409,-1654],[-152,-57],[-4140,-1538],[-504,-1652],[165,-384],[543,-1267],[36,-86],[3877,742],[575,-686],[6,-255],[107,-4673],[3171,-12887],[3877,-15763],[1989,-8084],[1861,-8616],[1169,-3502],[6121,-26430],[7796,-31487],[6948,-21548]],[[634488,999104],[403,-5],[2192,-146],[12415,6],[14636,-333],[29375,-370],[14739,-21],[81,91],[6973,-107],[12294,73],[2165,-338]],[[808809,535292],[-2472,-1115],[-115,-2853],[-4376,42],[409,-1498],[-66,-497],[-99,-2727],[778,-2753],[2095,-2533],[3517,-6018],[422,-223],[-268,-8274]],[[991683,129703],[1536,-8785],[322,-1841],[368,-2108],[73,-414],[699,-3999],[809,-3735],[1252,-5787],[274,-1263],[1046,-3639],[1316,-4580],[621,-2160],[-200,-713],[-6698,1968],[-1070,1139],[-4737,1252],[-4744,409],[-242,37]]],"bbox":[-81.192851,26.882856,-80.070616,27.558714],"transform":{"scale":[0.0000011222361222361257,6.75858675858674e-7],"translate":[-81.192851,26.882856]}}
