{"type":"Topology","objects":{"foo":{"type":"GeometryCollection","geometries":[{"type":"MultiPolygon","arcs":[[[0]]],"properties":{"postal_code":"17970","realtor_list_price":117387.5,"realtor_list_price_yoy":0.4997,"realtor_list_price_base":"NA","realtor_active_listings":9.667,"realtor_active_listings_yoy":0.3182,"realtor_active_listings_base":-0.2544,"realtor_new_listings":5.333,"realtor_new_listings_yoy":0,"realtor_new_listings_base":0.5204,"realtor_days_on_market":40.5,"realtor_days_on_market_yoy":-0.1518,"realtor_days_on_market_base":"NA","zhvi":103886.452,"zhvi_yoy":0.0196,"zhvi_base":1.2261,"zori":1000,"zori_yoy":"NA","zori_base":"NA"}},{"type":"MultiPolygon","arcs":[[[1,2,3]]],"properties":{"postal_code":"17923","realtor_list_price":"NA","realtor_list_price_yoy":"NA","realtor_list_price_base":"NA","realtor_active_listings":1.333,"realtor_active_listings_yoy":0,"realtor_active_listings_base":"NA","realtor_new_listings":0,"realtor_new_listings_yoy":"NaN","realtor_new_listings_base":"NA","realtor_days_on_market":"NA","realtor_days_on_market_yoy":"NA","realtor_days_on_market_base":"NA","zhvi":"NA","zhvi_yoy":"NA","zhvi_base":"NA","zori":"NA","zori_yoy":"NA","zori_base":"NA"}},{"type":"MultiPolygon","arcs":[[[4]]],"properties":{"postal_code":"17936","realtor_list_price":134925,"realtor_list_price_yoy":"NA","realtor_list_price_base":"NA","realtor_active_listings":3,"realtor_active_listings_yoy":-0.1,"realtor_active_listings_base":-0.1352,"realtor_new_listings":0.667,"realtor_new_listings_yoy":"Inf","realtor_new_listings_base":"NA","realtor_days_on_market":17,"realtor_days_on_market_yoy":"NA","realtor_days_on_market_base":"NA","zhvi":"NA","zhvi_yoy":"NA","zhvi_base":"NA","zori":"NA","zori_yoy":"NA","zori_base":"NA"}},{"type":"MultiPolygon","arcs":[[[5,6,7,8],[9]]],"properties":{"postal_code":"17949","realtor_list_price":"NA","realtor_list_price_yoy":"NA","realtor_list_price_base":"NA","realtor_active_listings":2.333,"realtor_active_listings_yoy":0.4,"realtor_active_listings_base":"NA","realtor_new_listings":0,"realtor_new_listings_yoy":"NaN","realtor_new_listings_base":"NA","realtor_days_on_market":"NA","realtor_days_on_market_yoy":"NA","realtor_days_on_market_base":"NA","zhvi":"NA","zhvi_yoy":"NA","zhvi_base":"NA","zori":"NA","zori_yoy":"NA","zori_base":"NA"}},{"type":"MultiPolygon","arcs":[[[10,11,12]]],"properties":{"postal_code":"18218","realtor_list_price":146050,"realtor_list_price_yoy":-0.0703,"realtor_list_price_base":2.5264,"realtor_active_listings":8,"realtor_active_listings_yoy":0.1429,"realtor_active_listings_base":-0.5622,"realtor_new_listings":2,"realtor_new_listings_yoy":-0.5714,"realtor_new_listings_base":-0.3445,"realtor_days_on_market":50,"realtor_days_on_market_yoy":-0.3705,"realtor_days_on_market_base":-0.4343,"zhvi":95243.572,"zhvi_yoy":0.0075,"zhvi_base":1.2568,"zori":"NA","zori_yoy":"NA","zori_base":"NA"}},{"type":"MultiPolygon","arcs":[[[13,14,15]]],"properties":{"postal_code":"18245","realtor_list_price":"NA","realtor_list_price_yoy":"NA","realtor_list_price_base":"NA","realtor_active_listings":1,"realtor_active_listings_yoy":2,"realtor_active_listings_base":"NA","realtor_new_listings":0,"realtor_new_listings_yoy":-1,"realtor_new_listings_base":"NA","realtor_days_on_market":"NA","realtor_days_on_market_yoy":"NA","realtor_days_on_market_base":"NA","zhvi":"NA","zhvi_yoy":"NA","zhvi_base":"NA","zori":"NA","zori_yoy":"NA","zori_base":"NA"}},{"type":"MultiPolygon","arcs":[[[16]]],"properties":{"postal_code":"17974","realtor_list_price":"NA","realtor_list_price_yoy":"NA","realtor_list_price_base":"NA","realtor_active_listings":1.333,"realtor_active_listings_yoy":3,"realtor_active_listings_base":0.4456,"realtor_new_listings":0,"realtor_new_listings_yoy":"NaN","realtor_new_listings_base":"NA","realtor_days_on_market":"NA","realtor_days_on_market_yoy":"NA","realtor_days_on_market_base":"NA","zhvi":"NA","zhvi_yoy":"NA","zhvi_base":"NA","zori":"NA","zori_yoy":"NA","zori_base":"NA"}},{"type":"MultiPolygon","arcs":[[[17,18,19,20]]],"properties":{"postal_code":"17925","realtor_list_price":"NA","realtor_list_price_yoy":"NA","realtor_list_price_base":"NA","realtor_active_listings":0.667,"realtor_active_listings_yoy":-0.6,"realtor_active_listings_base":-0.8421,"realtor_new_listings":0,"realtor_new_listings_yoy":"NaN","realtor_new_listings_base":-1,"realtor_days_on_market":"NA","realtor_days_on_market_yoy":"NA","realtor_days_on_market_base":"NA","zhvi":"NA","zhvi_yoy":"NA","zhvi_base":"NA","zori":"NA","zori_yoy":"NA","zori_base":"NA"}},{"type":"MultiPolygon","arcs":[[[21]]],"properties":{"postal_code":"17943","realtor_list_price":"NA","realtor_list_price_yoy":"NA","realtor_list_price_base":"NA","realtor_active_listings":0.667,"realtor_active_listings_yoy":0,"realtor_active_listings_base":-0.6881,"realtor_new_listings":0,"realtor_new_listings_yoy":"NaN","realtor_new_listings_base":"NA","realtor_days_on_market":"NA","realtor_days_on_market_yoy":"NA","realtor_days_on_market_base":"NA","zhvi":"NA","zhvi_yoy":"NA","zhvi_base":"NA","zori":"NA","zori_yoy":"NA","zori_base":"NA"}},{"type":"MultiPolygon","arcs":[[[22,23,24,25,26,27,28,29,30,31],[32]]],"properties":{"postal_code":"17972","realtor_list_price":211271.429,"realtor_list_price_yoy":0.0237,"realtor_list_price_base":0.8082,"realtor_active_listings":20,"realtor_active_listings_yoy":0.3333,"realtor_active_listings_base":-0.4848,"realtor_new_listings":9.333,"realtor_new_listings_yoy":0.2727,"realtor_new_listings_base":-0.3886,"realtor_days_on_market":50.286,"realtor_days_on_market_yoy":0.2924,"realtor_days_on_market_base":-0.128,"zhvi":243691.295,"zhvi_yoy":0.063,"zhvi_base":0.9089,"zori":"NA","zori_yoy":"NA","zori_base":"NA"}},{"type":"MultiPolygon","arcs":[[[33,34,35,36,37],[38]]],"properties":{"postal_code":"17980","realtor_list_price":178500,"realtor_list_price_yoy":-0.0513,"realtor_list_price_base":1.4614,"realtor_active_listings":4.333,"realtor_active_listings_yoy":-0.2778,"realtor_active_listings_base":-0.6671,"realtor_new_listings":2.667,"realtor_new_listings_yoy":-0.4286,"realtor_new_listings_base":0.029,"realtor_days_on_market":43.5,"realtor_days_on_market_yoy":0.0647,"realtor_days_on_market_base":-0.4482,"zhvi":155730.719,"zhvi_yoy":0.0246,"zhvi_base":1.02,"zori":"NA","zori_yoy":"NA","zori_base":"NA"}},{"type":"MultiPolygon","arcs":[[[-39]]],"properties":{"postal_code":"17957","realtor_list_price":45000,"realtor_list_price_yoy":-0.7272,"realtor_list_price_base":"NA","realtor_active_listings":1,"realtor_active_listings_yoy":-0.5714,"realtor_active_listings_base":-0.3237,"realtor_new_listings":1.333,"realtor_new_listings_yoy":0,"realtor_new_listings_base":"NA","realtor_days_on_market":10,"realtor_days_on_market_yoy":-0.3333,"realtor_days_on_market_base":"NA","zhvi":"NA","zhvi_yoy":"NA","zhvi_base":"NA","zori":"NA","zori_yoy":"NA","zori_base":"NA"}},{"type":"MultiPolygon","arcs":[[[39]],[[40,41]]],"properties":{"postal_code":"17941","realtor_list_price":189900,"realtor_list_price_yoy":"NA","realtor_list_price_base":"NA","realtor_active_listings":1,"realtor_active_listings_yoy":-0.4,"realtor_active_listings_base":-0.1308,"realtor_new_listings":0.667,"realtor_new_listings_yoy":"Inf","realtor_new_listings_base":"NA","realtor_days_on_market":2,"realtor_days_on_market_yoy":"NA","realtor_days_on_market_base":"NA","zhvi":"NA","zhvi_yoy":"NA","zhvi_base":"NA","zori":"NA","zori_yoy":"NA","zori_base":"NA"}},{"type":"MultiPolygon","arcs":[[[42,43,-30,44,-28]]],"properties":{"postal_code":"17922","realtor_list_price":400091.667,"realtor_list_price_yoy":0.0942,"realtor_list_price_base":1.1397,"realtor_active_listings":17,"realtor_active_listings_yoy":0.5455,"realtor_active_listings_base":-0.3183,"realtor_new_listings":6,"realtor_new_listings_yoy":-0.1818,"realtor_new_listings_base":-0.4181,"realtor_days_on_market":60.889,"realtor_days_on_market_yoy":0.8005,"realtor_days_on_market_base":-0.1523,"zhvi":319410.489,"zhvi_yoy":0.0675,"zhvi_base":0.8561,"zori":"NA","zori_yoy":"NA","zori_base":"NA"}},{"type":"MultiPolygon","arcs":[[[45,46,47,-43,-27]]],"properties":{"postal_code":"17961","realtor_list_price":320537.889,"realtor_list_price_yoy":-0.0377,"realtor_list_price_base":0.4588,"realtor_active_listings":13.667,"realtor_active_listings_yoy":0.4138,"realtor_active_listings_base":-0.5498,"realtor_new_listings":6,"realtor_new_listings_yoy":-0.1,"realtor_new_listings_base":-0.3401,"realtor_days_on_market":39.667,"realtor_days_on_market_yoy":0.7708,"realtor_days_on_market_base":-0.3798,"zhvi":287804.849,"zhvi_yoy":0.0401,"zhvi_base":0.748,"zori":"NA","zori_yoy":"NA","zori_base":"NA"}},{"type":"MultiPolygon","arcs":[[[48,49,50]]],"properties":{"postal_code":"17983","realtor_list_price":222450,"realtor_list_price_yoy":-0.1482,"realtor_list_price_base":"NA","realtor_active_listings":1.333,"realtor_active_listings_yoy":1,"realtor_active_listings_base":-0.716,"realtor_new_listings":0.667,"realtor_new_listings_yoy":0,"realtor_new_listings_base":-0.5797,"realtor_days_on_market":5,"realtor_days_on_market_yoy":-0.9554,"realtor_days_on_market_base":"NA","zhvi":201939.627,"zhvi_yoy":0.0416,"zhvi_base":0.8143,"zori":"NA","zori_yoy":"NA","zori_base":"NA"}},{"type":"MultiPolygon","arcs":[[[51,52,53,-6,54,55]]],"properties":{"postal_code":"17976","realtor_list_price":108555.222,"realtor_list_price_yoy":-0.0159,"realtor_list_price_base":1.7362,"realtor_active_listings":31.333,"realtor_active_listings_yoy":0.2051,"realtor_active_listings_base":0.7358,"realtor_new_listings":12,"realtor_new_listings_yoy":0.0588,"realtor_new_listings_base":1.1632,"realtor_days_on_market":60.111,"realtor_days_on_market_yoy":0.4232,"realtor_days_on_market_base":-0.1273,"zhvi":60302.201,"zhvi_yoy":-0.0636,"zhvi_base":1.5508,"zori":"NA","zori_yoy":"NA","zori_base":"NA"}},{"type":"MultiPolygon","arcs":[[[56]]],"properties":{"postal_code":"17965","realtor_list_price":161125,"realtor_list_price_yoy":0.4687,"realtor_list_price_base":"NA","realtor_active_listings":6.667,"realtor_active_listings_yoy":1.2222,"realtor_active_listings_base":0.0542,"realtor_new_listings":2,"realtor_new_listings_yoy":0,"realtor_new_listings_base":0.1216,"realtor_days_on_market":37.667,"realtor_days_on_market_yoy":0.5479,"realtor_days_on_market_base":"NA","zhvi":134273.209,"zhvi_yoy":-0.0257,"zhvi_base":0.8868,"zori":"NA","zori_yoy":"NA","zori_base":"NA"}},{"type":"MultiPolygon","arcs":[[[-10]],[[-7,-54,57,58]]],"properties":{"postal_code":"17934","realtor_list_price":"NA","realtor_list_price_yoy":"NA","realtor_list_price_base":"NA","realtor_active_listings":2.667,"realtor_active_listings_yoy":-0.2,"realtor_active_listings_base":2.2771,"realtor_new_listings":0,"realtor_new_listings_yoy":"NaN","realtor_new_listings_base":"NA","realtor_days_on_market":"NA","realtor_days_on_market_yoy":"NA","realtor_days_on_market_base":"NA","zhvi":"NA","zhvi_yoy":"NA","zhvi_base":"NA","zori":"NA","zori_yoy":"NA","zori_base":"NA"}},{"type":"MultiPolygon","arcs":[[[59,60,61,62,63,64,65,-52,66,67,68]]],"properties":{"postal_code":"17967","realtor_list_price":"NA","realtor_list_price_yoy":"NA","realtor_list_price_base":"NA","realtor_active_listings":3.667,"realtor_active_listings_yoy":0.5714,"realtor_active_listings_base":-0.5571,"realtor_new_listings":0,"realtor_new_listings_yoy":-1,"realtor_new_listings_base":-1,"realtor_days_on_market":"NA","realtor_days_on_market_yoy":"NA","realtor_days_on_market_base":"NA","zhvi":222945.964,"zhvi_yoy":0.0834,"zhvi_base":0.8694,"zori":"NA","zori_yoy":"NA","zori_base":"NA"}},{"type":"MultiPolygon","arcs":[[[-8,-59,69,70,71,72,73,74]]],"properties":{"postal_code":"17931","realtor_list_price":173905,"realtor_list_price_yoy":-0.0031,"realtor_list_price_base":2.0465,"realtor_active_listings":16.667,"realtor_active_listings_yoy":0.2821,"realtor_active_listings_base":-0.1147,"realtor_new_listings":6.667,"realtor_new_listings_yoy":-0.2857,"realtor_new_listings_base":0.1178,"realtor_days_on_market":33.4,"realtor_days_on_market_yoy":0.0078,"realtor_days_on_market_base":-0.5503,"zhvi":140353.989,"zhvi_yoy":-0.0074,"zhvi_base":0.8732,"zori":"NA","zori_yoy":"NA","zori_base":"NA"}},{"type":"MultiPolygon","arcs":[[[-67,-56,75]]],"properties":{"postal_code":"17946","realtor_list_price":"NA","realtor_list_price_yoy":"NA","realtor_list_price_base":"NA","realtor_active_listings":1.333,"realtor_active_listings_yoy":0.3333,"realtor_active_listings_base":"NA","realtor_new_listings":0,"realtor_new_listings_yoy":"NaN","realtor_new_listings_base":"NA","realtor_days_on_market":"NA","realtor_days_on_market_yoy":"NA","realtor_days_on_market_base":"NA","zhvi":"NA","zhvi_yoy":"NA","zhvi_base":"NA","zori":"NA","zori_yoy":"NA","zori_base":"NA"}},{"type":"MultiPolygon","arcs":[[[-68,-76,-55,-9,-75,76]]],"properties":{"postal_code":"17935","realtor_list_price":96450,"realtor_list_price_yoy":0.7003,"realtor_list_price_base":"NA","realtor_active_listings":4.667,"realtor_active_listings_yoy":-0.3,"realtor_active_listings_base":0.2778,"realtor_new_listings":1.333,"realtor_new_listings_yoy":-0.5,"realtor_new_listings_base":-0.4643,"realtor_days_on_market":81.5,"realtor_days_on_market_yoy":0.3872,"realtor_days_on_market_base":"NA","zhvi":35158.283,"zhvi_yoy":-0.0794,"zhvi_base":0.7681,"zori":"NA","zori_yoy":"NA","zori_base":"NA"}},{"type":"MultiPolygon","arcs":[[[77]],[[-41,78,79,80,-34,81,82,-49,83]],[[84,85]]],"properties":{"postal_code":"17938","realtor_list_price":303700,"realtor_list_price_yoy":0.5185,"realtor_list_price_base":"NA","realtor_active_listings":3,"realtor_active_listings_yoy":0.125,"realtor_active_listings_base":-0.4264,"realtor_new_listings":0.667,"realtor_new_listings_yoy":-0.5,"realtor_new_listings_base":2.4,"realtor_days_on_market":25,"realtor_days_on_market_yoy":-0.0741,"realtor_days_on_market_base":"NA","zhvi":247417.53,"zhvi_yoy":0.0838,"zhvi_base":0.7463,"zori":"NA","zori_yoy":"NA","zori_base":"NA"}},{"type":"MultiPolygon","arcs":[[[-66,86,87,88,-70,-58,-53]]],"properties":{"postal_code":"17948","realtor_list_price":79615,"realtor_list_price_yoy":0.1762,"realtor_list_price_base":2.331,"realtor_active_listings":19.333,"realtor_active_listings_yoy":-0.2267,"realtor_active_listings_base":0.2152,"realtor_new_listings":3.333,"realtor_new_listings_yoy":-0.6429,"realtor_new_listings_base":0.4868,"realtor_days_on_market":81.4,"realtor_days_on_market_yoy":0.1239,"realtor_days_on_market_base":0.6558,"zhvi":47789.866,"zhvi_yoy":-0.0224,"zhvi_base":1.1823,"zori":"NA","zori_yoy":"NA","zori_base":"NA"}},{"type":"MultiPolygon","arcs":[[[89,90,91,-18]]],"properties":{"postal_code":"17952","realtor_list_price":"NA","realtor_list_price_yoy":"NA","realtor_list_price_base":"NA","realtor_active_listings":0.667,"realtor_active_listings_yoy":-0.3333,"realtor_active_listings_base":-0.3119,"realtor_new_listings":0,"realtor_new_listings_yoy":-1,"realtor_new_listings_base":-1,"realtor_days_on_market":"NA","realtor_days_on_market_yoy":"NA","realtor_days_on_market_base":"NA","zhvi":"NA","zhvi_yoy":"NA","zhvi_base":"NA","zori":"NA","zori_yoy":"NA","zori_base":"NA"}},{"type":"MultiPolygon","arcs":[[[92,-20,93,94,95]]],"properties":{"postal_code":"17953","realtor_list_price":"NA","realtor_list_price_yoy":"NA","realtor_list_price_base":"NA","realtor_active_listings":1,"realtor_active_listings_yoy":-0.25,"realtor_active_listings_base":-0.2991,"realtor_new_listings":0,"realtor_new_listings_yoy":-1,"realtor_new_listings_base":"NA","realtor_days_on_market":"NA","realtor_days_on_market_yoy":"NA","realtor_days_on_market_base":"NA","zhvi":"NA","zhvi_yoy":"NA","zhvi_base":"NA","zori":"NA","zori_yoy":"NA","zori_base":"NA"}},{"type":"MultiPolygon","arcs":[[[96]]],"properties":{"postal_code":"17954","realtor_list_price":89058.333,"realtor_list_price_yoy":-0.3332,"realtor_list_price_base":1.0483,"realtor_active_listings":16.333,"realtor_active_listings_yoy":0.8148,"realtor_active_listings_base":-0.4743,"realtor_new_listings":8,"realtor_new_listings_yoy":0.0909,"realtor_new_listings_base":0.3913,"realtor_days_on_market":41.667,"realtor_days_on_market_yoy":0.9671,"realtor_days_on_market_base":-0.4934,"zhvi":99977.163,"zhvi_yoy":0.0153,"zhvi_base":1.3159,"zori":"NA","zori_yoy":"NA","zori_base":"NA"}},{"type":"MultiPolygon","arcs":[[[97,-96,98,99,-72]]],"properties":{"postal_code":"17959","realtor_list_price":151950,"realtor_list_price_yoy":0.8996,"realtor_list_price_base":"NA","realtor_active_listings":6.333,"realtor_active_listings_yoy":0.4615,"realtor_active_listings_base":1.0243,"realtor_new_listings":0.667,"realtor_new_listings_yoy":0,"realtor_new_listings_base":-0.0043,"realtor_days_on_market":76,"realtor_days_on_market_yoy":3,"realtor_days_on_market_base":"NA","zhvi":97283.738,"zhvi_yoy":-0.0231,"zhvi_base":1.0744,"zori":"NA","zori_yoy":"NA","zori_base":"NA"}},{"type":"MultiPolygon","arcs":[[[-24,100]]],"properties":{"postal_code":"17929","realtor_list_price":207883.333,"realtor_list_price_yoy":-0.0858,"realtor_list_price_base":"NA","realtor_active_listings":1.333,"realtor_active_listings_yoy":-0.5,"realtor_active_listings_base":-0.8681,"realtor_new_listings":2,"realtor_new_listings_yoy":2,"realtor_new_listings_base":-0.1878,"realtor_days_on_market":23.333,"realtor_days_on_market_yoy":-0.7935,"realtor_days_on_market_base":"NA","zhvi":193234.592,"zhvi_yoy":0.0681,"zhvi_base":0.9006,"zori":"NA","zori_yoy":"NA","zori_base":"NA"}},{"type":"MultiPolygon","arcs":[[[-95,101,102,-99]]],"properties":{"postal_code":"17930","realtor_list_price":119900,"realtor_list_price_yoy":"NA","realtor_list_price_base":"NA","realtor_active_listings":1.667,"realtor_active_listings_yoy":1.5,"realtor_active_listings_base":-0.3571,"realtor_new_listings":1.333,"realtor_new_listings_yoy":"Inf","realtor_new_listings_base":"NA","realtor_days_on_market":3,"realtor_days_on_market_yoy":"NA","realtor_days_on_market_base":"NA","zhvi":"NA","zhvi_yoy":"NA","zhvi_base":"NA","zori":"NA","zori_yoy":"NA","zori_base":"NA"}},{"type":"MultiPolygon","arcs":[[[103,104,-32,105,-37]]],"properties":{"postal_code":"17963","realtor_list_price":262807,"realtor_list_price_yoy":0.1718,"realtor_list_price_base":0.6591,"realtor_active_listings":11.667,"realtor_active_listings_yoy":0.6667,"realtor_active_listings_base":-0.5696,"realtor_new_listings":10.667,"realtor_new_listings_yoy":0.3333,"realtor_new_listings_base":0.4319,"realtor_days_on_market":44.75,"realtor_days_on_market_yoy":0.6887,"realtor_days_on_market_base":-0.4795,"zhvi":260189.681,"zhvi_yoy":0.0786,"zhvi_base":0.816,"zori":"NA","zori_yoy":"NA","zori_base":"NA"}},{"type":"MultiPolygon","arcs":[[[-85,106,-50,-83,107],[-78]]],"properties":{"postal_code":"17978","realtor_list_price":"NA","realtor_list_price_yoy":"NA","realtor_list_price_base":"NA","realtor_active_listings":1,"realtor_active_listings_yoy":0,"realtor_active_listings_base":"NA","realtor_new_listings":0,"realtor_new_listings_yoy":-1,"realtor_new_listings_base":"NA","realtor_days_on_market":"NA","realtor_days_on_market_yoy":"NA","realtor_days_on_market_base":"NA","zhvi":229603.108,"zhvi_yoy":0.0833,"zhvi_base":0.6466,"zori":"NA","zori_yoy":"NA","zori_base":"NA"}},{"type":"MultiPolygon","arcs":[[[-81,108,-4,109,-104,-36,-35]]],"properties":{"postal_code":"17981","realtor_list_price":92425,"realtor_list_price_yoy":-0.126,"realtor_list_price_base":"NA","realtor_active_listings":5,"realtor_active_listings_yoy":0.0714,"realtor_active_listings_base":-0.3401,"realtor_new_listings":1.333,"realtor_new_listings_yoy":-0.3333,"realtor_new_listings_base":-0.4461,"realtor_days_on_market":39,"realtor_days_on_market_yoy":-0.6953,"realtor_days_on_market_base":"NA","zhvi":112216.583,"zhvi_yoy":-0.0165,"zhvi_base":1.0567,"zori":"NA","zori_yoy":"NA","zori_base":"NA"}},{"type":"MultiPolygon","arcs":[[[110,-11,111]]],"properties":{"postal_code":"18240","realtor_list_price":177263.636,"realtor_list_price_yoy":0.0947,"realtor_list_price_base":1.1366,"realtor_active_listings":11.667,"realtor_active_listings_yoy":1.3333,"realtor_active_listings_base":-0.5193,"realtor_new_listings":7.333,"realtor_new_listings_yoy":1.75,"realtor_new_listings_base":0.2826,"realtor_days_on_market":33.545,"realtor_days_on_market_yoy":-0.6344,"realtor_days_on_market_base":-0.5198,"zhvi":201766.996,"zhvi_yoy":-0.0153,"zhvi_base":0.7791,"zori":"NA","zori_yoy":"NA","zori_base":"NA"}},{"type":"MultiPolygon","arcs":[[[112,113,-63]]],"properties":{"postal_code":"18248","realtor_list_price":207500,"realtor_list_price_yoy":"NA","realtor_list_price_base":"NA","realtor_active_listings":2,"realtor_active_listings_yoy":1,"realtor_active_listings_base":-0.5386,"realtor_new_listings":0.667,"realtor_new_listings_yoy":"Inf","realtor_new_listings_base":0.8889,"realtor_days_on_market":3,"realtor_days_on_market_yoy":"NA","realtor_days_on_market_base":"NA","zhvi":"NA","zhvi_yoy":"NA","zhvi_base":"NA","zori":"NA","zori_yoy":"NA","zori_base":"NA"}},{"type":"MultiPolygon","arcs":[[[114,-73,-100,-103,115,-25,-101,-23,-105,-110,116,-2,-109,-80],[-97],[117],[-17],[-1],[-57]]],"properties":{"postal_code":"17901","realtor_list_price":167546.154,"realtor_list_price_yoy":0.0428,"realtor_list_price_base":1.571,"realtor_active_listings":94.333,"realtor_active_listings_yoy":0.4588,"realtor_active_listings_base":-0.0871,"realtor_new_listings":43.333,"realtor_new_listings_yoy":0.5854,"realtor_new_listings_base":0.4873,"realtor_days_on_market":52.554,"realtor_days_on_market_yoy":0.0008,"realtor_days_on_market_base":-0.2807,"zhvi":155866.518,"zhvi_yoy":0.0411,"zhvi_base":0.9041,"zori":1188.889,"zori_yoy":0.0511,"zori_base":"NA"}},{"type":"MultiPolygon","arcs":[[[-113,-62,118]]],"properties":{"postal_code":"18242","realtor_list_price":149900,"realtor_list_price_yoy":"NA","realtor_list_price_base":"NA","realtor_active_listings":1,"realtor_active_listings_yoy":0,"realtor_active_listings_base":-0.5989,"realtor_new_listings":0.667,"realtor_new_listings_yoy":"Inf","realtor_new_listings_base":"NA","realtor_days_on_market":7,"realtor_days_on_market_yoy":"NA","realtor_days_on_market_base":"NA","zhvi":"NA","zhvi_yoy":"NA","zhvi_base":"NA","zori":"NA","zori_yoy":"NA","zori_base":"NA"}},{"type":"MultiPolygon","arcs":[[[-102,-94,-19,-92,119,120,-15,121,-112,-13,122,123,-46,-26,-116]]],"properties":{"postal_code":"18252","realtor_list_price":137357.955,"realtor_list_price_yoy":-0.3658,"realtor_list_price_base":1.3294,"realtor_active_listings":31.667,"realtor_active_listings_yoy":0.2667,"realtor_active_listings_base":-0.4413,"realtor_new_listings":14.667,"realtor_new_listings_yoy":0.2941,"realtor_new_listings_base":0.1029,"realtor_days_on_market":42.682,"realtor_days_on_market_yoy":0.0425,"realtor_days_on_market_base":-0.3916,"zhvi":161831.592,"zhvi_yoy":0.0439,"zhvi_base":1.0996,"zori":1080,"zori_yoy":"NA","zori_base":"NA"}},{"type":"MultiPolygon","arcs":[[[124,-47,-124]]],"properties":{"postal_code":"17960","realtor_list_price":311643.75,"realtor_list_price_yoy":-0.3005,"realtor_list_price_base":"NA","realtor_active_listings":5,"realtor_active_listings_yoy":0.25,"realtor_active_listings_base":-0.6474,"realtor_new_listings":2.667,"realtor_new_listings_yoy":0.3333,"realtor_new_listings_base":-0.5378,"realtor_days_on_market":30.75,"realtor_days_on_market_yoy":-0.4788,"realtor_days_on_market_base":"NA","zhvi":317543.793,"zhvi_yoy":0.0446,"zhvi_base":0.7519,"zori":"NA","zori_yoy":"NA","zori_base":"NA"}},{"type":"MultiPolygon","arcs":[[[-89,125,-87,-65,126,-16,-121,127,-90,-21,-93,-98,-71]]],"properties":{"postal_code":"18214","realtor_list_price":207475,"realtor_list_price_yoy":-0.0236,"realtor_list_price_base":"NA","realtor_active_listings":2.667,"realtor_active_listings_yoy":-0.3846,"realtor_active_listings_base":-0.6911,"realtor_new_listings":0.667,"realtor_new_listings_yoy":-0.5,"realtor_new_listings_base":0.3135,"realtor_days_on_market":22,"realtor_days_on_market_yoy":-0.3125,"realtor_days_on_market_base":"NA","zhvi":242082.034,"zhvi_yoy":0.0389,"zhvi_base":0.708,"zori":"NA","zori_yoy":"NA","zori_base":"NA"}},{"type":"MultiPolygon","arcs":[[[128,129]]],"properties":{"postal_code":"18241","realtor_list_price":"NA","realtor_list_price_yoy":"NA","realtor_list_price_base":"NA","realtor_active_listings":1.333,"realtor_active_listings_yoy":0.3333,"realtor_active_listings_base":-0.3492,"realtor_new_listings":0,"realtor_new_listings_yoy":-1,"realtor_new_listings_base":"NA","realtor_days_on_market":"NA","realtor_days_on_market_yoy":"NA","realtor_days_on_market_base":"NA","zhvi":154230.118,"zhvi_yoy":0.068,"zhvi_base":0.7242,"zori":"NA","zori_yoy":"NA","zori_base":"NA"}},{"type":"MultiPolygon","arcs":[[[-129,130,-60,131]]],"properties":{"postal_code":"17985","realtor_list_price":"NA","realtor_list_price_yoy":"NA","realtor_list_price_base":"NA","realtor_active_listings":2.333,"realtor_active_listings_yoy":0,"realtor_active_listings_base":-0.8055,"realtor_new_listings":0,"realtor_new_listings_yoy":"NaN","realtor_new_listings_base":-1,"realtor_days_on_market":"NA","realtor_days_on_market_yoy":"NA","realtor_days_on_market_base":"NA","zhvi":232442.838,"zhvi_yoy":0.0731,"zhvi_base":0.7033,"zori":"NA","zori_yoy":"NA","zori_base":"NA"}}]}},"arcs":[[[556631,531634],[538,432],[-1330,6014],[1139,3909],[-2690,7473],[15928,13453],[4859,-13498],[3157,-8777],[2810,-7818],[-2499,-2002],[-761,-889],[-1511,-1147],[-3142,-2518],[-2716,-2204],[1013,-3072],[4003,-7970],[-5041,-5138],[-77,230],[409,9771],[-1084,5555],[-1894,8069],[-905,2668],[-3456,-1633],[-2423,-1619],[1020,-2834],[-8135,-1005],[2788,4550]],[[439152,472312],[5803,-16201],[4191,-11017],[1076,224],[2225,-4304],[3419,-1087],[3056,-2721],[-442,-2583],[-4468,-2295],[754,-1985]],[[454766,430343],[9127,-23918]],[[463893,406425],[-7826,-5812],[-3330,-733],[-6758,-2196],[-7104,-4468],[-2349,-1995],[2267,4728],[2146,2839],[-803,13529],[-2120,2438],[-146,1930],[-6200,-4865],[-653,501],[-1098,4790],[-3009,5325],[735,7958],[-148,5790],[3940,3977],[6802,4720],[308,1975],[-2763,1947],[-418,1239],[783,6980],[-285,4895],[-966,2223],[-274,3030],[1431,3117],[3097,2025]],[[409997,584049],[2180,-1340],[1977,7474],[805,1275],[1914,7475],[2506,3011],[-259,5834],[-229,1062],[271,1108],[1576,742],[1285,-554],[662,-1305],[1000,340],[-2338,-3798],[311,-57],[5636,-1011],[4230,1863],[4300,4290],[704,-4769],[1091,-1974],[-7023,-6206],[-261,-2793],[-3066,-5791],[-5543,915],[-2921,-2493],[-7018,-8136],[-1790,4838]],[[508785,681169],[27783,9782],[-135,1524],[8061,2767]],[[544494,695242],[-3629,-5487],[-1725,-1857],[966,-651],[-6671,-1998]],[[533435,685249],[-5136,-1277],[-6107,-3243],[-656,413],[-3769,-3880],[-7903,-1629]],[[509864,675633],[-364,1393],[-715,4143]],[[531751,685386],[6231,1736],[-64,983],[-178,1064],[-1186,-359],[-184,945],[-679,-871],[-1795,-371],[-724,-314],[113,-1344],[-1613,-468],[79,-1001]],[[840889,755594],[413,-710]],[[841302,754884],[5330,-9159],[385,-660],[1894,-3247],[450,-773],[3634,-6251],[1908,-3279]],[[854903,731515],[-12992,-9459],[-28065,-20791],[-493,7392],[-300,4521],[-52,777],[-883,13238],[21549,21231],[7222,7170]],[[719430,818866],[2807,-1456],[959,-2931],[58,-3829],[1299,-2618],[753,-90],[7861,4060],[4464,1159],[2055,1433],[4223,-680]],[[743909,813914],[2870,-3722],[1457,-3930],[-3358,-2537],[-12783,-1115],[-4200,-1545],[-4455,-3262],[802,-2221],[3671,2034],[2485,-4716],[-1287,-1924],[5951,-11123],[-6634,-17075],[-9947,4225],[-6028,8360],[-521,335],[-1791,3327],[-970,1513]],[[709171,780538],[-2741,1817],[-6162,-1395],[-3718,-1992],[1081,3157],[2601,4215],[5021,5677],[3005,5856],[4572,15876],[2512,681],[4088,4436]],[[520333,490250],[1222,870],[-1139,2986],[2276,1880],[-176,464],[3110,2126],[699,-3656],[465,-2476],[-735,-1484],[-2601,-1365],[-3738,-519],[617,1174]],[[671492,635076],[810,-1791],[2667,-2888],[725,-2446],[1882,53],[2881,-2529],[2602,-932],[1577,-4435],[2998,-5007],[51,-5210],[1225,-2731],[370,-3766],[1282,-5502],[1304,2200],[4984,5336],[3253,-396],[1417,-1035]],[[701520,603997],[-1826,-2122],[-16360,-13095],[-3062,-3277]],[[680272,585503],[-8898,49979]],[[671374,635482],[118,-406]],[[382434,622653],[7624,1425],[-1814,-5336],[927,-5136],[-6275,-1312],[-315,8003],[-1218,1458],[1071,898]],[[513354,338255],[550,-4122],[5869,1673],[8558,2459],[6931,4209],[-123,1060],[4163,4314],[7698,5293],[908,-2427],[11426,6916],[321,69]],[[559655,357699],[355,-4762],[2199,253],[12307,5365],[-817,3957],[1362,717],[-337,1717],[-1423,-775],[548,2394],[323,-1433],[3362,6971],[54,1190],[-374,1615],[238,7243]],[[577452,382151],[994,6926],[518,3985],[1067,184],[169,714],[1465,-55],[1958,1726],[9259,4933],[1180,-5314],[869,916],[-998,4993],[592,2432],[3157,4094],[1139,3700],[-33,1809],[4337,3348],[996,4512],[2145,-1956],[3495,1100],[2321,-2042],[4299,232],[2774,-1323],[367,2419],[306,-523],[4816,4289],[-746,7873],[222,803],[-1715,3072],[-5256,5205],[-4705,1895],[-3294,-3050],[-746,1614],[-5437,-4874],[1345,-3502],[-4295,-2778],[-1984,5612],[10193,24808],[-2680,11967],[1887,3975],[5307,560],[2707,3802],[3740,897],[4234,4677],[3859,535]],[[627280,486341],[3040,-12357]],[[630320,473984],[8159,-37582],[2649,-11134],[-235,-343],[-1232,-1791],[-1010,2092],[-4177,5161],[-3496,-2364],[3538,-18814],[1709,-9068],[-850,-1246],[-7266,-3220],[9894,-2640],[52,-1182],[824,-5],[1171,-4534],[-7086,-3282],[-2127,-10393],[2169,535],[-1091,-3060],[2989,-4600],[9783,1874]],[[644687,368388],[-759,-2911],[685,-7754],[-3196,-302],[-307,-4554],[2388,-470],[241,-4404],[1035,-634],[-2732,501],[-3823,-1684],[-1246,-1314],[-2995,4536],[-1560,2401],[714,-2938],[-8,-4092],[-969,-972],[-5606,1751],[-6317,-6400],[-2578,753],[-2829,-3707],[-3187,-561],[-3522,-2737],[-2467,1465],[-3791,-3102],[-1990,145],[-95,-1654],[429,-1635],[3537,-4379],[-3696,-8179],[-635,1309],[-5274,-3239],[980,-2575],[-1707,-635],[-1371,2795],[-3567,-2380],[-5974,276],[-6239,-1909],[-3763,-3102],[-14,-3321],[-2588,-3266],[-2504,-1073],[-563,-3393],[-3101,-3559],[-4741,-318],[-1467,-1768],[968,-2118],[-2437,-2072],[1073,-8245],[1875,-5486],[-301,-1368],[-2403,-1137],[220,-3524],[-2659,-1439],[398,-2268],[-224,-5167]],[[554025,256575],[-273,-1121],[-2186,-5667],[-306,-1980],[85,-9823],[144,-7814],[1981,10398],[4273,2248],[1452,2481],[7127,3827]],[[566322,249124],[1792,809],[-696,6741],[3886,386],[6717,-1475],[1795,2059],[2480,234],[18980,-51856]],[[601276,206022],[-4572,-8574],[-3329,-877],[-5146,-5688],[-2572,-3907],[-11903,1008],[-3731,-649],[-3942,-2693],[-4478,-4674],[-6663,-1404],[-2555,-504],[-3996,-1690],[-3656,152],[-5032,-1437],[-11268,-8531],[-3075,-4077],[-5568,-2940],[-2502,-1302],[-3190,-470],[-9598,-4817],[-6723,-704],[-8804,1692],[-9576,-2757],[-8304,-1378],[-4850,-274],[-6290,-1163],[-3523,1168],[-5589,1154],[-2672,61],[-7660,-3331],[-3519,676],[-4070,2655]],[[432920,150747],[-1154,4221],[2004,2361],[5382,4789],[5593,2652],[491,1003],[-1005,13092],[-20,4660],[5091,3567],[7938,1979],[2214,-358],[472,6077],[-827,2203],[2983,-1172],[1973,1515],[-362,1612],[3684,1663],[-235,4284],[-1055,538],[-3435,-2769],[-2824,3344],[-4894,1131],[-1447,-2844],[-4019,-854],[-4198,3361],[4960,645],[692,4503],[918,3372],[-76,2089],[-3638,1923],[356,5130],[-1657,2120],[-1033,4495],[1683,419],[3566,3536],[3183,-542],[-545,8204],[1832,3484],[2694,2878],[2077,-6870],[1684,1855],[736,5759],[1146,-763],[7833,-1093],[961,242],[1595,-3585],[2109,-1862],[5388,-6638],[1977,-1263],[1604,2877],[402,2600],[2078,2883],[3590,3235],[1997,3940],[-4536,15702],[4593,4261],[3424,1465],[5258,4204],[1468,-3058],[1157,1123],[1612,-5159],[1898,4236],[4134,2472],[-1966,2727],[1074,3431],[-4578,-1891],[-914,1908],[-1243,6022],[1912,1096],[270,1079],[-1663,14197],[-2078,-1456],[-1526,7964],[-3679,-1903],[-233,1865],[-3387,-491],[-4026,1576],[-1912,2269],[2075,620],[5446,-2240],[1787,1515],[3548,708],[1407,1743],[1809,103],[2696,2150],[2225,373],[696,3963],[33,5642],[-2018,2389],[814,2571],[2561,4146],[1834,558]],[[514935,314569],[721,297],[173,-1052],[3110,-1846],[2972,-3806],[114,439],[-2334,7757],[-23,-13],[-555,1983],[-450,5875],[-1170,4177],[-4112,-13849],[1554,38]],[[164424,312550],[56260,22163]],[[220684,334713],[4689,-36173],[591,-3213],[2613,744],[-649,4197],[14570,4211],[13840,4107],[2406,2158],[242,-1123]],[[258986,309621],[1499,1449],[4714,2479],[18724,12852],[7289,2160],[10038,3638],[1727,-1724]],[[302977,330475],[-871,-4314],[-1253,-2428],[-40970,-55985],[-24427,-22607],[-918,-849],[-8112,-7511],[9354,-11344]],[[235780,225437],[-137171,-153084],[-4853,-5551],[-3829,-2632],[-6125,-6318],[-2648,-3140],[-7830,-5995],[-4367,-4474],[-5757,-4920],[-3561,-3520],[-5259,-3451],[-8638,-6419],[-1529,-508],[-2790,-2786],[-11309,-8366],[-18544,-14273],[-11570,43533],[2320,698],[4862,4311],[11287,7848],[574,1838],[2244,2256],[13502,9791],[5945,3551],[5548,5624],[2375,1138],[7453,4988],[4981,4430],[6127,4703],[8873,9127],[11947,10986],[4301,4526],[2427,3252],[5724,5542],[1829,5150],[2258,2072],[5211,3644],[1471,1746],[5692,4860],[4118,7239],[2578,1582],[1217,4600],[3719,5229],[2676,1203],[1796,2436],[1749,687],[2991,3446],[1887,1201],[1363,2695],[13210,18258],[18494,27393],[9720,11055],[3131,3216],[5353,4670],[4086,2267],[14548,14477],[-6570,8010],[-7303,8725],[-31290,38547]],[[258986,309621],[-1517,-1553],[-5875,-4230],[756,-3254],[-5792,-2564],[403,-2672],[-2992,-1381],[95,-678],[1017,-3344],[7340,3751],[1053,-2849],[5275,4275],[2689,3130],[-2452,11369]],[[113593,559355],[715,1566],[3662,2512],[5805,2504],[3161,569],[2358,1378],[49554,-3326],[8831,-901],[17908,-3191],[3062,-2308],[2146,-1321],[-11429,-1856],[149,-525],[6496,-2223],[1597,-2354],[400,-8352],[-3415,-672],[-13033,-817],[-29510,-616],[290,5264],[-1508,5157],[324,1564],[-4190,-2287],[-2409,1229],[346,-8086],[-2516,-3372],[-25026,-398],[58,2857],[3108,1509],[1014,2953],[2348,4162],[-304,4459],[-4748,198],[-1161,-533],[-3931,522],[-1383,-413],[-4632,493],[-1546,-881],[-3033,531],[442,5005]],[[252385,452112],[-851,-517],[-2327,-813],[-13988,-4822],[-14402,-6366],[-16053,-6166],[-43385,-14018],[-22467,-3641]],[[138912,415769],[-27011,-4371],[-22869,-2510],[-1807,-1049],[-356,459],[-10942,13013],[1036,9576],[527,545],[2760,4015],[405,9603],[2957,7645],[-661,7252],[1683,4299],[1567,1938],[13854,9618],[404,1315],[5012,2447],[2714,4174],[2381,2249],[789,-2529],[1888,-1334],[-2717,-3734],[-1776,-1226],[540,-2599],[2839,-4579],[715,-2666],[-2443,-1271],[-2558,-2564],[2371,-7009],[373,-7041],[31316,22313],[-909,2044],[-674,10362],[-4002,9287],[-78,5312],[-1304,3174],[-3487,4168],[-759,5260],[872,3744],[9620,1237],[5866,3480],[493,1599],[6663,445],[5542,-1022],[1127,5015],[3712,-1416],[4759,25],[3989,1726],[4814,350],[1891,-5801],[3485,-2030],[1766,-9379],[-2641,-4352],[-547,-4404],[8153,4855],[-165,-3300],[-3057,-3640],[-3327,-1953],[3829,952],[3878,3680],[5766,-2339],[3892,3125],[3811,1869],[3676,-10105],[889,-20255],[-3174,-605],[-233,-2394],[1326,590],[3180,2472],[9189,1515],[3,-883],[229,-7152],[564,3070],[1326,2236],[1727,1147],[2969,-491],[1443,3249],[2005,1338],[1651,2569],[868,-1422],[2698,722],[1888,5515],[2595,1733],[1610,512],[1727,-1098],[4120,-5907],[3072,1022],[1089,-4826],[-647,-5907],[-781,-2067],[-2357,-3224],[-4067,1037],[-5454,-1905],[-2472,-1798],[844,-1930],[-1131,-5075],[624,-1060],[10669,-423],[4452,-957],[1387,-952]],[[644687,368388],[3430,13522],[6633,938],[196,-5363],[2745,-67],[4162,2859],[-265,3005],[4745,230],[1222,-3224],[1242,280],[2489,-2584],[214,4126],[4186,-1580],[-128,4623],[5253,-3980],[3061,-2757],[5397,-9051],[552,-1776],[431,-9011],[560,-2731],[868,-2228],[1194,-2126],[631,-1241],[1,-3635],[1880,-2662],[-103,-756],[432,-144],[-633,-2499],[727,-1193],[1735,1541],[1697,-3578],[2725,4471],[2036,1452],[6037,-3005],[4726,-3097],[3544,-3465],[2161,-4109],[-2026,-371],[-2855,-4044],[475,-1311],[285,-6906],[958,-3055],[3603,-2367],[4278,-1055],[442,-3176],[-2531,-11093],[-206,-2438],[1030,-7494]],[[723923,286263],[-10824,-1998],[575,-7129],[-955,1467],[-2900,1631],[-2385,-301],[-2161,-2125],[25,-5301],[-2169,-6375],[-1406,-2613],[-3160,-2059],[-1787,1509],[-1522,3382],[-342,5658],[-7035,93],[-11190,-21529],[-2493,-4355],[-18054,-5484],[-4282,-1683],[-2957,-215],[-5210,-2830],[-3260,-2776],[-2518,-1348],[-4207,-2165],[-3919,-3460],[-3213,-586],[-5449,-3422],[-1089,-2839],[-1660,-1639],[-6411,-3149],[-10412,-8079],[-277,-521]],[[566322,249124],[-2977,798],[-3582,6150],[-856,-555],[-1736,4169],[-1992,-1400],[-1154,-1711]],[[630320,473984],[54162,20580]],[[684482,494564],[2145,-9839],[-614,-2004],[-1884,-2300],[299,-6045],[-1939,-4972],[474,-398],[4554,1130],[1814,2191],[1892,1385],[488,-1543],[8518,1640],[1686,-6898],[2638,-7698],[2019,-1091],[1855,-2575],[-4492,-1147],[1306,-14148],[4998,3951],[3521,3763],[908,3667],[2519,3149],[8468,-9641],[813,-1615],[-1115,-8246],[-2046,118],[150,-1997],[-5197,1426],[1968,-3795],[-671,-8562],[2344,542],[1152,-1071],[4129,42],[1152,-6754],[5359,2122],[96,-7544],[2939,-1332],[-2547,-6859],[284,-3562],[1273,-5778],[1021,1107],[6674,2689],[2061,2944],[422,341],[108,-3477],[-503,-1701],[-7976,-6143],[1490,-6811],[16845,-2825]],[[755880,378400],[-1540,-10586],[-15381,-99451],[-3243,-1262],[-1157,-1974],[-1716,22778],[-8920,-1642]],[[185635,390297],[1870,1665],[644,3793],[1123,1035],[-626,8307],[812,344],[1726,-3970],[2927,-2474],[1372,627],[-597,3657],[465,2446],[2773,-1192],[2170,-2131],[4687,2645],[637,3801],[992,902],[1948,-4086],[756,-3991],[1671,-200],[2156,-2778],[5476,103],[1998,1589],[-242,6038],[3169,1757],[1892,-200],[2537,2194],[577,3479],[4298,-3972],[5547,1262],[1809,-1433],[1131,1138],[175,-1515],[-1786,-2449],[398,-2139],[4719,637],[155,-2666],[1962,232],[190,-2141],[5344,1867],[1696,898],[2198,-11652],[-762,-1519],[-2926,-2036],[-825,879],[-1380,-1440],[-4666,-729],[-1379,732],[-3029,-198],[-3113,-2850],[-4673,786],[-3043,-2998],[-1719,240],[-1753,1652],[-2378,-554],[-2884,544],[-3091,-1054],[-1519,2592],[-1916,-28],[-225,-1938],[-6592,-8940],[-1845,2807]],[[206666,377672],[-936,1632],[-1121,242]],[[204609,379546],[-7850,634],[91,3473],[1516,3665],[-2318,-2400],[-150,2994],[-3204,-310],[-1241,1303],[-158,2716],[-1330,202],[-2573,-2853],[-1757,1327]],[[505745,730516],[14485,10447],[17240,12262],[21960,15613],[18656,13272]],[[578086,782110],[4816,-32255],[10327,3109],[1584,-4601],[-2461,-3451],[-4198,-1749],[-3089,-3246],[264,-1806],[-3008,-4107],[-5917,-5102],[414,-4217],[-14413,-5036],[-3249,-1125],[1158,-7323],[-886,-4377],[-1259,-2362],[696,-4261]],[[558865,700201],[-10648,-3678],[-3723,-1281]],[[508785,681169],[-9528,14895]],[[499257,696064],[6732,3804],[2023,2004],[5287,2461],[1067,-2491],[1204,1343],[3398,-116],[3730,2514],[-584,2908],[4236,2461],[1732,-181],[4030,1732],[2529,2698],[4225,1873],[3830,588],[1208,6077],[-236,1465],[-2188,-801],[-179,1142],[-849,536],[-1466,-827],[-1624,420],[3715,3683],[1825,572],[-226,1395],[-1019,-249],[-24308,-9397],[-1307,-4084],[-4045,-1146],[-2074,1043],[-1797,4887],[1960,875],[2949,4838],[-3045,-2978],[-3475,85],[-770,5318]],[[578609,474989],[4982,13263],[-3098,4257],[-1175,2712],[4667,4700],[-249,2288],[2443,1654],[-1986,4187],[1625,2405],[1513,-2609],[7352,9321],[-1106,3388],[8275,1768],[1647,-6180],[-1706,-951],[-2090,-12286],[1471,-7400],[325,-1526],[-5308,-4419],[-3848,-4780],[-3480,-2320],[-7008,-6195],[-1598,145],[-1648,-1422]],[[558865,700201],[292,-1914],[1892,-12429],[-18,-4]],[[561031,685854],[-22320,-7869],[261,-1606],[-11487,-3751],[2125,2858],[4751,3995],[-926,5768]],[[481403,858505],[26217,-11253],[6820,1121],[172,-2934],[-2824,-6720],[-3629,-7325],[-2665,-6575],[-464,-3352],[2093,-7557],[5244,2935],[1711,1825],[1180,-1028],[2776,-279],[3976,7026],[2170,984],[723,2801],[-1420,4533],[1612,2995],[2308,1158],[1527,-524],[1002,4695],[-645,2251],[-2751,4273],[244,2851],[24754,4072],[-334,-4518],[1722,-3473],[1383,-5058],[-701,-2927],[2861,-8223],[1689,-1024],[2450,-4834],[-340,-7127],[634,-1115],[1830,892],[-826,2887],[244,2935],[1991,6154],[2112,3110],[2710,6472],[-952,3049],[-3766,5662],[-958,5431],[0,3882],[11622,2147],[24713,31454],[1947,10],[1940,-883]],[[603505,889381],[7260,-3125],[6634,1256],[3506,1319],[2452,2460],[4203,101]],[[627560,891392],[247,-1872],[2945,588],[-262,-2962],[3997,-4824]],[[634487,882322],[-749,-2350],[-4783,-1498],[604,-4071],[2456,153],[1708,-1371],[1253,-3145],[2612,915],[-165,-2537],[-1573,-1006],[-4135,774],[-1456,-1741],[1880,-2562],[4511,535],[2846,2276],[-408,4567],[1691,1544],[3314,259],[2579,-1776],[1593,-2072],[3500,110],[2371,-1018],[221,-2392],[-4162,-3098],[-562,-1411],[207,-6662],[-532,-904],[-835,-6031],[94,-4019],[2180,-1192],[2449,398],[3235,-771],[662,-2685],[1343,617]],[[658436,840158],[3180,-4680],[3382,-8020],[2780,-1621],[-374,-3279],[-11032,-12454]],[[656372,810104],[-8935,-9947]],[[647437,800157],[-5639,14277],[-5782,-3531],[-4346,-1166],[-2153,-1420],[-6174,-196],[-5009,-2417],[-1926,328],[-3717,-663],[-3927,-2811],[-1671,130],[-27745,-19659],[-1262,-919]],[[505745,730516],[-6770,-4789]],[[498975,725727],[-12873,-9106],[-30807,-21786]],[[455295,694835],[7761,55916],[13935,99716],[4412,8038]],[[561031,685854],[2839,120],[2361,-14056],[6696,3066],[-1509,7077],[11433,4128],[2302,-11449],[-6558,-7277],[-3793,-1681],[703,-3423],[1207,-5930]],[[576712,656429],[-2444,-1331],[-16374,-7363],[-257,1177],[-15832,-7626],[-1240,-596],[12630,1549],[2620,-9890]],[[555815,632349],[-6704,-264],[-5712,-223],[-3958,-156]],[[539441,631706],[-3289,5313],[-3821,-144],[-2260,2160],[-1069,-151],[-12996,-7528],[-1585,6129],[-2493,-310]],[[511928,637175],[2107,1926],[-1060,4158],[-1940,7352],[-1034,4046],[-1095,162],[-2707,1008]],[[506199,655827],[-1469,689],[4202,2261],[-1631,6295],[9251,3316],[-390,567],[-6298,6678]],[[499257,696064],[-3080,4790],[-1639,7266],[1032,1313],[-885,4625],[-174,6337],[6501,4154],[-2037,1178]],[[506199,655827],[-9446,-2466],[-581,-2668],[-2858,-3036],[-5196,-363],[-35995,17173],[-534,4174],[-206,1577],[3379,-553],[4322,1452],[-5595,1185],[-320,659],[-2040,-822],[-2252,18140],[6418,4556]],[[153500,360641],[7782,2697],[-23,-141],[734,-5607],[-6523,-3248],[-1970,6299]],[[252385,452112],[36029,21534],[10623,15679],[10722,20432],[6587,-15141],[1213,3298],[2493,4194],[3200,-7371],[-1431,-2317],[721,-1999],[-989,-1299],[2628,-5974],[3470,814],[1734,9542],[2942,470],[298,-3124],[1360,30],[1006,3334],[312,8130],[868,3563],[-277,3041],[2706,521],[4962,5904],[2110,1880],[2241,-1985],[1943,584],[4804,5757],[-1499,4409],[2055,6802],[1902,147],[2331,-3179],[1326,-565],[882,3960],[1006,61],[1951,-2978],[2824,322],[3020,3458],[3742,938],[2707,1878],[4371,-668],[426,-5821],[2140,-1483],[3297,607],[8108,4570],[230,1088],[-2776,4474],[5438,2963],[3318,493],[969,5091],[3028,1050]],[[405456,549226],[-3675,-7176],[-55023,-80719],[24926,-26717]],[[371684,434614],[-14061,-8606],[-31990,-39872],[-15229,-7214],[948,-8456],[-47429,-18705],[-43239,-17048]],[[164424,312550],[-12782,15971]],[[151642,328521],[-1717,12355],[25961,6816],[-593,4145],[10358,1538],[-787,10621],[8499,1437],[-170,1551],[13795,1412],[-322,9276]],[[185635,390297],[-1430,4049],[-5077,8756],[-585,2113],[-2614,-432],[-3097,1408],[-9381,-3317],[-1671,-2670],[-1573,-215],[-3515,-2973],[-2873,1726],[-8440,-156],[-5281,-2228],[-1730,-2133],[-44,9001],[1618,329],[-1030,12214]],[[139202,373235],[-249,-378],[227,-1291],[-2769,-6573],[951,-12532],[-3674,-1718],[-22989,27785]],[[110699,378528],[885,2999],[1892,666],[1804,5580],[368,3123],[3113,1212],[4658,-2970],[2259,-493],[1428,-2509],[1401,1243],[1656,-556],[1184,-3166],[1955,270],[846,2601],[3196,783],[-571,-8652],[2429,-5424]],[[647437,800157],[11361,-27738]],[[658798,772419],[2682,-6550],[1584,-167],[380,-575],[482,-1212],[1195,-832],[343,-731],[-678,-2495],[-211,-1545],[1374,-3355],[1404,890],[11041,3270],[566,-316],[4073,1148],[4235,-341],[111,-5532],[-233,-828],[-11108,-10069],[-3597,-4084]],[[672441,739095],[-4006,9772],[-1904,-2093],[-1726,-5443],[-2167,-1924],[-1998,85],[-2780,-1918],[-3945,-5730],[1574,-1519],[-2241,-2849],[-3594,-3026],[-3950,-4476],[-4502,-3086],[-1126,-1538],[-2399,72],[-2381,1606],[-4174,-786],[-1766,1066],[438,-3096],[-8398,-3205],[-359,-558],[-2077,-1726],[913,-2504],[4077,-1003],[1640,-2411],[3224,-1081],[953,-1083],[852,-1884],[699,-855],[2753,-2160],[1468,-1568],[692,-1916],[73,-1370],[-2685,-4259],[-599,-267],[789,-4944],[-16390,-7709],[-1056,5197],[-23586,-11217],[1095,-5060],[-16791,-8004],[-369,1804]],[[671492,635076],[15652,9713],[20302,-18435]],[[707446,626354],[103,-2394],[1431,999],[4405,-4027]],[[713385,620932],[-11865,-16935]],[[607009,634376],[64100,2590],[265,-1484]],[[680272,585503],[6169,-34568],[3950,-23786],[-7972,-2543],[-503,1220]],[[681916,525826],[-1354,2448],[209,1771],[2470,3911],[-324,988],[-2763,1541],[-3612,-434],[-3237,-1218],[-3410,-93],[-6208,-1250],[-5829,1678]],[[657858,535168],[-1444,4707],[-4469,-2851],[-2780,9776],[8022,-2510],[3560,816],[1212,1313],[-3165,10713],[6508,4424],[-2659,670],[892,4084],[-4428,4396],[-6759,3453],[-2279,4165],[-1372,-359],[-19,2887],[-3742,-1572],[-3269,-3355],[573,-2040],[-3427,-2547],[-978,-4287],[-6687,-567],[-2669,-2067],[273,3833],[-3411,1071],[-1656,3146],[63,2388],[-877,-3678],[155,-3715],[-514,3241],[516,4639],[-2385,8037],[7,2236],[1668,3751],[2562,-828],[1125,1201],[843,4147],[-502,3427],[966,2433],[-783,4139],[1869,1126],[2099,3833],[-325,2906],[-2000,1549],[-25,6229],[-2261,3899],[-7276,-2070],[-4028,738],[-7418,8872],[-155,3409]],[[487838,486956],[4292,2327],[64,-319],[3401,3585],[1535,1610],[3918,4025],[2471,-5224],[2352,-4897],[2684,-2651],[5315,2566],[476,-687],[908,-2965],[-6087,-3953],[-374,-6830],[-2048,-1509],[291,-2771],[-1955,8389],[-1255,-1361],[-355,-384],[-262,-276],[-2266,-2442],[593,-1087],[-2925,-3018],[-1228,1241],[-3982,-3112],[174,1538],[-92,2303],[2273,2449],[178,780],[-775,1620],[-4768,10054],[-145,291],[-1714,-434],[-457,-339],[-237,1481]],[[555815,632349],[51194,2027]],[[657858,535168],[520,-1709],[-8538,-9416],[-4410,649],[-10666,-6313],[-2051,7145],[-6932,-4541],[-1966,6324],[-91,278],[-689,2241],[-2857,-3431],[-1675,3921],[-2711,2424],[-310,3644],[-5953,375],[-98,1251],[-752,-3403],[-2768,-4436],[-357,-2956],[1544,-5012]],[[607098,522203],[-29683,46732],[-37974,62771]],[[559655,357699],[-109,1792],[-2018,-1259],[-1455,5069],[-2652,-3109],[-2989,-938],[-1403,6213],[4519,2640],[-496,1794],[3905,1260],[-857,3186],[4431,2070],[-1494,5774],[1051,-618],[127,481],[1167,-106],[2378,611],[-599,7441],[2484,-1546],[213,-2182],[3164,1630],[2795,-6042],[2591,130],[113,1659],[1408,-1686],[1425,137],[98,51]],[[681916,525826],[-3029,-1499],[-5099,-1354],[-3135,-1570],[-6412,-4213],[-2222,-3899],[-8175,-6343],[-4008,-99],[-3969,534],[-3149,-964],[-12088,-13179],[-1573,-4372],[-2012,-1575]],[[627045,487293],[-1401,5888],[-15486,24199],[-760,1184],[-1299,-2944],[-781,759],[1099,2472],[370,339],[-1337,2440],[-352,573]],[[302977,330475],[1402,-1918],[1331,1819],[9973,503],[7238,365],[15402,20618],[4197,683],[2407,-8063],[-2041,-8764],[677,-1962],[676,-5132],[-131,-2535],[611,-4377],[711,-2016],[1841,-3159],[1495,-995],[1217,-2956],[3301,-4470],[2596,-6198],[504,-3683],[-249,-2091],[250,-307],[1640,-2590],[589,849],[-571,-877],[-1946,-2294],[500,-5225],[757,-2309],[33681,23187],[26082,18409],[4978,2449],[5910,4329],[6223,4290],[4890,2406],[1921,262],[7671,4693],[4958,5856],[3491,2181],[6470,2040],[15746,12341]],[[479375,365834],[18457,15261],[5747,-19965],[-1862,-1688],[-545,-4775],[4668,-7372],[6429,631],[123,-6021],[962,-3650]],[[432920,150747],[-1246,-526],[-6249,-186],[-6364,-4743],[-6480,-2849],[-3394,-1514],[-6686,-1298],[-6885,-899],[-7410,-6211],[-1183,-611],[-5955,-520],[-3206,-2259],[-11364,-6215],[-5360,-3665],[-772,-1201],[-6629,-2815],[-3025,-2337],[-2586,-774],[-8377,-345],[-2956,571],[-3880,-213],[-2103,1155],[-3439,-527],[-26747,32461],[-3732,906],[-1253,2318],[-2202,1973],[-385,1993],[-4998,-3462],[-16877,-19375],[-3338,-4444],[-2792,7097],[-2273,-3192],[-2710,-5313],[-2451,-836],[-1807,2651],[-3384,2103],[-2455,-4],[-5298,-2491],[-686,-5937],[-2603,87],[-1383,1595],[2060,7399],[4185,5068],[178,5547],[3550,5495],[-876,2213],[2895,4000],[17632,32547],[-14303,17831],[-19538,24442]],[[139202,373235],[674,-1130],[4476,-3201],[624,792],[-545,4306],[1048,3833],[-669,8851],[687,1118],[2758,-609],[1200,626],[3404,-1173],[1021,-2255],[3681,-2932],[-156,-6793],[-1634,-3573],[-3112,-2042],[-850,-3679],[2073,-2339],[1441,-154],[2738,2636],[1331,-961],[788,2279],[2108,-3050],[2162,462],[2601,-2120],[1232,3492],[2981,-312],[290,1475],[4735,-2255],[983,3062],[3286,-636],[2134,1068],[1900,-657],[3700,1161],[2696,1745],[1227,-437],[3569,1945],[361,-1964],[4332,491],[-173,1326],[2557,3376],[1920,356],[1496,1494],[-1668,2689]],[[151642,328521],[-16157,20005],[-20666,-21602],[-15345,-16033],[-11690,-12216],[-31650,-9759],[-572,6364],[23939,13148],[2021,25707],[1812,0],[972,10630],[3388,-340],[253,2455],[6313,2675],[391,-3893],[2918,-1016],[-172,-6501],[1499,-35],[1206,-2616],[6040,4086],[-926,4814],[1382,1319],[-1178,7356],[448,3387],[1553,6242],[1242,3134],[2490,4052],[1014,3018],[-168,3017],[-1300,2609]],[[371684,434614],[269,173],[575,-1363],[-266,-953],[-1749,28],[2162,-2360],[803,-551],[3683,8491],[13839,8429],[26794,16640],[16004,24135],[5354,-14971]],[[463893,406425],[15482,-40591]],[[812594,804911],[8880,-15080],[71558,58249],[51042,41462],[3588,-5716],[3465,-4393],[28311,-28158],[406,-597],[-3280,-5652],[-154,-2832],[4844,-6290],[968,-1612],[1610,-1290],[5332,-1437],[7147,-68],[1927,-430],[1761,-1576],[-1883,-1275],[-3258,-2168],[-3517,-3521],[-2378,-1659],[-3003,-3233],[-17869,-11866],[-28214,-21804],[-8354,-6521],[-27656,-20264],[-4770,17523],[-3318,12578],[-10476,-5417],[-10053,-5366],[-6783,-4094],[-7093,-4533],[-8274,-5355],[-11798,-7632]],[[840889,755594],[-2014,3460],[-3270,6189],[-610,1075],[-6458,-2232],[-5737,-4836],[-3170,-3397],[-2330,-845],[-3901,198],[-1231,-1380],[-3608,1473],[-799,-3395],[-8323,-4339],[-2858,-2143],[-3607,-607],[-2037,10],[-2950,4451],[-647,4179],[-1329,2958],[-508,5893],[611,2164],[214,9990],[660,1849],[7183,3704],[938,5924],[-912,4838],[285,6449],[18113,7687]],[[634487,882322],[-78,2921],[1862,105],[-806,5688],[-139,942],[-357,2684],[-33,597],[81,1247],[207,1007],[595,1543],[1028,1355]],[[636847,900411],[6834,3639],[6643,5494],[1352,-3241],[2555,-2288],[2385,-64],[6926,2472],[6931,4537],[2004,1667],[18203,-9405],[-3086,-1547],[-383,-3888],[731,-5057],[-1274,-2080],[-536,-3563],[-1440,-4869],[-327,-5529],[-2853,407],[-2241,-4525],[-2311,2329],[-2964,-3939],[-2491,689],[90,-3000],[-1712,-199],[690,-2404],[-1615,-1547],[-3013,542],[-1766,-6238],[-125,-2550],[-1356,-3439],[-3130,-3576],[-1816,-230],[1038,-4012],[2546,-2266],[36,-1757],[-1538,940],[-1398,-1756]],[[405456,549226],[5394,10547],[17583,-9764],[7727,-4284],[18336,24045],[37621,49391],[19811,18014]],[[627045,487293],[235,-952]],[[463893,406425],[11178,8043],[11088,6108],[3514,1586],[954,1115],[-5394,4573],[-1343,2257],[-1786,5717],[3629,6830],[-2921,5224],[1373,740],[2412,4166],[-1886,-710],[-1022,-605],[-625,2459],[-3355,-2657],[685,-1543],[-4068,-1899],[1761,-939],[4011,-5545],[-12845,-10300],[-2328,-1041],[-8763,2214],[-3396,-1875]],[[511912,462838],[1726,-3941],[3695,-3578],[1515,194],[1314,1022],[-410,710],[-736,3033],[-1693,4065],[-122,-668],[-1145,4598],[-2836,-1330],[-1393,-3479],[85,-626]],[[627560,891392],[-948,7230],[8612,2630],[1623,-841]],[[713385,620932],[2678,3411],[-315,818],[3354,6925],[727,6557],[-2669,-1900],[-1481,3989],[-3745,-4350]],[[711934,636382],[-1271,1800],[-5762,3996],[-823,11145],[2179,9559],[25175,18534],[22133,15986],[3391,3266],[4651,9879],[-2807,295],[-2884,-2960],[-1097,1325],[-2277,7511],[-950,10439],[-4022,4217],[-144,1056],[-9046,965],[-3193,-2771],[-3317,-934],[-1727,5429],[-2451,11259],[-4418,3886],[-1113,76],[-5087,249],[-7306,192],[-954,874],[-2405,-253],[-2963,3600],[3914,3228],[5869,2769],[2592,3260],[-378,2244],[-4817,3511],[-1455,10524]],[[743909,813914],[3830,-2025],[13489,3879],[12369,5640],[1529,2598],[732,4050],[857,1541],[7031,4682],[1954,1715],[2997,4009],[2536,1098],[4297,-6813],[2761,-5189],[14303,-24188]],[[854903,731515],[5418,-9166],[6791,-8371],[-3354,-1410],[-5416,-1334],[-8419,-7194],[-1175,-1787],[-5755,-2556],[-3420,-2539],[-4123,-1669],[-4642,-2601],[-1300,-2632],[-2863,523],[-1669,-1056],[-1424,-2695],[403,-2184],[-4824,-1776],[-1786,-2778],[-4127,-2728],[-2454,2383],[-5315,-4055],[-757,-2362],[-3169,-3032],[-1376,-3323],[-2258,-2196],[-5210,-3418],[-4691,-4106],[496,-1993],[55,-2141],[-428,-4139],[690,-2784],[75707,52565],[10036,6118],[12387,-16060],[9802,-12067],[-5498,-2004],[1391,-4657],[-1372,-2889],[1402,-3266],[-2145,-1109],[-4787,-4105],[-2772,-919],[2495,-4815],[1474,-1348],[2008,547],[1368,-1401],[1640,837],[1258,-2078],[2474,-645],[1289,1747],[552,-2404],[2119,69],[-3014,-4459],[-2840,-5698],[-2445,-984],[-3772,457],[-577,1410],[-5835,-2544],[-1924,165],[-4007,-2603],[445,-3631],[1177,-1517],[-2432,-851],[141,-806],[-226,-294],[-568,-197],[-887,-370],[-278,153],[-211,805],[-3609,-1373],[1026,-10906],[1285,-3281],[1357,-127],[-388,-3550]],[[872047,608311],[-2270,-533],[-2342,-106],[-1369,8101],[-9472,-5125],[-6848,-4383],[-4219,-1981],[-599,2149],[-1361,-965],[716,-2171],[-2824,-2002],[-4350,942],[219,-1862],[-987,113],[-3960,1600],[-61,-5052],[-1885,-1818],[653,-3660],[-6406,-2458],[3141,-3169],[2056,-3574],[535,-4230],[-23240,10965],[-15320,4071],[-1359,-447],[-2062,-6517],[-278,-8082],[-1554,-5582],[-2204,3348],[-3576,2255],[-2207,-3306],[-6632,1736],[-1380,1245],[-1235,-10987],[-2439,-3960],[36,-5338],[2748,-1114],[5557,1190],[1201,-3268],[662,-14261],[-1523,-2572],[-8648,-2626],[-1626,-1412],[-2117,-5363],[-68140,-29364],[-3479,-1376],[-1479,3258],[-1745,7192],[225,2883],[-5848,-2522],[1202,-4150],[-2130,-1043],[2658,-8416]],[[872047,608311],[-1092,-5612],[2315,-1275],[1153,-2293],[4665,544],[1383,-1724],[971,1612],[2695,-5904],[3021,-2196],[1771,-8916],[-5405,-8171],[969,-1677],[5108,8528],[1581,-3306],[2912,-2986],[-1266,-1186],[1955,-2614],[-3604,-4408],[2915,-9007],[11544,-1108],[-11785,-9422],[-5064,-4891],[-2229,-1566],[7448,-5289],[-2140,-854],[2405,-4193],[632,-4177],[-1176,-3458],[-291,-5635],[2240,-4942],[514,-3757],[2328,-2361],[2413,-5280],[-1375,-4129],[1647,-2640],[1000,-135],[1011,-3987],[-3103,-2131],[-9758,363],[-33082,-28259],[-2180,-2042],[-1932,-1505],[-95916,-69971],[-1365,-7951]],[[672441,739095],[1348,-3266],[4433,7656],[1287,152],[6382,6063],[1321,1572],[1216,1991],[5254,16534],[-388,-38],[2219,7492],[-1457,619],[-6931,2982],[-23191,-7335],[-5136,-1098]],[[656372,810104],[-429,-3914],[462,-2267],[2028,-305],[3309,4301],[9887,2893],[2637,209],[5918,3207],[9046,2455],[8468,2714],[13315,5966],[3073,600],[3104,1946],[4339,-5895],[-2099,-3148]],[[711934,636382],[143,-2792],[-3278,-3643],[-1353,-3593]],[[594455,953398],[-5474,2904],[304,-997],[-640,-1714],[725,-613],[-944,-1481],[-1836,1614],[321,799],[-1133,1051],[-1468,3793],[-2045,1075],[-2549,1341],[-8693,4572]],[[571023,965742],[3378,4095],[3744,1896],[-710,9603],[349,-2691],[-70,9867],[-2744,4569],[794,752],[2287,-2209],[1101,-2412],[293,-5825],[-570,-3597],[593,-3349],[-1149,-2097],[874,-1961],[1798,-1653],[5418,-522],[2400,1852],[1225,-575],[3333,967],[4463,-942],[5707,1382],[3444,4032],[2295,-664],[1354,1290],[3191,-295],[3350,-2044],[-5487,1323],[-4641,-5399],[4643,-607],[1010,-1285],[-1676,-175],[-3745,-1499],[361,-7057],[-3664,-1355],[-620,-1254],[-4259,-740],[-3834,-2056],[-804,-1709]],[[594455,953398],[3972,-2061],[-2516,-1908],[-1095,-4604],[1005,-2438],[2161,-2634],[3474,611],[2249,-1652],[915,-8535],[65,-5043],[3979,-9894],[3804,-2649],[1349,-4261],[-6842,-8709],[625,-1204],[2672,1035],[1379,-9959],[-4326,1659],[-3820,-1771]],[[481403,858505],[6711,12237],[-15896,27064],[-55635,53916],[-11373,20340],[1656,5203],[1894,2624],[1704,1134],[377,-1486],[2997,-4141],[1711,1054],[6,2238],[2591,1865],[423,1414],[3496,1157],[4931,-445],[3224,872],[2382,-1646],[2301,-4794],[1162,-853],[4249,297],[3218,-634],[5192,2754],[1070,1699],[2791,1376],[484,-1176],[-952,-2533],[-471,-7294],[382,-3881],[1103,-2375],[2005,-1385],[1806,-5001],[1875,-2040],[-1982,-8389],[897,-1348],[4414,-1071],[3283,1364],[4098,6056],[377,2337],[3013,735],[505,3996],[800,1677],[5693,487],[543,2826],[5163,938],[99,-3406],[16452,7412],[3457,6020],[-837,11523],[5030,3741],[8445,3787],[5413,3433],[15776,526],[8292,1290],[3090,-23640],[20185,-10617]]],"bbox":[-76.78057,40.436698,-75.740805,40.962162],"transform":{"scale":[0.0000010397660397660423,5.25464525464525e-7],"translate":[-76.78057,40.436698]}}
