{"type":"Topology","objects":{"foo":{"type":"GeometryCollection","geometries":[{"type":"MultiPolygon","arcs":[[[0,1,2,3,4,5],[6]]],"properties":{"postal_code":"78582","realtor_list_price":223204.545,"realtor_list_price_yoy":-0.1202,"realtor_list_price_base":0.6654,"realtor_active_listings":93,"realtor_active_listings_yoy":0.069,"realtor_active_listings_base":1.2002,"realtor_new_listings":14.667,"realtor_new_listings_yoy":0.6923,"realtor_new_listings_base":1.5255,"realtor_days_on_market":87,"realtor_days_on_market_yoy":-0.044,"realtor_days_on_market_base":-0.3128,"zhvi":152036.565,"zhvi_yoy":0.0206,"zhvi_base":0.053,"zori":"NA","zori_yoy":"NA","zori_base":"NA"}},{"type":"MultiPolygon","arcs":[[[-6,7]]],"properties":{"postal_code":"78584","realtor_list_price":232494.444,"realtor_list_price_yoy":0.24,"realtor_list_price_base":"NA","realtor_active_listings":29.667,"realtor_active_listings_yoy":0.5085,"realtor_active_listings_base":2.1699,"realtor_new_listings":6,"realtor_new_listings_yoy":1.25,"realtor_new_listings_base":34.2174,"realtor_days_on_market":93.667,"realtor_days_on_market_yoy":-0.1994,"realtor_days_on_market_base":"NA","zhvi":"NA","zhvi_yoy":"NA","zhvi_base":"NA","zori":"NA","zori_yoy":"NA","zori_base":"NA"}},{"type":"MultiPolygon","arcs":[[[8,9]]],"properties":{"postal_code":"78536","realtor_list_price":"NA","realtor_list_price_yoy":"NA","realtor_list_price_base":"NA","realtor_active_listings":1,"realtor_active_listings_yoy":-0.5,"realtor_active_listings_base":"NA","realtor_new_listings":0,"realtor_new_listings_yoy":"NaN","realtor_new_listings_base":"NA","realtor_days_on_market":"NA","realtor_days_on_market_yoy":"NA","realtor_days_on_market_base":"NA","zhvi":"NA","zhvi_yoy":"NA","zhvi_base":"NA","zori":"NA","zori_yoy":"NA","zori_base":"NA"}},{"type":"MultiPolygon","arcs":[[[10,-10,11,-2]]],"properties":{"postal_code":"78591","realtor_list_price":"NA","realtor_list_price_yoy":"NA","realtor_list_price_base":"NA","realtor_active_listings":1,"realtor_active_listings_yoy":-0.625,"realtor_active_listings_base":"NA","realtor_new_listings":0,"realtor_new_listings_yoy":"NaN","realtor_new_listings_base":"NA","realtor_days_on_market":"NA","realtor_days_on_market_yoy":"NA","realtor_days_on_market_base":"NA","zhvi":"NA","zhvi_yoy":"NA","zhvi_base":"NA","zori":"NA","zori_yoy":"NA","zori_base":"NA"}},{"type":"MultiPolygon","arcs":[[[-4,12]]],"properties":{"postal_code":"78548","realtor_list_price":"NA","realtor_list_price_yoy":"NA","realtor_list_price_base":"NA","realtor_active_listings":1,"realtor_active_listings_yoy":0,"realtor_active_listings_base":"NA","realtor_new_listings":0,"realtor_new_listings_yoy":"NaN","realtor_new_listings_base":"NA","realtor_days_on_market":"NA","realtor_days_on_market_yoy":"NA","realtor_days_on_market_base":"NA","zhvi":"NA","zhvi_yoy":"NA","zhvi_base":"NA","zori":"NA","zori_yoy":"NA","zori_base":"NA"}}]}},"arcs":[[[370510,999511],[35112,-239],[13166,-812],[6030,270],[880,429],[142464,-1486],[36015,-190],[37540,-218],[15877,-95]],[[657594,997170],[975,-3472],[16707,-36935],[647,-1159],[857,-1107],[58529,-56937],[844,-2253],[3095,-22837],[942,-3099],[2999,-2279],[-10165,-686],[-4936,80],[-8785,1059],[-3491,113],[-3260,-782],[-11880,-5394],[-2850,-713],[-15847,-2790],[-16770,-3121],[-4860,-940],[297,-59033],[111,-1081],[-2536,27],[604,6172],[-1171,16561],[-2302,11019],[-1194,4001],[-229,3915],[-1743,12210],[70,4329],[-33638,-5855],[-31,-30029],[-9110,43],[-384,-21194],[-656,-6057],[4685,-54],[-97,-10756],[-3095,-1566],[-11109,-13],[-65,-6289],[-5215,-2162],[4861,-16639],[182,-1450],[5399,-447],[-41,-19795],[7347,-156],[-2,-643],[8680,555],[8080,-63],[171,2143],[12086,-809],[217,11496],[9928,-1957],[674,3237],[9587,8176],[4600,5404],[565,10961],[-5138,-1865],[163,10326],[24197,-149],[7062,-2537],[6333,-7828],[11467,-16099],[3322,-334],[28759,-416],[-30,-9200],[2979,-941],[-93,-2163],[-2136,-12072],[881,-2041],[-79,-3011],[-36292,-347],[-15069,-24714],[-5899,-9717],[388,-3885],[1944,-2169],[143,-5718],[8847,-2249],[97,-9025],[5861,-7896],[260,-4033],[-576,-249],[-22470,-9851],[-780,-184],[-21043,385],[-42491,-69731],[33047,-205],[186,-3107],[35421,-292],[-138,8119],[3116,123],[23844,-313],[1413,-240],[61166,-474],[-1702,-25692],[1559,-28833],[-139,-15184],[-1230,-10969],[1984,-181],[56141,-27528],[1545,-486],[38998,-7695]],[[871689,457449],[-15618,-45925],[-9836,-22314],[-6918,-19762],[-1048,-3489],[-2423,-7780],[-4562,-12074],[-34224,-97593],[2791,21863],[-12555,-3813],[-1976,-15257],[-10017,2171],[-1603,-11964],[-2402,289],[-2617,-18415],[2955,-13427],[108,-1573],[-4878,1073],[-3942,-30386],[-8372,-8988],[-2953,-218],[-16026,3680],[-922,-5812],[-10544,-81789],[14820,-2853],[-772,-2162],[-7296,-20368],[-10736,-30001],[-648,-1813],[-39434,26209],[-4707,2478],[-24441,9961]],[[650893,67397],[-5624,2646],[-4845,3645],[-4703,2234],[-3234,2294],[-3780,6198],[-5917,12982],[-8330,12025],[-17083,8770],[-818,-11748],[-1356,-7592]],[[595203,98851],[-7459,43],[144,2678],[-7631,2771],[-1335,8509],[189,1729],[-523,313],[-1103,6344],[2447,-220],[585,4519],[178,604],[1487,-1318],[5337,-989],[907,4901],[2052,4702],[-6662,2331],[-2316,-2518],[-2674,610],[-483,5339],[-3694,361],[-188,-5104],[-11580,4970],[-401,-3025],[2619,-1418],[-1062,-3773],[-3523,1802],[-1191,-7566],[1523,-1795],[-1535,-12894],[-1053,-6220],[7693,-1631],[-175,-5441],[1859,-1994],[-1863,-3595],[894,-4866],[-8390,-6405],[-2549,-5835],[-475,155],[-7093,-5799],[-4447,2191],[-2199,7080],[-2533,6964],[-2970,4221],[-4726,3198],[-4284,620],[-3398,-766],[-3142,-1539],[-4000,-4306],[-3072,-2671],[-3248,241],[-8064,2689],[-3747,7750],[-2245,3479],[-1715,4713],[725,3893],[1757,2963],[5029,-505],[7850,-7892],[5082,-1202],[3550,3058],[1911,6021],[-115,4829],[-1491,4118],[-1103,2574],[-2940,1787],[-3793,199],[-3502,4629],[-2676,5965],[-1251,6877],[-64,1818],[-307,8834],[-2021,3438],[-3586,-311],[-3684,-1277],[-4229,-4347],[-5405,-4054],[-5511,-2171],[-4019,-308],[-793,-61],[-3865,429],[-511,175],[-6006,2065],[-10743,6619],[-2157,2760],[2202,7594],[52,3125],[-2567,5950],[-3920,5582],[-4138,10415],[-1792,9517],[-309,4518],[-449,6579],[-5242,9859],[-352,464],[-3251,4288],[-3049,2636],[-7264,-5799],[-2788,315],[-2021,2339],[-3666,5084],[-1320,1008],[-5361,-535],[-2312,-1926],[-1348,-1123],[-7195,-10698],[-11264,-8191],[-5390,-24],[-709,518],[-220,161],[-528,385],[-2799,2413],[-2130,5364],[-3438,2365],[-216,149],[-5028,1641],[-5306,161],[-4368,-1359],[-3391,-2763],[-7222,-3836],[-7332,-1912],[-11200,-5601],[-12544,-8122],[-2119,2637],[-2775,7054],[-650,5320],[1687,8270],[-558,4283],[-1184,4786],[-7,31],[-88,353],[-9,37],[-2681,1954],[-10262,-367],[-6035,3097],[-4749,6104],[-3857,5225],[-2027,6396],[221,6227],[-347,4700],[203,6118],[-1129,2309],[-2855,2134],[-939,-574]],[[271166,270548],[-377,3919],[-3856,5838],[-4202,455],[144,2768],[-1663,-5503],[-746,-12432],[-514,-2863],[-1119,166],[-1658,-6209],[-4607,-5084],[-1077,-72],[1980,27930],[1048,7958],[-28,1804],[379,2785],[-605,181],[1025,1590],[64,89],[202,-112],[4699,-3794],[-178,6592],[2477,3455],[-1226,1753],[-1246,300],[319,1025],[820,2922],[2073,7823],[2510,12018],[2859,14625],[-572,4883],[-2393,17105],[-2203,8682],[-45,9573],[1086,39349],[70,3360],[-1104,69],[1337,8108],[181,5566],[1263,6521],[242,1105],[144,773],[589,2689],[4692,21049],[1138,4767],[2779,4622],[-46,4329],[-3959,3544],[12014,95340],[427,-104],[14131,-3082],[473,54],[2353,1261],[-2,945],[3399,25726],[5787,47243],[-343,2055],[1681,14228],[1033,7190],[1262,13102],[2986,19551],[1362,2394],[-399,4102],[8054,49950],[2812,37194],[42805,41414],[553,3738],[460,431],[8080,78029],[2166,9814],[413,3425],[-2129,29608],[-3546,9921],[-5247,13159],[-1937,6254]],[[511099,235035],[5920,-1553],[-938,-8851],[14405,-3204],[425,4793],[2163,498],[5280,4839],[220,3789],[1377,399],[1551,15268],[4444,1101],[871,8861],[-4141,917],[336,5553],[-371,8392],[3843,4027],[-888,1060],[1607,4411],[331,10171],[-2322,7309],[231,3675],[3412,18635],[164,8763],[2387,13037],[1624,4614],[582,4612],[5518,6836],[10466,-3615],[-3625,-29521],[-4184,-34540],[1599,-1827],[2677,-540],[267,246],[4667,22],[9094,-738],[1107,349],[2217,4306],[9405,-2046],[1778,1092],[2634,-208],[217,-2565],[-1565,-5313],[-2097,-3209],[-2317,-926],[-1558,-11846],[796,-5548],[2234,-1847],[-501,-2637],[5582,-1649],[503,3925],[9117,-524],[1987,-1398],[2465,-3779],[4368,3997],[2062,1827],[4556,7323],[1466,6873],[6799,1981],[3453,2003],[4601,1135],[1653,-3814],[2817,18102],[12499,-2698],[-1249,-10063],[6770,5629],[-1758,-4211],[-955,-6474],[5493,-714],[1265,-8276],[-1814,-9456],[-2774,2157],[414,-3772],[2268,-474],[119,1204],[9849,-2195],[-1206,-10180],[4661,-1031],[6314,51145],[-4409,9064],[-1380,4064],[3623,1720],[1283,4117],[-3691,839],[116,2254],[2626,-609],[16305,-5777],[577,-585],[-2022,-3293],[-1226,-6966],[-4677,-36827],[13709,-2601],[147,-1536],[-2693,-20710],[3038,-1039],[-1114,-8595],[-4107,-6176],[249,1977],[-5994,1448],[-1945,-15411],[1243,-391],[350,-5207],[4896,-4834],[3019,-4638],[7530,-377],[3176,334],[-810,-6064],[-6904,-9583],[-459,-4951],[154,-8909],[-2663,-9296],[-2017,-4420],[-289,-9642],[-3437,-138],[-6761,-53211],[17278,-3155],[6297,-1445],[12957,101118],[-13709,3199],[959,7352],[7191,2223],[1105,1368],[6043,-1662],[6712,51214],[3735,5762],[-2702,2476],[1773,14020],[4498,4679],[-159,8583],[1214,10265],[46962,-16194],[901,5598],[6938,52440],[11249,1444],[863,2668],[-9861,2097],[-1782,742],[4451,221],[3962,2654],[-2980,3369],[1550,10058],[4144,33364],[2517,-2074],[2541,22957],[1178,14631],[-98,2365],[1488,7549],[-2412,1634],[-4654,878],[-12890,-145],[-2607,9200],[-1376,-2795],[-20274,8458],[-2621,-891],[-5082,-45174],[-1176,-331],[-13799,2433],[-8583,1788],[3199,26905],[-41625,8034],[-2817,-21229],[-1245,-5500],[-7800,1437],[2554,31492],[1899,12003],[3998,9918],[1813,14271],[-15193,78],[16,-630],[-2183,21],[-647,-254],[-4789,-4323],[-2093,-1333],[-37234,-40233],[-1914,-2242],[-1727,-1353],[-13239,-14057],[-2341,-4019],[-2241,-871],[-6490,-7905],[1091,16174],[-439,8471],[53,2196],[-75717,-51697],[948,-162],[-6698,-55095],[707,-619],[-2738,-16684],[-3434,-26347],[7361,-2946],[-1570,-20683],[-11680,2226],[-793,-5150],[-1217,-2792],[-1738,-12407],[-1978,-1059],[-1734,-12707],[-176,-3535]],[[271166,270548],[-1456,-889],[-3955,-5904],[-3603,-5184],[-1734,-6403],[43,-2898],[1954,-9841],[-506,-6282],[-1911,-4771],[-3261,-3334],[-4534,-106],[-5913,589],[-4678,4404],[-2169,2762],[-5434,6919],[188,3550],[1732,3473],[1741,6368],[270,9836],[86,3151],[-1363,4076],[-626,704],[-2371,2663],[-6490,4353],[-4414,1489],[-5013,257],[-5947,3463],[-2655,557],[-1255,-557],[-3856,-1709],[-1064,-1643],[-2667,-4117],[-477,-646],[-1134,-1538],[-1520,-2060],[-2439,-3306],[-2984,-1818],[-3373,-345],[-9155,1526],[-3430,-41],[-3678,2385],[-2701,-929],[-4889,-1952],[-2792,642],[-1984,3030],[-1807,4198],[-999,4132],[-1847,5160],[-2745,4955],[-4007,7234],[-2903,2730],[-1421,753],[-1336,708],[-7078,5242],[-779,174],[-6338,1414],[-5277,-2888],[-5500,-4566],[-2745,-5393],[-3118,-3099],[-4185,-6062],[-11596,-8638],[-2699,-378],[-6346,878],[-4945,-1366],[-4329,-269],[-4648,738],[-2950,-1207],[-4067,4234],[-5581,17364],[-2103,2298],[-4887,3019],[-2037,2579],[-3480,7976],[-2933,4122],[-4219,5009],[-2016,3606],[-3055,3038],[-3182,2228],[-3503,11651],[-341,2743],[840,2196],[5549,3294],[2861,1897],[2843,3295],[2571,5043],[128,2592],[112,7734],[2001,4157],[227,3179],[887,4579],[-509,8149],[1648,5794],[2837,5091],[2261,3647],[7680,58],[2731,14616],[384,-1771],[6178,-4865],[1815,-5671],[1127,214],[2191,3418],[1693,5171],[-365,2863],[-1856,2821],[2189,2905],[-462,5941],[3650,1666],[-265,1709],[8088,-171],[69,3973],[-813,2877],[986,1075],[6027,1612],[1316,1120],[1199,5022],[-4120,5660],[-1146,1981],[-1989,814],[-10646,4096],[-900,1873],[-13077,-9992],[-3155,2298],[-2527,3306],[-5243,10571],[5113,5479],[3066,1938],[4928,653],[5676,2051],[-3395,10574],[-78,663],[-280,638],[-4247,7897],[1238,1260],[-359,1131],[-1871,6178],[-410,1906],[-1553,-738],[-1366,2893],[-575,5501],[-4234,-2052],[-6284,-4927],[-940,1761],[-1782,-1657],[-12257,-10018],[-1472,1953],[-1400,2558],[-832,1422],[4409,7421],[2626,5891],[1453,9479],[2042,5023],[2566,9669],[-889,1091],[-6821,8507],[-3671,4530],[1262,-1068],[17805,15956],[515,24],[1122,-1400],[1696,231],[779,9791],[1984,24105],[-585,-123],[-4061,-2301],[-167,-2508],[-29265,-25564],[-353,-1262],[1328,-2721],[-2086,-1992],[-1586,1703],[-654,714],[-338,2918],[1049,1713],[-3518,5345],[-463,5508],[-2078,-1748],[2051,-9388],[-12493,-11593],[-631,-597],[-1715,3934],[-1761,4104],[14054,16211],[-4470,24188],[-231,805],[-5764,31140],[54341,51189],[42926,39865],[8548,7238],[23850,23164],[14582,12303],[2724,-5300],[-1098,-1580],[-1826,1153],[-5219,643],[233,-7351],[-2134,-6922],[-3034,-8261],[-393,-7774],[4223,-9439],[3276,-2931],[158,-1802],[-11695,-10766],[-1014,-19168],[3781,-179],[3273,-6534],[-1975,-5013],[1393,-9783],[5538,-10175],[10105,9755],[2668,-5607],[3261,3116],[3171,7],[3111,1959],[4668,483],[4737,-2801],[-3576,-12316],[-14071,-12887],[-3415,844],[-2015,-17282],[-1024,1010],[-13685,2534],[-1410,-1992],[-1882,-14002],[-15909,3404],[-9567,-76138],[-2221,-13123],[7125,5095],[3620,309],[2415,1519],[3165,97],[-674,-5050],[4540,-1370],[1739,-1847],[12995,-2406],[12432,-8225],[6434,50751],[3514,2427],[3196,605],[3178,18950],[1294,15382],[-6341,1489],[3357,26319],[23172,-4741],[2947,-3108],[23855,-4650],[4013,-265],[4951,37238],[-433,4507],[1339,-1837],[4081,-1327],[-218,2658],[1104,3525],[1264,7125],[-896,5076],[-1832,5272],[-15016,16524],[18351,17463],[-1094,376],[7095,9708],[8115,3876],[2311,2327],[1322,5285],[1079,10811],[8994,8296],[2314,8759],[23247,12562],[2167,-26],[-362,2803],[1250,7892],[-3890,1664],[-5859,18419],[-5323,8704],[-13209,-2851],[-697,1169],[-128,5070],[4237,2320],[-4634,10455],[2689,4217],[2499,2214],[-5405,9810],[-2009,5881],[-2711,3447],[-1675,16323],[-4219,7630],[4665,4366],[373,28985],[-2239,12570],[-1835,4165],[7975,30815],[-3524,-2607],[-4905,7996],[-3932,-2894],[-4816,8412],[6698,6616],[1783,158],[13596,4326],[1540,1306],[3066,6172],[69015,-378],[758,186],[30524,-296]],[[883283,873234],[3956,-2054],[9376,-1541],[2430,-971],[7426,-5367],[1858,-605],[4497,214],[1132,67],[3362,-203],[7873,-4830],[4534,-1989],[8110,-1774],[2079,-978],[11068,-7436],[1212,-1409],[-2416,-2396],[-2085,-570],[-2378,684],[-2518,2463],[-2218,-117],[-3974,-7741],[-4192,205],[-3412,5272],[-1136,-6],[-3642,-3904],[318,-12499],[4015,142],[5628,-2779],[-1953,-8885],[8883,168],[94,3166],[2346,231],[23,2514],[2282,4810],[6811,-325],[25,-1630],[2017,-1605],[5754,4],[-681,3138],[-2305,296],[-824,3815],[-1802,1586],[11,10917],[583,3369],[3933,-37],[2460,-949],[7962,-5061],[22619,-26470],[2626,2618],[4949,-812],[-6206,-19310],[-31617,-93311],[-41798,-111995]],[[920378,589354],[-25179,3817],[7005,57719],[-32927,7534],[402,4747],[-13573,2732],[-1284,15610],[-10902,2173],[-4749,2015],[-5483,18],[133,26519],[-9491,404],[-8708,-5255],[-3935,-3929],[-27627,-13575],[-6405,4256],[-1561,2394],[1528,2777],[4682,3453],[2405,4288],[-7063,3847],[-1117,7068],[1894,6012],[1351,25294],[1730,2882],[691,5934],[-5554,704],[42,16901],[2917,-548],[7266,-200],[478,7423],[2714,76],[-233,3958],[1876,2363],[3375,-3184],[3907,-54],[641,-2492],[9267,-10149],[3275,-704],[4305,-4847],[4173,-6892],[4225,-1516],[14228,1369],[142,-21289],[3171,-12966],[899,-2387],[66738,39488],[2462,2107],[1335,4078],[52,8652],[157,26017],[45,8414],[-6895,54],[-1478,1899],[-2179,142],[-4090,177],[-825,9185],[5462,24],[91,9113],[8218,-88],[245,4603],[-18238,233],[375,2764],[-4849,-3966],[-1747,2322],[-6499,-37],[-1846,548],[-212,3516],[1279,17255],[-243,2173],[1995,24],[621,10883]],[[657594,997170],[158634,-715],[8616,255],[103672,-554],[13306,-108],[-130,-12374],[9797,-600],[-2704,-6352],[-13260,-19249],[-1165,-2627],[-500,-5075],[-21009,324],[-163,-2765],[-3045,-1370],[-2413,-4400],[-5890,304],[161,-7791],[-335,-4613],[-2757,-15299],[357,-4965],[1017,-1103],[75,-10790],[-2275,541],[-2232,-707],[-9637,209],[-5930,-4109],[-1833,-227],[-826,-462],[-5101,316],[-2847,6118],[-3781,477],[-3768,2656],[-11253,2316],[-4338,-1224],[-5972,-3010],[-3486,1931],[-4216,-5283],[-6018,-3718],[-6949,-5967],[-2083,-8259],[908,-2043],[26665,-1356],[5575,-550],[6918,-17],[-639,-6118],[-3852,-23402],[-5677,-10296],[3213,-9269],[10337,-1146],[4203,2592],[4727,24291],[-55,22694],[9813,-464],[1880,-115],[1954,-468]],[[920378,589354],[-5783,-15568],[-42906,-116337]],[[650893,67397],[3451,-1720],[-3120,-27139],[2703,-6877],[3861,-6533],[6869,-5520],[-788,-932],[-6651,5572],[-263,-1999],[2178,-1098],[-314,-7294],[-1113,-3034],[-1986,-2417],[-2916,1907],[-2419,-5950],[-9435,1358],[-4602,-84],[-4086,1765],[-924,-6025],[-5550,1221],[-329,2719],[-6392,1384],[-665,-4386],[-1125,-2315],[-4702,4618],[-8011,5473],[332,6070],[431,6069],[994,1452],[1126,5471],[2052,0],[647,4037],[-3891,1088],[-273,1869],[2329,15544],[3873,8857],[3289,4819],[-2758,8751],[-1978,3191],[-6162,-1730],[-302,-2061],[-10101,1707],[1004,11506],[27,12120]]],"bbox":[-99.135891,26.248983,-98.367704,26.785597],"transform":{"scale":[7.681877681877657e-7,5.366145366145368e-7],"translate":[-99.135891,26.248983]}}
