{"type":"Topology","objects":{"foo":{"type":"GeometryCollection","geometries":[{"type":"MultiPolygon","arcs":[[[0]]],"properties":{"postal_code":"27819","realtor_list_price":"NA","realtor_list_price_yoy":"NA","realtor_list_price_base":"NA","realtor_active_listings":1,"realtor_active_listings_yoy":0.5,"realtor_active_listings_base":"NA","realtor_new_listings":0,"realtor_new_listings_yoy":"NaN","realtor_new_listings_base":"NA","realtor_days_on_market":"NA","realtor_days_on_market_yoy":"NA","realtor_days_on_market_base":"NA","zhvi":"NA","zhvi_yoy":"NA","zhvi_base":"NA","zori":"NA","zori_yoy":"NA","zori_base":"NA"}},{"type":"MultiPolygon","arcs":[[[1]]],"properties":{"postal_code":"27597","realtor_list_price":416016.302,"realtor_list_price_yoy":0.0077,"realtor_list_price_base":0.6285,"realtor_active_listings":220.333,"realtor_active_listings_yoy":0.1377,"realtor_active_listings_base":1.2948,"realtor_new_listings":70.667,"realtor_new_listings_yoy":0.0192,"realtor_new_listings_base":0.7807,"realtor_days_on_market":65.453,"realtor_days_on_market_yoy":0.0565,"realtor_days_on_market_base":0.035,"zhvi":340560.538,"zhvi_yoy":-0.0036,"zhvi_base":0.6482,"zori":1964.75,"zori_yoy":0.0172,"zori_base":"NA"}},{"type":"MultiPolygon","arcs":[[[2,3,4,5]]],"properties":{"postal_code":"27809","realtor_list_price":405383.333,"realtor_list_price_yoy":0.0302,"realtor_list_price_base":"NA","realtor_active_listings":16.667,"realtor_active_listings_yoy":-0.2424,"realtor_active_listings_base":0.7492,"realtor_new_listings":2,"realtor_new_listings_yoy":-0.25,"realtor_new_listings_base":-0.0372,"realtor_days_on_market":78.667,"realtor_days_on_market_yoy":0.2688,"realtor_days_on_market_base":"NA","zhvi":221703.702,"zhvi_yoy":0.0265,"zhvi_base":0.6837,"zori":"NA","zori_yoy":"NA","zori_base":"NA"}},{"type":"MultiPolygon","arcs":[[[6,7,-6,8,9]]],"properties":{"postal_code":"27856","realtor_list_price":374193.269,"realtor_list_price_yoy":0.0349,"realtor_list_price_base":0.6041,"realtor_active_listings":51,"realtor_active_listings_yoy":-0.0065,"realtor_active_listings_base":0.3859,"realtor_new_listings":17.333,"realtor_new_listings_yoy":0.04,"realtor_new_listings_base":0.3482,"realtor_days_on_market":59.308,"realtor_days_on_market_yoy":-0.143,"realtor_days_on_market_base":-0.0513,"zhvi":256279.245,"zhvi_yoy":0.0166,"zhvi_base":0.6788,"zori":"NA","zori_yoy":"NA","zori_base":"NA"}},{"type":"MultiPolygon","arcs":[[[-7,10]]],"properties":{"postal_code":"27816","realtor_list_price":271572.667,"realtor_list_price_yoy":"NA","realtor_list_price_base":"NA","realtor_active_listings":12.333,"realtor_active_listings_yoy":1.4667,"realtor_active_listings_base":2.4526,"realtor_new_listings":2,"realtor_new_listings_yoy":"Inf","realtor_new_listings_base":4.625,"realtor_days_on_market":83.667,"realtor_days_on_market_yoy":"NA","realtor_days_on_market_base":"NA","zhvi":223343.412,"zhvi_yoy":0.0337,"zhvi_base":0.7564,"zori":"NA","zori_yoy":"NA","zori_base":"NA"}},{"type":"MultiPolygon","arcs":[[[11,12,13]]],"properties":{"postal_code":"27880","realtor_list_price":348736.571,"realtor_list_price_yoy":-0.0468,"realtor_list_price_base":1.0109,"realtor_active_listings":15,"realtor_active_listings_yoy":-0.0217,"realtor_active_listings_base":-0.2428,"realtor_new_listings":4.667,"realtor_new_listings_yoy":-0.3636,"realtor_new_listings_base":0.2899,"realtor_days_on_market":34.429,"realtor_days_on_market_yoy":-0.3436,"realtor_days_on_market_base":-0.7053,"zhvi":299906.324,"zhvi_yoy":-0.0044,"zhvi_base":0.6683,"zori":"NA","zori_yoy":"NA","zori_base":"NA"}},{"type":"MultiPolygon","arcs":[[[14,-12,15]]],"properties":{"postal_code":"27807","realtor_list_price":330755.769,"realtor_list_price_yoy":-0.0448,"realtor_list_price_base":0.7502,"realtor_active_listings":56,"realtor_active_listings_yoy":-0.082,"realtor_active_listings_base":3.2336,"realtor_new_listings":17.333,"realtor_new_listings_yoy":0.5294,"realtor_new_listings_base":4.785,"realtor_days_on_market":58.462,"realtor_days_on_market_yoy":-0.0891,"realtor_days_on_market_base":-0.2189,"zhvi":276158.039,"zhvi_yoy":0.0123,"zhvi_base":0.8321,"zori":"NA","zori_yoy":"NA","zori_base":"NA"}},{"type":"MultiPolygon","arcs":[[[16,-4,17,18,19],[20]]],"properties":{"postal_code":"27801","realtor_list_price":164101.724,"realtor_list_price_yoy":0.0544,"realtor_list_price_base":1.6803,"realtor_active_listings":69,"realtor_active_listings_yoy":0.1436,"realtor_active_listings_base":-0.0926,"realtor_new_listings":19.333,"realtor_new_listings_yoy":0.1154,"realtor_new_listings_base":0.7795,"realtor_days_on_market":81.724,"realtor_days_on_market_yoy":0.0582,"realtor_days_on_market_base":-0.2566,"zhvi":122692.699,"zhvi_yoy":-0.0318,"zhvi_base":1.0079,"zori":993.444,"zori_yoy":0.0603,"zori_base":"NA"}},{"type":"MultiPolygon","arcs":[[[-5,-17,21,-9]]],"properties":{"postal_code":"27804","realtor_list_price":267242.857,"realtor_list_price_yoy":-0.1209,"realtor_list_price_base":0.8377,"realtor_active_listings":144.333,"realtor_active_listings_yoy":0.53,"realtor_active_listings_base":0.011,"realtor_new_listings":37.333,"realtor_new_listings_yoy":-0.0968,"realtor_new_listings_base":-0.071,"realtor_days_on_market":66.643,"realtor_days_on_market_yoy":0.1805,"realtor_days_on_market_base":-0.1195,"zhvi":228928.477,"zhvi_yoy":0.0055,"zhvi_base":0.8213,"zori":1435.722,"zori_yoy":-0.0083,"zori_base":"NA"}},{"type":"MultiPolygon","arcs":[[[22,-19]]],"properties":{"postal_code":"27864","realtor_list_price":244548.667,"realtor_list_price_yoy":"NA","realtor_list_price_base":"NA","realtor_active_listings":7.667,"realtor_active_listings_yoy":0.7692,"realtor_active_listings_base":0.1648,"realtor_new_listings":2,"realtor_new_listings_yoy":"Inf","realtor_new_listings_base":1.5312,"realtor_days_on_market":55.333,"realtor_days_on_market_yoy":"NA","realtor_days_on_market_base":"NA","zhvi":147482.952,"zhvi_yoy":0.0215,"zhvi_base":0.7489,"zori":"NA","zori_yoy":"NA","zori_base":"NA"}},{"type":"MultiPolygon","arcs":[[[-15,23,-13]]],"properties":{"postal_code":"27896","realtor_list_price":317702.381,"realtor_list_price_yoy":-0.0138,"realtor_list_price_base":0.5421,"realtor_active_listings":66.333,"realtor_active_listings_yoy":-0.2684,"realtor_active_listings_base":-0.1879,"realtor_new_listings":28,"realtor_new_listings_yoy":-0.0233,"realtor_new_listings_base":-0.0261,"realtor_days_on_market":60.571,"realtor_days_on_market_yoy":-0.2507,"realtor_days_on_market_base":-0.2037,"zhvi":277968.277,"zhvi_yoy":-0.0119,"zhvi_base":0.7137,"zori":1727.698,"zori_yoy":"NA","zori_base":"NA"}},{"type":"MultiPolygon","arcs":[[[24]]],"properties":{"postal_code":"27881","realtor_list_price":"NA","realtor_list_price_yoy":"NA","realtor_list_price_base":"NA","realtor_active_listings":0.667,"realtor_active_listings_yoy":"NA","realtor_active_listings_base":"NA","realtor_new_listings":0,"realtor_new_listings_yoy":"NA","realtor_new_listings_base":"NA","realtor_days_on_market":"NA","realtor_days_on_market_yoy":"NA","realtor_days_on_market_base":"NA","zhvi":"NA","zhvi_yoy":"NA","zhvi_base":"NA","zori":"NA","zori_yoy":"NA","zori_base":"NA"}}]}},"arcs":[[[966566,276755],[3839,11465],[1711,2449],[1844,-1397],[-636,860],[5706,3806],[462,2366],[2008,-4766],[11,-19],[22,-59],[17,-39],[1935,-4736],[111,-275],[909,-2211],[870,1108],[1297,1717],[3183,1839],[5011,1609],[3396,-1213],[-381,-4348],[-1904,-4355],[-2533,-3701],[-4336,-4790],[1524,-5728],[-1672,-1762],[-1342,-3502],[-8218,13857],[-1319,-1230],[-1785,-4679],[-895,-13454],[-8823,2593],[598,14115],[-610,4480]],[[0,382638],[431,16481],[1062,6981],[50,348],[62,443],[3075,-320],[331,3296],[5032,7796],[1587,589],[-1387,3087],[-1206,7091],[563,5226],[6277,-3591],[4970,-4851],[2761,5500],[825,691],[13,3674],[7664,4643],[43,8577],[-4747,10401],[-3226,144],[3122,6140],[407,3191],[4832,1674],[2992,-761],[2625,2992],[4472,519],[2266,1507],[3958,-1210],[2798,-2663],[2419,1215],[4790,172],[881,-842],[414,1861],[-746,4840],[4255,-6909],[6015,7866],[1523,943],[2113,-907],[76,-2529],[-875,-5239],[-1387,-912],[-334,-1882],[1490,-7550],[-354,-1153],[4610,3926],[1517,4172],[-374,2265],[1752,1706],[1125,2466],[1100,-104],[372,3265],[1658,3756],[2399,863],[1665,1633],[1845,-507],[674,1185],[2430,187],[511,5771],[43,6139],[1360,2478],[1244,789],[-237,4490],[-3087,14455],[5873,523],[1072,4158],[-1028,4937],[-1360,1474],[300,4149],[4652,417],[4361,2903],[1776,-2184],[991,2120],[955,-4514],[-12,-3591],[5310,8476],[147,-5423],[2835,-1520],[4469,-6451],[2036,-467],[1911,-1340],[582,-4034],[1220,-53],[584,-3710],[3362,-1270],[833,-3157],[3192,-1212],[1959,-2292],[3116,-1671],[9758,-1102],[827,5132],[2843,7480],[1454,-1367],[2167,14236],[3169,532],[2429,-5371],[1629,202],[973,-2873],[3337,-1210],[-499,-2167],[4047,-4032],[1157,-2067],[-1078,-2621],[3365,-1513],[-1394,-3780],[1130,-501],[-1262,-2478],[1960,-1198],[1255,-1708],[1702,4591],[1713,43],[450,-7738],[1984,1037],[0,4324],[2814,-3237],[8404,17423],[2072,5554],[2403,12235],[2879,415],[728,2320],[2251,-5123],[4339,-6014],[2374,-7125],[4788,1539],[2551,1420],[1020,-466],[13730,-12735],[-1583,-3768],[-112,-3731],[-830,-1259],[-3946,1522],[-1969,-2300],[-2334,-6021],[-1218,-1738],[-417,1999],[-2334,-221],[-804,-2421],[-2431,-1592],[388,-971],[663,-2463],[977,474],[1736,-2860],[7722,-87],[-44,-4225],[3272,170],[111,-6403],[-4763,-171],[1158,-9689],[-1202,-1878],[223,-2006],[-3010,1073],[952,-4509],[-2863,-1467],[-2890,-3888],[-5676,-11169],[-1980,-2915],[135,-3678],[1347,-5871],[-1224,-235],[-153,-5346],[7072,-410],[1684,-5285],[-31,-5813],[1714,-5050],[-2418,-1645],[490,-4813],[-1370,-2448],[5316,6165],[309,-3155],[212,-6226],[-669,-13893],[758,-6623],[-676,-721],[-6379,-305],[-3157,-9767],[-2825,-8739],[-9257,-7833],[-2972,-1011],[136,-3973],[3943,-217],[2705,-3813],[1045,-2006],[2376,-498],[8461,-4255],[3981,1441],[7918,4768],[1908,1079],[521,-13775],[4363,99],[4313,-682],[-3907,-22185],[-3906,291],[-863,-28124],[-2689,99],[-105,-3337],[-6371,3183],[-308,-10189],[664,-9127],[-4816,-9803],[4781,-1423],[4205,-589],[268,-1755],[37,-2082],[273,-2036],[-5912,-1808],[-3278,282],[-3125,2544],[-2268,-6027],[36,-5660],[1217,-3412],[-201,-7748],[-4543,-3761],[-3447,313],[-5684,3216],[-2430,617],[-228,-8617],[-2032,-2801],[1524,-1662],[2844,485],[1289,-5103],[3246,-2968],[-817,-1602],[-171,-9924],[-1697,-6977],[-529,-10225],[-11165,886],[-2988,-23],[175,-852],[2390,-25157],[-1601,-646],[-8587,-200],[-7114,-7623],[-3156,-2265],[-1133,77],[-3280,-4656],[717,-2911],[2274,1620],[2804,-4367],[1768,-1749],[-2254,-2067],[158,-3670],[-1470,-4001],[1461,-5480],[-287,-2910],[790,-1499],[-1,-3596],[691,-1757],[3111,-1614],[396,-7422],[-559,-937],[310,-8586],[1727,-3089],[4552,-1272],[-1124,-4105],[378,-3608],[1095,-1125],[2380,2183],[3355,755],[239,-1039],[-1596,-3523],[-4819,-5828],[-161,-3598],[790,-2101],[2459,-365],[1153,-3116],[48,-1698],[-2332,-4289],[-5048,-1743],[-1731,-2671],[2442,-1732],[4472,3672],[3123,312],[1334,-1516],[429,-4111],[-990,-4299],[-2551,-5169],[560,-1834],[-1523,-1079],[-1642,-6979],[921,-2621],[1585,-267],[2186,-4244],[-2743,2196],[346,2027],[-1667,178],[-2968,4244],[-152,1663],[-3508,2705],[-2651,4672],[-1898,-4144],[-3426,2983],[-7095,1634],[-3699,1936],[-2376,27],[-9097,-1940],[1658,14082],[-1340,1753],[-3009,492],[-2335,-32498],[-290,121],[-374,2374],[-2332,4520],[-4725,18718],[-848,6582],[-1291,-2103],[-2705,-400],[-1039,2249],[-18139,-21],[-2881,8755],[-60,1211],[-688,4673],[-208,3018],[-1250,2307],[847,42],[1948,102],[743,278],[3971,2105],[1617,2328],[3919,6466],[924,1749],[-670,4382],[7602,13310],[-1635,21450],[1394,5230],[-2371,2239],[-285,6613],[1583,250],[2005,1992],[6848,982],[12125,-706],[5046,0],[244,1020],[-2072,1645],[-1321,2160],[-2749,8544],[-3846,7017],[3037,1927],[2184,2347],[5717,2794],[-1391,10155],[115,1503],[-1983,-1023],[-1025,5698],[-1177,-2661],[-3398,416],[-2300,3015],[-1403,3837],[1229,3888],[1232,5957],[-2062,5322],[-1563,5230],[-1077,1528],[-712,3456],[5175,560],[1912,2635],[3117,7712],[2898,4151],[2451,5159],[-2361,2075],[-2476,3780],[-11958,-5005],[-1906,2207],[7601,8122],[-476,2090],[-2426,-2392],[-1315,87],[-113,5478],[-7981,-782],[91,-3392],[-2825,-1577],[-3039,3561],[-1995,-1458],[-2489,-9065],[-577,301],[-2323,8348],[-2762,3202],[-2510,7746],[-2648,11099],[-645,369],[-1618,120],[-665,3170],[-2703,1537],[552,2027],[-925,510],[579,3295],[-3661,1558],[-3781,4541],[-1044,-1778],[-518,-3202],[-4824,-2802],[-3539,-1187],[-9818,627],[496,11783],[-965,9765],[-522,5930],[624,9222],[40,502],[314,4276],[-5178,-1060],[-751,2964],[25,7382],[1086,1340],[-720,-57],[-147,15510],[2213,3324],[4188,-1416],[246,-378],[-906,4395],[570,4147],[1152,3844],[-668,3693],[1110,1302],[3610,-933],[1217,5334],[969,7176],[-1161,7993],[-35,5543],[632,2723],[-380,4013],[-1973,3720],[-2326,2962],[-734,4365],[-75,6093],[552,3700],[-1686,1019],[-1805,4787],[-2415,350],[-1111,-2444],[-3470,-187],[-1135,1111],[-2560,-11350],[-4421,-47],[70,10997],[-1567,214],[48,1831],[-2810,-316],[-3939,859],[18,-3396],[-5696,63],[144,-6385],[-1788,118],[-616,-3351],[-3700,-986],[21,-2010],[-2918,-237],[1295,-3547],[3925,117],[-20,-1970],[-4008,-1380],[-5079,-3322],[-737,992],[-2978,-2375],[-5078,-284],[-1439,-824],[-351,2309],[-4079,6046],[-2207,-306],[-1696,2208],[-1918,61],[-1503,-3004],[-5821,-1166],[-2281,-2091],[-361,-2217],[-1155,2262],[-365,1304]],[[549115,788041],[2208,2264],[470,-3418],[1675,600],[-377,4143],[943,2296],[3474,2927],[2368,1016],[1673,-2794],[-583,-4853],[-1956,-5338],[576,-2438],[1259,-1520],[1535,231],[1829,-842],[134,-559],[-504,-1440],[-123,-1789],[480,-1800],[536,-729],[3458,-217],[3905,-5359],[914,665],[4249,-6474],[296,-2126],[1615,-435],[746,-2858],[1173,-2374],[2316,0],[3032,-3117],[2374,2602],[-640,2401],[2790,-479],[4345,2055],[2936,4467],[3031,2421],[1695,-543],[2654,-3890],[2797,-6958],[1051,1431],[594,6044],[1488,1340],[4617,-5461],[1579,-1052],[2194,301],[1506,3553],[2169,-933],[4767,11631],[2517,-131],[-1109,-7083],[-1399,-3628],[945,170],[1902,-2996],[618,-3078],[1823,-1745],[3826,549],[414,-2805],[1963,-127],[1008,-5788],[1635,-396],[1809,155],[181,1736],[1601,-551],[-1168,2131],[2944,3294],[1109,-1507],[1048,3619],[1055,-1499],[-770,-2006],[2939,2016],[1695,384],[1001,-1953],[1102,259],[-219,3034],[2510,-801],[1736,3046],[540,-2122],[1469,604],[-921,1808],[1048,1258],[1109,-1062],[448,4532],[1614,-1403],[1135,873],[801,-2527],[1242,1370],[-1322,1426],[1143,1277],[1728,-1289],[281,1831],[-1101,1154],[-145,2599],[-1369,-312],[873,2349],[1223,-1041],[2138,1891],[-1343,1342],[1524,2890],[3171,-252],[152,-2163],[782,2682],[1562,-1747],[455,1715],[1942,412],[455,1539],[2773,1007],[392,2669],[2699,-937],[754,-2818],[459,1976],[2044,-146],[-253,1456],[1965,-841],[2282,-1192],[-569,1444],[2458,-891],[-1334,-1935],[2765,-2724],[933,1823],[1811,-2245],[1243,1904],[-381,-3140],[2644,-787],[-972,-2995],[2275,-144],[113,2421],[1928,1685],[874,816],[1376,-1384],[-62,2003],[1861,-2404],[1136,3532],[535,-1759],[2400,688],[-504,3197],[2199,-2896],[-674,2822],[1790,475],[73,2044],[1519,-4281],[977,1381],[1709,-1805],[54,-1802],[4234,-1475],[981,1821],[535,-1967],[1260,928],[107,2765],[922,-3138],[1417,19],[14,-3034],[786,1196],[962,-1467],[2444,619],[1274,-3144],[1170,2568],[160,-2203],[4005,-301],[715,-3626],[1142,1029],[707,-3836],[-734,-2588],[1623,-521],[976,-1819],[-1116,-988],[2096,-395],[-187,2163],[6143,-9314],[1987,-1287],[1456,1775],[-132,-2888],[1368,62],[-608,-2580],[647,-8824],[1788,-2007],[-793,-853],[1808,-6247],[-835,-3431],[-854,-530],[1895,-2141],[2102,-4888],[1477,250],[-181,-2952],[1348,-1153],[1794,-3598],[-1447,-4273],[-1442,-198],[641,-1632],[-1129,-1134],[1429,-1120],[-254,-3027],[1006,-1810],[-1368,-4241],[-1000,-924],[-561,-6591],[-1175,-1403],[288,-2704],[1141,1425],[1560,-3277],[66,-4552],[1748,-2994],[-1274,-3379],[820,-354],[867,-4480],[1153,-1935],[2323,-5905],[1700,-1986],[2934,-1094],[3899,5582],[1994,-104],[607,1789],[1229,-1157],[-587,-1287],[2100,-2610],[433,-4992],[3142,-1168],[-942,-3759],[486,-3068],[848,-167],[-1283,-5737],[1394,-1807],[3282,-939],[-680,2705],[1640,2044],[2309,-326],[1368,-1815],[625,-3087],[2221,-774],[75,2776],[3437,4715],[492,-1624],[2342,-1669],[1581,420],[1193,2618],[1223,-282],[-223,-3784],[-961,-3081],[-1009,-5967],[766,-4554],[1380,-1997],[2542,2014],[-186,2226],[2692,1793],[3654,-485],[1077,-4397],[1674,-924],[315,-2515],[3488,-1755],[2883,-4238],[608,924],[1732,159],[3557,-3012],[-513,-4514],[1268,888],[1033,-1956],[-312,-2006],[2388,-2338],[2921,750],[547,-1558],[1595,1134],[1013,-1259],[1467,1094],[700,-3430],[-558,-3732],[1300,-1361],[-160,-1965],[1962,-3057],[641,-2673],[-800,-1495],[941,-3390],[2067,-1859],[636,-3496],[-487,-2618],[-2402,1912],[-706,-2587],[782,-5397],[-754,-2714],[1554,-3244],[-285,-2338],[-3712,-5137],[3254,-2109],[2046,-2256],[-387,-2060],[1122,252],[-228,-2953],[2742,-4768],[62,-2176],[86,-2338],[-1661,538],[-2431,3382],[-2548,2360],[-1131,2158],[1221,1539],[-645,1603],[-2389,1931],[-3330,842],[-2408,-119],[-1158,-997],[-422,-4343],[-1117,-2619],[-1830,-2692],[236,-4185],[-3505,-519],[-2256,-1315],[198,-2480],[-878,-234],[-2114,2091],[-3130,-1380],[-690,2402],[3516,1800],[3650,4443],[-881,5224],[301,3063],[-969,1728],[-1867,-727],[-1560,-3121],[-1426,-398],[-1795,1064],[-1710,-1499],[-1248,1136],[480,4768],[-3025,-1897],[-1788,1916],[-1744,-1681],[850,-6574],[2215,-3121],[-140,-3495],[-1751,-47],[-383,1607],[-1498,-127],[-1384,-1845],[148,-3193],[-3180,528],[-1602,2436],[-2256,375],[-1051,-2902],[349,-2202],[-3710,1021],[-3126,5269],[2090,1234],[208,2001],[-2429,521],[-3576,-2311],[-1170,-2365],[1227,-3609],[-1008,-2622],[-2523,-392],[-4582,1053],[-1240,-3398]],[[784618,516749],[-818,-655],[-1441,-2186],[-2631,-456],[-4556,4276],[-1178,3009],[890,4803],[1855,2649],[251,3746],[-1274,4464],[-2628,6197],[-2231,7723],[-1131,2072],[-1529,288],[-1290,-356],[-268,-2597],[2313,-4569],[-622,-2376],[-1095,-234],[-2120,1750],[-2399,901],[-5046,-1512],[-3443,-5987],[-236,-2127],[2156,-3799],[818,-358],[2287,2991],[3092,-2300],[2153,-2554],[153,-1368],[-2625,142],[-1762,-1416],[-954,-2796],[-3497,-6068],[-4143,-4778],[-2419,-1486],[-1803,209],[-1197,878],[-2811,3895],[-694,1891],[-508,4702],[1536,5400],[-1082,3036],[-4200,1452],[-1084,1386],[-1764,4730],[-1300,1474],[-2473,-1228],[-3223,492],[-3533,2800],[-1236,2585],[-579,5134],[999,6032],[388,7159],[1205,6714],[-886,7007],[520,880],[-4913,7736],[-1172,453],[-11228,-1549],[635,52390],[-7948,409],[-5040,-5745],[-188,-5341],[-5015,325],[-293,-4755],[-4288,-1041],[1869,4766],[-1432,87],[-277,-821],[-1041,-3373],[-196,-3129],[-1988,280],[-1579,2512],[-1372,182],[-410,57],[-11047,1491],[-1519,1088],[118,1825]],[[667201,626257],[2278,15067],[4054,14755],[323,1130],[8443,29265],[-3297,1438],[-4526,193],[-2622,-17285],[-4652,1505],[-1625,-939],[-1568,1883],[-1469,-54],[523,1584],[6035,19752],[2992,268],[2831,-3825],[1579,6988],[-2101,330],[3,2699],[-2051,941],[-42,3814],[-1508,-5264],[-4843,357],[-1340,25],[-318,-203],[-989,-223],[-1541,100],[-940,167],[-505,-5258],[-310,-3833],[960,-3040],[-1496,-1236],[-6086,2674],[-921,-3662],[-2811,5584],[-1156,-415],[-2792,3536],[-3278,1813],[-2069,-4295],[660,-3410],[-1431,-3667],[1750,-13206],[2856,412],[1020,-1978],[2179,108],[-1815,-8570],[-13723,7117],[663,-3805],[163,-2198],[-1881,-11001],[-3011,4486],[-3938,3472],[-1079,4645],[-3243,5718],[-3604,2472],[-3603,4552],[-2123,6765],[-2449,2101],[-2016,-1961],[-374,7511],[-1030,-1312],[-1743,-3403],[-2083,-2642],[-1082,1052],[-2914,-3286],[-10983,-12498],[-141,3280],[389,1499],[-17031,-10973],[-3323,3521],[-4474,4437],[2186,4999],[-181,4357],[496,1575],[942,2165],[588,1401],[-19792,1486],[-1482,1624],[-344,-1121],[-1651,1600],[-1586,2743],[-3415,8688]],[[536713,701348],[-1975,3342],[1871,4053],[2,3367],[2022,16837],[-4834,5298],[395,18067],[-7448,-4541],[-2515,-2174],[-2514,-5181],[-1276,1705],[923,19830],[-1297,7895],[3937,160],[-498,-1966],[2090,49],[3232,5716],[1530,-2977],[2309,1662],[-19,2205],[4580,1308],[2058,-649],[3164,5445],[1698,1528],[2164,3752],[2803,1962]],[[380753,671375],[6540,990],[-770,1785],[-2522,2545],[-159,1623],[1533,1508],[1196,3793],[-81,2993],[-1988,1062],[-1607,5538],[334,2673],[1381,2006],[1647,10894],[905,772],[2574,-2457],[8254,314],[97,7623],[1760,1185],[1350,4230],[597,4829],[6886,4471],[1029,8321],[1603,1569],[-64,130],[1905,1274],[8581,1297],[3212,1900],[2616,-2358],[4129,-827],[1937,1222],[5166,392],[1483,1058],[974,-500],[-297,5092],[-2347,6983],[1770,130],[0,2826],[-1157,114],[0,10727],[1994,-97],[49,16937],[2792,392],[62,5465],[2211,128],[8,4002],[2078,-144],[-110,4032],[40,5317],[-698,2375],[-4360,5684],[-1162,3301],[-2141,13816],[-749,2402],[4147,6150],[-27,-2483],[1469,-1149],[885,9538],[-2464,-500],[-1895,-1459],[-3055,-3597],[-1727,-554],[-1847,1713],[-481,6119],[-4592,4789],[-2962,100],[-1285,2461],[-898,4899],[-1448,339],[-1998,2309],[-615,7291],[-626,1062],[2138,3948],[2308,1645],[6842,2039],[5704,-5311],[6238,1167],[-797,5501],[-32,10802],[-16010,-723],[125,13865],[12236,421],[909,6011],[1529,-382],[-2859,6892],[-295,4448],[1408,9373],[-152,9773],[-1619,7338]],[[437488,946547],[2299,3260],[1864,-65],[71,-5010],[2574,-950],[607,-2008],[1725,2708],[528,-893],[1684,1488],[1135,2723],[-594,822],[1609,2943],[3616,990],[2411,2518],[194,2474],[2391,2684],[3316,-457],[2470,926],[910,-322],[2217,4534],[1458,-1560],[2513,2258],[1502,8399],[842,2631],[-757,5279],[-2709,4522],[-636,2296],[-677,6464],[508,988],[1954,-443],[3233,1060],[1896,-2718],[1670,-2219],[140,-416],[-271,568],[-598,-3729],[130,-4200],[6840,-33948],[1312,-20430],[716,-2852],[1256,-2120],[4923,-6462],[-1437,-5622],[-1199,-2368],[-3900,-11461],[-736,-8440],[259,-7496],[-754,-7953],[2331,-7278],[2247,-3603],[1329,2912],[-316,5404],[1458,1402],[1205,-276],[4730,-5707],[1790,-2932],[532,-2396],[2284,-2510],[2838,77],[1376,-1258],[-358,-4087],[2451,-893],[4696,-4004],[3935,-1686],[2996,1584],[1158,-3191],[-686,-4252],[682,-1828],[2474,-1298],[560,-6150],[-794,-3824],[3265,-3469],[-350,-2893],[-2501,-4906],[788,-4961],[2439,-3795],[-2054,-3973],[1940,-8435],[2882,759],[2256,9090],[2529,1406],[1119,-4794],[4170,-6811],[4194,-3742],[-620,-2290],[3225,-996],[922,-1295]],[[536713,701348],[-1736,-2843],[-7390,-9410],[-2065,-4457],[-1194,-6345],[-383,-6691],[-1446,-4303],[-748,-6021],[1214,-13159],[-48,-5561],[-908,-3865],[1587,-6038],[2081,114],[2921,-2402],[321,-1611],[2280,-634],[2280,-6394],[2065,-3517],[-797,-4537],[1268,-839],[416,-2955],[1134,178],[1237,-2441],[-2967,-6919],[-2381,-2265],[-2958,1372],[-5026,-8132],[-1081,-708],[-153,-5966],[-6132,112],[-1317,-155],[-2303,-9044],[-347,-2724],[-1427,38],[-422,11],[-378,-10997],[-2079,454],[-6749,1668],[-691,-4076],[2587,-3562],[-605,-6360],[2259,1060],[3648,-647],[2792,-2743],[-2084,-3519],[4943,4361],[7558,-9873],[2598,-2339],[4854,-4185],[3617,-2378]],[[534558,530101],[134,-6456],[-1636,-3739],[4615,-20279],[2410,2553],[-106,-2777],[-248,-10130],[-94,-2841],[-5532,-1335],[-62,-5743],[3313,-255],[133,-6610],[2138,0],[0,-5226],[-4889,-411],[0,6712],[-2191,51],[-134,-2305],[-1763,-205],[-89,-23287],[5220,-625],[3165,754],[-172,-4647],[-4257,-15291],[-1092,-4595],[-1867,-11603],[-2504,1705],[-3770,237],[-415,-4515],[-2915,-2852],[-3883,-275],[-816,526],[-2050,3729],[-745,3057],[-1841,2504],[800,3315],[-40,3838],[-1612,4038],[347,2894],[2810,3195],[-1293,3877],[-2801,-7004],[-1797,-3324],[-8652,-14014],[-3213,-6012],[-2117,-4976],[-305,9678],[-3356,-195],[-2329,5351],[51,1965],[-3481,2012],[-2073,49],[-945,-3456],[-8198,-7596],[-3187,-4980],[-3426,1796],[-5997,-2322],[6110,-7700],[-9100,1099],[-2313,-5928],[-1403,-7183],[-1078,-2154],[-1083,3530],[-7,6485],[-4875,-7780],[-906,750],[473,6874],[1339,237],[-1689,6797],[-4738,-316],[584,6049],[-3126,1700],[296,5584],[-4694,2181],[-394,11343],[2863,120],[21,5691],[3880,239],[698,2218],[1919,-916],[1315,1906],[2291,10803],[303,3800],[-2287,235],[-2841,-2432],[-6705,2845],[-1627,-718],[-2991,1916],[-964,2224],[-2251,2466],[-3326,648],[-865,-884],[-3199,335],[-2103,2390],[593,5064],[-717,3274],[-1258,2236],[-2780,2006],[-4056,2018],[-2191,2353],[-5043,853],[-1827,2747],[621,1194],[-1325,2546],[-4327,3581],[-5235,1683],[-259,1579],[-3792,4221],[-2125,229],[-2513,2338],[-3518,1184],[-859,3775],[-547,2265],[13044,11615],[-6562,10598],[-2772,5283],[-2996,5883],[-2956,7828],[-2046,7428],[-2705,-2923],[-8214,-5178],[-960,5508],[-3755,26],[-4179,-2866],[-125,16250],[706,8285],[1085,4772],[-3865,6127],[2560,2675],[821,4420],[2304,-2160],[10768,5054],[-1661,6674],[-532,2750],[-1269,15679],[3574,2597],[1606,3378],[1836,1000],[1393,3055],[2668,-125],[1247,2466],[306,3222],[2356,2589],[2627,-488],[2835,6110],[73,2226],[3269,3814],[-255,2317],[-6769,7828],[-1114,7983],[-1201,3045],[1441,2974]],[[380753,671375],[33,2254],[-3717,4303],[-846,3711],[-4104,2692],[-2316,3085],[-433,2351],[-2530,-821],[-2355,2606],[-1488,5561],[-2356,718],[-2422,2805],[-1322,2763],[514,3495],[-1089,2057],[-1028,-218],[-1715,3555],[-1950,1579],[-921,2430],[-2836,2983],[-2865,3824],[-594,4594],[-1195,944],[-2052,-906],[-956,-2291],[-3010,-889],[-8702,-24904],[-3264,1703],[-8688,1690],[-1541,3540],[722,3239],[-473,3269],[-93,7535],[817,3305],[66,3375],[1314,3305],[-1078,6308],[-1372,1848],[-5602,3960],[-4403,132],[-726,8355],[1428,10500],[-109,2078],[-3185,10195],[-2779,5349],[-242,4092],[4645,6614],[2618,4329],[7594,10751],[-6645,2739],[-7959,1467],[-21,1950],[-4341,1790],[-948,4649],[669,2565],[-2981,53],[56,5557],[-2508,108],[28,3954],[1059,53],[-112,5238],[-6297,-53],[-167,-2353],[-2758,-53],[159,10959],[3835,409],[-427,4541],[7908,-136],[804,13621],[1591,149],[-127,11851],[5867,6116],[6705,76],[3679,920],[541,-173],[78,13568],[2200,1422],[623,1012],[12753,-2650],[233,5056],[626,1745],[-13517,10034],[3994,8030],[285,2687],[-1201,6455],[-1476,3136],[1319,1522],[2402,5279],[2031,2788],[2595,377],[775,-5201],[1612,-3555],[1710,1183],[47,5824],[876,1978],[4016,-3061],[1383,281],[2020,-1829],[1301,3099],[4382,-4214],[3064,-689],[3707,-4306],[1959,-1143],[989,738],[2065,-2792],[857,3799],[1421,837],[3609,-2684],[-187,2051],[2533,1161],[-301,1745],[1798,2497],[1920,92],[-511,-5199],[1271,-1770],[1683,1018],[2233,-2131],[1325,-2767],[9730,15602],[1409,7291],[1097,2654],[2953,4212],[1088,2400],[-9,2283],[4479,-264],[4739,13182],[5509,454],[3933,2368],[2384,-645],[5697,64],[2308,1045],[1769,2381],[-54,5234],[2789,7770],[4064,3668],[7500,3752],[1588,-13257],[-129,-15766],[1968,-21251],[417,-3178]],[[297941,140265],[4454,3899],[11149,3549],[3188,3055],[798,-1293],[11503,-674],[260,-10037],[2499,-852],[2075,570],[2330,-5196],[460,-5965],[5795,-7031],[2101,-364],[-283,10861],[-889,17],[-105,12010],[-2586,9499],[347,11612],[-451,5383],[-1212,4766],[-1359,-1268],[-48,3165],[125,5044],[711,3750],[660,17227],[7202,-199],[2122,-1380],[9434,-9551],[1107,-988],[920,-625],[751,-734],[727,2392],[-1894,1136],[11605,8520],[562,6110],[16,1635],[-1333,11071],[2663,1929],[3951,-738],[3368,-1609],[6086,-316],[7132,-1613],[2965,2175],[6223,4562],[-1111,-1528],[315,-4296],[2403,-4547],[718,-4897]],[[405395,208501],[-2573,333],[-5596,3086],[-1169,2],[-5690,-2094],[-2008,-4651],[-872,-3719],[14736,-6534],[5915,-4155],[3369,-3825],[3009,-4842],[1741,-3841],[126,-325]],[[416383,177936],[460,-1132],[1999,-6742],[3585,-17439],[1685,-6460],[2759,-7539],[5477,-11469],[-1709,-4532],[-3019,-5780],[-8520,1173],[-5165,1431],[-2522,941],[-4949,3186],[-11136,4192],[-869,-2173],[-1591,-829],[-1271,-5421],[-71,-3589],[959,-1917],[42,-5113],[-2347,-929],[-203,-2241],[-145,-8762],[338,-7238],[-1162,-5355],[-1558,-10581],[-8270,1276],[-846,-9290],[-626,-1995],[1015,-1532],[-2689,-6933],[-1417,4357],[-4038,-1260],[-1797,-2124],[-3761,2290],[-3097,3634],[-581,-1724],[61,14338],[-621,3135],[-5251,2284],[-8028,8369],[-7992,-1600],[-1618,-10043],[136,-2497],[-972,-7938],[-6562,-786],[3610,-7486],[2075,-9106],[251,-4568],[-989,3205],[-586,-867],[-3350,1296],[-3545,-3380],[-2626,-659],[-433,1363],[-4440,2038],[-106,2336],[-3061,3952],[-2716,1401],[-2216,2976],[-4077,1629],[-1137,2823],[-2033,1906],[-531,4594],[-2432,2898],[-2254,5339],[-1926,1403],[-4576,-263],[-3785,3933],[-2266,1249],[-1021,2060],[-2146,100],[-2124,1919],[499,-2424],[-4339,931],[-35,2798],[-1748,846],[-583,3274],[-3083,1624],[-269,-1171],[-1939,2106],[-1474,4861],[1551,2762],[-493,4575],[-3788,920],[-88,3852],[-917,-1929],[-536,2646],[-361,956],[3261,1959],[929,-1666],[-92,-3490],[4105,-7571],[2448,-294],[-956,1030],[-1677,4734],[58,6702],[6240,8440],[2041,7248],[2188,5953],[646,-18917],[646,-1717],[6812,-687],[-1718,-4259],[-277,-3238],[897,-2921],[2504,-4194],[2430,-7269],[3390,197],[1471,1077],[-987,2025],[2,12470],[-1303,5694],[430,24662]],[[426850,340850],[-2426,-4259],[2146,-1050],[2795,-3864],[-672,-6028],[744,-3252],[3069,-4950],[2491,-2998],[2076,-526],[3209,-4212],[1408,-2888],[1151,-6364],[350,-5166],[-998,262],[-1914,-3290],[-3022,-820],[-3412,-2638],[-6182,785],[-4924,70],[-3318,-1264],[-955,-2662],[-1759,-1928],[-3400,1196],[308,-2940],[-682,-3178],[4596,-6233],[2338,-10350],[1755,-4172],[-1961,-1478],[-398,-2285],[145,-7062],[2250,-255],[-132,-2469],[2491,-2025],[-611,-1749],[1303,-1189],[-2862,-2093],[4659,-6837],[2077,-8836],[-1417,-8792],[-2689,-1989],[-236,-4965],[567,-1619],[-915,-1906],[-4711,-1079],[-3686,-1904],[-4751,1923],[-2529,2372],[-2821,4607]],[[297941,140265],[-6603,-1609],[-7032,98],[-1407,-409],[-418,2069],[1609,8011],[-4212,-1730],[-304,1516],[4239,3721],[2813,6854],[2523,-1760],[2981,-511],[4647,-2113],[3582,-418],[838,4096],[-1970,2213],[-732,2428],[-1154,8726],[1918,867],[-2287,2415],[-1552,-780],[-1414,-2943],[-3187,-4634],[1,2946],[-1634,2513],[-388,3769],[-1911,2686],[27,1993],[1498,2597],[-1882,2900],[-471,-2039],[-1964,3765],[834,4238],[-883,8872],[1301,5917],[1553,3767],[6738,-99],[7885,2304],[-226,5194],[-2412,4999],[-755,4874],[198,8141],[267,4622],[867,1726],[5765,-1756],[3310,5924],[-356,7222],[-12466,-775],[-293,6353],[-6893,-1255],[12,3808],[-4517,229],[-13,1041],[3350,254],[-52,2362],[-2835,154],[-13,2082],[3430,-178],[-145,2108],[-5150,-43],[-262,8646],[-865,5476],[3232,-216],[-225,5259],[-2180,649],[-181,7130],[5415,318],[589,15033],[2234,-581],[202,5330],[18853,-458],[17,12376],[2037,978],[-2638,8442],[-723,841],[-3883,753],[75,7802],[-796,9578],[-1061,4143],[15768,5230],[23,-9241],[173,-1571],[4506,-1018],[2637,-4265],[3098,-1468],[2243,9040],[1371,1512],[2803,216],[1840,-1866],[2143,214],[1702,1686],[2775,729],[1787,-1511],[4738,-2773],[4244,-3505],[1466,5105],[2188,1512],[1142,-712],[-135,4664],[-1610,3006],[-64,4940],[4185,42],[44,-2924],[4164,-246],[150,3416],[1524,-246],[108,-7412],[4128,51],[-4694,10257],[6912,-872],[8620,-387],[3845,-1251],[4115,-81],[15329,-4217],[-2982,-7051],[-2820,-7961],[639,-5170],[8667,-57],[-198,-3284],[6401,-3833],[-339,-2174],[2210,-1630],[2352,261],[455,8436],[7086,-270],[-325,-3557]],[[643731,507895],[2492,11531],[822,3549],[2520,11633],[2282,10534],[1161,5283],[5683,26198],[4904,22936],[1735,12600],[1871,14098]],[[784618,516749],[712,-4910],[3093,-8383],[-4098,-420],[-1189,-6826],[339,-1849],[2264,-4276],[2180,-489],[491,-2610],[-2044,-2691],[1579,-4888],[-1300,-12950],[14389,-26417],[1505,-4308],[-1895,-4760],[-1632,-6258],[-887,-5773],[-1456,-3670],[-3773,-3001],[-5205,-6660],[-7221,-8618],[-2631,4408],[-1984,4401],[-2308,3002],[-3077,-3691],[-1113,-3597],[-2504,-2650],[-740,-3846],[3610,-3013],[898,-1840],[4796,-4971],[1592,-3119],[751,-8722]],[[777760,373354],[-9010,-1089],[-1518,-937],[-2915,-5182],[-5841,-13329],[-3536,1338],[-1269,-805],[-238,-8307],[-1951,274],[-809,-3424],[-5641,2739],[-1904,9996],[24,4155],[-4189,958],[-1628,1771],[-5,3449],[-13553,6665],[-4218,1345],[-404,-6386],[-4089,-2728],[-4737,-1915],[85,-16481],[3298,0],[-300,-2875],[-1713,-3862],[3256,-2712],[-1799,-8380],[-3384,1973],[-829,-11035]],[[708943,318570],[-2949,1504],[-1956,-2924],[-2477,-324],[-1306,2671],[-2400,1427],[-2793,3131],[-1378,-416],[-3460,2294],[-3706,7073],[-4506,2540],[-909,-1281],[-1191,-5459],[-3985,-1219],[-2390,-3509],[-325,-4435],[-8787,9057],[-236,9409],[5232,-420],[-109,14948],[4538,142],[0,-1335],[6610,-481],[829,2713],[-486,8120],[1035,14745],[693,3777],[-28,8417],[-3075,1832],[-2231,301],[-623,-4329],[-2621,-5300],[-293,-4823],[-3050,-2597],[-3776,-1027],[-2138,397],[-6214,-6973],[-1251,-437],[-3044,-5154],[-4961,-1799],[-2629,-3534],[-2962,228],[-8523,3333],[-2299,1315],[-456,7981],[-1677,4211],[-9298,1847],[336,2681],[-1959,1465],[1011,62],[-30,2995],[-826,-827],[-1277,-426],[-4010,132],[1360,4876],[-141,70],[131,496],[4936,17584],[2363,10305],[948,4439],[1039,4669],[2401,11145],[5031,23146],[2890,13308],[1918,8770],[2607,11959],[2716,12517],[905,4322]],[[729352,488205],[1110,-4914],[2023,-3255],[37643,-5806],[-713,1674],[-1916,3240],[-642,2016],[-1914,6625],[-34214,13305],[134,-7553],[-1547,-1196],[36,-4136]],[[643731,507895],[-784,-158],[-1066,1488],[-4075,2275],[-859,742],[-3664,4449],[-11471,14035],[-6928,3040],[-1687,607],[-341,-2882],[-1025,-737],[241,-3971],[-3192,-5438],[-2298,1435],[1707,10511],[907,2354],[90,133],[-9592,3447],[-5900,2120],[-11100,3984],[-12114,4355],[-3282,1182],[-1625,5811],[-1870,-1977],[-432,981],[-2518,905],[-202,-1388],[872,-312],[1006,-98],[433,-981],[-976,-1032],[-598,-628],[5098,-1906],[253,-1670],[3858,-3109],[-18,-1011],[-603,-4774],[-101,-1208],[15,-619],[95,-785],[618,-3106],[355,-1708],[-10704,177],[-99,-4738],[-2444,5960],[-4019,2542],[-558,-62],[-1006,140],[-2746,1749],[-2447,72],[-3151,3456],[-4738,222],[-4433,-7182],[-55,-4486]],[[777760,373354],[537,-5001],[-1471,-5374],[738,-3515],[5606,-6229],[1264,-5158],[1998,770],[1958,-1010],[1835,-6540],[239,-4147],[-454,-2247],[-1364,-1641],[472,-3536],[-2116,-13526],[1990,-1647],[1910,543],[9163,-1349],[10708,-6493],[4835,-679],[3425,-1997],[4006,-1304],[14269,-402],[2130,-889],[838,3426],[2279,5358],[166,5332],[490,2453],[4512,9627],[481,-4730],[1584,-3513],[2592,-1932],[-207,-5760],[1998,-447],[4200,2767],[3818,-5402],[-3574,-6912],[-3195,-10888],[7323,-2665],[8469,-8588],[1931,-1155],[-2974,-15562],[-594,-12556],[306,-2928],[3058,-4259],[7437,-8845],[-1847,-3170],[652,-2673],[-585,-2027],[-1744,270],[-1636,1768],[1423,4108],[-724,1236],[-1558,-1299],[-2528,1391],[-825,-2048],[74,-3649],[-2176,-1414],[-1271,-3045],[-1463,-708],[-546,1247],[1364,3992],[-1372,2143],[-1836,-1416],[1218,-2930],[-32,-1893],[-3460,123],[-300,5075],[-1185,342],[-672,-1985],[-2554,-387],[-1597,-2006],[-1337,-199],[-1410,1632],[-686,2869],[1038,1768],[2621,-1048],[158,4367],[-2088,-917],[-1318,1799],[1916,2432],[-998,1652],[-1776,-1777],[-2177,2764],[-1204,2661],[2628,2112],[-574,3930],[-1131,197],[-1404,-3218],[-1514,-5794],[-4343,-10928],[-7023,-15627],[5684,-1433],[5451,-2564],[8479,-150],[-2661,-6812],[-5951,-7632],[-2081,-3203],[-4089,-9085],[-1621,-1869],[3933,-3526],[-8610,-8637],[439,-5281],[-2833,-76],[240,-2296],[-8507,-250],[-6815,-4188],[-388,-1602],[-1842,977],[33,882],[-1728,628],[-3907,1553],[-4252,1008],[-4822,-698],[-13182,-4685],[-10162,48],[121,605],[2705,8878],[-4486,2619],[3958,8191],[-1238,2061],[-4309,3848],[-1211,-437],[-2737,3941],[582,2296],[-2428,6034],[684,984],[-513,3542],[2975,263],[-240,2557],[-3078,4723],[-270,2097],[-4251,3435],[76,1950],[3971,5461],[3216,10119],[-4395,-3911],[-2353,-1336],[-246,1300],[-5506,-842],[1276,9495],[-1901,554],[-78,-3269],[-3107,326],[-39,-3636],[-3840,-385],[35,-2085],[-4522,-926],[49,-3155],[1195,-3955],[-2324,-738],[-1545,8480],[1914,18052],[265,7178],[-634,5370],[-2090,-203],[-6977,-2500],[-3015,-208],[435,4779],[-1611,2451],[159,2703],[4237,7977],[2723,2547],[12,3328],[-1425,2078],[2118,3564],[-575,2860],[-5682,8605],[-2512,6419],[-1202,5003],[-2207,1135],[-1273,2671],[-3228,1838],[-2297,61],[-2469,1143],[-1698,-157],[-3662,6006],[-1971,1153]],[[426850,340850],[5289,577],[-473,2086],[74,11162],[226,13481],[1245,3710],[1627,1599],[-14,-5419],[1399,-1910],[6339,1717],[3842,2747],[2781,191],[1366,-1024],[1447,-4458],[-896,-11758],[-686,-4513],[1779,-3865],[3687,-4154],[1959,-1225],[2675,-299],[2835,-2993],[1847,528],[2698,3114],[3893,2241],[1424,-110],[-2985,-13204],[-2671,-8105],[3067,-1734],[4136,-611],[8881,-385],[1621,718],[5982,6386],[4775,3909],[1961,632],[7606,-261],[7360,-827],[-952,-21785],[-17215,-13365],[-957,-17339],[2991,-2120],[987,-1665],[-1714,-837],[-1042,-1206],[120,-558],[1598,-3496],[-797,-3195],[-977,-9413],[2650,729],[4748,-1009],[3782,899],[1515,-2648],[2208,-1609],[-204,-3515],[1447,-2230],[972,566],[1466,-994],[1885,-1516],[693,-1211],[1773,-824],[805,737],[1551,-1085],[998,477],[666,2078],[-18,720],[461,147],[-268,-4895],[1897,-5894],[-838,-678],[805,-2871],[-1930,-4266],[442,-470],[116,1439],[458,-517],[1304,2118],[729,-598],[206,-66],[138,-159],[2177,-7097],[-83,-3725],[1551,-1819],[-330,-4217],[-944,-2854],[915,-1774],[2948,-3377],[162,-5654],[-923,-1707],[-667,-4757],[-400,-749],[-488,-3419],[707,-6064],[804,-854],[261,-5243],[-1276,-4113],[-257,-4111],[545,-4750],[3431,-4294],[2926,-2798],[233,49],[252,1153],[135,9],[-306,-1470],[-108,-544],[-522,-2106],[-919,-1596],[-3163,4821],[-4151,9917],[-2507,976],[-7636,332],[31,3454],[-4742,-2510],[393,-2917],[30,-1442],[-600,-1280],[-1408,-2968],[-740,27],[-3173,-6670],[87,-1571],[-484,-1189],[-616,-3084],[-28,-2810],[1373,-13527],[845,-2956],[10,-625],[-392,-4126],[-1621,1135],[-8487,3767],[-28574,12300],[-1245,-1422],[-1027,833],[-1707,6089],[-1483,4848],[-6207,5364],[-3914,9440],[-765,1338],[-833,3420],[609,2124],[83,1342],[-2573,4303],[-2488,2964],[-199,314],[-622,-19],[-7061,1539],[-5181,1155],[-6054,1334],[-5222,-261],[-5921,-3123],[-1523,-1488]],[[990451,575669],[3182,-3202],[430,2335],[1218,-62],[545,1323],[4173,-3394],[-1225,-2610],[-5548,136],[-387,-2256],[-2722,2748],[756,1903],[-1179,1198],[757,1881]]],"bbox":[-78.450141,35.667883,-77.436888,36.196191],"transform":{"scale":[0.0000010132540132540193,5.283085283085239e-7],"translate":[-78.450141,35.667883]}}
