{"type":"Topology","objects":{"foo":{"type":"GeometryCollection","geometries":[{"type":"MultiPolygon","arcs":[[[0,1]]],"properties":{"postal_code":"88250","realtor_list_price":"NA","realtor_list_price_yoy":"NA","realtor_list_price_base":"NA","realtor_active_listings":1.667,"realtor_active_listings_yoy":0.6667,"realtor_active_listings_base":"NA","realtor_new_listings":0,"realtor_new_listings_yoy":"NaN","realtor_new_listings_base":"NA","realtor_days_on_market":"NA","realtor_days_on_market_yoy":"NA","realtor_days_on_market_base":"NA","zhvi":"NA","zhvi_yoy":"NA","zhvi_base":"NA","zori":"NA","zori_yoy":"NA","zori_base":"NA"}},{"type":"MultiPolygon","arcs":[[[2,3,4,5,6,7,8,-1,9]]],"properties":{"postal_code":"88203","realtor_list_price":206689.189,"realtor_list_price_yoy":0.1132,"realtor_list_price_base":0.9346,"realtor_active_listings":75.333,"realtor_active_listings_yoy":0.3373,"realtor_active_listings_base":-0.0128,"realtor_new_listings":24.667,"realtor_new_listings_yoy":0.2333,"realtor_new_listings_base":0.0021,"realtor_days_on_market":54.108,"realtor_days_on_market_yoy":-0.235,"realtor_days_on_market_base":-0.3637,"zhvi":142820.355,"zhvi_yoy":0.0086,"zhvi_base":0.3947,"zori":1295.833,"zori_yoy":"NA","zori_base":"NA"}},{"type":"MultiPolygon","arcs":[[[10,-3,11]]],"properties":{"postal_code":"88201","realtor_list_price":307434.783,"realtor_list_price_yoy":-0.0407,"realtor_list_price_base":0.3491,"realtor_active_listings":88.667,"realtor_active_listings_yoy":-0.1529,"realtor_active_listings_base":-0.463,"realtor_new_listings":30.667,"realtor_new_listings_yoy":-0.193,"realtor_new_listings_base":-0.3577,"realtor_days_on_market":70.652,"realtor_days_on_market_yoy":0.2928,"realtor_days_on_market_base":-0.0823,"zhvi":232669.611,"zhvi_yoy":0.0259,"zhvi_base":0.4435,"zori":1285.778,"zori_yoy":0.1172,"zori_base":"NA"}},{"type":"MultiPolygon","arcs":[[[12,-7]]],"properties":{"postal_code":"88230","realtor_list_price":246250,"realtor_list_price_yoy":-0.1283,"realtor_list_price_base":"NA","realtor_active_listings":6,"realtor_active_listings_yoy":2,"realtor_active_listings_base":-0.1321,"realtor_new_listings":1.333,"realtor_new_listings_yoy":1,"realtor_new_listings_base":0.1782,"realtor_days_on_market":32,"realtor_days_on_market_yoy":0.3333,"realtor_days_on_market_base":"NA","zhvi":146557.862,"zhvi_yoy":-0.0288,"zhvi_base":"NA","zori":"NA","zori_yoy":"NA","zori_base":"NA"}},{"type":"MultiPolygon","arcs":[[[-11,13,-4]]],"properties":{"postal_code":"88267","realtor_list_price":146200,"realtor_list_price_yoy":"NA","realtor_list_price_base":"NA","realtor_active_listings":4.333,"realtor_active_listings_yoy":3.3333,"realtor_active_listings_base":1.2547,"realtor_new_listings":0.667,"realtor_new_listings_yoy":"Inf","realtor_new_listings_base":"NA","realtor_days_on_market":70,"realtor_days_on_market_yoy":"NA","realtor_days_on_market_base":"NA","zhvi":151088.538,"zhvi_yoy":-0.1152,"zhvi_base":"NA","zori":"NA","zori_yoy":"NA","zori_base":"NA"}},{"type":"MultiPolygon","arcs":[[[-13,-6,14,-8]]],"properties":{"postal_code":"88232","realtor_list_price":"NA","realtor_list_price_yoy":"NA","realtor_list_price_base":"NA","realtor_active_listings":2.333,"realtor_active_listings_yoy":0.75,"realtor_active_listings_base":-0.4963,"realtor_new_listings":0,"realtor_new_listings_yoy":"NaN","realtor_new_listings_base":-1,"realtor_days_on_market":"NA","realtor_days_on_market_yoy":"NA","realtor_days_on_market_base":"NA","zhvi":"NA","zhvi_yoy":"NA","zhvi_base":"NA","zori":"NA","zori_yoy":"NA","zori_base":"NA"}}]}},"arcs":[[[157599,259217],[637,-51],[995,990],[5965,-188],[1817,216],[342,-316],[1024,-3],[833,363],[1045,-412],[2831,-214],[1260,458],[1153,-635],[6536,-479],[3383,1137],[-4702,-8093],[-1572,-3484],[3129,-1045],[783,62],[2348,-2164],[5021,-2734],[1342,-146],[1681,-671],[2357,-1416],[267,-2283],[461,-2373],[608,-1515],[321,-209],[1455,445],[971,735],[1394,1521],[2490,-1431]],[[203774,235282],[2,-1328],[343,250],[1279,-502],[1158,-102],[417,-628],[662,271],[1442,15],[2373,-228],[1462,-1823],[519,-221],[2115,782],[229,-1003],[1236,-1150],[400,1975],[580,-21],[505,788],[595,-141],[757,-820],[-250,-1294],[235,-512],[1381,550],[1172,923],[728,-1571],[527,-172],[2080,1044],[1373,506],[1102,1023],[1071,259],[1337,-1378],[919,-471],[853,400],[1702,-867],[1375,-324],[1972,-1561],[916,-361],[1082,-71],[798,497],[1746,-254],[1415,-926],[87,-941],[681,-1543],[1051,-358],[850,-1142],[87,-1455],[793,-1283],[597,-327],[1053,1040],[1180,95],[1825,-1160],[1090,-1185],[638,1099],[1099,887],[290,-600],[262,-1833],[1346,-701],[1308,-126],[1156,747],[1149,-553],[1129,-2125],[1206,379],[980,-424],[780,-824],[1610,828],[672,-155],[754,-805],[1813,-1397],[632,-1184],[-15,-635],[-684,-755],[218,-1465],[1340,-439],[1467,1150],[481,-55],[922,-1316],[1003,-739],[246,-1397],[1227,-1335],[1145,-183],[1401,-1213],[147,-1035],[821,-133],[1032,326],[1924,-959],[270,-1967],[1119,-2003],[1119,-35],[1971,-1123],[160,-559],[-6956,-151],[-17,-3618],[-322,-1726],[-785,-1362],[-1820,-1418],[-1140,-1308],[-160,-670],[-37,-1931],[402,-3780],[6,-1658],[548,-800],[118,-2070],[1043,-2531],[980,-903],[-397,127],[-304,-988],[-1802,-2812],[-3612,-4752],[-1535,-5],[1394,-799],[246,-3738],[1069,-394],[1064,152],[2861,-2410],[2819,-41],[-29,-1111],[321,-1222],[5108,-2282],[1191,-687],[775,-1090],[1041,-664],[1041,-325],[1082,-997],[1382,-466],[1058,16],[1136,-925],[709,1231],[195,1576],[451,314],[1057,-294],[929,463],[842,-591],[6,-2382],[728,-1041],[-26414,-10771],[-125,-6208],[297,-737],[-338,-1110],[-392,-15683],[-288,-7460],[-75,-243],[92,-35],[-275,-10751],[4988,-161],[-24,3819],[471,18],[1091,1353],[2132,-4087],[2534,-5662],[716,293],[902,-1007],[173,-1113],[-409,-401],[684,-481],[-354,-1901],[5676,1190],[1759,142],[377,-391],[193,-1382],[5860,1300],[-735,-4115],[148,-1374],[-656,130],[-4968,1755],[73,-2165],[5459,-4402],[1326,-70],[673,-2781],[-738,-1436],[438,-238],[795,-1607],[1000,-985],[1473,602],[1367,1322],[2502,433],[2016,-480],[1097,-5],[1162,514],[1032,900],[1246,87],[1299,-874],[-411,-1934],[-498,-1104],[53,-2306],[193,-684],[-210,-1819],[-858,-2055],[-982,-801],[-1385,-1575],[-16,-5391],[22,8],[59,-547],[-24,-6997],[-2732,-2613],[-540,-126],[-1188,-1182],[-1379,-924],[-577,-862],[-2371,-1990],[-2510,-636],[-1791,-1487],[-1378,-94],[-628,-339],[-3993,-326],[-3334,-1887],[-2412,-1143],[-2659,-1691],[-1201,-2032],[-525,-1314],[-2301,-3399],[-1329,-2214],[-2594,-3290],[-652,-118],[-804,728],[-336,1637],[-445,17],[-1306,-2003],[-716,-580],[-853,-1357],[-2642,-2489],[-2696,2],[-1155,-644],[-2473,-2810],[-1593,-38],[-766,-1437],[-704,-2675],[-3566,-3077],[-1048,-1620],[379,-381],[-21099,48],[-28436,66],[-589,-37],[-4163,1],[-115262,97],[-813,971],[-1753,1064],[-2280,803],[-405,441],[-419,2510],[620,930],[-50,2200],[359,1279],[271,2100],[-112,1702],[219,1143],[988,1287],[597,2709],[-52,2148],[601,757],[1559,614],[369,873],[1076,1220],[293,791],[1837,1519],[392,1709],[580,747],[1694,919],[932,1096],[-2,1296],[627,1346],[-680,2986],[205,884],[857,265],[2208,-268],[675,1593],[1617,1807],[1213,338],[262,1138],[1714,1538],[574,1724],[57,1941],[706,1244],[45,1477],[355,1158],[231,2015],[-169,1519],[1048,1729],[-577,3829],[440,2130],[-1394,1106],[-841,1406],[167,2193],[-316,1898],[-1761,37],[-1333,843],[-1026,2952],[233,1579],[-1393,862],[-704,117],[-294,1038],[-128,1856],[-468,777],[-851,-183],[659,1337],[370,1507],[-3,1476],[-332,1001],[371,1373],[1022,1130],[343,1000],[2226,2522],[-648,370],[888,832],[1220,512],[3902,2765],[759,118],[1073,1271],[1568,117],[1833,804],[1434,88],[845,-235],[952,746],[1495,423],[1146,730],[2593,-58],[1121,598],[664,906],[2171,1914],[953,1315],[748,3726],[-313,716],[470,979],[73,1023],[-928,2061],[-96,2952],[1653,1183],[439,1850],[-984,366],[115,388],[-675,1624],[-171,1040],[887,533],[-90,1308],[-673,2441],[389,835],[-93,2914],[-298,657],[-7298,43],[-1699,-536],[-1410,-1554],[-1330,-754],[-1536,-158],[-2071,151],[-1492,383],[-3603,81],[-689,802],[-978,2599],[-659,442],[-1574,-983],[-1042,343],[-776,-260],[-237,771],[413,902],[-56,1126],[-1905,1901],[-612,147],[-1133,-653],[-2134,1943],[-2564,4339],[-995,2760],[-881,839],[-1957,-304],[-641,-377],[-1743,-141],[1108,1451],[40,1069],[801,5],[1176,2067],[-928,965],[-457,1473],[-26,2202],[452,1631],[-157,2007],[597,1535],[-1153,1116],[-219,1101],[354,1254],[-127,1032],[80,2536],[-1049,-185],[-472,1074],[-534,83],[-758,-1410],[-632,-350],[-1055,113],[-934,-501],[-843,-1415],[-2131,-1409],[-952,-904],[-2172,-881],[-1770,844],[-478,652],[-49,1622],[-276,576],[243,1260],[-1208,106],[-193,688],[-1958,630],[-1251,1994],[-1259,970],[-1806,1019],[-1881,1582],[-2023,1244],[-1708,-231],[-2583,101],[-2963,-352],[-1227,150],[-3919,1240],[-1182,5],[-285,2718],[-408,4071],[90,1100],[-403,-461],[-4837,-3703],[-922,-1134],[-12307,-158],[-819,1762],[-614,3712],[-190,418],[-461,4444],[1197,2334],[136,995],[-1207,1597],[-1979,-302],[-689,3039],[-497,884],[-1101,675],[-1825,2919],[-1280,1827],[-313,1462],[339,553],[1272,726],[773,867],[-1110,1306],[74,1847],[1185,3750],[68,1424],[-1188,-637],[-552,83],[-1357,809],[-370,551],[66,1104],[-467,435],[-1010,-341],[-868,-738],[-239,-1220],[-554,-1001],[-3635,-1626],[-1390,492],[-1165,950],[-1240,2412],[-253,1079],[-1318,242],[508,858],[2114,1043],[4724,1638],[1244,738],[519,867],[1372,1143],[1241,225],[1455,-937],[722,120],[1674,1023],[140,1062],[916,1054],[1194,-132],[506,1104],[1014,1162],[919,2541],[984,5553],[1099,2667],[433,1568],[568,528],[488,1252],[-2071,832],[-1240,1193],[-646,1801],[-75,3175],[-1136,1464],[-904,1748],[94,1129],[-303,1290],[734,773],[295,1392],[1192,1339],[299,-209],[951,1153],[-78,374],[-676,1268],[-705,575],[-1885,445],[-130,600],[-1215,661],[-118,427],[-1122,-116],[-1169,306],[-611,891],[-707,316],[-3453,-904],[-1160,301],[-2290,2321],[-3440,1805],[-795,918],[-433,1138],[-731,553],[-692,1095],[-1091,262],[599,1519],[2378,-2404],[1296,-984],[2164,-746],[6069,-3619],[2449,-672],[1651,67],[1709,-326],[5020,-1960],[562,-477],[4,-1446],[-775,-1003],[-226,-1582],[-889,-1378],[-147,-648],[-57,-2596],[220,-2716],[37,-2515],[323,-725],[3626,-5790],[512,-541],[888,-399],[2371,-662],[2379,-1163],[869,-46],[5513,1196],[1692,293],[752,-80],[1487,-849],[948,-807],[1289,-600],[1067,-1091],[625,-224],[1462,2],[1687,-1130],[1096,-1148],[1394,-767],[1828,-1240],[780,-33],[911,451],[648,955],[1063,2545],[1127,1087],[1194,72],[4176,-746],[171,6861],[-552,2950],[-100,1794],[1619,4594],[994,1422],[319,3834],[640,1352],[-67,2863],[686,680],[-1000,2776],[-674,2456],[-1711,2019],[-1658,1070],[-2915,662],[-375,687],[-194,1535],[229,1420],[-164,1705],[-612,1163],[-89,800],[700,938],[337,1744],[1123,1981],[96,2052],[1666,3199],[-289,1181],[997,2430],[489,1974],[414,954],[1473,2211],[921,813],[380,755],[92,1599],[754,-398],[1678,340],[901,-1425],[441,-1556],[802,-369],[1325,7],[1060,-2014],[614,-2317],[863,-1118],[880,-2144],[1336,-622],[106,-1041],[344,-222],[24,-1496],[1287,-1850],[761,-2108],[2096,676],[2616,-1613],[980,-753],[1516,-1701],[2402,-1853],[1097,-1913],[1207,-348],[1604,790],[327,-160],[638,-1358],[1214,-396],[504,-1003],[286,-1266],[715,-211],[1645,1213],[1207,378],[649,-1316],[2264,-1988],[1214,-219],[1934,1029],[640,-313],[864,-1082],[663,-359],[938,-1041],[1659,572],[2017,-1174],[830,-1277],[699,-68],[996,1295],[1492,-1582],[1088,-251],[1049,-1971],[1337,27],[1024,-1333],[1227,-691],[107,-1492],[1470,-2323],[184,-899],[-169,-1415],[-23,-2947],[411,-2544],[533,-816],[550,-264],[1571,124],[1798,-184],[534,136],[2357,-678],[334,1106],[885,1081],[980,3184],[404,573],[1366,310],[260,-759],[755,-337],[848,-2923],[-903,-1673],[-118,-1595],[340,-1800],[378,-708],[1082,-818],[795,-283],[2988,861],[1174,-79],[1860,941],[1431,2104],[1991,19],[1108,217],[1379,-155],[448,-385],[1472,-41],[577,301],[851,1203],[876,402],[702,-489],[582,3210],[2365,3894],[50,549],[-855,1631],[-1268,335],[124,1316],[484,67]],[[184497,528991],[1299,967],[1709,114],[2383,-1957],[1472,-687],[716,24],[2053,670],[1989,1709],[937,513],[1412,110],[820,-1007],[215,-1054],[1284,-1104],[2360,-1684],[-18,-2826],[140,-1105],[1687,-2267],[848,-721],[608,-1142],[1092,-478],[593,-1164],[1855,-1920],[411,-685],[909,-450],[1273,-1104],[-70,-2512],[-660,-1976],[-888,-1561],[-1809,-4353],[352,-1547],[693,-935],[1291,-465],[1065,158],[1879,-294],[893,-632],[1781,215],[1586,-659],[4254,-3875],[815,-54],[1637,-8652],[637,-2661],[-370,-667],[-415,-2555],[418,-1860],[1066,438],[1600,-191],[2182,42],[1097,727],[825,-219],[1797,43],[1092,394],[2319,-965],[2670,1064],[316,-949],[2767,158],[4208,1655],[2072,0],[248,8189],[-2294,4646],[-719,576],[-3225,1062],[-1108,-434],[-81,530],[485,1881],[1128,1693],[2413,2015],[290,705],[-36,11087],[3854,-4678],[1556,1618],[799,2466],[953,-568],[492,128],[-520,2821],[481,2560],[107,1871],[327,582],[260,2120],[1279,1813],[814,1433],[1238,4398],[142,1899],[-373,3385],[-305,476],[7874,-118],[42,3990],[-894,284],[-1633,2061],[-803,267],[-659,1293],[-968,-305],[-648,1044],[-1073,-62],[-657,939],[-1341,-726],[-1707,1072],[-890,-74],[508,912],[-213,459],[-1392,153],[-268,-259],[-334,1052],[546,874],[-2314,2035],[-936,1355],[1604,370],[7717,3333],[2853,1445],[4977,2149],[920,255],[1161,140],[44458,33],[-3,-116],[1370,4],[465,1],[-2,-1035],[933,-2],[457,-12],[3,695],[483,363],[305,0],[486,0],[6335,-3],[1701,10],[-36,-1085],[277,-71],[1922,8],[1314,-25],[-2,768],[4012,-164],[1498,1],[497,-529],[-5,778],[818,-345],[1151,3],[1637,589],[599,-214],[651,-360],[-3,514],[636,-21],[6,220],[630,7],[1921,11],[-4,-203],[564,-113],[809,-1],[-3,-404],[366,1],[-7,728],[382,0],[388,-2],[1070,-279],[-9,274],[1077,-17],[589,-816],[614,467],[33,-1818],[1375,1439],[1305,-165],[1239,476],[463,-409],[2442,-622],[3,-898],[469,1],[885,13],[3491,40],[-14,2298],[8018,16],[15396,98],[547,69],[1006,265],[244,90],[3679,1316],[1108,256],[1251,79],[10205,-470],[10741,-505],[2053,-19],[734,108],[8121,1929],[47962,10073],[348,-3749],[550,-3150],[2850,163],[-692,-2674],[2160,-483],[2170,247],[1101,-431],[1425,-139],[-7,-17992],[-77,-662],[-3592,-3021],[-725,-444],[-2122,-310],[80,-4286],[958,-781],[484,-1031],[-5,-2148],[-213,-1400],[304,-1091],[12298,-20833],[4720,36],[28917,-70],[-618,3046],[-1365,5237],[-206,1256],[1571,-300],[1497,2040],[1748,1623],[6254,3583],[2162,4865],[1081,-788],[-499,2162],[960,1476],[6462,7497],[-12,4587],[-233,3439],[-1179,3228],[-1216,2951],[-1726,2498],[-1533,2688],[-1751,4047],[5141,2514],[3879,1125],[559,293],[6491,6355],[2316,60],[3,2092],[108008,-1471],[25936,-5070],[884,-223],[1375,-562],[1160,-712],[3871,-3129],[8230,-4542]],[[702609,558201],[-20010,-239],[21,-51842],[0,-1338],[-19,-66348],[-15,-29035]],[[682586,409399],[10,-14150]],[[682596,395249],[-4365,1514],[-1391,273],[-1008,-1151],[-3,2455],[-1395,126],[-430,-562],[-12,-1943],[-2146,-58],[-4511,388],[0,-1386],[-4,-10235],[263,-2224],[-1685,-187],[-910,718],[-1118,-131],[-554,-668],[-1575,-394],[-1187,410],[36,2235],[-99,8944],[-1805,281],[-6966,30],[-77,1056],[-9957,-29],[-903,-417],[-1001,-157],[-966,-569],[-671,-172],[-1239,459],[-1178,-192],[-1211,460],[-311,457],[-2209,1712],[-1410,-203],[-2998,264],[-1267,271],[-495,-298],[-735,-1749],[-1154,-2108],[-239,-676],[-634,411],[-1053,1211],[-543,1174],[-989,1312],[-1122,723],[-560,-10],[-4078,1391],[-2819,-46],[-2652,-1523],[-5706,220],[-1627,644],[-2346,206],[-2288,590],[-3781,-426],[-958,-424],[-1841,-1636],[-900,-179],[-517,-736],[-75926,338]],[[513370,395033],[727,892],[748,-415],[1182,2245],[273,1623],[648,439],[398,1576],[1367,2216],[395,1445],[-238,1132],[-844,213],[-682,1483],[-1015,1457],[-1058,2152],[314,747],[-1216,371],[-27,585],[1149,2946],[785,3656],[-739,3024],[74,3157],[-193,1432],[267,1709],[195,570],[1468,1489],[801,1651],[1274,1271],[1349,4345],[-121,1687],[292,3055],[1214,890],[584,1257],[754,921],[5156,18],[71,4894],[-86,4574],[-1264,50],[-1430,1027],[-2089,1913],[-2621,25],[-110,2900],[-262,732],[-1568,1417],[-2623,1278],[-1902,-71],[-2933,-378],[-2048,-9],[-12136,-2290],[-705,137],[-6239,2111],[-1744,399],[-1087,-590],[-1442,86],[-1128,-1043],[-880,-449],[-1744,-368],[-2105,-1294],[-1573,-1546],[-1324,1645],[-3815,8170],[-2149,4076],[-790,2118],[-632,1212],[-2113,598],[-1657,787],[-1093,88],[-12855,-650],[365,1664],[-898,1331],[-60,1153],[-401,1038],[-23,3946],[-195,424],[523,160],[-144,9278],[-3449,-131],[-1651,-336],[-2295,132],[-304,925],[-65,5460],[328,666],[-314,838],[15,1816],[-16502,-84],[-4690,85],[-46,-5065],[0,-95],[-4887,-58],[168,-891],[1048,-1132],[889,-2319],[-329,-1143],[-2135,-413],[-451,-1133],[161,-1115],[1154,-1927],[1324,-1030],[-89,-2208],[-2479,-17],[-223,2204],[-613,-8],[-303,1241],[314,1126],[-752,1198],[645,2767],[528,184],[490,-754],[-371,2111],[809,1904],[14,725],[-545,1084],[-544,-431],[-6361,12],[-614,1114],[208,1378],[-483,1771],[453,2338],[-90,1287],[-756,2473],[-35,1726],[-1105,5909],[-411,825],[-6134,153],[101,-4739],[4024,-164],[557,-2470],[0,-1709],[-2284,-379],[-6048,12],[82,-9433],[-3962,30],[-7844,-73],[311,-993],[-19,-1037],[-1808,-277],[-64,-1801],[-1190,5],[-8,1795],[-1450,-72],[-38,1680],[-1439,17],[425,-1119],[-1981,25],[3344,-7009],[-4406,8621],[-12,167],[-7669,81],[-154,-324],[885,-1095],[453,-1438],[-70,-4323],[7,-1699],[-4027,-60],[51,-4610],[-6964,38],[-596,45],[-67,3709],[-213,894],[-1800,32],[-82,-2819],[-471,-478],[-5132,-65],[-9768,-238],[-81,-2752],[-2617,-108],[-795,-1206],[-2263,-110],[-6,4209],[-3822,125],[-290,-89],[-2344,-2437],[7,-17389],[-31710,-288],[21,-4638],[3747,-297],[-19172,-281],[151,-31853],[-5760,-189],[3251,-4477],[2508,-2567],[2244,-88],[437,-1002],[1245,-1346],[1506,-3765],[2782,-8616],[-4035,-15335]],[[286942,394205],[-299,-1145],[-2572,-6157],[-3619,704],[-1887,170],[-911,-4401],[441,-1505],[-374,-2342],[-1881,-1653],[-1157,-2242],[-1168,-3881],[-1619,-1439],[-2663,-1910],[-1553,-1999],[844,55],[7789,-414],[3091,76],[763,-1970],[868,-4139],[1217,-767],[440,-690],[547,-3475],[2325,-6135],[-3275,-7695],[-553,-1033],[-1482,-1361]],[[280254,338857],[-1398,-438],[-24513,-3555],[-1080,-357],[-1292,-1038],[-9025,-10297],[-1543,-1377],[-1934,-970],[-4966,-1345],[-1898,-993],[-2141,-2190],[-958,-1238],[-631,-1356],[-2553,-7202],[-517,-961],[-2803,-3366],[-1269,-1127],[-4981,-3159],[-726,-922],[-360,-1010],[-1378,-5816],[-611,-1041],[-1211,-825],[-3634,-1405],[-852,-703],[-3583,-3769],[-371,-1],[-252,-47114]],[[157599,259217],[436,611],[-371,976],[-1098,2017],[70,2792],[-753,679],[-1304,270],[-780,1266],[-865,142],[-2149,-135],[-1696,181],[-2800,-260],[-1681,112],[-950,353],[-3117,-48],[-518,285],[-1188,1581],[-398,1050],[-528,388],[-66,1679],[-455,2098],[-182,3635],[119,915],[-855,1631],[-1198,478],[-637,741],[-2515,3509],[-150,1593],[542,681],[289,2074],[-233,1566],[-954,2979],[-656,424],[-1913,282],[-2218,672],[-347,1101],[-2044,3004],[-866,847],[10,631],[-1014,1275],[-2808,2736],[-1967,864],[-1744,451],[-1108,-628],[-790,-1452],[-2942,-1401],[-407,-532],[-754,-2200],[-1553,-898],[-1982,-132],[-2368,709],[-770,570],[-3536,3706],[-1041,596],[-3131,-25],[-2713,450],[-2100,1338],[-1525,398],[-993,654],[-1000,91],[-1731,882],[-1808,3708],[-500,2152],[-1677,1662],[-84,1553],[-900,1380],[-1595,1257],[-775,21],[-1027,847],[-4769,1078],[102,569],[-688,1073],[-209,565],[452,2458],[976,1486],[660,120],[1034,-646],[-2921,6718],[375,5715],[1071,1600],[1936,1867],[1578,2317],[1455,1627],[280,2552],[-681,2025],[-1120,1506],[-1181,657],[-1208,75],[-1215,758],[127,2572],[-904,2161],[142,1721],[-569,2418],[-1728,2658],[390,1223],[-86,1492],[447,1567],[60,1027],[-596,3280],[-510,1289],[-2100,1133],[-861,-56],[-886,733],[-1323,63],[-1735,736],[-352,542],[-450,2065],[-414,674],[-86,1318],[-777,1475],[-30,1856],[281,1837],[23961,-76],[3480,1054],[11533,519],[30449,123],[-13,2856],[44967,15],[26,1],[-3,52319],[705,0],[-2,27811],[6,26375],[8327,-49],[-122,26456],[-21,1634]],[[702554,583585],[55,-25384]],[[184497,528991],[114,12355],[48,15324],[-3270,3142],[68,52597],[-1865,798],[-651,1550],[-1369,1396],[-172,828],[-1238,2063],[-1379,515],[-616,597],[-1495,298],[-1367,-129],[-1546,161],[-823,856],[-1592,-83],[-1016,725],[-436,1915],[-1641,316],[-1800,581],[-680,777],[-313,865],[-911,379],[-2104,2087],[-572,810],[-426,28],[-48,462],[-1867,2469],[-1213,1030],[-1224,-203],[-862,146],[-2010,1188],[-1038,-286],[-971,649],[-844,104],[-1266,-441],[-2405,-1957],[-690,-187],[-2974,-12],[-905,664],[-2563,717],[-1365,-231],[-638,-1509],[-665,-998],[-796,-417],[-336,584],[-2652,-39],[-770,390],[-1058,1648],[-425,234],[-983,-226],[-1084,1009],[-542,1274],[-1200,-12],[-1365,305],[-2451,1783],[-295,437],[-704,2351],[-468,630],[298,1662],[179,2213],[276,1285],[-25,1244],[782,438],[-68,1012],[354,2378],[-1359,1013],[-1362,3361],[-116,1644],[-909,1426],[-110,1359],[278,1026],[33,1300],[-949,633],[-1315,1925],[228,910],[-674,1722],[-573,2124],[317,3525],[-371,834],[-65,2519],[286,1805],[567,454],[180,924],[-45,1759],[295,1044],[365,319],[264,-910],[1027,1854],[609,572],[742,2556],[-131,993],[1429,1801],[1543,1261],[293,2322],[-1382,1316],[-217,1635],[-173,-315],[-213,-2382],[-243,-550],[-402,-79],[-571,268],[-341,-225],[-61,-415],[-1022,-780],[-255,-1036],[-359,446],[-157,473],[-448,730],[-360,419],[-457,243],[-494,-151],[-149,-215],[-428,-1130],[-223,-880],[-500,-1026],[-1213,-786],[-613,-171],[-854,333],[-387,498],[-762,963],[-309,-31],[-161,-161],[-320,-957],[-113,-256],[-194,-243],[-268,-128],[-178,3],[-659,202],[-271,153],[-340,198],[-529,433],[-296,99],[-955,34],[-1156,394],[-354,549],[-311,2941],[932,2458],[1270,1105],[1243,-687],[1699,1602],[357,870],[-679,1171],[378,607],[1506,473],[568,971],[833,754],[2803,403],[1021,536],[1509,-183],[263,417],[877,665],[682,851],[336,308],[641,360],[5,174],[104,157],[240,155],[521,407],[194,216],[22,578],[519,1096],[121,332],[22,578],[-1731,708],[-1495,1333],[-1714,1115],[-825,-273],[-805,-2104],[-155,-1817],[-550,-1209],[-978,431],[-409,740],[-547,2045],[-1208,-958],[-691,-1493],[-787,-614],[-1153,98],[-1667,527],[-1006,24],[-855,533],[-845,-246],[-975,-1641],[-1342,-568],[-1419,1750],[-820,2668],[-44,1522],[-828,511],[-916,-779],[457,-2096],[-1492,-888],[-488,-1672],[-874,-1888],[-928,186],[-687,1034],[-451,172],[-591,-695],[-175,-1090],[-640,-1960],[-538,-883],[-881,27],[149,1182],[-933,549],[-1293,105],[-2302,-944],[-936,-1631],[-1290,606],[-175,-617],[521,-694],[-257,-615],[-2065,-1876],[-1240,-590],[-217,803],[1363,1098],[479,1389],[-699,690],[-685,69],[-1254,-607],[-717,98],[-1258,-653],[-2489,-876],[-1311,-1817],[-980,-661],[-742,303],[-751,-277],[-264,-928],[-1269,-1413],[-1131,-21],[-639,-760],[-367,-1065],[-459,301],[-1342,-427],[-2668,-30],[-632,421],[-713,-204],[-695,466],[1555,2795],[792,2524],[-42,1198],[668,1917],[85,1280],[-1899,-1766],[-668,45],[-368,536],[-1237,66],[-1912,-910],[-774,-691],[-659,805],[-1589,277],[-582,-502],[-1693,78],[-1754,-916],[-43,991],[602,1283],[-406,653],[590,1538],[3,879],[-616,1252],[760,1200],[908,2815],[752,1005],[638,325],[1059,2656],[392,685],[189,1473],[1465,1205],[2328,703],[1240,2952],[607,2320],[687,929],[200,1708],[333,1226],[938,411],[25,1320],[972,109],[1919,1102],[12384,5409],[3428,2428],[1051,401],[1868,342],[619,294],[2173,1790],[2454,1051],[1767,14],[4619,-530],[2032,-684],[400,-292],[1873,-2347],[611,-298],[823,264],[2605,2509],[1517,398],[1428,-827],[2240,-1007],[914,-663],[1438,-1907],[1585,-1476],[1057,-470],[945,-43],[8020,210],[1110,545],[1169,1111],[3824,1203],[1817,-137],[-65,2487],[-2831,4263],[-2235,3708],[-2572,3616],[-1340,2802],[-358,2298],[-427,1169],[-99,2740],[282,1665],[46,2816],[-517,2057],[-716,290],[-5308,-163],[-629,141],[-2766,4395],[405,132],[1938,1657],[2009,-23],[764,1889],[109,3149],[333,923],[-262,1537],[849,1879],[760,352],[431,864],[1093,1203],[-167,1068],[-866,485],[-2368,-580],[-4905,-21],[-960,-157],[-880,1848],[-753,3161],[-2073,460],[-2529,1083],[-1790,-398],[-2218,-777],[-1143,-1261],[-756,-482],[-4137,-190],[-1442,106],[-457,758],[-496,2282],[79,846],[-1960,3402],[549,1169],[-220,1724],[243,2323],[379,1519],[-4494,-60],[-1209,-366],[-1392,219],[-4713,-121],[1526,1257],[2258,879],[1380,819],[1221,1024],[719,1183],[1331,849],[1844,702],[-257,1607],[464,1593],[-1038,1129],[-354,865],[-891,953],[-2492,1134],[-1623,1820],[-1305,111],[-1808,604],[-768,-237],[-841,-1204],[-525,552],[25,3334],[-818,2532],[-101,3582],[81,1325],[-6006,-317],[-1390,1162],[-1905,2101],[1870,2119],[945,2104],[-29,2155],[2046,2296],[2341,1183],[2171,1805],[2761,1722],[790,-173],[-558,1017],[-145,1322],[-9,2877],[1975,836],[1409,-735],[2330,507],[1797,-428],[-344,-1629],[74,-892],[612,-204],[1394,59],[1809,993],[1479,-525],[1405,482],[587,1535],[1735,1213],[965,1008],[941,468],[1723,2341],[587,1869],[1993,-834],[660,-1213],[1735,-102],[746,-541],[4510,-1607],[2420,-1038],[986,1220],[759,126],[1158,-1736],[1118,-3162],[2755,4281],[2347,-106],[1421,1528],[719,4701],[-91,2771],[230,1281],[-285,1401],[-14,2943],[360,2251],[1309,1050],[1164,1561],[1727,3571],[549,2040],[1184,888],[1293,1403],[1155,1565],[1593,1437],[1847,769],[-897,1131],[1450,5],[-494,2100],[-172,1606],[1245,4808],[49,2046],[451,1782],[145,4471],[-441,278],[624,803],[808,74],[171,658],[1235,1490],[-38,2381],[231,2806],[-208,1241],[-2,2747],[-759,1841],[-1334,847],[-1641,2468],[-1420,1328],[-428,88],[-907,1343],[-1461,789],[-171,423],[761,1380],[79,2588],[374,954],[-2156,-924],[-478,-538],[-1567,-519],[-2083,-65],[-1250,-1643],[-2426,-1713],[-894,-1106],[-87,-844],[-918,1862],[-2890,2512],[-968,691],[-577,3370],[-943,2301],[-13,1451],[-343,1599],[-1140,1012],[-1507,2097],[-723,1979],[-2171,-911],[1252,1874],[-462,2318],[-340,2738],[50,3268],[-398,2074],[-1775,2425],[232,2776],[980,3097],[1151,760],[1323,1300],[10083,7235],[1155,20],[896,524],[1962,50],[3306,1097],[817,438],[1551,2160],[1714,-152],[1540,1033],[2374,1290],[891,1128],[355,979],[2585,2],[2008,-1298],[2052,-677],[3420,-2190],[3107,801],[4827,-694],[3182,-1354],[1372,-216],[814,-824],[442,1199],[1717,2026],[3397,566],[1526,482],[1801,-302],[6043,-2008],[1873,-435],[1671,-730],[155,26034],[43071,-269],[4531,-205],[145,-55821],[97350,-1640],[111266,-1077],[860,-1195],[947,-738],[1393,-284],[2430,792],[855,-1055],[302,-1701],[-532,-1879],[62,-1083],[491,-1039],[901,-150],[1566,820],[2277,1675],[238,610],[3073,1760],[1986,517],[728,-1118],[933,-2035],[-117,-697],[496,-1094],[1040,-1003],[2898,-917],[664,-737],[-74,-1111],[-1443,-1349],[-1054,-213],[-3975,-2948],[-720,-1644],[-1663,-3144],[129,-1581],[1928,-3423],[555,-1403],[1274,-996],[417,-821],[1235,-768],[1278,-204],[1051,-611],[736,-1533],[-65,-1220],[-934,-879],[-1233,-122],[-1979,326],[-1653,2],[-1665,-708],[235,-2178],[1549,-1908],[1377,-814],[2425,-411],[994,-775],[1060,-1365],[967,-2332],[-279,-1013],[31,-1985],[-314,-441],[-1139,-193],[-757,1344],[-90,796],[-1306,1273],[-1183,361],[-684,-655],[-711,-918],[-290,-996],[-98,-3040],[695,-1896],[-12,-1063],[493,94],[701,-1350],[317,-1655],[436,-834],[854,-317],[789,-1844],[-124,-2742],[-426,-1483],[-599,-231],[-1127,-1770],[-1113,-2527],[67,-1463],[1167,-1666],[367,-954],[-56,-1500],[-585,-1027],[129,-2535],[-2499,-1128],[-2063,-2229],[419,-1347],[1457,-895],[1062,-1550],[1380,-3696],[-417,-1076],[-1164,-743],[-358,235],[-3030,-272],[-2945,-150],[326,-1350],[1997,-1400],[618,-1669],[-936,-1195],[-1865,-561],[-1138,-845],[-1226,288],[-1674,982],[193,-2531],[-56,-393],[458,-1550],[196,-442],[135,-147],[522,-1133],[302,-996],[463,-283],[1260,-3335],[-132,-744],[217,-1914],[-167,-1546],[-760,-1609],[-437,-1733],[422,-3478],[-420,-407],[-1433,-571],[-710,544],[-1105,-670],[-249,-564],[161,-947],[782,-680],[1238,-214],[1266,-604],[724,-926],[-65,-1356],[-484,-2055],[-1184,-1841],[-768,-480],[-150,-2268],[284,-1298],[416,-551],[-472,-1349],[-1567,-1273],[-704,-102],[-1026,-1220],[-858,-1963],[-496,-2107],[-770,-1522],[-373,-3240],[94,-1662],[665,-2216],[835,-989],[-41,-971],[1612,-2672],[204,-1799],[-184,-785],[57,-74],[-162,-284],[-232,-291],[-272,-187],[-339,-390],[-162,-287],[-264,-217],[-2727,-1094],[-1300,-722],[-958,-155],[-890,-1521],[328,-1116],[1705,-1066],[468,-623],[445,-1459],[2071,116],[2532,-1689],[2201,36],[3598,-638],[470,1636],[642,268],[6996,-847],[3701,-87],[685,1316],[310,1698],[1105,99],[999,1018],[-71,2824],[211,3093],[-28,2846],[662,1208],[739,643],[1856,294],[1593,470],[2348,2277],[623,-1785],[-15,-4650],[2454,-802],[1867,-188],[3438,-12],[439,-305],[2848,-3225],[171,-510],[2220,158],[720,-608],[304,-1142],[1259,-1592],[-443,-1649],[256,-1970],[1204,-764],[745,263],[1366,1227],[1172,439],[5003,-1943],[3478,4908],[2185,1899],[59,-12681],[-256,-1665],[756,1417],[2588,2059],[903,1782],[9579,-223],[1416,1080],[294,3010],[305,817],[720,117],[562,730],[-73,789],[574,1110],[1099,788],[879,-220],[1213,248],[2471,1098],[683,-102],[16757,-52],[952,-292],[1684,-934],[1587,-1330],[1952,-2060],[1904,-4251],[1823,-432],[483,1075],[842,643],[928,1592],[427,1227],[1098,657],[25,1899],[1098,-570],[1318,381],[806,-206],[2453,613],[793,29],[959,-1105],[7036,7325],[1249,-1368],[1203,-960],[607,-992],[1722,1106],[381,2359],[610,1702],[737,3141],[597,-336],[1894,2],[-48,-3726],[124,-1121],[-71,-3988],[3759,-173],[3908,888],[112,-1000],[1424,-1242],[2248,-1115],[4307,2593],[1292,-1268],[2270,-1756],[-225,-20877],[2432,-583],[1954,-80],[1933,-626],[1506,-1052],[975,-1098],[1631,-1076],[1652,-292],[1001,-730],[341,-44],[1025,1767],[1245,1563],[866,716],[1415,2044],[952,614],[1073,161],[2001,905],[3356,2496],[2367,1022],[2026,1591],[3331,1122],[2015,1234],[394,-3688],[-143,-2704],[149,-1678],[64,-4542],[217,-5125],[-63,-1216],[-625,-509],[-373,-1305],[42,-2996],[-840,-1412],[-306,-1306],[91,-2411],[-418,-1773],[76,-853],[499,357],[24339,18846],[1739,997],[10783,2415],[5892,3709],[509,432],[695,1061],[3611,7258],[372,1223],[113,780],[295,36029],[897,195],[336,1027],[1551,1633],[1123,1646],[51,4566],[7634,253],[161,-515],[-348,-13230],[365,-4736],[600,-40],[768,-1903],[1479,-4762],[904,-2585],[-84,-2089],[-9,-6941],[4708,-170],[3005,49],[25,1737],[-139,-26722],[-178,-30251],[-14659,-76],[-191,-6451],[268,-1534],[259,-342],[6260,-10624],[-162,-7144],[380,-1567],[-3015,-169],[-2218,454],[-134,-4593],[259,-5712],[-726,-1743],[-813,-11],[-1218,-8267],[4530,-3081],[2899,-1751],[2157,-1679],[2338,-905],[2682,-1625],[-318,-83956]],[[513370,395033],[-3791,-5],[-2499,10],[-283,80],[-94,-28],[-210,20],[-125,-16],[-97,-49],[-36906,-512],[-361,90],[-7515,-2],[-715,-176],[-715,308],[-1769,-189],[-4477,204],[-8842,31],[-4207,121],[-755,-62],[692,1529],[83,680],[-3417,-223],[-821,566],[-1511,-2062],[-1915,-228],[-849,-1263],[-508,980],[803,26],[590,499],[1590,43],[1045,1550],[716,745],[-16,1798],[-7060,-73],[-2405,4607],[-82,0],[-5701,-26],[-14,4676],[-7700,45],[8,-4625],[-7669,45],[23,-9296],[-38534,-151],[-2,6128],[-769,-14],[-3148,2295],[-1867,832],[-15645,104],[-4474,-2790],[-1782,-1358],[-1952,-130],[-885,-599],[12,-2339],[-2085,-115],[-1884,-2265],[-19184,-222],[-26750,-22]],[[702554,583585],[3333,3078],[1030,451],[1136,-289],[1832,-2266],[2821,395],[-62,10459],[620,44],[9329,-614],[767,161],[5497,71],[316,-891],[1236,322],[2729,-497],[-9,1197],[4071,85],[937,525],[644,-366],[5230,187],[511,-804],[497,-1914],[1300,-2058],[2932,-2569],[2797,-904],[3077,-582],[84,-2808],[2804,-3096],[3036,-3753],[1220,-1342],[689,-318],[2900,-18],[992,379],[108,907],[8486,221],[-170,3272],[420,59],[4329,-790],[-2,-2515],[12651,173],[146,949],[-145,2002],[438,1081],[7818,383],[3890,-165],[2481,-729],[232,-1695],[-207,-803],[913,-1051],[450,-3111],[645,-2863],[1633,-16],[537,673],[631,-724],[4330,-65],[5645,3627],[-522,745],[2059,-202],[932,107],[9023,2024],[588,1206],[516,2339],[822,2751],[906,2457],[599,1016],[3858,4261],[1636,2210],[-120,2250],[2918,-2],[5657,4540],[669,-117],[134,-2017],[511,-2161],[2494,-178],[815,-410],[1184,-1357],[301,-1344],[1655,-949],[9404,-945],[2289,-412],[5983,-757],[9756,6401],[569,264],[1070,44],[1021,-424],[2895,365],[7881,-587],[7308,26],[1229,-235],[329,3316],[646,3198],[343,2949],[816,3199],[171,1782],[160,4061],[8207,111],[-80,2669],[-6,6766],[1268,-209],[21969,51],[-97,-955],[-23,-5367],[3980,-689],[2817,-908],[565,125],[6390,3559],[3516,369],[7848,-164],[922,-269],[14387,22745],[4662,6],[1566,-533],[7072,641],[195,6456],[-171,541],[-1716,-292],[-1138,-1152],[-830,2],[-7,3632],[8089,-11],[-1225,-79059],[-288,-18562],[0,-14],[-240,-24328],[-130,-13261],[-164,-9083],[-617,-34990],[-213,-2620],[-171,-23621],[-471,-31461],[-277,-18502],[-37132,-15],[-6,18474],[-46011,-166],[-1350,593],[-540,785],[-1733,692],[-1681,213],[-1376,807],[-1850,1367],[-1138,-184],[-2568,369],[-1139,-244],[-1729,-1129],[-2464,-779],[-3552,-1420],[-1588,-865],[-249,-528],[-1492,521],[-6246,8],[4,-9233],[-19578,-4],[-5265,46],[-760,-218],[-354,364],[-4690,-42],[-7794,53],[-31,4630],[-7531,5550],[-6126,5370],[-2653,2535],[-1783,76],[-372,250],[-3526,7],[-833,396],[-1773,-202],[-1701,635],[-1666,-783],[-18000,-168],[-10,-9143],[-7810,-160],[-14523,19],[-643,-234],[-2998,1189],[-744,532],[-1141,208],[-3529,-570],[-141,-273],[-178,-4442],[-5763,66],[-4844,360],[-51,-13509],[-350,-1142],[-921,-565],[-1354,-23],[-650,-311],[-385,244],[-22329,67],[-14012,-16],[-268,243],[-9541,-104],[-2933,277],[-837,862],[-5996,8017],[-722,964],[-1200,598],[-2922,773],[-908,-410],[-1029,787],[-2266,703],[-1394,-72],[-403,316],[-2546,680]],[[682596,395249],[1,-415],[-58,-17573],[4,-37965],[31,-55592],[-5561,-18],[-14583,-71],[-1260,-7],[-105258,180],[-25190,-9],[-89837,-395],[-123,550],[-3170,5391],[-1633,2981],[-1673,3500],[-583,1729],[756,778],[-28,2300],[-759,1254],[-1432,25],[-938,1194],[-94,3349],[-1822,180],[-209,5356],[-30,3284],[-481,1267],[481,2344],[16,1556],[3154,134],[13884,-62],[1977,510],[363,4587],[347,1038],[3291,5176],[-8,2571],[-1289,307],[-392,457],[280,1427],[-727,1185],[870,718],[-390,775],[-2904,95],[-10804,-227],[-60,-9345],[-15382,-146],[-2289,64],[1783,9372],[-1774,22],[-5488,-171],[-59340,92],[-2147,-271],[-71864,127]]],"bbox":[-105.299962,32.520419,-103.053256,34.088407],"transform":{"scale":[0.0000022467082467082357,0.0000015679895679895679],"translate":[-105.299962,32.520419]}}
