{"type":"Topology","objects":{"foo":{"type":"GeometryCollection","geometries":[{"type":"MultiPolygon","arcs":[[[0,1],[2]]],"properties":{"postal_code":"72846","realtor_list_price":227475,"realtor_list_price_yoy":-0.1352,"realtor_list_price_base":0.6872,"realtor_active_listings":9.667,"realtor_active_listings_yoy":-0.3256,"realtor_active_listings_base":-0.7304,"realtor_new_listings":3.333,"realtor_new_listings_yoy":0.25,"realtor_new_listings_base":-0.6046,"realtor_days_on_market":36,"realtor_days_on_market_yoy":-0.5385,"realtor_days_on_market_base":-0.5633,"zhvi":198091.436,"zhvi_yoy":0.0573,"zhvi_base":0.5018,"zori":"NA","zori_yoy":"NA","zori_base":"NA"}},{"type":"MultiPolygon","arcs":[[[-1,3,4,5,6,7,8]]],"properties":{"postal_code":"72837","realtor_list_price":331021.429,"realtor_list_price_yoy":0.0956,"realtor_list_price_base":0.9335,"realtor_active_listings":21.333,"realtor_active_listings_yoy":-0.1233,"realtor_active_listings_base":-0.362,"realtor_new_listings":4.667,"realtor_new_listings_yoy":-0.2222,"realtor_new_listings_base":-0.5352,"realtor_days_on_market":66.571,"realtor_days_on_market_yoy":-0.1137,"realtor_days_on_market_base":-0.1197,"zhvi":221947.814,"zhvi_yoy":0.0213,"zhvi_base":0.4915,"zori":"NA","zori_yoy":"NA","zori_base":"NA"}},{"type":"MultiPolygon","arcs":[[[9,10,11,12,13,14,-7]]],"properties":{"postal_code":"72843","realtor_list_price":229000,"realtor_list_price_yoy":1.1872,"realtor_list_price_base":"NA","realtor_active_listings":3.667,"realtor_active_listings_yoy":-0.1538,"realtor_active_listings_base":-0.5868,"realtor_new_listings":0.667,"realtor_new_listings_yoy":0,"realtor_new_listings_base":-0.3988,"realtor_days_on_market":49,"realtor_days_on_market_yoy":-0.3194,"realtor_days_on_market_base":"NA","zhvi":194845.422,"zhvi_yoy":0.019,"zhvi_base":0.4493,"zori":"NA","zori_yoy":"NA","zori_base":"NA"}},{"type":"MultiPolygon","arcs":[[[-8,-15,15,16,17],[18]]],"properties":{"postal_code":"72802","realtor_list_price":325937.5,"realtor_list_price_yoy":-0.065,"realtor_list_price_base":0.5935,"realtor_active_listings":89.667,"realtor_active_listings_yoy":0.0591,"realtor_active_listings_base":-0.1151,"realtor_new_listings":28,"realtor_new_listings_yoy":0.1053,"realtor_new_listings_base":-0.2421,"realtor_days_on_market":63.524,"realtor_days_on_market_yoy":-0.1164,"realtor_days_on_market_base":-0.0201,"zhvi":249402.404,"zhvi_yoy":0.0401,"zhvi_base":0.493,"zori":1308.333,"zori_yoy":"NA","zori_base":"NA"}},{"type":"MultiPolygon","arcs":[[[19,20]]],"properties":{"postal_code":"72853","realtor_list_price":232750,"realtor_list_price_yoy":-0.1971,"realtor_list_price_base":"NA","realtor_active_listings":4.667,"realtor_active_listings_yoy":0.0769,"realtor_active_listings_base":-0.5666,"realtor_new_listings":1.333,"realtor_new_listings_yoy":0,"realtor_new_listings_base":2.1765,"realtor_days_on_market":180,"realtor_days_on_market_yoy":8.4737,"realtor_days_on_market_base":"NA","zhvi":"NA","zhvi_yoy":"NA","zhvi_base":"NA","zori":"NA","zori_yoy":"NA","zori_base":"NA"}},{"type":"MultiPolygon","arcs":[[[21,22]]],"properties":{"postal_code":"72824","realtor_list_price":238000,"realtor_list_price_yoy":"NA","realtor_list_price_base":"NA","realtor_active_listings":7.333,"realtor_active_listings_yoy":0.8333,"realtor_active_listings_base":0.6528,"realtor_new_listings":0.667,"realtor_new_listings_yoy":"Inf","realtor_new_listings_base":"NA","realtor_days_on_market":71,"realtor_days_on_market_yoy":"NA","realtor_days_on_market_base":"NA","zhvi":"NA","zhvi_yoy":"NA","zhvi_base":"NA","zori":"NA","zori_yoy":"NA","zori_base":"NA"}},{"type":"MultiPolygon","arcs":[[[23,-13]]],"properties":{"postal_code":"72080","realtor_list_price":"NA","realtor_list_price_yoy":"NA","realtor_list_price_base":"NA","realtor_active_listings":2.667,"realtor_active_listings_yoy":-0.4286,"realtor_active_listings_base":-0.1645,"realtor_new_listings":0,"realtor_new_listings_yoy":"NaN","realtor_new_listings_base":"NA","realtor_days_on_market":"NA","realtor_days_on_market_yoy":"NA","realtor_days_on_market_base":"NA","zhvi":"NA","zhvi_yoy":"NA","zhvi_base":"NA","zori":"NA","zori_yoy":"NA","zori_base":"NA"}},{"type":"MultiPolygon","arcs":[[[24,-5,25]]],"properties":{"postal_code":"72856","realtor_list_price":"NA","realtor_list_price_yoy":"NA","realtor_list_price_base":"NA","realtor_active_listings":6.333,"realtor_active_listings_yoy":0.5833,"realtor_active_listings_base":-0.0092,"realtor_new_listings":0,"realtor_new_listings_yoy":"NaN","realtor_new_listings_base":-1,"realtor_days_on_market":"NA","realtor_days_on_market_yoy":"NA","realtor_days_on_market_base":"NA","zhvi":"NA","zhvi_yoy":"NA","zhvi_base":"NA","zori":"NA","zori_yoy":"NA","zori_base":"NA"}},{"type":"MultiPolygon","arcs":[[[26,27]]],"properties":{"postal_code":"72838","realtor_list_price":"NA","realtor_list_price_yoy":"NA","realtor_list_price_base":"NA","realtor_active_listings":1,"realtor_active_listings_yoy":-0.4,"realtor_active_listings_base":"NA","realtor_new_listings":0,"realtor_new_listings_yoy":"NaN","realtor_new_listings_base":"NA","realtor_days_on_market":"NA","realtor_days_on_market_yoy":"NA","realtor_days_on_market_base":"NA","zhvi":"NA","zhvi_yoy":"NA","zhvi_base":"NA","zori":"NA","zori_yoy":"NA","zori_base":"NA"}},{"type":"MultiPolygon","arcs":[[[28]],[[29,-11,30]]],"properties":{"postal_code":"72679","realtor_list_price":"NA","realtor_list_price_yoy":"NA","realtor_list_price_base":"NA","realtor_active_listings":1,"realtor_active_listings_yoy":0,"realtor_active_listings_base":"NA","realtor_new_listings":0,"realtor_new_listings_yoy":"NaN","realtor_new_listings_base":"NA","realtor_days_on_market":"NA","realtor_days_on_market_yoy":"NA","realtor_days_on_market_base":"NA","zhvi":"NA","zhvi_yoy":"NA","zhvi_base":"NA","zori":"NA","zori_yoy":"NA","zori_base":"NA"}},{"type":"MultiPolygon","arcs":[[[-25,31,-31,-10,-6]]],"properties":{"postal_code":"72686","realtor_list_price":"NA","realtor_list_price_yoy":"NA","realtor_list_price_base":"NA","realtor_active_listings":4.333,"realtor_active_listings_yoy":3.3333,"realtor_active_listings_base":0.801,"realtor_new_listings":0,"realtor_new_listings_yoy":"NaN","realtor_new_listings_base":-1,"realtor_days_on_market":"NA","realtor_days_on_market_yoy":"NA","realtor_days_on_market_base":"NA","zhvi":"NA","zhvi_yoy":"NA","zhvi_base":"NA","zori":"NA","zori_yoy":"NA","zori_base":"NA"}},{"type":"MultiPolygon","arcs":[[[-19]]],"properties":{"postal_code":"72801","realtor_list_price":219925,"realtor_list_price_yoy":0.0037,"realtor_list_price_base":0.7901,"realtor_active_listings":47,"realtor_active_listings_yoy":-0.1557,"realtor_active_listings_base":-0.2176,"realtor_new_listings":20,"realtor_new_listings_yoy":0.1538,"realtor_new_listings_base":-0.2419,"realtor_days_on_market":51.267,"realtor_days_on_market_yoy":-0.3115,"realtor_days_on_market_base":-0.1622,"zhvi":179667.806,"zhvi_yoy":0.03,"zhvi_base":0.4631,"zori":866.333,"zori_yoy":0.0385,"zori_base":"NA"}},{"type":"MultiPolygon","arcs":[[[-27,32,33]]],"properties":{"postal_code":"72827","realtor_list_price":"NA","realtor_list_price_yoy":"NA","realtor_list_price_base":"NA","realtor_active_listings":0.667,"realtor_active_listings_yoy":-0.5,"realtor_active_listings_base":-0.4751,"realtor_new_listings":0,"realtor_new_listings_yoy":-1,"realtor_new_listings_base":"NA","realtor_days_on_market":"NA","realtor_days_on_market_yoy":"NA","realtor_days_on_market_base":"NA","zhvi":"NA","zhvi_yoy":"NA","zhvi_base":"NA","zori":"NA","zori_yoy":"NA","zori_base":"NA"}},{"type":"MultiPolygon","arcs":[[[-17,34]]],"properties":{"postal_code":"72858","realtor_list_price":335000,"realtor_list_price_yoy":0.459,"realtor_list_price_base":1.2719,"realtor_active_listings":9,"realtor_active_listings_yoy":0.08,"realtor_active_listings_base":-0.3679,"realtor_new_listings":2,"realtor_new_listings_yoy":-0.4,"realtor_new_listings_base":-0.4528,"realtor_days_on_market":73.333,"realtor_days_on_market_yoy":0.164,"realtor_days_on_market_base":0.1768,"zhvi":224550.858,"zhvi_yoy":0.0437,"zhvi_base":0.5302,"zori":"NA","zori_yoy":"NA","zori_base":"NA"}},{"type":"MultiPolygon","arcs":[[[-23,35]]],"properties":{"postal_code":"72842","realtor_list_price":"NA","realtor_list_price_yoy":"NA","realtor_list_price_base":"NA","realtor_active_listings":7,"realtor_active_listings_yoy":0.6154,"realtor_active_listings_base":0.3252,"realtor_new_listings":0,"realtor_new_listings_yoy":"NaN","realtor_new_listings_base":-1,"realtor_days_on_market":"NA","realtor_days_on_market_yoy":"NA","realtor_days_on_market_base":"NA","zhvi":165796.366,"zhvi_yoy":0.071,"zhvi_base":0.2833,"zori":"NA","zori_yoy":"NA","zori_base":"NA"}},{"type":"MultiPolygon","arcs":[[[-21,36,37]]],"properties":{"postal_code":"72860","realtor_list_price":"NA","realtor_list_price_yoy":"NA","realtor_list_price_base":"NA","realtor_active_listings":1,"realtor_active_listings_yoy":0,"realtor_active_listings_base":-0.4828,"realtor_new_listings":0,"realtor_new_listings_yoy":-1,"realtor_new_listings_base":"NA","realtor_days_on_market":"NA","realtor_days_on_market_yoy":"NA","realtor_days_on_market_base":"NA","zhvi":"NA","zhvi_yoy":"NA","zhvi_base":"NA","zori":"NA","zori_yoy":"NA","zori_base":"NA"}}]}},"arcs":[[[520965,691588],[615,-175],[-459,-33899],[-483,-16878],[6305,-271],[241,-2282],[-780,-810],[-333,-2202],[4950,-3119],[2940,-3207],[963,-392],[302,-2153],[2906,-1004],[3637,-2195],[2603,-2943],[1857,-549],[-280,484],[3866,220],[-500,-3023],[-1267,0],[-320,-1465],[-2530,-2261],[-515,-733],[668,-2686],[-75,-5154],[-3525,-1231],[-2872,-1638],[-1322,-2147],[295,-1115],[3631,-2126],[435,-2091],[-4984,-2671],[-3881,-786],[-1905,221],[-4830,-2457],[-3894,-945],[-1194,-1108],[-1540,-280],[-493,-1412],[846,-2536],[-747,-2240],[-134,-973],[-35,-2908]],[[519127,576448],[-2235,-3377],[-384,-1472],[-2141,-1793],[-3047,545],[-4577,3115],[180,3390],[-1179,1486],[-3436,1157],[-2420,1551],[-5080,-636],[-1982,911],[-3220,4111],[-1306,43],[-1972,-1326],[158,-1820],[-1493,-3017],[-1280,-1241],[-4232,-1016],[-2935,-7],[-967,72],[-2032,617],[-1464,1483],[-6390,1703],[-2472,1682],[-1532,2778],[-1199,652],[-4155,-363],[-1407,552],[-4329,-3111],[11,488],[-2363,-1359],[-934,-2449],[607,-1403],[77,-2385],[-2081,-1549],[-2812,110],[-7809,4984],[-456,-616],[-4208,2806],[-3373,754],[-4205,-4366],[-211,-4362],[-856,-3015],[-2320,-339],[-933,-5322],[-2568,-2360],[6,-1756],[-268,-523],[-38,-180],[45,-417],[89,-369],[169,-305],[-31,-15627],[-3440,61],[-3408,67],[1711,-1082],[-3434,-2553],[-1323,-421],[-7082,-336],[-3237,-841],[-4445,-552],[-3008,112],[-2218,767],[2522,-1852],[-451,3],[-12437,5923],[-1445,1015],[-1377,29],[5004,-5745],[-4731,-949],[-1404,663],[-1611,1871],[-215,1490],[-8,-1467],[543,-1056],[1028,-869],[1838,-911],[-76,-3300],[-12811,94],[-111,-4157],[11494,-107],[22,793],[5613,-35],[-135,-6615],[-612,-927],[-2360,26],[20,942],[-5569,-67],[25,1040],[-1681,919],[-240,2534],[2436,145],[-2109,596],[-4163,194],[-3914,-3996],[-3332,4522],[-4309,6839],[1681,-37],[2236,837],[-4536,284],[-2441,1295],[-1909,2184],[339,740],[2371,652],[646,1161],[-3586,-904],[-1526,1992],[-13726,302],[-4093,111],[1128,5544],[1123,7272],[2149,579],[516,20207],[7752,-131],[2484,-56],[-3036,710],[-2846,2037],[-105,3393],[-2541,617],[-1495,1504],[174,12306],[61,1928],[49,1505],[1201,-8],[1298,-9],[3062,-2245],[2855,-1654],[67,7206],[-21,1],[-6723,61],[101,2265],[2461,1094],[3,1541],[38,1935],[4287,-96],[16865,-296],[159,4010],[730,244],[7,-1626],[450,-1849],[1784,18],[0,-581],[3928,-34],[-15,425],[1255,1900],[372,558],[57,2261],[-320,5930],[-10437,375],[1524,5770],[124,1477],[2542,56],[-629,2766],[-828,870],[-66,3738],[-4122,4187],[67,3598],[-1067,0],[-2302,192],[-1010,172],[-4531,2346],[600,944],[83,3356],[13036,-246],[327,14601],[-10,5921],[-4700,116],[190,6793],[-4320,119],[214,3223],[2184,-435],[395,-822],[2405,-1384],[180,-770],[2576,-1255],[1770,3374],[2223,1578],[-1171,149],[-1123,1636],[-248,1831],[-1846,1842],[-2332,2953],[-2799,-252],[-2283,-998],[40,2730],[3643,-195],[13248,-55],[437,22512],[2249,1295],[3217,75],[1085,-1084],[5511,-1888],[2218,-1187],[3979,38],[2618,1009],[1133,-56],[5539,2813],[3789,-355],[2798,177],[-1053,-28160],[3495,183],[543,-516],[27,-2917],[-862,-2731],[339,-538],[5416,-2732],[2199,-1191],[1910,-2449],[-4161,-6416],[-19,-8168],[1794,-581],[2512,2127],[2023,1177],[3654,-321],[-1064,-3711],[-656,-934],[-105,-6617],[9147,93],[2025,-208],[1897,-26],[3903,-9],[3521,395],[962,1118],[1600,585],[390,1537],[2214,1723],[839,2857],[-563,775],[1306,1893],[-166,3334],[3628,7355],[214,1427],[-4629,2841],[-1567,-69],[-1484,727],[-1325,1734],[-1177,3606],[217,821],[2536,697],[5183,4002],[1985,913],[2027,114],[1026,-324],[970,-2542],[1126,-2722],[2374,-936],[1633,-1182],[2426,1894],[5403,3524],[629,1292],[-1530,817],[-1637,1654],[-1480,683],[-1111,1388],[-340,2634],[-2240,354],[-1690,1756],[-800,2154],[-3250,615],[-2246,958],[-1564,1653],[-2062,1],[-3142,2265],[417,2691],[-236,3995],[345,3322],[-1071,1301],[553,959],[1266,-1813],[-580,-2486],[209,-2336],[1019,-1972],[2922,-2309],[3322,-1925],[2084,-131],[1400,-925],[-343,-1149],[657,-2010],[2465,1739],[1409,-1141],[971,1879],[2522,346],[5350,112],[1685,869],[1932,-869],[3484,-4477],[4397,-738],[829,738],[1894,-1832],[1618,-579],[1666,-1346],[971,19],[1009,-1888],[2570,-2654],[4992,-212],[25480,-363]],[[385902,651749],[3202,-2225],[-708,-2121],[1369,-4107],[-166,1441],[1772,1692],[727,1813],[1336,134],[-45,-2241],[3808,-215],[8694,-29],[100,3368],[9113,-27],[50,3416],[-15765,10],[-442,52],[-1347,462],[-2437,-767],[-5397,1664],[-2437,-430],[-1427,-1890]],[[520965,691588],[1334,40498],[33971,-564],[16926,-591],[76,4852],[1402,-1528],[-574,-1638],[1011,-1448],[880,486],[3164,27],[1903,3253],[3625,693],[556,2412],[2649,1774],[4007,-1016],[1070,884],[4700,-616],[1983,-1621],[984,805],[-18,615],[964,245],[2019,4795],[503,1797],[1389,1240],[590,2399],[1042,1305],[1416,641],[4595,3712],[3782,6356],[497,2518],[1751,2632],[199,5611],[-911,2955],[-3869,661],[-3814,2525],[-2312,2168],[-190,2318],[613,1878],[-191,1704],[-1481,2364],[426,2775],[-445,1935],[-2832,5333],[-3324,1929],[140,1713],[-733,1598],[1261,2240],[-915,6075],[-827,2527],[-1683,1306],[893,2102],[2855,3536],[490,1197],[2749,2096],[-3140,-457],[-2536,2094],[-1595,3076],[2228,-1957],[1226,643],[1239,-726],[1786,1749],[-1833,41],[-3040,1621],[1603,390],[-2200,888],[743,1783],[1562,-273],[769,1514],[1655,-257],[-53,1904],[1337,637],[-804,2681],[2562,376],[-893,3540],[473,3709],[1798,1492],[1421,384],[4648,-198],[1330,-335],[1207,-1520],[-195,-2683],[631,-903],[6129,721],[2679,17],[1300,517],[2291,-893],[1675,162],[2368,1077]],[[633632,845865],[1306,-340],[4745,1467],[3535,-1529],[5181,774],[3251,-1318],[5534,-442],[3240,1424],[-515,-18452],[4348,-1817],[3260,-503],[860,-1592],[2914,2008],[4443,-465],[1604,-1131],[4245,235],[1634,-1097],[3637,-3961],[14,-992],[1827,-2349],[2773,-2515],[-129,-1596],[3261,-1778],[3365,-4176],[2543,-1713],[2133,63],[1041,-1049],[3290,283],[3900,-1399],[-57,-3184],[668,-1698],[912,40],[708,1110],[1218,56]],[[714321,798229],[272,-3154],[1236,-934],[1244,216],[869,-1819],[3200,-1563],[2352,235],[1123,-3144],[3352,-4011],[-620,-3051],[750,-1073],[1921,-285],[365,-2161],[1074,-1059],[-1948,-2756],[1531,-1726],[747,-2358],[-1463,-1289],[-4535,-2050],[-2692,-729],[-547,-1802],[164,-3082],[959,-2316],[2013,-1075],[95,-1468],[1364,-1236],[16,-1038],[-1551,-2645],[-584,-1940],[-2359,-374],[-891,-1422],[-59,-3447],[691,-2942],[1880,-3250],[961,-2447],[123,-5628],[1182,-1593],[-461,-1026],[-4214,-2206],[-990,-2707],[253,-2794],[-658,-925],[-1947,-588],[-3007,303],[-3311,1855],[-638,734],[-3031,-366],[-366,-2292],[-1124,-1413],[-1036,-2415],[-108,-2281],[266,-5069],[1470,-1650],[-189,-1049],[-1505,-2274],[36494,-447],[-1205,-13238],[-625,-39839]],[[740624,648126],[-116,-7033],[-321,-1255],[-76,-6094],[-7302,311],[-5298,45],[846,2150],[-1755,740],[-2118,47],[-2490,974],[-2245,-1036],[-267,-3870],[399,-1589],[-616,-1343],[-2018,-459],[-3952,-2555],[-4216,-1856],[-6644,-449],[-2057,-1506],[239,-2154],[-5536,-1509],[371,-1423],[60,-5023],[-501,-3162],[-1161,-2064],[-1380,-2296],[-3667,-2196],[-2916,-608],[-663,588],[-2308,-982],[-1419,-1500],[499,-832],[-1077,-2159],[-1718,-1401],[-3465,929],[-5114,-1126],[-2794,-2179],[4445,202],[53,-6201],[1473,988],[2448,-677],[4159,2979],[7954,3763],[1369,-305],[-1035,-1521],[-40,-2089],[51,-2131],[-2640,-254],[-21,-1768],[2644,-12],[-67,-6806],[-4,-13443],[33864,-492],[141,-72],[7354,-136],[620,-1057],[2563,-678],[-603,-2363],[1498,-1561],[-1253,-352],[26,-1530],[6351,-5629]],[[739178,553106],[1,-688],[4187,-121],[-325,-13400],[4358,-214],[-185,-8101],[-213,-5414],[887,-20],[-11807,-5761],[-1511,-1943],[-178,-1243],[-84,-841],[-2829,1720],[-2053,17],[-1,-1353],[-3719,-35],[-48,3305],[-3022,92],[-907,1436],[-31,1198],[-448,335],[-7974,-2238],[-1336,-1552],[-3042,-4797],[-1532,408],[-304,-1420],[5817,-130],[-143,-2856],[-2633,-1140],[-4469,-2645],[-1282,-52],[-16470,253],[-39525,704],[-2852,91],[-3034,236],[-5277,-73],[-4291,255],[-4160,118],[-25,-2670],[-1734,0],[-12,2578],[-6737,-8],[-792,18],[-3418,-465],[-477,-997],[-3791,-659],[-105,-4502],[-1693,28],[-2286,-3550],[-386,-2675],[-11,-538],[-30,-1432],[-536,-973],[130,-642],[167,-329],[-3999,70],[-49,-2788],[-4262,66],[23,1275],[-4104,-1156],[-6,-759],[-2282,10],[-188,2209],[-341,1273],[-541,947],[-5093,1946],[-903,628],[-647,696],[-491,711],[-1013,2039],[-622,1192],[-778,1198],[-1362,1664],[-426,1797],[1714,4360],[132,642],[-172,407],[-4155,1584],[-9372,566],[-3794,-2817],[-2620,-696],[-1539,156],[-2744,2364],[-3458,1559],[-667,703],[-129,2858],[-1854,4],[-14643,-183],[-1378,132],[-817,22],[456,14117],[-19438,-112]],[[515445,529105],[-8288,275],[-9009,58],[3253,2897],[1261,3063],[1252,4097],[2987,6724],[690,2485],[-659,846],[-1953,440],[-756,4637],[10,3670],[365,622],[3101,910],[6996,-75],[2246,501],[1868,-700],[5309,-156],[1492,2413],[28,2527],[2915,5316],[-7158,144],[-2367,-97],[99,6746]],[[740624,648126],[1005,665],[1795,-216],[3022,741],[812,648],[1622,2722],[3141,870],[-1165,1518],[-2741,5563],[-2176,1850],[313,2174],[-1457,2444],[1109,1410],[4413,-108],[1481,1573],[4670,2279],[416,3539],[879,1794],[233,2671],[1107,1571],[-217,1945],[-1118,2041],[-787,2652],[764,1359],[106,2194],[-1006,2068],[-1265,9624],[1397,6773],[-1078,2447],[492,2283],[2158,835],[323,864],[2353,1736],[1138,-392],[4497,1030],[1160,2181],[5999,1411],[1533,166],[3433,1221],[962,2099],[-1210,2441],[-119,3245],[531,1374],[1446,1188],[1531,-266],[1669,1008],[1497,3114],[-505,996],[751,1359],[-1715,3267],[-1835,1419],[-213,1610],[-1380,1583],[487,1111],[-431,2040],[634,2717],[2851,2103],[-163,817],[-2523,2741],[17,1449],[-1081,4909],[-3291,1601],[-2793,732],[-1306,3686],[-2228,1213],[-1863,2454],[-2890,-156],[26,1764],[-2087,693],[-665,964],[1559,2119],[114,893],[-1195,2174],[188,4694],[1576,824],[2698,216],[2714,764],[2129,61],[2246,2911],[-572,2004],[96,1795],[1864,2900],[1353,630],[2221,972],[1890,17],[1809,636],[1566,2133],[1618,1482],[37,1062],[2789,542],[4941,3975],[710,2511],[3203,4404],[924,3071],[96,2580],[1691,2573],[1008,2550],[1269,1732],[254,1677],[1808,1254],[558,1223],[3371,3444],[292,1307],[5667,8239],[42531,-599]],[[858112,848317],[21795,-344],[9838,-163],[1305,-1212],[2297,-334],[2301,222],[1463,-579],[4071,-815],[901,-1572],[-399,-3511],[702,-1052],[1795,-956],[1925,-1699],[1666,-2096],[4687,-1354],[1202,85]],[[913661,832937],[-620,-25955]],[[913041,806982],[-8563,180],[-347,-16436],[-1027,-530],[-269,-1098],[-8,-1215],[-540,-656],[-908,-444],[-1011,-2447],[-1215,46],[635,-2714],[-1179,-4666],[-2486,-398],[-1005,-1877],[-17068,-6796],[-3,-1217],[12025,-151],[933,-3336],[-711,-572],[-142,-3342],[-1324,-2276],[186,-852],[-1255,-1654],[546,-1586],[1030,-571],[320,-3861],[-1119,-1058],[-251,-2013],[1381,-1218],[-2449,-1940],[552,-2554],[-1662,-575],[-86,-2172],[-2007,-337],[1361,-3714],[-830,289],[-355,-2356],[778,208],[1088,-3892],[3182,-812],[-11931,206],[-245,-13440],[-16857,165],[-600,-13522],[-16752,463],[-591,-40883],[33766,-164],[-108,-7103],[-359,-19981]],[[875561,632110],[-25105,145],[-246,-5129],[285,-512],[2694,-695],[3183,70],[2193,-706],[2802,-1548],[2239,-2604],[1595,-986],[967,-1821],[21,-2825],[1367,812],[36,-2766],[833,-1240],[-1604,-91],[-2280,-1059],[46,-1723],[-578,-1416],[-1813,-1650],[-101,-2279],[493,-660],[-1210,-1437],[-273,-1189],[-1222,-1513],[-1717,-193],[-746,-2343],[-3704,-2311],[-129,-3943],[1754,-5760],[-1715,-2029],[-386,-3619],[-51,-558],[-459,-5154],[-217,-1066],[63,-626],[20,-1106],[-1013,7],[15,-779],[-938,4],[-25,-787],[953,12],[-24,-792],[-2642,47],[-259,-1248],[-1560,-979],[515,-2009],[-2311,-3418],[-4005,-2327],[-1176,2613],[-3224,2109],[-770,-866],[2317,-2126],[-1709,-4236],[-2728,-1154],[-492,-1429]],[[833520,553222],[-3763,1749],[-5889,-426],[-333,3817],[-15459,-327],[-1418,161],[-6425,784],[-8981,-866],[-5459,-4311],[-2784,-1583],[-9073,-2163],[-588,-517],[-3293,5021],[-221,549],[-5869,241],[-54,-3366],[-7579,156],[31,3349],[-4243,104],[128,3336],[-4257,67],[-49,3829],[-8583,94],[-33,-2638],[-148,-7176]],[[833520,553222],[-367,-1139],[2083,-1403],[-40,-1835],[2267,-2474],[3411,-847],[4080,838],[2378,49],[709,-842],[-75,-1535],[-1461,-3979],[-1049,-729],[-3320,-893],[-955,151],[-1832,-1721],[-1630,-805],[-364,-1936],[2585,-1460],[3898,-1539],[1109,-2177],[56,-4759],[-1673,-409],[-2059,-3196],[-14,-724],[2828,-2827],[-530,-868],[1034,-1033],[209,-1885],[1207,-525],[2338,-140],[766,-616],[5,-2107],[1806,-1840],[1368,-221],[670,-1165],[-843,-956],[-8,-1252],[1037,-1140],[748,421],[2546,-2015],[341,-1290],[-888,-1255],[701,-468],[998,-3073],[161,-1766],[3058,-2359],[295,-2778],[-2543,-2459],[-2710,-196],[-905,816],[109,1502],[-2951,-1080],[505,1101],[-1614,800],[-89,1058],[-1762,294],[-1551,1593],[-1379,58],[-497,909],[-1443,103],[-1066,1064],[-1666,428],[-812,-1002],[-1459,-65],[82,3663],[-13443,51],[181,1569],[-12,1272],[-3753,-2222],[-79,-4006],[-525,-760],[-2578,-550],[-9915,2116],[-2764,-591],[-4253,284],[-1177,574],[352,-3949],[-6270,-43],[-106,-6002],[-6365,2971],[-8691,3512],[-62,-3761],[-3887,-34],[35,-3443],[4260,-39],[71,-6825],[-1239,1326],[-3270,-27],[-6953,-800],[197,-3529],[7130,-287],[-83,-3446],[9747,-128],[5,-1908],[1989,28],[552,-1480],[6,-771],[-1235,-657],[-7053,-56],[-4409,367],[-2033,1206],[778,-2453],[-444,-1418],[-2528,441],[-1685,-1176],[-1290,298],[-146,949],[-2165,735],[-1525,-288],[-1729,-1074],[-2861,230],[-2093,544],[-2229,1223],[-3038,173],[-2887,1232],[-2099,-47],[-1768,1334],[-1074,-297],[-3390,1016],[-882,1289],[-2509,-408],[-1775,1854],[-2350,1216],[-2735,-261],[-2757,1851],[-4097,1492],[-1476,-1105],[-2040,111],[-67,-3440],[-57,-2892],[-76,-3757],[8501,-111],[16797,-118],[8610,11],[-16,-1885],[29089,-8812],[35,-3577],[4268,-11],[-9,-6700],[-4224,9],[-445,-20283],[4379,-258],[-173,-10381],[-404,957],[-351,-66],[-133,-1173],[30,-867],[-459,-490],[-465,-30],[-266,-457],[-756,-734],[-570,-332],[-459,-237],[-994,-260],[-318,-55],[-180,110],[99,92],[793,242],[241,118],[-272,3],[-3973,33]],[[779104,409359],[-8895,162],[7,3917],[-2328,-1809],[-3393,-227],[-2794,246],[-1946,657],[-1245,1551],[-2170,585],[40,2193],[5205,-14],[-1203,363],[-6375,5110],[31,1365],[-2894,-19],[-251,18],[-853,37],[-1466,477],[-534,305],[-618,791],[-817,1273],[-885,1258],[-1549,1318],[-2845,832],[1547,2832],[627,4340],[-7012,663],[-3168,-333],[-5320,131],[-2951,-8],[-40,-1681],[-8299,19],[-34,1809],[-4114,20],[-66,-6829],[8383,-165],[-245,-8603],[-1871,288],[-270,-1551],[-1933,-1001],[-3942,-173],[-1959,-713],[-1673,-1479],[-572,2466],[-2316,796],[-1945,-235],[-5110,700],[-1270,555],[-3885,232],[-861,1207],[-5454,2122],[-1199,3350],[-2137,1419],[-698,1279],[2992,-23],[880,-10],[152,6424],[-865,275],[-16721,298],[837,-1160],[607,-3818],[-866,-2459],[1402,-823],[3130,-1670],[-940,-1333],[-1545,-583],[-2816,-852],[-410,-688],[-48,-73],[-88,-5],[-576,-1028],[-1486,-1017],[-1061,-548],[2388,-2892],[931,-1005],[2936,-2211],[269,-2694],[-6223,592],[-801,-53],[-5658,947],[-136,-3564],[-68,-2259],[-144,-6175],[3263,-3399],[2543,-2310],[-107,-2552],[2357,-53],[-416,-13860],[-10140,174],[-5420,113],[-16,-1573],[464,-627],[811,-299],[1186,86],[538,-1181],[-591,-861],[2348,-4916],[128,-4345],[-667,-860],[-547,-54],[-1305,-1000],[-219,-6354],[330,-2627],[-337,-1178],[-2805,2070],[-1287,-135],[2091,-2120],[1836,-3052],[-242,-1125],[1123,-3088],[13,-1715],[4009,-2481],[727,-2656],[-536,-1545]],[[658743,339275],[-3321,3086],[-2259,1243],[-1176,342],[-2773,256],[-2250,-343],[-2846,-1062],[-3927,-2600],[-2536,-2994],[-930,-1053],[-2969,-2016],[-3036,-1299],[-3592,-884],[-2990,77],[-3002,536],[-3483,1090],[-3685,1990],[-2483,1861],[-2235,2191],[-3114,4279],[-2667,4295],[-1828,4323],[-315,4058],[416,3178],[-233,2780],[-810,3069],[-1975,4403],[-4643,7527],[-543,843],[-3044,4899],[-61,77],[-4079,6676],[-4456,4717],[-3431,3083],[-3094,2452],[-5016,4472],[-2556,3158],[-7313,7300],[-1667,1505],[-6341,4410],[-4054,2377],[-4199,2114],[-2967,803],[-2559,292],[-3466,-41],[-10087,-307],[-6805,313],[-5060,575],[-3674,828],[1946,3080],[5132,6940],[4212,4867],[3896,3788],[4364,3728],[4449,3464],[2900,1846],[61,8652],[-295,8501],[-176,-27],[-1364,-1240],[-2368,-617],[-1756,637],[-1544,-1701],[90,-2116],[1079,-2790],[-2188,-1331],[-1275,-2402],[-4532,-397],[-1837,185],[-15086,224],[-1473,287],[-456,2403],[-3251,2075],[-672,3135],[1581,742],[2731,-182],[1174,1680],[-3542,2204],[-967,2073],[872,1209],[4243,2287],[7752,-910],[-220,396],[-9021,1027],[-2588,621],[200,4486],[12174,-3259],[-817,3222],[2339,1382],[-3048,1459],[-3701,695],[-2307,1841],[-2279,351],[-2489,1013],[-2493,338],[-5771,164],[602,832],[2340,242],[-36,613],[-4252,14],[-111,8463],[2547,-10],[469,1624],[1986,1058],[269,216],[-1007,8603],[982,1751],[-958,89],[1461,1442],[2996,704],[80,2583],[-4223,777],[-71,1271],[-5542,639],[-51,2538],[-1843,300],[1786,395],[5821,487],[418,-821],[8664,113],[73,-2636],[4726,93],[5177,1234],[-146,4307]],[[567571,442855],[1332,25],[-21,-1321],[4025,-71],[142,-1244],[-205,-57],[-955,-2863],[170,-3719],[1119,-3527],[987,-951],[551,-4949],[2525,-2864],[9700,-2618],[5701,-2525],[-208,-287],[4335,-886],[2004,-1365],[580,-929],[3477,-3319],[2791,2373],[595,238],[-71,1385],[1214,115],[1731,-1297],[1456,20],[426,3416],[6858,-157],[98,3415],[114,4122],[3980,-756],[632,6527],[-409,76],[-4031,201],[46,1347],[16754,-3011],[70,3491],[-5472,116],[36,1193],[-2191,80],[144,4071],[-2231,20],[-2718,-552],[39,1990],[-2584,22],[-398,1400],[11599,-247],[80,4893],[-4258,1350],[116,193],[-5663,2002],[-2955,1764],[-183,-183],[-615,-688],[-443,-811],[-2858,-1125],[-4275,-129],[-3529,154],[-302,162],[-285,3885],[-4210,363],[4,-1443],[-2364,46],[-546,3648],[-3638,170],[-1172,-351],[-560,-628],[-203,-2445],[-8074,307],[-1321,-734],[-2029,756],[-2375,-863],[-708,212],[-1238,862],[843,1161],[-351,863],[1698,2286],[472,-616],[2471,-222],[792,1556],[-1010,1303],[-5813,1117],[-5830,-961],[-445,-731],[37,-763],[105,-1932],[-3021,240],[-4,-1563],[2196,-2972],[-2018,-2268],[-255,-3993]],[[356898,164334],[2473,-27],[-72,2189],[568,11064],[1469,-41],[13779,799],[-430,1470],[1009,3736],[-2179,1263],[256,401],[2258,38],[-11,15912],[1604,-140],[8255,2903],[7342,1299],[98,3147],[3363,133],[84,8322],[1987,-1833],[3567,-1001],[2730,-43],[284,-945],[2527,763],[2432,-150],[3326,-1288],[5498,-241],[2310,-813],[1583,43],[5025,-2888],[1712,-767],[31043,-668],[3337,-70],[40915,-624],[7750,-167],[57,3393],[18219,-136],[142,297],[4451,270],[1995,-403],[15142,-542],[488,-593],[0,-5680],[220,-940],[2181,725],[3760,1982],[1095,-452],[1049,858],[49,647],[3617,-44],[568,22238],[1998,630],[2667,-237],[1690,-692],[6726,722],[2050,-381],[3549,181],[3452,823],[2546,-1142],[1305,74],[1516,-902],[2134,-382],[1310,368],[759,1597],[2085,-948],[-1197,-1576],[784,-795],[2913,1781],[174,1657],[1224,263],[2234,-1357],[2655,984],[1210,-1396],[4186,75],[1082,849],[-125,1794],[1774,753],[4251,1501],[-1625,2286],[-621,1881],[2157,1489],[1734,-29],[1540,1326],[-1194,1819],[2079,2228],[3165,4],[1400,-1128],[-109,-1384],[-1673,-919],[654,-901],[1527,121],[3105,2632],[437,1289],[-1218,1616],[953,1454],[2862,1178],[1541,-1177],[-115,-3670],[1992,197],[722,1221],[2467,2111],[1770,756],[1645,-132],[1845,1026],[2754,-131],[3299,2517],[2500,460],[728,-2742],[3802,-1736],[204,-1371],[-1828,-17],[684,-1535],[3291,-1950],[-1104,-888],[-4241,-748],[-7248,-2071],[-1721,-1684],[-2208,-798],[-872,-1162],[-3812,-1997],[416,-2723],[-5471,-70],[-2149,876],[-1778,2141],[-2493,941],[-1271,-2078],[-954,300],[-1246,-1263],[-1139,-2355],[-369,-2570],[3024,-3531],[1458,-106],[1486,-1990],[1804,-1455],[1247,-2077],[2877,-1163],[1359,293],[1125,2019],[1439,767],[5849,72],[1213,-4788],[1437,-1583],[624,-1164],[7596,-3664],[1313,-813],[5845,-2206],[-800,-5691],[6502,-2552],[2350,-419],[229,-1490],[1170,-977],[1196,360],[1438,-1906],[1532,-791],[-38,-1634],[-1094,-971],[-138,-1734],[3882,-1059],[-171,-5388],[1447,-1215],[-1142,-1383],[-2240,-1155],[431,-2462],[-581,-1701],[1561,-2196],[-4749,-94],[-2694,-574],[-1552,-370],[1047,-2308],[-2313,-271],[-3217,206],[-2228,747],[-2941,-916],[-4264,-888],[-4817,-532],[-3084,-47],[-3112,-654],[-3836,-327],[-6892,84],[-4722,-281],[-1846,169],[-4436,1084],[-1437,1018],[-2075,2580],[-3084,561],[-1333,1084],[-2341,906],[-257,1477],[-3265,776],[-3103,149],[-1914,-3084],[-2969,-1318],[-2475,215],[-3219,-877],[-70,-4352],[-17131,273],[-14,-13520],[-95,-143],[-8897,198],[-1729,1748],[-385,1291],[-2012,1227],[466,1212],[2846,831],[-2107,3276],[-1945,1091],[-2172,613],[-7553,2816],[-487,326],[-7797,1426],[-2576,134],[-4468,704],[-8384,265],[-3885,-12],[-3023,341],[-11964,2432],[-2927,-203],[-3723,574],[-2438,16],[-1300,-318],[-3496,76],[-3479,-938],[-3819,-49],[-1028,-880],[-3668,-1278],[-3519,-451],[-6100,-1887],[-5036,-113],[-10681,-2396],[-2571,7],[-642,219],[85,6918],[-4230,-152],[-152,3368],[-3499,-2264],[-908,-346],[-2252,560],[-2403,-96],[-1939,-930],[-1542,-371],[-424,-383],[-2533,-28],[124,-901],[-762,-1023],[-316,52],[-211,-340],[845,-327],[-45,-602],[-297,-97],[-211,-514],[-434,-174],[-984,-246],[388,-3560],[-712,-2427],[-7374,-130],[-164,-9699],[-3948,-7093],[-6094,-2444],[-2482,-4298],[-246,-5464],[1078,-1380],[1808,-3856],[781,-2972],[-7138,-2424],[-3073,1979],[-2314,683],[-2115,-972],[-1548,303],[-5780,-279],[-975,-288],[-4900,-3501],[-1045,809]],[[391941,117023],[-330,6590],[-17995,-164],[-14961,-34],[-67,325],[91,8785],[87,6665],[57,5662],[-7408,4333],[-4021,2567],[2135,3281],[2246,1727],[473,1707],[2376,1809],[1380,3301],[894,757]],[[246363,327313],[176,7717],[16245,-256],[67,6448],[9283,-218],[66,6759],[39854,-1293],[1624,-210],[9940,-119],[-1564,-899],[8718,-687],[1842,-275],[4126,-2057],[4239,1270],[4674,-722],[2711,-70],[2692,-588],[1345,-1268],[5006,-682],[-21,-691],[7390,-369],[20,-873],[11021,32],[14498,-369],[28066,-721],[1315,-45],[117,-7166],[12304,-335],[-3,-23],[2568,169],[13125,-256],[-573,-608],[2306,-940],[-1102,-477],[2300,-2246],[1573,-2574],[1798,-779],[261,386],[-799,-4698],[-751,-1557],[-2232,-10792],[-2119,-1273],[-33,-1309],[-143,-8788],[-150,-761],[-367,-3483],[-1720,-6349],[-1835,-8612],[-5041,-4010],[-3461,1518],[-6081,303],[-3241,1131],[-7234,81],[-3043,-304],[-4642,1870],[-2128,-188],[-3270,1768],[-21717,-13621],[-4529,533],[5476,3519],[-2394,-44],[183,6203],[10283,-200],[155,6599],[-16916,289],[-49,-17031],[-8525,105],[-75,-3388],[-1562,25],[-13,-3376],[-2959,49],[-63,-2258],[-4681,-2945],[-228,-1049],[-6932,22],[4423,-2454],[2142,-1871],[1598,-2141],[-2612,-2785],[-1056,-2082],[-11072,7475],[-1589,-948],[2767,-1842],[1004,-803],[3304,-3910],[4169,-4956],[378,-585],[595,-4859],[854,-895],[180,-165],[-2816,-515],[-2417,-3293],[-1153,-536],[-2891,-1251],[-165,2067],[-1335,651],[-1384,575],[-1169,-1602],[-3187,1173],[-1723,-1092],[-957,360],[249,1277],[-1911,-181],[-2254,560],[589,-2164],[-1600,692],[-1524,-349],[-785,1205],[-2552,1024],[-1708,-850],[-1130,1211],[-972,-574],[-2374,327],[209,1050],[1865,166],[617,860],[-856,1577],[-1497,1259],[-1158,-1313],[-592,-32],[-1541,792],[-838,195],[-915,-567],[54,-2470],[1702,109],[845,-819],[-562,-313],[-3401,265],[-635,-919],[-2479,-388],[-868,218],[-273,1195],[1160,452],[-26,1003],[-505,1263],[-2210,974],[-735,-2200],[-3514,-1262],[-2308,-78],[-50,0],[510,-681],[1387,-661],[78,-617],[-1007,-216],[-1041,79],[-1306,597],[-1286,1344],[-838,297],[-1033,117],[-938,860],[-4099,2143],[-1920,201],[-6779,2245],[-3636,678],[-3324,22],[-2065,1994],[-87,861],[-2213,1453],[-725,1228],[-2128,-356],[-2014,-1023],[-2202,828],[-905,1772],[204,1874],[-3174,497],[-207,1860],[-2191,-1441],[-3079,268],[-1869,1202],[-99,716],[2543,1285],[223,1047],[-1919,-687],[-1884,467],[-1363,-1003],[-1872,12],[-642,1118],[-1545,200],[-1060,-1927],[-1969,331],[-988,977],[-530,-1160],[-1569,-1210],[-1060,57],[-357,1041],[1310,2243],[-373,815],[-2141,-963],[-2077,506],[-479,-2665],[595,-984],[-931,-936],[-1949,-217],[2015,-1359],[-835,-1296],[-2158,1727]],[[233938,242728],[-423,1766],[-599,332],[-1714,-1233],[-3957,2274],[-684,-41],[-758,-1856],[-1198,1411],[-2081,-273],[-2613,1051],[-4354,-788],[1533,-886],[-216,-970],[-4107,359],[-1057,1009],[-5368,69],[-1666,1268],[-2122,3256],[1294,3104],[-3358,1067],[498,1074],[1881,1201],[5228,389],[2723,843],[-50,-6919],[734,-313],[15873,-282],[373,271],[44,1323],[8343,555],[-8,705],[8301,-49],[415,11426],[6545,-1299],[-960,668],[1981,1017],[1287,1992],[-770,1059],[440,1521],[-787,1397],[8733,-1567],[105,462],[-1846,455],[69,3258],[-374,2625],[4663,2],[2166,-626],[5259,989],[1820,997],[2127,1],[1744,1121],[197,878],[3685,574],[14512,400],[100,5041],[8099,-13],[343,377],[-1797,1686],[-1525,2617],[-127,2177],[409,3566],[916,827],[-3333,1137],[322,2258],[-467,1604],[-1465,226],[-57,2788],[809,1091],[-755,1148],[-34465,889],[538,14020],[-9,1517],[-1546,-591],[-1986,1229],[-763,2068],[-2512,1289],[-1099,13],[-2086,2852],[-2263,1181],[162,-2607],[-2581,114],[-1940,-986]],[[913041,806982],[85064,-1695],[-153,-3536],[-1022,723],[-3660,-1789],[-282,-26584],[-2130,37],[-39,-1294],[-1238,1203],[-1420,3783],[-2482,1244],[-4471,-109],[-3790,-1506],[90,-1786],[-704,-3099],[-1598,-1227],[-2485,-369],[-4574,-1951],[-435,-791],[-887,-3009],[917,-1715],[-459,-2307],[1262,-2983],[-571,-668],[-487,119],[-4492,-1863],[-4779,286],[-3594,-969],[-584,-561],[-1262,-2915],[-92,-1403],[1753,-3052],[-372,-3255],[4258,-2593],[-1948,-2459],[-650,-3304],[-1123,-1175],[40,-2753],[-1091,-985],[-1495,-2788],[97,-2022],[-797,-1587],[1005,-2975],[-589,-1760],[1478,-2373],[-1276,-1490],[-442,-1900],[2210,-6147],[1165,-251],[3073,-2298],[2119,-783],[1395,166],[1094,-1275],[2807,-1706],[2552,1303],[2252,-1234],[783,-1279],[4000,-2307],[1968,-3021],[2388,-1395],[3349,-1164],[4008,-466],[2143,-2758],[-427,-1641],[1262,-3805],[-79169,1509],[-26842,373],[564,-1939],[-683,-3071],[-3843,-1753],[-1272,-3807],[205,-1106],[3096,-2077],[2026,-1863],[1013,-2084],[3023,-2153],[434,-1796],[1214,-1772],[1587,-904],[-1250,-3936],[645,-2071],[3427,-2028],[1639,499],[5343,-1730],[1257,411],[2783,-1887],[1386,-218],[2871,-4130],[393,-2068],[1015,-972],[2658,-776],[235,-1401],[1644,-1383],[2983,-1670],[-494,-1397],[223,-2399],[1093,-438],[515,-1907],[-3278,-751],[2253,-1048],[2625,-3970],[282,-1476],[-616,-3688],[1525,-193],[2413,-1374],[424,-3112],[1614,-4385],[-346,-3459],[2513,-2071],[581,-1412],[-790,-686],[-578,-2653],[707,-1320],[2504,-617],[1295,-2544],[-516,-2403],[2708,-417],[485,-1227],[3549,-1779],[1118,855],[1691,-619],[1365,120],[2433,-906],[2613,-3789],[3084,824],[2936,-529],[2181,-775],[1776,-1809],[623,-3089],[1137,-869],[2297,39],[1975,-680],[1604,124],[2495,-1754],[6884,582],[-467,-13145],[86,-2091],[-1576,-1592],[-3687,4446],[-2481,80],[-697,-890],[25,-288],[395,-877],[-88,-820],[64,-332],[-99,-752],[91,-1386],[369,-1090],[-681,-2174],[-2699,-1212],[-1591,815],[-4852,79],[-701,-564],[-662,-1946],[3175,-6677],[428,-3561],[-1454,-846],[-85,-1819],[-1170,62],[-409,-1977],[-3568,-3457],[-2331,-1115],[-946,-1602],[-2478,-594],[2328,1464],[530,1136],[-1380,3283],[-2503,227],[1172,813],[-6681,-1302],[-8067,-941],[-4341,-2460],[-2076,-621],[-1385,387],[-2908,-328],[-2722,2659],[-5786,4363],[-1761,1318],[-398,232],[-890,293],[-2299,468],[-216,-1704],[4077,-440],[1142,-1149],[104,-2012],[893,-917],[317,-1946],[1394,-1684],[359,-2002],[1584,-1551],[-1113,-2044],[-250,-2353],[588,-2310],[1644,-1959],[-57,-1471],[-1258,-1247],[1261,-4469],[-241,-1197],[-1664,-1385],[603,-4159],[-2368,-2713],[-2690,-6974],[900,-2685],[-1080,-211],[-11359,314],[-267,-2104],[-6403,133],[-1162,-1064],[-1545,2360],[-1357,880],[-182,-4],[180,2245],[-3251,1255],[-4138,-1144],[-5063,375],[-4164,-817],[567,25532],[295,16460],[574,31467],[237,17049],[226,15957],[742,27220]],[[779231,849449],[-104,-6653],[-74,-476],[-541,-1356],[-2720,-2683],[-1743,-53],[-825,-1260],[-2185,-1568],[-1878,-2064],[-108,-1092],[1245,-1798],[-1090,-1613],[-2209,-5576],[-3397,-2369],[-1199,-1914],[-1400,-4008],[176,-2881],[-700,-2248],[-54,-2590],[-1486,-1417],[-1720,-2346],[-70,1848],[-1889,1579],[-2743,4223],[-2213,1757],[-158,1995],[-1352,1262],[375,3213],[1780,821],[1147,1647],[501,2737],[-247,2084],[410,3026],[-2075,1899],[-382,1211],[-2165,2737],[-69,663],[1325,2472],[2749,332],[1694,1265],[2350,740],[-472,2512],[720,699],[15,1523],[-1508,1546],[-1618,204],[-7283,-1233],[-4865,-2837],[-837,-1137],[116,-1333],[-1174,-716],[-1825,-194],[-2362,-1655],[-2583,-6630],[326,-1027],[-828,-2397],[-1124,-880],[-475,-1493],[-2689,-2587],[-1668,-633],[623,-2090],[1258,-1391],[-66,-1694],[-3825,-1857],[-984,-2219],[1363,-2630],[-1204,-804],[-2198,-318],[-675,-663],[-46,-2419],[-1276,-2376],[-1817,-554],[-2596,-8],[-1705,-1009],[-219,-1385],[1635,-3081]],[[633632,845865],[39,1934],[-1539,1952],[-704,2335],[-37842,301],[-17178,1022],[1966,74017],[90,5069],[205,1135],[140,998],[56,853],[155,1236],[-1273,2067],[-1452,911],[-1116,558],[-2719,1336],[-5024,3490],[-1762,932],[-2961,3363],[-333,1265],[413,1867],[-605,1729],[-2964,3287],[-2132,4018],[-1543,1168],[-2259,527],[-1855,1412],[-3424,1111],[-765,1484],[256,3836],[1736,3180],[2559,2135],[446,2232],[-1033,1896],[-1287,4676],[51,932],[2485,-213],[2270,803],[1943,2592],[1926,3113],[3891,1944],[2003,-474],[-1072,-1995],[7582,-576],[2508,-518],[-1348,-457],[1958,-800],[3370,121],[2179,565],[577,1180],[2402,585],[-878,3564],[49,3376],[513,93],[311,-3631],[1542,-2800],[-1563,-2054],[1221,-2627],[-1107,-1545],[1458,-3473],[2238,-824],[32,-2020],[226,-1401],[285,-338],[514,-237],[244,-375],[115,-483],[-360,-677],[-58,-638],[-315,-390],[-888,-668],[-494,-945],[-3523,-1242],[-1401,-1540],[-1467,-4299],[1587,-1388],[3900,-1295],[602,-32],[2527,-1782],[667,-3021],[-1107,-3847],[-624,-991],[12,-1881],[-1201,-805],[-892,-1237],[-689,-15143],[11019,-185],[97963,-1648],[1908,-249],[6338,-167],[12167,-191],[5201,-67],[279,999],[1523,1239],[2546,1180],[1570,3328],[3206,2954],[5376,991],[1736,1339],[-389,2983],[273,1788],[1146,1731],[1865,715],[809,1009],[-636,3831],[790,1889],[2058,1353],[2686,-265],[1168,-2933],[899,-325],[2203,999],[75,2470],[1180,1574],[2806,971],[2670,414],[1184,949],[437,-1073],[1652,-884],[-198,-616],[2268,-2251],[649,-1181],[1049,-3611],[1170,-2594],[823,-867],[566,-2112],[-1842,-4485],[1357,-3862],[2179,-2697],[7,-786],[1689,-1977],[-401,-2775],[725,-3292],[-661,-3775],[4599,-1350],[9093,930],[-1673,-75372]],[[136253,104467],[-2427,-759],[-544,-8061],[-1235,207],[-6057,-823],[-1561,338],[-19,-9177],[526,-1439],[4029,-2591],[1022,-1705],[-96,-1437],[-1613,-4176],[347,-2155],[-2079,-4128],[-2293,-1917],[11,-318],[-416,-1004],[-3410,-1567],[-1981,-111],[-2775,966],[-1815,166],[1044,2058],[-1163,385],[-2586,-2309],[-869,-1773],[-1053,-3491],[66,-3317],[-1112,-3343],[-400,-2317],[393,-1560],[-826,-1059],[-1890,1207],[-3267,1326],[-1029,1289],[-12,1073],[-1896,730],[-1942,-678],[-985,-1643],[145,-1506],[1853,-1422],[-90,-1269],[-3191,-3018],[-859,-1930],[1410,-700],[-609,-1113],[-2233,-787],[-3712,244],[-2808,2156],[-4008,345],[-2950,-1296],[-2538,-2614],[1602,-179],[3696,993],[1547,-305],[-355,-3595],[-1101,-1129],[-1464,600],[-2150,-877],[-3755,-845],[-2817,-2639],[-3094,-705],[-2048,852],[-3459,280],[-4729,-916],[235,12249],[-1947,129],[-931,-1208],[51,-1433],[-1661,-1781],[-2385,-325],[-1702,811],[-642,1252],[-1264,201],[-3868,-864],[-2064,-102],[-735,-1602],[-3252,-1034],[-2362,153],[-789,1489],[153,2989],[-692,1754],[-261,4],[601,3849],[-827,415]],[[34281,46925],[-164,1473],[-4424,611],[-876,-606],[-2945,768],[-3577,-1489],[-1422,-1056],[-2252,-20],[-2803,601],[-1338,2203],[-1066,144],[1485,1501],[3102,794],[1218,734],[3779,3770],[1235,761],[6483,1393],[2881,214],[1380,-361],[9985,-347],[5474,1983],[3953,1997],[4830,235],[191,8817],[1267,250],[2519,-848],[1962,-2531],[659,540],[3771,-622],[70,-923],[2369,-970],[330,-1577],[1851,-1940],[1753,295],[-226,3510],[-1095,462],[102,16838],[-1852,2731],[-1068,2967],[1227,2028],[-400,743],[-587,174],[103,633],[2153,688],[5290,3241],[3849,2900],[2933,973],[5644,1277],[3109,2065],[5009,1691],[5480,1468],[3773,433],[3118,-353],[1439,596],[1884,1853],[3494,985],[2470,-294],[1455,1739],[482,1321],[1197,299],[-19,-1256],[-230,-7894],[11115,248],[443,-318]],[[942149,848865],[1240,1344],[-281,934],[2829,3189],[153,1018],[1760,2437],[2431,2608],[1348,867],[3110,430],[2028,-324],[1361,805],[905,-329],[6406,-104],[-804,2942],[412,838],[1591,385],[3881,59],[-52,1043],[1767,1954],[1311,382],[968,1366],[1188,107],[1790,2856],[1137,-50],[1404,1069],[2143,252],[1252,925],[-393,1552],[954,804],[-169,-4822],[3478,1718],[59,1770],[1287,-9],[460,-1707],[-1495,-1703],[3780,-117],[5525,-246],[-148,-3591],[-754,-708],[1635,-1783],[-447,-2249],[-1143,-2046],[2011,-1354],[1531,-1868],[-107,-1857],[508,-2700],[-1742,-3156],[-987,-2581],[792,-3356],[-14564,336],[-41567,810],[218,1860]],[[914637,885432],[-1272,-1936],[950,-4279],[-353,-1187],[3184,-1418],[3169,-2137],[2036,-113],[1087,-942],[3451,-1482],[1648,-2132],[1110,-16],[1515,-1691],[294,-2311],[-687,-889],[1219,-2117],[-315,-1864],[-587,-252],[-588,-1144],[25,-3417],[731,-4680],[-201,-2137],[-1241,-2075],[1291,-21],[2953,-48],[-232,-4474],[860,-2688],[1785,-1694],[-532,-1377],[315,-1419],[1618,-1458],[-1901,-1390],[-64,-1883],[982,-1387],[-200,-2117],[-725,-2123],[-226,-2783],[-1093,-3746],[-3654,-1698],[-756,138],[-1511,3149],[-1617,2644],[324,3665],[-1084,2824],[-2584,1118],[-3790,766],[-3109,1308],[-3201,418]],[[858112,848317],[888,1377],[2770,1265],[2053,1473],[514,4890],[1830,1012],[594,1151],[2610,1885],[-1041,1302],[443,802],[90,3288],[-566,1000],[-623,3050],[-894,801],[826,2411],[505,3472],[-334,2630],[-1312,1509],[-784,1847],[-1545,446],[-1412,1110],[10027,7323],[3084,2118],[-359,-1382],[1369,-1546],[1315,-493],[4444,-379],[1733,-1073],[2112,-539],[4026,-3128],[24162,-507]],[[779231,849449],[30600,-459],[1315,2594],[2685,1580],[-34,3174],[3261,151],[1554,-647],[2513,1209],[20297,11917],[8100,6247],[-1244,-404],[-3484,1081],[-6624,722],[-1257,586],[-1623,2066],[-884,1927],[-1527,1341],[-1246,-72],[-1745,2050],[-1655,715],[713,1355],[-1103,2888],[-77,1402],[-1700,1635],[142,821],[2818,56],[1335,-587],[3390,-278],[2928,1833],[894,1654],[832,7],[-296,-522],[-159,-6324],[6150,48],[13645,-384],[2209,4395],[624,636],[901,3574],[1047,1130],[1306,3724],[347,4551],[-193,712],[-2508,2177],[-363,1379],[-3457,1400],[-2228,2022],[-201,2209],[3195,8634],[572,1107],[1913,2370],[1647,715],[3300,3541],[4070,-56],[2030,-1179],[1250,-78],[-1673,-1441],[1805,-224],[2685,1131],[2909,-1292],[2355,-11],[2830,1217],[2119,55],[-81,1132],[4833,-23],[1182,2943],[-865,3127],[234,2024],[1273,2773],[8416,-69],[1367,456],[1487,13117],[-21,2883],[826,2022],[756,3827],[-2352,1184],[-2109,1908],[-1161,3066],[2734,3505],[278,879],[3825,-804],[-255,-1789],[2554,-4595],[18653,31204],[1977,-72],[-528,-3623],[-1239,-2744],[-7,-4741],[8391,-212],[-221,-6431],[-359,3],[-575,-38830],[-89,-801],[10751,-417],[-2861,-5751],[-695,-3852],[-1196,-1361],[-3424,-1098],[-797,-1120],[-277,-3683],[-2332,-688],[-2343,-103],[-2332,-585],[-2119,1378],[-2408,611],[-2955,-904],[-231,-1218],[802,-1643],[-1747,-3565],[-2357,-2157],[64,-3498],[1669,-1367],[-2543,-2800],[-90,-780],[2498,-1325],[-488,-1203],[-1567,-1268],[1708,-1496],[3369,-4889],[58,-3109],[-983,-3929],[-905,-843],[-4006,-1165],[-1682,-1295],[-1104,-1993]],[[136253,104467],[23802,-224],[3850,-1413],[4599,-520],[5511,-1586],[6551,-535],[1583,-417],[2205,-1307],[1981,-2050],[71,-1125],[1319,-1201],[1149,-200],[-1118,-595],[-2426,-3163],[-1902,-457],[-101,-657],[2677,-2398],[2744,-704],[1923,1214],[2765,-585],[2807,-1866],[1542,-292],[2061,1264],[-3897,2107],[-1371,342],[-701,1093],[1264,992],[2238,222],[1623,-376],[1861,-1356],[2216,169],[3079,2377],[1412,676],[8,-228],[3411,-350],[592,-1254],[-526,-353],[-1119,-1525],[1391,-2511],[7390,342],[3091,-1593],[242,-1561],[1699,-1392],[3256,-1678],[2256,-305],[1511,1051],[291,2631],[-1661,1273],[-50,1798],[2831,393],[2952,-292],[3639,-1747],[4193,-1156],[1002,-808],[185,-1613],[4122,-932],[1689,164],[7143,2299],[1746,-360],[1856,-2756],[1142,-857],[949,-2228],[1157,-1114],[9212,2740],[249,75]],[[273419,78049],[626,-6231],[-8877,-2803],[-488,-414],[-601,-29],[-1472,-302],[-2663,-833],[-1250,-475],[-1510,-190],[-3774,-2731],[-1645,-1857],[-2832,-870],[-1604,646],[-3436,462],[-5925,-218],[-3493,-376],[-3628,-1311],[-3406,-23],[-9842,-1946],[-6826,-1733],[-3593,-604],[341,-2790],[-160,-11867],[-3275,-36],[-22380,393],[-23990,1489],[1,-2906],[-858,384],[-244,2052],[-1903,126],[-2309,-2077],[-2541,-1619],[-5069,-1454],[-4097,14],[-3304,-1968],[-4022,-920],[-3073,47],[-4372,-1167],[-2256,-909],[-5600,-1221],[-3030,-176],[-6028,-1144],[-2563,185],[-5788,-1568],[-2098,-1149],[-4583,-677],[-5418,-2439],[-2651,-776],[-5097,-2674],[-2744,-3777],[-2427,-563],[-2012,297],[-1432,-1233],[-13894,96],[-46,-1559],[-1732,365],[-2361,2156],[-3374,426],[-3234,-1194],[-1759,-70],[-3108,471],[-1806,-413],[-398,-2686],[-1072,-2007],[-2156,-1537],[-3221,-571],[-2519,163],[-3868,-1239],[-920,-1362],[67,-1119],[-7203,-1817],[-2944,-242],[-4178,-861],[-4233,-1191],[-6102,-1897],[-2137,360],[1629,2085],[2353,621],[2304,815],[1985,560],[231,24916],[6668,37],[1175,646],[1397,1813],[1206,1013],[2585,1387],[113,-122],[3459,1888],[745,458],[2566,2138],[877,1017],[-86,430],[946,1957],[78,705],[62,663],[3988,3538]],[[779104,409359],[-105,-6489],[-29664,215],[-21883,272],[-3582,474],[3,-250],[-9610,222],[-16,-627],[-2652,119],[-91,-3491],[46,-249],[-469,78],[-1211,-5431],[1388,-209],[-45,-3939],[-3490,-1467],[-255,-1263],[-6324,-2717],[-922,-333],[-1852,-274],[-114,-3619],[-4181,1],[822,-792],[-1174,-241],[-1237,-1346],[1096,-1691],[-562,-2080],[-892,-822],[260,-1962],[804,-442],[-1288,-729],[3187,-1435],[-135,-3718],[-1881,-2395],[266,-3107],[-403,-9258],[-657,-678],[318,-4572],[1815,-1624],[-369,-657],[1268,292],[-262,-1382],[1471,-2805],[2275,-1157],[2193,-396],[324,-837],[2568,246],[1963,-591],[2662,-1342],[3934,-175],[-287,-10309],[-3569,-1258],[-1990,-1562],[-1294,-1532],[-921,-2896],[-69,-3650],[332,-5023],[596,-5020],[1386,-6209],[28,-2697],[-1484,-2827],[-3526,-2956],[-4430,-2558],[-5648,-2532],[-4437,-959],[-6246,-601],[-7332,183],[-3642,813],[-3047,1111],[-6812,2882],[-6671,3597],[-3869,2739],[-1444,1584],[-2372,3434],[-1299,3772],[1585,1432],[4443,1456],[3281,1514],[1905,2170],[1284,4182],[-1263,4331],[-1827,2151],[-1346,2673],[183,2599],[875,1227],[2245,1723],[2633,1909],[1915,3531],[41,2619],[-1605,3546]],[[233938,242728],[-916,1875],[-592,-128],[-1140,-991],[-764,-61],[-3289,2276],[-885,-33526],[-7447,198],[-24985,298],[-100795,2184],[1878,-1392],[2543,-4261],[-2193,-581],[1286,-1494],[-2101,197],[1126,-753],[341,-1921],[1394,-3411],[-552,-2208],[-958,-745],[-4590,-2417],[-2644,-813],[-2585,-1868],[-1771,-242],[-1721,-1088],[-2869,222],[-378,-1338],[-1445,-285],[-944,945],[-3806,-2888],[-4509,-717],[-2586,-1333],[-785,-1468],[-761,-2782],[-1485,-1487],[-1226,-2388],[127,12305],[521,25032],[-4423,268],[444,27758],[-3974,-430],[1605,778],[2361,-58],[156,3159],[440,9908],[22,6462],[333,3524],[1098,950],[7262,-263],[3791,81],[3088,432],[2833,1021],[7579,3143],[2399,399],[3378,-188],[7581,-1728],[6366,-2240],[5751,323],[5525,730],[-1075,2253],[-771,2700],[-2089,1142],[4664,496],[1997,727],[2178,3201],[194,893],[-5440,1670],[-2139,332],[-11959,3317],[-26161,5402],[-3801,3104],[-6337,-607],[-5243,279],[55,3666],[41483,-982],[362,13447],[59533,-1017],[36738,-893],[30467,-633],[569,13539],[16083,-267],[877,13],[131,5828]],[[391941,117023],[22,-510],[-574,-4433],[-1366,-2549],[-1236,-4096],[-4121,-1148],[-2403,1036],[-3636,-1864],[-4683,-1207],[39,-474],[-1958,-415],[-2473,890],[-3231,-323],[-2745,-1196],[-1942,-1251],[-3018,-647],[-4470,-445],[-1270,-389],[-2936,88],[-6876,-1575],[-1142,718],[-95,1836],[-1564,797],[2188,3703],[-3283,229],[-984,-217],[-2994,-1543],[-762,-736],[-268,-1263],[-2938,-1553],[-2172,575],[-3005,-749],[-1426,3115],[-2391,177],[-805,-985],[-21,-4859],[-900,-3004],[-1352,-1710],[-2508,-888],[-6013,-1705],[-4977,-940],[-1519,-508],[-1562,-1248],[-8252,-1204],[-2896,-1068],[-8233,-2122],[-5890,-1892],[-3881,-1422]],[[273419,78049],[-586,5602],[1790,33936],[265,5069],[-9923,-1],[2388,1094],[1774,2921],[-676,2713],[1693,1568],[4992,2530],[127,7313],[8023,1727],[2670,414],[2503,870],[3362,688],[1593,868],[4824,1157],[5290,1512],[1856,24],[942,688],[4522,1017],[971,1240],[1743,910],[297,1353],[2272,1623],[2979,1168],[1373,1242],[-408,1009],[2509,2687],[1640,-59],[587,601],[1440,305],[546,1860],[1173,937],[28928,-301]]],"bbox":[-93.770003,34.81573,-92.719442,35.885723],"transform":{"scale":[0.0000010505620505620524,0.0000010699940699940668],"translate":[-93.770003,34.81573]}}
