{"type":"Topology","objects":{"foo":{"type":"GeometryCollection","geometries":[{"type":"MultiPolygon","arcs":[[[0,1,2,3,4,5,6,7,8]]],"properties":{"postal_code":"64507","realtor_list_price":179965.152,"realtor_list_price_yoy":0.1319,"realtor_list_price_base":1.4009,"realtor_active_listings":43.667,"realtor_active_listings_yoy":0.065,"realtor_active_listings_base":-0.327,"realtor_new_listings":22,"realtor_new_listings_yoy":0.0645,"realtor_new_listings_base":-0.1722,"realtor_days_on_market":49.364,"realtor_days_on_market_yoy":-0.0742,"realtor_days_on_market_base":-0.0742,"zhvi":169407.915,"zhvi_yoy":0.0501,"zhvi_base":0.6537,"zori":1266.667,"zori_yoy":"NA","zori_base":"NA"}},{"type":"MultiPolygon","arcs":[[[9,10]]],"properties":{"postal_code":"66035","realtor_list_price":"NA","realtor_list_price_yoy":"NA","realtor_list_price_base":"NA","realtor_active_listings":1,"realtor_active_listings_yoy":-0.5,"realtor_active_listings_base":"NA","realtor_new_listings":0,"realtor_new_listings_yoy":-1,"realtor_new_listings_base":"NA","realtor_days_on_market":"NA","realtor_days_on_market_yoy":"NA","realtor_days_on_market_base":"NA","zhvi":171760.836,"zhvi_yoy":0.0881,"zhvi_base":0.8448,"zori":"NA","zori_yoy":"NA","zori_base":"NA"}},{"type":"MultiPolygon","arcs":[[[11,12,13,14]]],"properties":{"postal_code":"64483","realtor_list_price":"NA","realtor_list_price_yoy":"NA","realtor_list_price_base":"NA","realtor_active_listings":1,"realtor_active_listings_yoy":-0.625,"realtor_active_listings_base":"NA","realtor_new_listings":0,"realtor_new_listings_yoy":-1,"realtor_new_listings_base":"NA","realtor_days_on_market":"NA","realtor_days_on_market_yoy":"NA","realtor_days_on_market_base":"NA","zhvi":272573.701,"zhvi_yoy":0.0522,"zhvi_base":0.718,"zori":"NA","zori_yoy":"NA","zori_base":"NA"}},{"type":"MultiPolygon","arcs":[[[15,16,17,18,19,20]]],"properties":{"postal_code":"64430","realtor_list_price":"NA","realtor_list_price_yoy":"NA","realtor_list_price_base":"NA","realtor_active_listings":"NA","realtor_active_listings_yoy":"NA","realtor_active_listings_base":"NA","realtor_new_listings":"NA","realtor_new_listings_yoy":"NA","realtor_new_listings_base":"NA","realtor_days_on_market":"NA","realtor_days_on_market_yoy":"NA","realtor_days_on_market_base":"NA","zhvi":273423.301,"zhvi_yoy":0.0763,"zhvi_base":0.6919,"zori":"NA","zori_yoy":"NA","zori_base":"NA"}},{"type":"MultiPolygon","arcs":[[[-7,21,22,23,24]]],"properties":{"postal_code":"64401","realtor_list_price":717250,"realtor_list_price_yoy":"NA","realtor_list_price_base":"NA","realtor_active_listings":2.333,"realtor_active_listings_yoy":-0.125,"realtor_active_listings_base":0.1267,"realtor_new_listings":0.667,"realtor_new_listings_yoy":"Inf","realtor_new_listings_base":0.4323,"realtor_days_on_market":26,"realtor_days_on_market_yoy":"NA","realtor_days_on_market_base":"NA","zhvi":334365.209,"zhvi_yoy":0.0908,"zhvi_base":0.8114,"zori":"NA","zori_yoy":"NA","zori_base":"NA"}},{"type":"MultiPolygon","arcs":[[[25,-24,26,27,28]]],"properties":{"postal_code":"64439","realtor_list_price":450000,"realtor_list_price_yoy":0.2715,"realtor_list_price_base":"NA","realtor_active_listings":8.333,"realtor_active_listings_yoy":0.3158,"realtor_active_listings_base":0.744,"realtor_new_listings":1.333,"realtor_new_listings_yoy":-0.75,"realtor_new_listings_base":0.35,"realtor_days_on_market":102,"realtor_days_on_market_yoy":0.9155,"realtor_days_on_market_base":"NA","zhvi":338700.615,"zhvi_yoy":0.0639,"zhvi_base":0.671,"zori":"NA","zori_yoy":"NA","zori_base":"NA"}},{"type":"MultiPolygon","arcs":[[[29,30,31,32,33,34,35,36,37]]],"properties":{"postal_code":"66090","realtor_list_price":324950,"realtor_list_price_yoy":-0.4993,"realtor_list_price_base":"NA","realtor_active_listings":4,"realtor_active_listings_yoy":1,"realtor_active_listings_base":-0.3454,"realtor_new_listings":1.333,"realtor_new_listings_yoy":0,"realtor_new_listings_base":-0.1028,"realtor_days_on_market":110,"realtor_days_on_market_yoy":3.4,"realtor_days_on_market_base":"NA","zhvi":197650.788,"zhvi_yoy":0.1192,"zhvi_base":0.8576,"zori":"NA","zori_yoy":"NA","zori_base":"NA"}},{"type":"MultiPolygon","arcs":[[[-15,38,39]]],"properties":{"postal_code":"64449","realtor_list_price":"NA","realtor_list_price_yoy":"NA","realtor_list_price_base":"NA","realtor_active_listings":0.333,"realtor_active_listings_yoy":-0.75,"realtor_active_listings_base":"NA","realtor_new_listings":0,"realtor_new_listings_yoy":"NaN","realtor_new_listings_base":"NA","realtor_days_on_market":"NA","realtor_days_on_market_yoy":"NA","realtor_days_on_market_base":"NA","zhvi":244223.2,"zhvi_yoy":0.0458,"zhvi_base":0.8835,"zori":"NA","zori_yoy":"NA","zori_base":"NA"}},{"type":"MultiPolygon","arcs":[[[40,41,-31,42]]],"properties":{"postal_code":"64421","realtor_list_price":625000,"realtor_list_price_yoy":"NA","realtor_list_price_base":"NA","realtor_active_listings":1.333,"realtor_active_listings_yoy":-0.7333,"realtor_active_listings_base":-0.3669,"realtor_new_listings":1.333,"realtor_new_listings_yoy":"Inf","realtor_new_listings_base":"NA","realtor_days_on_market":10,"realtor_days_on_market_yoy":"NA","realtor_days_on_market_base":"NA","zhvi":191824.637,"zhvi_yoy":0.0509,"zhvi_base":0.5582,"zori":"NA","zori_yoy":"NA","zori_base":"NA"}},{"type":"MultiPolygon","arcs":[[[43,44,-21,45,-5,46]]],"properties":{"postal_code":"64436","realtor_list_price":"NA","realtor_list_price_yoy":"NA","realtor_list_price_base":"NA","realtor_active_listings":1.333,"realtor_active_listings_yoy":0.3333,"realtor_active_listings_base":0.439,"realtor_new_listings":0,"realtor_new_listings_yoy":"NaN","realtor_new_listings_base":-1,"realtor_days_on_market":"NA","realtor_days_on_market_yoy":"NA","realtor_days_on_market_base":"NA","zhvi":359212.948,"zhvi_yoy":0.0389,"zhvi_base":0.7972,"zori":"NA","zori_yoy":"NA","zori_base":"NA"}},{"type":"MultiPolygon","arcs":[[[47,48]]],"properties":{"postal_code":"64469","realtor_list_price":302425,"realtor_list_price_yoy":0.0102,"realtor_list_price_base":"NA","realtor_active_listings":8,"realtor_active_listings_yoy":-0.25,"realtor_active_listings_base":-0.0145,"realtor_new_listings":0.667,"realtor_new_listings_yoy":-0.75,"realtor_new_listings_base":-0.2715,"realtor_days_on_market":92,"realtor_days_on_market_yoy":0.5462,"realtor_days_on_market_base":"NA","zhvi":213707.664,"zhvi_yoy":0.0202,"zhvi_base":0.4984,"zori":"NA","zori_yoy":"NA","zori_base":"NA"}},{"type":"MultiPolygon","arcs":[[[49,-16,-45,50]]],"properties":{"postal_code":"64459","realtor_list_price":179900,"realtor_list_price_yoy":-0.5001,"realtor_list_price_base":"NA","realtor_active_listings":1,"realtor_active_listings_yoy":0.5,"realtor_active_listings_base":"NA","realtor_new_listings":0.667,"realtor_new_listings_yoy":-0.75,"realtor_new_listings_base":"NA","realtor_days_on_market":7,"realtor_days_on_market_yoy":2.5,"realtor_days_on_market_base":"NA","zhvi":278322.777,"zhvi_yoy":0.0732,"zhvi_base":0.988,"zori":"NA","zori_yoy":"NA","zori_base":"NA"}},{"type":"MultiPolygon","arcs":[[[-46,-20,51,52,-22,-6]]],"properties":{"postal_code":"64443","realtor_list_price":517316.667,"realtor_list_price_yoy":"NA","realtor_list_price_base":"NA","realtor_active_listings":1.667,"realtor_active_listings_yoy":"Inf","realtor_active_listings_base":-0.3903,"realtor_new_listings":2,"realtor_new_listings_yoy":"Inf","realtor_new_listings_base":"NA","realtor_days_on_market":20,"realtor_days_on_market_yoy":"NA","realtor_days_on_market_base":"NA","zhvi":374147.034,"zhvi_yoy":0.0964,"zhvi_base":"NA","zori":"NA","zori_yoy":"NA","zori_base":"NA"}},{"type":"MultiPolygon","arcs":[[[53,54,-34,55]]],"properties":{"postal_code":"66024","realtor_list_price":"NA","realtor_list_price_yoy":"NA","realtor_list_price_base":"NA","realtor_active_listings":1.333,"realtor_active_listings_yoy":0.3333,"realtor_active_listings_base":-0.6818,"realtor_new_listings":0,"realtor_new_listings_yoy":"NaN","realtor_new_listings_base":-1,"realtor_days_on_market":"NA","realtor_days_on_market_yoy":"NA","realtor_days_on_market_base":"NA","zhvi":124725.379,"zhvi_yoy":0.0548,"zhvi_base":0.6745,"zori":"NA","zori_yoy":"NA","zori_base":"NA"}},{"type":"MultiPolygon","arcs":[[[-28,56,57]]],"properties":{"postal_code":"64444","realtor_list_price":502000,"realtor_list_price_yoy":-0.0415,"realtor_list_price_base":"NA","realtor_active_listings":5.667,"realtor_active_listings_yoy":0.8889,"realtor_active_listings_base":-0.012,"realtor_new_listings":0.667,"realtor_new_listings_yoy":0,"realtor_new_listings_base":0.2,"realtor_days_on_market":112,"realtor_days_on_market_yoy":1.1961,"realtor_days_on_market_base":"NA","zhvi":346412.533,"zhvi_yoy":0.045,"zhvi_base":0.6683,"zori":"NA","zori_yoy":"NA","zori_base":"NA"}},{"type":"MultiPolygon","arcs":[[[-36,58,59,-9,60,61]]],"properties":{"postal_code":"64504","realtor_list_price":151429.167,"realtor_list_price_yoy":0.1642,"realtor_list_price_base":1.261,"realtor_active_listings":26.333,"realtor_active_listings_yoy":0.5192,"realtor_active_listings_base":-0.3363,"realtor_new_listings":16,"realtor_new_listings_yoy":0.2632,"realtor_new_listings_base":0.2059,"realtor_days_on_market":35.417,"realtor_days_on_market_yoy":-0.0693,"realtor_days_on_market_base":-0.4584,"zhvi":133095.381,"zhvi_yoy":-0.0141,"zhvi_base":0.5017,"zori":"NA","zori_yoy":"NA","zori_base":"NA"}},{"type":"MultiPolygon","arcs":[[[62,-47,-4,63,64,-54,65,-32,-42]]],"properties":{"postal_code":"64505","realtor_list_price":224350,"realtor_list_price_yoy":-0.1319,"realtor_list_price_base":0.3482,"realtor_active_listings":40.667,"realtor_active_listings_yoy":0.22,"realtor_active_listings_base":-0.4602,"realtor_new_listings":20,"realtor_new_listings_yoy":-0.0909,"realtor_new_listings_base":-0.2155,"realtor_days_on_market":73.2,"realtor_days_on_market_yoy":0.8991,"realtor_days_on_market_base":0.0048,"zhvi":225142.372,"zhvi_yoy":0.0601,"zhvi_base":0.7008,"zori":"NA","zori_yoy":"NA","zori_base":"NA"}},{"type":"MultiPolygon","arcs":[[[-52,-19,66,67,68,69]]],"properties":{"postal_code":"64490","realtor_list_price":"NA","realtor_list_price_yoy":"NA","realtor_list_price_base":"NA","realtor_active_listings":1.333,"realtor_active_listings_yoy":-0.6364,"realtor_active_listings_base":-0.5005,"realtor_new_listings":0,"realtor_new_listings_yoy":-1,"realtor_new_listings_base":-1,"realtor_days_on_market":"NA","realtor_days_on_market_yoy":"NA","realtor_days_on_market_base":"NA","zhvi":276721.638,"zhvi_yoy":0.079,"zhvi_base":0.6756,"zori":"NA","zori_yoy":"NA","zori_base":"NA"}},{"type":"MultiPolygon","arcs":[[[-3,70,-64]]],"properties":{"postal_code":"64506","realtor_list_price":322246.111,"realtor_list_price_yoy":-0.0454,"realtor_list_price_base":0.4642,"realtor_active_listings":51,"realtor_active_listings_yoy":0,"realtor_active_listings_base":-0.4302,"realtor_new_listings":24,"realtor_new_listings_yoy":-0.28,"realtor_new_listings_base":-0.3021,"realtor_days_on_market":45.889,"realtor_days_on_market_yoy":0.0613,"realtor_days_on_market_base":-0.1207,"zhvi":280275.78,"zhvi_yoy":0.0548,"zhvi_base":0.5885,"zori":1007.222,"zori_yoy":"NA","zori_base":"NA"}},{"type":"MultiPolygon","arcs":[[[71,-17,-50,72,73]]],"properties":{"postal_code":"64494","realtor_list_price":"NA","realtor_list_price_yoy":"NA","realtor_list_price_base":"NA","realtor_active_listings":1.667,"realtor_active_listings_yoy":-0.1667,"realtor_active_listings_base":-0.2639,"realtor_new_listings":0,"realtor_new_listings_yoy":"NaN","realtor_new_listings_base":-1,"realtor_days_on_market":"NA","realtor_days_on_market_yoy":"NA","realtor_days_on_market_base":"NA","zhvi":224697.022,"zhvi_yoy":0.058,"zhvi_base":0.8554,"zori":"NA","zori_yoy":"NA","zori_base":"NA"}},{"type":"MultiPolygon","arcs":[[[74,-1,-60]],[[-66,-56,-33]]],"properties":{"postal_code":"64503","realtor_list_price":203300,"realtor_list_price_yoy":0.0303,"realtor_list_price_base":0.9678,"realtor_active_listings":22.333,"realtor_active_listings_yoy":0.2182,"realtor_active_listings_base":-0.4863,"realtor_new_listings":16,"realtor_new_listings_yoy":0,"realtor_new_listings_base":-0.0858,"realtor_days_on_market":39.833,"realtor_days_on_market_yoy":-0.0497,"realtor_days_on_market_base":-0.2671,"zhvi":175218.854,"zhvi_yoy":0.0516,"zhvi_base":0.7255,"zori":1065,"zori_yoy":"NA","zori_base":"NA"}},{"type":"MultiPolygon","arcs":[[[75,-48,76,-68]]],"properties":{"postal_code":"64474","realtor_list_price":"NA","realtor_list_price_yoy":"NA","realtor_list_price_base":"NA","realtor_active_listings":1.333,"realtor_active_listings_yoy":-0.2,"realtor_active_listings_base":-0.3563,"realtor_new_listings":0,"realtor_new_listings_yoy":"NaN","realtor_new_listings_base":-1,"realtor_days_on_market":"NA","realtor_days_on_market_yoy":"NA","realtor_days_on_market_base":"NA","zhvi":272514.19,"zhvi_yoy":0.0551,"zhvi_base":0.4596,"zori":"NA","zori_yoy":"NA","zori_base":"NA"}},{"type":"MultiPolygon","arcs":[[[77,-74,78,-13]]],"properties":{"postal_code":"64480","realtor_list_price":"NA","realtor_list_price_yoy":"NA","realtor_list_price_base":"NA","realtor_active_listings":"NA","realtor_active_listings_yoy":"NA","realtor_active_listings_base":"NA","realtor_new_listings":"NA","realtor_new_listings_yoy":"NA","realtor_new_listings_base":"NA","realtor_days_on_market":"NA","realtor_days_on_market_yoy":"NA","realtor_days_on_market_base":"NA","zhvi":289205.797,"zhvi_yoy":0.0894,"zhvi_base":1.2175,"zori":"NA","zori_yoy":"NA","zori_base":"NA"}},{"type":"MultiPolygon","arcs":[[[-39,-14,-79,-73,-51,-44,-63,-41,79]]],"properties":{"postal_code":"64485","realtor_list_price":318097.727,"realtor_list_price_yoy":-0.0238,"realtor_list_price_base":0.8647,"realtor_active_listings":15,"realtor_active_listings_yoy":-0.1509,"realtor_active_listings_base":-0.4151,"realtor_new_listings":7.333,"realtor_new_listings_yoy":-0.2143,"realtor_new_listings_base":-0.3845,"realtor_days_on_market":49.091,"realtor_days_on_market_yoy":-0.0196,"realtor_days_on_market_base":-0.0775,"zhvi":274583.569,"zhvi_yoy":0.0638,"zhvi_base":0.7738,"zori":"NA","zori_yoy":"NA","zori_base":"NA"}},{"type":"MultiPolygon","arcs":[[[-71,-2,-75,-59,-35,-55,-65]]],"properties":{"postal_code":"64501","realtor_list_price":171005,"realtor_list_price_yoy":0.1424,"realtor_list_price_base":1.4051,"realtor_active_listings":37.667,"realtor_active_listings_yoy":0.066,"realtor_active_listings_base":-0.3009,"realtor_new_listings":16.667,"realtor_new_listings_yoy":0.087,"realtor_new_listings_base":-0.0486,"realtor_days_on_market":54.16,"realtor_days_on_market_yoy":0.1335,"realtor_days_on_market_base":-0.1296,"zhvi":129697.735,"zhvi_yoy":0.0802,"zhvi_base":0.6381,"zori":892.361,"zori_yoy":"NA","zori_base":"NA"}},{"type":"MultiPolygon","arcs":[[[-61,-8,-25,-26,80]]],"properties":{"postal_code":"64448","realtor_list_price":"NA","realtor_list_price_yoy":"NA","realtor_list_price_base":"NA","realtor_active_listings":3,"realtor_active_listings_yoy":0,"realtor_active_listings_base":0.1229,"realtor_new_listings":0,"realtor_new_listings_yoy":"NaN","realtor_new_listings_base":"NA","realtor_days_on_market":"NA","realtor_days_on_market_yoy":"NA","realtor_days_on_market_base":"NA","zhvi":357511.988,"zhvi_yoy":0.0875,"zhvi_base":"NA","zori":"NA","zori_yoy":"NA","zori_base":"NA"}},{"type":"MultiPolygon","arcs":[[[-10,81,-38,82,83,84]]],"properties":{"postal_code":"66087","realtor_list_price":389500,"realtor_list_price_yoy":"NA","realtor_list_price_base":"NA","realtor_active_listings":5.333,"realtor_active_listings_yoy":3,"realtor_active_listings_base":0.7717,"realtor_new_listings":1.333,"realtor_new_listings_yoy":"Inf","realtor_new_listings_base":3.2,"realtor_days_on_market":75,"realtor_days_on_market_yoy":"NA","realtor_days_on_market_base":"NA","zhvi":180189.31,"zhvi_yoy":0.1149,"zhvi_base":0.9935,"zori":"NA","zori_yoy":"NA","zori_base":"NA"}},{"type":"MultiPolygon","arcs":[[[-84,85]]],"properties":{"postal_code":"66008","realtor_list_price":"NA","realtor_list_price_yoy":"NA","realtor_list_price_base":"NA","realtor_active_listings":"NA","realtor_active_listings_yoy":"NA","realtor_active_listings_base":"NA","realtor_new_listings":"NA","realtor_new_listings_yoy":"NA","realtor_new_listings_base":"NA","realtor_days_on_market":"NA","realtor_days_on_market_yoy":"NA","realtor_days_on_market_base":"NA","zhvi":238785.317,"zhvi_yoy":0.1013,"zhvi_base":0.8538,"zori":"NA","zori_yoy":"NA","zori_base":"NA"}},{"type":"MultiPolygon","arcs":[[[-23,-53,-70,86,-57,-27]]],"properties":{"postal_code":"64454","realtor_list_price":438500,"realtor_list_price_yoy":0.3534,"realtor_list_price_base":"NA","realtor_active_listings":7.333,"realtor_active_listings_yoy":0.4667,"realtor_active_listings_base":0.0693,"realtor_new_listings":1.333,"realtor_new_listings_yoy":0,"realtor_new_listings_base":-0.5805,"realtor_days_on_market":65,"realtor_days_on_market_yoy":-0.0972,"realtor_days_on_market_base":"NA","zhvi":316665.061,"zhvi_yoy":0.0641,"zhvi_base":0.8627,"zori":"NA","zori_yoy":"NA","zori_base":"NA"}}]}},"arcs":[[[467010,433943],[-7,8317],[-1,1890],[112,10997],[191,1542],[-258,1048],[829,-366],[2439,-1526],[1303,-1558],[2486,-25],[-7,808],[1363,508],[112,-11518],[959,-2887],[-55,-2783],[-5,-278],[16166,-7119],[4569,-2246],[1837,-311],[575,-430],[-116,16083],[229,2],[0,144],[-103,11275],[4790,-1315],[2841,-335],[4465,-56],[2289,-555],[4088,-2400],[30,24304],[57,11902],[-6217,2321],[-3516,577],[-6184,-1296],[-3491,-1852],[-231,-138],[-5565,-3257],[-764,-185],[-1597,-13],[-3354,383],[-3462,294],[-2010,426],[-4222,116],[-4189,130],[-4933,54],[-1530,-90],[-4307,-1446],[-4280,-263],[5,2091],[-1292,2],[-1893,674],[1856,3078],[-3917,2758],[234,5203],[-1172,-14],[584,1241],[-597,1299],[880,1908]],[[453024,501056],[-552,1008],[-10,3240],[3946,59],[-8,696],[1933,42],[-16,-705],[8,-3814],[2307,1384],[1935,1821],[31,-649],[846,-3],[-5,1301],[3395,19],[0,-793],[3755,-2635],[2546,-245],[20,-664],[1963,4],[185,-697],[8452,3895],[-16,1103]],[[483739,505423],[2105,-41],[2312,-1483],[4115,1514],[-31,10258],[3781,-5],[6593,106],[6788,294],[107,-10346],[625,111],[7460,300],[-58,4657],[351,5626],[708,8179],[96,9397],[-304,13319]],[[518387,547309],[6,20291],[679,45],[8004,-42],[276,2200],[-116,776],[170,5915],[-76,1888],[156,1405],[27,2654],[-78,793],[-840,1246],[2016,1695],[-216,1945],[247,-1]],[[528642,588119],[11804,-77],[114,20390],[4657,-18],[721,-3750],[1110,-2180],[786,-4770],[2760,-5327],[571,-2452],[2000,-2023],[1775,-15],[15360,-65],[628,-12],[232,-7],[1764,5171],[7290,-242],[1337,-1028],[341,-376],[520,-3703],[17827,-374]],[[600239,587261],[-243,-20001],[-8549,-345],[-74,-10332],[4261,-88],[-98,-9456],[-333,-3357],[-198,-18015],[-3648,59],[-1889,4503],[-1613,1420],[-689,3553],[-2316,1476],[-4587,-542],[-3397,-1620],[-5305,-1364],[-845,-987],[1056,-1264],[3387,-1312],[2624,-3682],[0,-8806],[5547,-143],[290,-2835],[1433,-2382],[127,-8422],[-642,-2122],[-3077,-2316],[-3745,-1982],[-10,-1814],[-4201,-96],[-4363,881],[-44,-6969],[-3400,-49],[-1959,-1861],[-3087,-551],[-387,-1191],[-5,-256],[-4497,91],[2052,-3427],[1438,-3161],[1511,-2569],[156,-115],[531,-1152],[836,-2116],[7201,-12995],[2890,-2161],[2242,-2562],[-596,-6333],[872,-3068],[2163,-1179],[976,-3526],[1486,-1671],[2260,-5803],[-1995,-3176],[271,-3011],[-312,-3567],[-14,-91],[-1272,-10722],[-714,-3939],[-800,-8262]],[[576945,400478],[-881,-3378],[-1685,-2785],[-2712,-6766],[-1467,-666],[-2166,259],[-1284,-201],[-548,-247],[-1285,-2182],[-35,-3615],[-1736,-4244],[171,-1499],[-2237,-6771],[-366,2862],[-2337,752],[-969,1602],[1301,2748],[-74,4734],[-2898,465],[-3320,1318],[59,3869],[-4183,84],[43,3369],[-2258,135],[-1934,-1722],[-16,-1667],[-5048,84],[-7908,2538],[20,1491],[-1457,-17],[-4,217],[-3,251],[-23,453],[-60,325],[-6808,119],[-3388,281],[-1037,-9],[54,-10159],[-2,-331],[-90,-19178],[-2713,-909],[-1049,745],[-1076,-1917],[-102,1421],[-2794,1671],[-1173,-1786],[-714,1274],[-701,-24],[-1127,-2336],[-2550,-868],[-1880,-2833],[-2261,-47],[81,-8204]],[[500315,349184],[-1018,734],[-1978,4841],[-1913,-2655],[102,-2011],[-1899,-3362],[110,-2460],[-883,-318],[83,-3378],[-1937,-2841],[-1532,-434],[-1216,1723],[-3639,2320],[-305,-20538],[-1125,1],[-139,6461],[-2807,2982],[-4283,-396],[-8448,72],[-2009,3762],[-1695,1605],[-420,2958],[310,3174],[-4592,-41],[122,8132],[-2208,793],[-431,1585],[-1337,66],[-1215,2964],[-3229,-6],[125,7329],[-87,0]],[[450822,362246],[51,4324],[6,589],[-4213,-20],[-16,5011],[4392,-29],[0,6766],[147,5561],[4220,-46],[-88,1452],[-4281,39],[665,1714],[3631,1747],[21,3297],[2139,-18],[-411,5179],[-2747,-5],[66,2564],[5919,7],[-13,1732],[7870,-169],[40,5914],[6920,30],[-40,5218],[1531,-28],[114,10534],[-4398,92],[-806,221],[-4528,104],[-3,9917]],[[118330,700125],[716,-14212],[1011,-5100],[2075,-3273],[6580,-5402],[2209,-2231],[779,1691],[2499,-2077],[485,-3978],[2497,-6153],[2448,-4690],[296,-3266],[-161,-6113],[888,-3201],[-3604,-3461],[-1507,-700],[-228,-1751],[107,-35149],[-196,-3776],[-355,-9089],[-8894,-5552],[-1737,-1893],[-18308,16384],[-1736,225],[-19394,226],[-3614,137],[-13491,-99],[28,17174],[-9701,2643],[-7329,572],[-34268,-2]],[[16425,618009],[-16425,-103],[55,20733],[16288,60],[33,51360],[-16237,-61],[69,10274],[-45,20540],[-25,14479],[3315,-1119],[2640,-2650],[5976,-2327],[2262,-1618],[2881,-4009],[3423,-1066],[727,-809],[3215,-863],[17505,-19],[-103,20542],[15628,127],[1204,709],[184,8276],[867,1828],[1518,-595],[8735,138],[4204,853],[371,-5551],[1469,-2502],[438,-2754],[1011,-1338],[1057,-3793],[1627,256],[5191,2838],[175,1240],[3326,-357],[3242,1490],[20209,-22694],[4287,-6088],[1063,-2977],[484,-9152],[61,-1182]],[[373955,941958],[3356,-1507],[668,974],[4508,-1464],[29,1500],[11080,-477],[3340,1367],[2375,-407],[255,571],[194,28907],[8936,-297],[-401,-30787],[17088,-560],[-129,-10175],[16904,-294],[-36,-4296],[3807,-1461],[1990,1322],[1569,-1028],[6299,243],[3690,-1590],[428,420],[-3946,7631],[-940,4872],[137,10908],[7051,6269],[2007,2395],[10768,-289],[1775,2529],[421,-506],[463,441],[705,10],[411,922],[667,281],[625,-188],[907,-28],[3128,571],[4122,3212],[4348,283],[2055,-2364],[7741,-444],[-170,-21183],[495,-1553],[2733,-504],[2297,-1336],[4214,-117],[746,35]],[[512665,934766],[1440,-1917],[1225,-4214],[3926,-82],[24,-522],[-132,-4595],[199,-8],[-222,-5101],[-2155,58],[54,-1034],[-3008,-5827],[-1576,-1769],[390,-1842],[-588,-3470],[-1262,-3136],[1051,-1196],[3084,-1316],[3784,-319],[-16,-618],[3005,-62],[9875,0],[10670,-594],[3055,-6767],[291,-6998],[487,-1139],[1217,-673],[-901,-13368],[-3513,95]],[[543069,868352],[-14474,-383],[99,8367],[-7106,1],[-174,-13366],[-3382,-1974],[-1282,-1661],[-1815,283],[-906,1303],[-2572,-1903],[-1499,338],[-2871,-1341],[-4291,3684],[-464,1773],[-1343,562],[-393,1648],[-1777,1258],[1119,-2139],[-81,-9184],[-2083,20],[201,-8070],[-1340,2966],[-1730,-1677],[-1681,727],[320,5614],[1367,2338],[-1241,1027],[-728,2246],[-1137,1318],[-407,2473],[-1003,510],[-1315,-284],[-1730,-1668],[-1046,-5220],[-1045,-2995],[-1289,-934],[-726,-339],[-854,-695],[-1673,2228],[-2035,437],[-8357,121],[-4916,-245],[-3789,343],[-17730,9],[88,13230],[-1551,-1975],[-1317,101],[-2679,1743],[-1299,2314],[-1542,-570],[-1285,2021],[-2689,277],[-1377,-1872],[-1386,-434],[-2653,-4325],[-3402,-1040],[-1986,1256],[-3615,-1155],[-108,-9400],[-605,-1],[-2014,-357],[-10925,-144],[-1643,-1264],[-7580,-52],[-1536,476],[-1170,2473],[302,18920]],[[391918,876090],[289,20447],[-1580,293],[-115,2620],[8623,168],[278,20530],[-8637,356],[-136,-10300],[-17086,481],[401,31273]],[[639123,669107],[7295,-242],[260,1547],[98,23650],[1152,4695],[-171,6031],[16093,44]],[[663850,704832],[-12,-3986],[2788,-103],[-21,3494],[2066,-1739],[2650,-464],[462,-1417],[2905,2969],[1558,91],[1637,-1200],[2328,1097],[2782,-803],[2320,2485],[3723,-96],[2475,752],[3879,2493],[1388,2371],[4597,90]],[[701375,710866],[16976,-25],[353,-20901],[990,-875],[-1028,-2621],[321,-37331],[8094,158],[1748,-3612],[1259,-142],[3821,-3551],[740,-2317],[1884,-1305],[569,-1503],[1170,353],[349,-4047],[2890,-3662],[3467,-11650]],[[744978,617835],[-1501,-3490],[-2657,-2708],[-559,-2294],[718,-1284],[2921,-20],[111,-10268],[2300,-778],[982,809],[1772,-1471],[2754,-875],[1924,259],[661,-1183],[1357,820],[1763,-1082],[128,-1612],[2335,-5279],[-3011,-10],[114,-5335],[82,-5316],[218,-12179],[308,-18530],[-12809,-375],[366,-29612],[-3093,-3276],[-3686,-138],[-1551,1121],[138,-8429],[-5882,-60],[-2652,2091],[-2889,3982],[-2534,340],[-2472,3962],[382,3844],[-666,5782],[-725,-296],[-15509,9],[-3902,-1],[102,5114],[-1211,135],[-1296,2501],[-1822,104],[-653,2332],[-2598,-1316],[-2216,2428],[-69,1418],[-2579,-981],[-1947,-1679],[-987,-1937],[-2541,10],[-3062,-3926],[-3479,-1695],[-2413,253],[-2997,-1207],[-2177,2437]],[[668269,528944],[-388,57680],[-20726,-126]],[[647155,586498],[391,8319],[-970,3941],[-22,6763],[1091,1363],[2133,-32],[961,1071],[-107,38405],[767,1466],[-11943,-20],[-2116,192],[641,5197],[-977,1613],[1389,1556],[830,4908],[-598,1773],[498,6094]],[[576945,400478],[241,-211],[-448,-2708],[-2374,-4448],[-756,-3294],[4851,-1724],[5119,781],[2219,-2262],[143,6930],[2358,-1872],[31949,-3],[-2,-179]],[[620245,391488],[-807,-154],[-340,-3839],[-1644,-6599],[-2782,-3382],[-4217,-4874],[1692,-1372],[-29,-7663],[-1002,-4544],[-102,-8309],[-914,-3714],[-645,-7527],[-258,-8884],[-318,-2817],[-75,-11840],[2500,-2161],[3264,71],[2760,-1323],[2025,-4669],[-294,-3636],[306,-4728],[20865,6],[-86,-6785],[-349,-3066],[-2501,-4233],[-1438,-798],[-3,-6227],[-5512,-207],[-1417,949],[-1719,-1058],[-2150,-181],[836,-3377],[-2716,-3682],[-826,-2021],[-1075,3330],[-2337,-7512],[1079,-973],[-2076,-2303],[-3553,6133],[1052,1928],[-3211,2016],[-1203,2062],[1192,209],[-274,4090],[-14281,4],[-28,-11193],[-839,-5056],[-2527,-4358],[-9351,-217],[-43,-10370],[-19331,-550]],[[565543,246084],[-5967,17],[-16,-5391],[-1433,-486],[-2212,281],[-3425,4209],[-2094,498],[-2008,3174],[-2210,-1835],[-979,41]],[[545199,246592],[-1539,6376],[-1211,1384],[16,2175],[6345,210],[120,3085],[-652,851],[945,2776],[-1179,3350],[3027,47],[8,3075],[-4282,3245],[1,8850],[-4246,246],[-13,17626],[-9360,87],[-15202,160],[-849,13],[-17227,236],[277,20432],[137,28368]],[[430957,202568],[1073,24],[86,20473],[3339,-21],[3413,-1625],[3669,-3560],[1408,-2661],[2617,-1969],[1063,-191],[52604,1003],[-204,9871],[3105,360],[495,-1033],[1934,100],[-1,-5264],[938,116],[634,-3448],[2346,-155],[-3292,8813],[1362,942],[9304,209],[71,11366],[14617,-248],[1203,-10493],[9735,192],[12,15483],[2113,2853],[598,2887]],[[565543,246084],[-427,-2702],[-1489,-3851],[3130,-3244],[-311,-2695],[3492,-1798],[2226,-2214],[1042,-3304],[1119,-1509],[3102,-2386],[1238,-2028],[2303,-2156],[2542,-376],[631,-2230],[111,-3373],[672,-1303],[7177,2106],[942,-1030],[1678,-3928],[2487,-1116],[2350,1102],[1345,-1326],[438,-1724],[-421,-2709],[660,-1946],[6439,-545],[2028,241],[2020,1740],[3495,472],[1550,-2998]],[[617112,199254],[955,-3638],[-584,-2361],[-2027,-2016],[741,-4852],[-3733,-4038],[430,-629],[3545,-3285],[2388,-308],[908,-434],[815,-2467],[-819,-3739],[908,-2757],[-42,-3755],[1376,-1201],[3203,-1423],[1002,-2612],[2026,391],[3383,3507],[1161,-1498],[-2224,-3222],[-92,-2209],[-3417,-1785],[-3935,651],[-7335,-1146],[-3538,-1568],[-3631,-330],[-2250,1144],[-2547,-85],[-867,-1175],[198,-2482],[1365,-1495],[757,-2314],[1678,-2850],[-279,-2300],[-1100,-603],[-3442,375],[-996,-1312],[885,-2101],[2693,-512],[2543,-3534],[1538,-761],[119,-1153],[-1926,-2651],[453,-864],[2471,270],[1759,-611],[-251,-2228],[-1771,-1957],[-3171,-1595],[248,-2165],[4659,-2073],[2684,-1837],[1143,-588],[1780,1253],[3028,-105],[410,-735],[302,-1240],[-397,-5348],[-601,-1384],[-2588,-2258],[-1237,-78],[-721,2092],[-1220,1276],[-2912,15],[-1405,-1657],[252,-830],[2168,-1108],[635,-1639],[-73,-90],[-31,-233],[-167,-791],[-3463,-5909],[131,-3430],[3651,-195],[1516,-1913],[2550,301],[224,-2223],[-1516,-1449],[-1047,-2164],[-3308,-280],[-767,-4493],[-1308,-774],[-4442,-795],[-1389,950],[-5390,2321],[-3062,683]],[[594772,82843],[-9553,21781],[-23,-2310],[-25613,-65],[-42,10330],[-25481,-346],[-85,-4824],[-3235,-1537],[-4521,-1652],[-3796,-2264],[-6085,-160],[-7108,-1833],[-1686,-760],[-1350,-709],[-5798,-4679],[1234,33721],[-69,4757],[-8377,-60],[-2256,-37],[-293,1180],[-1403,711],[-1401,-3388],[-2574,517],[-4369,803],[-7250,-140],[56,20564],[-8409,41],[-5,10001],[-16996,-599],[-81,25],[-3082,-107],[-1436,-1322],[-3029,-1331],[-1380,-1398],[-551,4015],[-9277,167],[-1912,3238],[-1599,1594],[118,2062],[-1587,863],[-876,2350],[-15,8039],[5648,-61],[-75,3416],[-2579,260],[-19,11906],[4523,-77],[-118,7043]],[[288145,691272],[2858,4874],[5066,3649],[4270,909],[4187,-276],[9432,-3687]],[[313958,696741],[2833,-1107],[2998,-481],[8361,1134],[13052,5180],[3687,756],[7010,-1608],[6953,-3398],[8494,-6735],[4457,-6521],[1520,-3735],[487,-3034],[97,-5242],[-1100,-5534],[-2716,-5290],[-6640,-7985],[-1769,-3597],[-1507,-4728],[-145,-6311],[2537,-6605],[1914,-3031],[10425,-11967],[8365,-7329],[6322,-2420],[6148,-815],[9496,747],[2885,-498],[2320,-1312],[5364,-5904]],[[415806,599371],[2117,-3393],[1480,-3913],[412,-4066],[41,-402],[544,-10321],[-363,-9048],[-3912,-12713],[-245,-797],[-1319,-2027]],[[414561,552691],[-1537,-2362],[-5626,-3687],[-2422,-746],[-29576,-1901],[-3669,-2081],[-2784,-2827],[-2247,-4457],[-522,-5971],[435,-4660],[942,-2783],[2789,-4290],[1387,-2134],[3103,-3687],[8554,-7850],[4074,-2262],[5481,114],[6128,2481],[5,2],[290,118],[475,372]],[[399841,504080],[400,-2513],[51,-6227],[7448,371],[1037,699],[286,116],[9731,291],[-51,-1684],[-1346,-4767],[1313,1301],[4582,-1180],[15,1297],[4277,-1193],[-967,4879],[5590,-1664],[3113,-1016]],[[435320,492790],[-809,-5663],[-117,-463],[-65,-260],[-1,-3],[-62,-247]],[[434266,486154],[-4,-13],[-2082,-8255],[-6524,-11876],[-4984,-5796],[-5204,-3535],[-2498,-1696],[-6887,-2686],[-5984,-1051],[-878,-154],[-2986,226],[-3989,1322],[-2768,918],[-7481,4252],[-10584,9297],[-8351,8777],[-5002,3958],[-3551,1690],[-60,29],[-3538,520],[-2407,-385],[-4349,-3709],[-3282,-3915],[-1459,-1741],[-4625,-9817],[-711,-3981],[116,-8708],[2379,-22259],[-86,-3688],[-392,-16738],[-841,-5520],[-1276,-3732],[-4538,-7126],[-4741,-3868],[-2349,-1108],[-6962,-1478],[-146,-31]],[[315242,384277],[-1417,-301],[-7088,-128],[-6926,-1010],[-5697,-2125],[-2726,-1969],[-2895,-3155],[-2793,-3043],[-2763,-4286],[-8898,-17741],[-1436,-4618],[-832,-1242],[26,6950],[1255,3721],[1704,2502],[1721,5219],[678,3288],[343,10044],[1007,1524],[-1552,2299],[-2137,-806],[561,1497],[-1429,4527],[-2136,99],[-195,902],[-832,1576]],[[270785,388001],[757,5851],[-15,5074],[-1204,3718],[-876,5586],[28,4313],[-1433,6846],[-729,5197],[189,8429],[-4197,-86],[68,20689],[8534,74],[-68,10234],[-13290,-66],[-3809,639],[-60,9566],[-273,30494],[34252,90],[215,30393],[58,19394],[-307,22273],[8424,30],[-122,29848],[-378,1024],[17378,76],[-190,38798],[-2231,1439],[-2135,3647],[327,4609],[-4362,-528],[-193,13402],[-14439,-39],[189,-2781],[-1991,-7571],[-720,-625],[-220,6925],[183,26309]],[[391918,876090],[-5555,-67],[-1525,-1342],[-1446,-2974],[-267,-6118],[-1324,-220],[-504,-4427],[-1831,-3092],[-2366,-2833],[-1682,-450],[-1052,-2792],[-2745,-2481],[-1210,-3784],[-2744,2476],[-4213,-2323],[-6372,170],[-155,-10308],[-934,-3334],[-189,-6557],[-2999,531],[-485,-356],[-777,-561],[-4408,45],[-592,185],[-1248,198],[-804,-244],[-5361,-588],[-3348,695],[-300,-10241],[-4156,-174],[-34,-8807],[-497,-2297],[391,-3232],[-69,-4332],[-18033,4439]],[[313084,800895],[-1902,945],[-1214,2554],[-6731,8674],[561,2859],[33,1539],[-1181,6761],[943,2392],[704,6599],[-728,743],[1080,1844],[-404,1520],[-3717,3282],[-158,1064],[-2290,1350],[864,4333],[-753,2589],[782,1778],[1913,1413],[-411,1370],[-1951,1016],[729,1955],[-1906,4054],[-96,1470],[1645,1448],[217,1712],[-870,3356],[667,3949],[2271,4343],[2546,-1],[402,2085],[-1115,1844],[-3854,4309],[20,1661],[2046,1073],[596,3190],[-2792,-1465],[-1065,3021],[2288,4115],[-2559,2240],[-3841,180],[-335,1561],[2452,3597],[1854,548],[610,1586],[-2183,3398],[-2319,1749],[-2875,-94],[570,1954],[-2221,441],[-4765,-2159],[-1560,-1921],[-2178,-868],[-1887,228],[-1525,-4778],[-1563,-534],[-1325,1698],[754,1869],[1177,62],[640,1905],[-3224,873],[529,1998],[1354,1339],[-1429,1262],[-1159,3492],[-204,3385],[-765,3053],[-2914,3817],[-3749,2136],[-2833,1002],[-2725,-743],[-2454,1520],[-1673,-549],[-1122,1811],[-338,4145],[-1493,1175],[389,1568],[2447,-837],[-1345,4069],[715,2477],[1884,-619],[1804,-2801],[575,-2993],[1707,888],[-1077,5132],[609,2509],[2063,-1894],[1785,-3068],[1399,2313],[-2792,2772],[165,1091],[5272,1525],[-34,1608],[-1609,1440],[2084,-102],[568,4471],[-1295,3008],[1700,2005],[-1457,2361],[3104,4158],[-2401,3150],[-189,1391],[2187,2456],[1917,-85],[-29,-2760],[2457,-615],[11993,-941],[18656,-397],[101,4637],[-1288,3387],[468,2366],[25235,-269],[-604,-1210],[1196,-4325],[-115,-6950],[-76,-8326],[-39,-3648],[-53,-6319],[25861,-546],[-97,-10831],[1848,545],[3394,-243],[3016,662],[2072,1295],[3529,180],[3280,-1744]],[[307676,749543],[2447,-640],[78,3677],[1153,1151],[33690,-226],[1021,-1013],[1810,796],[8055,-12],[1117,-833],[469,-1887],[3387,-2192],[6742,-437],[2824,6809],[1176,983],[4503,-284],[4162,257],[1713,563],[994,1346],[1823,302],[3190,-465],[2354,1404],[1011,1292],[3675,222],[27,-5604],[358,-2040],[16254,17],[539,-129],[2091,1954],[-296,1320],[2387,-543],[8951,935],[2037,-2368],[3086,-1596],[-2046,-5056],[-224,-4687],[5622,-31],[-891,-11474],[763,-1030],[-263,-18354],[121,-1381],[-1277,-930],[-477,-2237],[-5948,-1479],[-1382,-2058],[-2073,153],[-2016,1377],[-1273,-1908],[-956,365],[-2762,-1134],[-2943,2856],[2810,-3143],[-2057,-5232],[3460,-5098]],[[416692,691821],[-1625,-492],[-1082,-2744],[-244,-3607],[-2174,-2847],[203,-1057],[1926,-82],[-48,-3797],[-10725,54],[205,1537],[-3083,-1437],[-4389,86],[-3721,-906],[-8668,-4],[-1970,-4102],[-353,-50662],[1409,-2527],[2356,-2849],[2687,-1988],[3631,-1289],[6778,271],[1433,-609],[50,-2196],[4333,133],[1386,2135],[-632,496],[3195,-1182],[4401,-2712],[3842,-527],[-7,-9546]],[[313958,696741],[156,16975],[-139,7396],[-3554,1258],[-2963,2330],[-4183,4920],[-1398,3269],[3983,-1718],[540,1907],[-1695,2201],[-1640,3365],[2642,7341],[1969,3558]],[[539985,669983],[3794,7399],[323,3021],[457,1],[3356,-77],[4660,-162],[1378,-817],[254,-852],[1463,-2965],[-3225,-5609],[1513,-166],[20337,-147],[99,10271],[3905,-20],[-158,-1467],[1297,-1775],[540,-2285],[2367,-4307],[1544,-714],[5603,-268],[278,3],[337,1034],[544,7622],[332,1477],[-93,2787],[1480,3582],[-299,2708],[-569,1491],[-1448,2011]],[[590054,691759],[3146,3366],[131,3103],[2995,2679],[987,1707],[3875,1801],[5102,683],[10614,-81],[26,-4817],[4084,-404],[172,-1511],[-59,-29191],[17996,13]],[[647155,586498],[-46916,763]],[[528642,588119],[-1912,1602],[-49,1372],[1998,631],[-387,2819],[-1449,1702],[1287,2084],[-469,2446],[899,2633],[2412,1504],[377,1216],[-1444,742],[-3443,613],[3165,3018],[-83,1487],[-1273,331],[-1929,-1994],[-2720,2431],[829,2889],[-871,1403],[1611,1865],[-731,1439],[-1852,-491],[-839,3324],[-1992,201],[-1443,-2740],[-1006,557],[-472,3252],[1697,533],[-44,2977],[-592,1668],[-3374,-1173],[-754,1050],[925,907],[1807,0],[474,1340],[-2503,2775],[-579,2190],[800,516],[1352,-2323],[1575,351],[-143,5655],[2333,423],[2091,1336],[3280,3444],[2064,1388],[5236,1987],[1173,4375],[2005,67],[-1423,1168],[47,3318],[-968,2194],[2883,-165],[1795,7795],[1972,1732]],[[924607,606601],[-17232,577],[77,-10844],[-9026,88],[-1901,3605],[-1378,838],[-1239,2588],[806,2580],[-990,1555],[-3311,93],[-1326,-921],[-663,-316],[-2636,-511],[-18,1761],[-12368,-261],[-17593,558],[22,-15491],[17,-5227],[-17268,398],[-183,20757]],[[838397,608428],[-129,20721],[-212,16],[-16839,180],[-133,20096],[-4,553],[1318,-16],[9426,-49],[3040,1968],[2120,736],[1333,45],[158,17281],[-17536,147],[-48,15389],[-17306,-196],[-8677,-47],[-11,4934],[485,983],[-29,9098],[-454,823],[-42,9943],[8302,73],[351,35861],[-2171,1454],[-6518,-880],[-3515,-1664],[-5198,-189],[-16,6556],[63,20613],[11921,90],[-506,1011],[2765,4063],[3180,2347],[9,13646],[3,149],[-16877,-193],[-973,2839],[1246,2633],[-1283,736],[-816,2596],[192,1749],[-1273,3256],[1655,1739],[2193,3699],[309,1344],[8616,50],[5748,-237],[1403,287],[9163,234],[1888,2026],[31,1544],[2005,1608],[1430,4436],[-645,834],[552,3849],[-2528,6300],[986,1151],[1211,-1162],[834,5756],[1723,1512],[476,1674],[-993,525],[-521,2292],[1810,-16],[23572,-215],[-30,1439],[3487,-4593],[3524,-2066],[2810,-2224],[2471,603],[2673,2888],[111,1642],[-2304,3880],[-52,7072],[13849,-165],[-176,4920],[3076,155],[554,857],[167,33470],[-908,1737],[5152,-9],[-47,20581],[17241,128],[19,-18109],[1502,-2436],[16055,-3],[11489,-656],[5152,-284],[158,20557],[17182,-967],[-247,-20549],[97,-9],[-84,-20154],[4240,-404],[-256,-37564],[4283,-1454],[4175,-2863],[-39,-12207],[-24,-28070],[335,-845],[2119,-48],[-26,-867],[-106,-797],[-2125,-798],[-94,-18752],[-105,-20512],[-334,-46099],[2078,-1777],[1518,17],[484,-1860],[1569,-79],[1508,-3073],[7230,8217],[3086,1611],[8279,658],[-12,-2035],[968,-1180],[3312,-775],[3530,-1991],[2582,-4990],[1702,-1837],[2540,-831],[-2899,-4357],[305,-4585],[-1390,-2886],[354,-2034],[-3589,-7740],[3086,-3909],[-1788,542],[-1946,-2286],[1885,-67],[-282,-622],[-374,-4079],[-8097,87],[-104,-77],[-4496,-1551],[-3754,-472],[-111,-25177],[-1020,-2434],[-23870,253],[36,-4918],[-9273,101],[4066,-1670],[433,-1545],[2871,-629],[916,-2149],[-1043,663],[-2036,-2703],[-777,-2910],[-2310,-2724],[-2079,855],[28,-7958],[-131,3],[-18003,70]],[[585421,793973],[13179,-155],[553,6151],[2196,-889],[5117,4277],[1932,21],[254,787],[14445,-41],[7334,7817],[-193,-18164],[17175,-132],[-15,-2044],[3774,-2419],[2202,-2389],[382,-1881],[1873,-102],[739,-2081],[2997,-353],[1524,498],[3469,-747],[1815,-4142],[154,-26417],[5,-785],[174,-29663],[4,-871],[-2237,-25],[-312,-549],[-111,-14843]],[[590054,691759],[-1542,3263],[659,4470],[-1471,3544],[1128,5363],[-270,2005],[-180,2669],[-1768,1887],[2015,9907],[-82,4861],[533,4575],[1245,1344],[123,1749],[-1828,4711],[-1193,946],[-863,2018],[-973,5639],[-858,9949],[234,3658],[-475,1578],[-3766,4564],[-675,1289],[-2885,3082],[-347,2417],[1102,3975],[-184,3983],[3044,4846],[2735,518],[1294,1296],[615,2108]],[[668269,528944],[35,-3903],[29,-10421],[67,-30794],[-54,-61202],[68,-10905],[67,-10076],[-795,-195],[-3639,54]],[[664047,401502],[-1718,-2],[-6011,88],[-15065,189],[-321,-30700],[-12803,124],[71,11613],[-3482,5511],[-1877,1779],[-2303,367],[-293,1017]],[[424113,520133],[623,164]],[[424736,520297],[13,3],[1359,-141],[2267,-1697],[546,-717],[1175,-1545],[1333,-2771],[570,-1187],[2175,-5938],[80,-901],[1098,-12389],[-32,-222],[0,-2]],[[399841,504080],[33,26],[2454,1922],[561,440],[206,198],[879,842],[138,133],[176,170],[71,68],[806,773],[8004,7678],[2232,1516],[35,0],[8677,2287]],[[617112,199254],[181,394],[-763,2389],[-1552,473],[-783,4500],[-1826,6334],[-1120,1730],[-3731,2789],[-2441,173],[-1970,3021],[-61,3053],[-835,2731],[2684,912],[-845,1896],[1940,1390],[645,2371],[1322,431],[3724,-1859],[1712,2205],[1185,-2546],[2712,-1663],[1156,58],[3960,1427],[-375,2494],[2236,85],[1130,-1450],[1734,-213],[3050,954],[-66,2320],[2139,1807],[-645,-1873],[535,-1490],[2939,-1481],[2002,-2789],[1096,-4711],[819,-1095],[-1466,-4409],[-147,-2269],[-18601,-1209],[-62,-15597],[2409,1399],[3002,-149],[694,-1187],[2942,135],[1233,-1595],[4499,126],[2758,3360],[2155,732],[3889,2874],[572,1265],[2471,2012],[-903,7024],[24865,-102],[6,-20252],[-6,-3194],[9,-1373]],[[669319,191612],[25,-14616],[43,-53799],[-4749,327],[-174,-4920],[-2106,-68],[141,-2343],[-3397,102],[-12767,-809],[-1528,-22960],[343,-8908],[448,-1291],[13721,-273],[37,-9994],[2569,20],[-1263,20538],[7634,23],[1207,-126],[24625,-36],[24,-20559],[-21785,-14],[-2664,448],[70,-6755],[-1568,172],[-1621,1257],[-2132,-2372],[-1954,-325],[1272,-20416],[-3172,577],[-64,-3264],[24,-10451],[-16695,-71],[-54,-10186],[-13377,-76],[787,-6627],[-105,-13751],[-6974,-60],[-4278,-6],[-2310,2610],[-7121,933],[-2253,4036],[-1160,331],[-2156,2326],[-4875,49],[-708,2101],[45,4325],[-10353,294],[50,7418],[1974,-615],[2803,522],[1545,1887],[1261,4474],[357,2007],[-1882,748],[-1875,-1760],[-494,-2280],[-1524,-1006],[994,2637],[-384,1571],[-2313,2641],[-763,2287],[72,2685],[876,4271],[864,2087],[1212,970],[2832,941],[3619,2578],[2373,227],[1135,1328],[-238,1453],[-2471,3149],[-3108,2475],[1036,4062],[-71,3652],[-943,1109],[-3302,261],[-1635,1581],[-938,2713],[-25,7989],[498,909],[1420,-784],[2846,1651]],[[434266,486154],[2211,-664],[-1007,-5407],[-226,-342],[-1042,-4076],[-52,-2016],[5689,820],[-83,-7675],[-577,-1875],[532,-21]],[[439711,464898],[907,-57],[348,-25],[271,-10231],[1775,-41],[22,-4186],[4078,20],[-65,4075],[2280,1787],[288,-326],[8837,-8101],[-6,-3640],[-17,-10646],[3619,-277],[2877,1436],[646,-690],[1439,-53]],[[450822,362246],[-31399,228],[-577,-3661],[-2258,-2043],[-161,-25020]],[[416427,331750],[-1447,-21],[-21714,144],[-210,-5505],[-1141,-4630],[-12490,434],[-4029,5528],[-3479,1155],[-5886,5478],[-1989,517],[-3694,2983],[-4247,-5367],[-2257,-4586],[3511,-4157],[653,-1461],[78,-3940],[913,-6236],[-185,-3293],[1033,-5273],[-956,-2066],[-18446,86],[-2230,2337],[-76,5065],[-600,1773],[2887,3500],[31,15314],[-7541,-6343],[-891,229],[479,8758],[8019,-51],[-4,3311],[-3179,1491],[-4512,301],[-13122,-62],[-1911,-638],[-1055,-1903],[8,-2073],[-1807,410],[301,51318]],[[416692,691821],[7415,-629],[2647,-1762],[1038,720],[5508,-5311],[1989,-2486],[2221,-4016],[2571,-1911],[5558,-3467],[13856,-13183],[-1124,-3186],[-121,-6462],[9904,113],[7965,-7297],[2112,-2916],[1017,-12],[143,501],[102,407],[-20027,19298],[-1181,4085],[1913,38],[-1341,4084],[3597,5753],[1776,458],[1014,2284],[-511,1156],[1408,2601],[-556,1351],[2144,2848],[-643,1621],[2433,-627],[2493,1669],[6150,120],[678,-2566],[1663,-3214],[904,-2962],[205,-3056],[3259,-54],[8,5172],[4257,18],[1175,1521],[1207,3945],[1937,606],[322,-6095],[4299,-58],[449,4119],[-1133,26995],[5482,-335],[9773,167],[1033,291],[-1182,-921],[-1330,-2386],[-2599,-2457],[-1861,-3417],[-3180,-2060],[-3787,-3365],[-72,-2368],[2763,-4408],[4204,-5800],[1237,-2642],[2064,-2675],[739,-1810],[-787,-4589],[301,-2791],[16763,-78],[-20,505],[-7044,-72],[-1263,2131],[-2759,2745],[-1248,-640],[-268,3021],[1583,430],[-1450,2430],[-565,2633],[2923,-816],[2364,1503],[-37,-3325],[8385,-187],[126,-9639],[6691,305],[-8,-1459],[5622,28]],[[518387,547309],[-8643,56],[-274,-8],[294,1018],[5,3290],[-5,1923],[11,14412],[-17200,-12],[37,-10321],[-1484,-704],[-2649,11053],[-144,734],[-2310,11095],[-1401,7136],[-109,1644],[-265,0],[-31,5039],[-11,2061],[-8638,-45],[-70,3939],[-535,3930],[-537,-321],[824,-4381],[-2912,25],[-5380,-4395],[-243,-6030],[81,-8369],[17,-2587],[1811,-625],[12,-3380],[-910,-30],[-254,-5696],[293,-602],[-449,-9620],[-429,2],[9,-2009],[-1061,5],[-209,1334],[-3,654],[-9234,-37],[-3713,-415],[-500,-1514],[-36,-2207],[2773,248],[3253,-2205],[2155,-3368],[446,-876],[1630,-7177],[-352,-1539],[-552,-902],[-1359,-1762],[-645,-468],[-1379,-1815]],[[458112,533487],[-3581,-3871],[-716,-84],[-3835,-275],[-838,507],[-1126,436],[-791,1794],[-1770,-57],[-2636,-1309],[-2052,-3854],[-1851,-383],[-847,-1596],[-306,-594],[-4,1754],[-5354,-59],[-414,2517],[-2862,175],[-2121,4482],[-1770,-2247],[-941,836],[-153,90],[-2214,194],[-541,-116],[-1771,-926],[-781,-576],[4833,-8580],[1066,-1448]],[[424113,520133],[-2083,2664],[-2420,4174],[-2318,5054],[-1197,3626],[-895,3914],[-828,8129],[189,4997]],[[744978,617835],[3123,7419],[2847,3596],[793,-157],[43335,340],[92,-6801],[2556,-4894],[2320,745],[3727,-3672],[68,-6037],[2469,-22]],[[806308,608352],[-1337,-3785],[-884,-3905],[-135,-1750],[-525,-1146],[137,-1740],[387,-598],[593,-2484],[312,-496],[2342,-277],[4763,1719],[2096,-1804],[1545,-3111],[180,-1406],[5732,-2],[176,-20611],[-2329,-13],[-2074,-3916],[-884,-2805],[-417,-4957],[-2511,-4308],[-2465,-375],[-1127,605],[-3303,-889],[-1928,1273],[-5,-6085],[176,-2937],[672,-1326],[2944,-2046],[2127,-10097],[6217,-3297],[5229,-78],[56,-9382],[182,-32103],[64,-30165],[8779,-42],[8,-10871],[-8764,65],[95,-20877]],[[822432,422330],[-85,-31023],[-17292,114],[-42,-29364],[-1478,-1687],[-1789,-1],[-9526,-26],[-4277,-24],[-22643,82],[-2679,601],[-1574,-694],[-6879,-174],[-1403,-4444],[-467,-5224],[-3184,-1730],[-1702,-5118],[-2559,51],[57,-4038]],[[744910,339631],[-3402,1739],[-464,3686],[-4207,6366],[-25,13799],[-4157,643],[-103,3945],[-495,779],[-36090,69],[-2576,188],[-25004,59],[22,7862],[-596,-285],[-1413,2820],[-152,14127],[-2201,6074]],[[483739,505423],[-134,7253],[-1347,72],[-2005,2747],[-1542,246],[-826,-64],[-2651,-755],[-2,724],[-5182,-4],[-2,721],[429,3],[-10,1596],[-1540,-125],[-2130,54],[-8,355],[-2097,-558],[-6423,455],[-30,2000],[-1296,-3],[-5,2483],[1294,857],[-19,2242],[-526,-3],[-71,1811],[477,-1],[-5,349],[-477,2],[-68,542],[-4,1495],[620,11],[-47,3559]],[[618744,927532],[16086,-110],[32,10272],[21229,78],[-152,-20568],[8629,20],[-100,-20558],[1105,20],[18247,124],[589,-22],[199,-5855],[4282,-215],[-16,-14897],[3403,24],[2696,-37],[736,1938],[2922,2900],[939,-1586],[7293,1107],[3533,-4468],[-46,-10302],[1,-4862],[-67,-25946],[8758,-18],[-39,-7772],[11933,79],[-122,-2642],[-2142,-5838],[-2038,-2481],[-468,-1896],[8585,-6],[-109,-20556],[17129,73],[58,-212],[-115,-20743],[-43014,321],[-601,-1800],[-1778,-888],[574,-893],[-1779,-1044],[-488,-2422],[-2914,-294],[-1162,-1436],[304,-1090],[-1455,-1308],[-2283,-3451],[-466,1186],[-1898,-1583],[174,-2354],[-1989,-1045],[-149,-2854],[25952,360],[-32,-15323],[-16366,126],[-914,-256],[-21,-19673],[-34,-5990]],[[585421,793973],[-218,2],[1184,3246],[1053,1385],[178,924],[-4567,4887],[-2458,2324],[-734,1626],[182,807],[2546,3819],[1794,2279],[228,618],[-1584,2121],[4,2748],[-3150,2542],[-564,1366],[-924,3198],[463,2188],[1157,1639],[1059,113],[2965,-922],[2896,-38],[1086,600],[1429,2363],[-700,1826],[-3653,3462],[-4930,5522],[-1965,2675],[-1841,1209]],[[576357,848502],[-836,1154],[-231,2202],[3493,2449],[1017,2241],[961,872],[1101,284],[2391,-412],[3015,1846],[196,1773],[-2367,1110],[-3244,259],[-3604,1970],[-4317,6436],[-2589,2901],[-1886,3160],[-376,2024],[-1976,3825],[-4376,3400],[-3121,2972],[-678,3554],[-1366,1859],[-1567,-222],[-26,153],[-660,3113],[44883,-447],[8878,-325],[2172,3297],[1387,805],[766,-217],[2,5918],[1414,7778],[1814,441],[-448,1476],[1237,1499],[-1316,1900],[887,2002],[1497,1013],[260,4967]],[[439711,464898],[1718,3010],[1158,2036],[322,810],[-476,2075],[-1087,2643],[-3,347],[1378,-777],[440,4484],[-591,14],[-69,6832],[339,31],[562,5063],[-45,7763],[4,1298],[7556,-143],[2107,672]],[[806308,608352],[7041,-46],[25048,122]],[[924607,606601],[27,-20607],[-17092,403],[114,-20654],[10138,-159],[1546,-4722],[2364,-4123],[1142,-6042],[-100,-1627],[-1977,-420],[-623,-3748],[-12618,114],[432,-50734],[4735,-348],[2469,-3965],[3801,-2025],[-412,-769],[3112,-2259],[-404,-1096],[1256,109],[388,-1656],[2179,-1242],[164,-941],[1010,-1037],[883,-2356],[-332,-1066],[-221,-432],[564,-2299],[-475,-659],[-1462,-300],[-2123,-1183],[-1272,1702],[-1578,-2543],[266,-2039],[-1568,-126],[500,-2596],[1943,-1874],[-13024,-65],[341,-41064],[1,-92],[200,-20513],[8922,-11],[-376,-583],[16,-40916],[-8690,234],[-8564,26],[178,20685],[-8638,-1],[-16929,-269],[34,12176],[-1781,-1871],[-10757,-189],[-161,-9844],[-338,-384],[-6920,47],[-5645,67],[112,18703],[-476,22902],[-26456,10]],[[512665,934766],[1261,1874],[1961,-160],[1692,1606],[1772,-337],[155,11373],[16912,-71],[-114,-9807],[2679,1473],[8657,-141],[2674,3273],[1791,-136],[5150,-2873],[-3,-2408],[-1475,-3432],[-171,-3401],[-703,-1197],[-190,-2736],[379,1519],[-74,1122],[848,1770],[81,3293],[651,1101],[725,1992],[554,4559],[-340,2864],[493,2557],[-26,11237],[446,2606],[-1313,6387],[-1807,3379],[-1293,3715],[326,10423],[7487,145],[3539,681],[5740,2425],[282,10558],[15189,-81],[1529,47],[359,-353],[-279,-20218],[17115,-388],[237,20522],[12627,-148],[-275,-41122],[11838,-27],[-2965,-4279],[-5682,-7150],[-856,-2355],[406,-4202],[-725,-2235],[722,-5058],[-1424,-499],[620,-2242],[-1103,-2679]],[[576357,848502],[-2934,1316],[-523,2558],[-1364,875],[-509,-3932],[-60,-8976],[-17142,-638],[-2006,5827],[-8283,418],[104,3933],[-725,2057],[198,6051],[-1246,2958],[1446,1849],[245,2419],[-976,2144],[487,991]],[[307676,749543],[2457,3361],[5006,4144],[2989,3236],[753,2005],[-108,1197],[-2428,3726],[-1225,-456],[-2637,-3270],[-1821,704],[1075,2582],[3809,1886],[231,3980],[-892,5723],[-3071,2101],[-444,6199],[-1041,-669],[-473,-3827],[-2479,-2279],[-1494,768],[-623,1684],[1664,5446],[1434,1182],[125,2858],[1545,3190],[1317,3819],[1807,-2490],[35,4192],[-103,360]],[[430957,202568],[54,996],[-2174,113],[-113,3637],[-1149,66],[-343,17035],[3267,24],[68,9020],[1577,-25],[31,10175],[-16032,44],[-608,-738],[432,51388],[188,6564],[103,63],[289,14474],[-120,16346]],[[118330,700125],[5291,-172],[2582,2815],[609,1359],[538,-436],[5012,-2854],[3852,-1034],[7416,118],[1746,28],[6486,2776],[11292,7010],[3453,366],[2572,-816],[3197,-1015],[3264,-2495],[2041,-3202],[1123,-5551],[107,-3636],[-868,-8573],[621,-4902],[1918,-5939],[3180,-4718],[2125,-2120],[723,-460],[5240,-3338],[20165,-7071],[14276,-8517],[4671,-1777],[3143,-233],[26278,3755],[9417,609],[3965,1042],[5177,3952],[3735,4503],[2274,7336],[274,3000],[-750,11189],[641,4175],[771,2123],[2258,3850]],[[270785,388001],[-1312,180],[-714,1677],[-2111,1785],[-709,3144],[-933,1257],[599,1755],[-1970,1910],[715,1436],[-1476,714],[284,2128],[-1983,2515],[-399,2787],[-889,2235],[-1198,-450],[-1609,4899],[-1463,325],[-3768,3642],[-1365,381],[-895,3213],[-838,349],[-225,3555],[-1250,1064],[-909,2794],[1076,489],[-406,2329],[-2919,4448],[-1442,-16],[-2249,2546],[-130,3905],[-1405,1048],[-58,2545],[1070,567],[-317,2112],[-921,-195],[406,2256],[-35529,-543],[39,18483],[-2836,-994],[-3457,3037],[-2092,103],[-8683,63]],[[186514,473479],[-8815,58],[-155,20575],[-8153,115],[108,-20623],[-17111,113],[94,20592],[-2855,14],[-1615,3388],[-618,5011],[-1881,2977],[-3088,2199],[-1478,-356],[-3383,776],[-1935,1133],[-6311,-454],[-3492,-2555],[-456,-1682],[-2928,-454],[-3196,905],[-1639,-1229],[-2175,-65],[-1720,1001],[-591,2037],[-1772,-904],[-2177,1163],[-242,2135],[1506,-31],[-298,4979],[-963,921],[-7222,-81],[26,-20438]],[[101979,494699],[-17080,57],[57,8173],[-1727,2347],[-1072,2839],[-2267,-202],[-687,-2781],[2,10145],[-1970,-1863],[-2099,-7082],[587,-7406],[-458,-1067],[635,-3113],[-42228,-64],[-14,-20513],[-17033,-69],[23,41142],[17020,-44],[9603,22],[441,1899],[-454,3137],[1047,712],[-510,1876],[2633,1519],[1425,2166],[1853,-1067],[-107,1455],[-1854,874],[-214,1584],[2203,2716],[261,3719],[17999,113],[-195,356],[-40,30404],[-16981,-113],[-188,31083],[-34240,-69],[75,20425]],[[186514,473479],[-96,-20635],[8691,-31],[345,-102724],[-960,399],[-12067,-82],[-54,2847],[-1971,4002],[-2307,6751],[-22,27308],[-13009,-55],[-2068,-1143],[-1623,987],[-1410,-5317],[-2937,-619],[164,-1373],[-1571,-1547],[1217,-1238],[-477,-2555],[-835,-24],[-465,-4003],[-2360,-1322],[-1069,-3998],[282,-3027],[-2213,-1623],[-1404,-2071],[179,-1267],[-2033,2115],[-1225,-774],[-4114,1314],[-758,-1990],[-637,1211],[-1504,-1876],[-2195,1449],[-1136,-1878],[-1466,202],[-2686,4186],[-914,3151],[-1702,3145],[-2573,876],[-1017,1855],[101,1825],[-1568,-605],[-1135,4300],[-2262,-275],[353,1718],[-365,2217],[-1074,-364],[-660,2011],[1278,1572],[-533,3229],[204,2740],[-524,8122],[400,1384],[-140,9819],[8470,104],[-133,20453],[-24876,611],[-12,10367],[-8363,-235],[-181,10298],[8528,46],[-12,20640],[-31,20617]],[[744910,339631],[45,-62],[346,-789],[112,-4482],[355,-3150],[1079,-878],[4129,-133],[2265,-1061],[498,-1503],[207,-9737],[3316,-8658],[2903,-618],[48,-8662],[1646,-1605],[4283,-10235],[185,-15081],[-16401,152],[-779,-822],[-115,-8512],[1105,-981],[2107,-44],[1015,-1113],[-77,-8806],[-16944,-256],[-624,-56702],[26164,-254],[-736,-511],[-456,-4581],[-7023,41],[-258,97],[-1084,1124],[-11873,223],[-520,-45],[-308,-1332],[-3994,56],[-90,0],[-15470,246],[-17179,207],[-1364,18],[-32104,430]]],"bbox":[-95.339887,39.404978,-94.236312,40.112292],"transform":{"scale":[0.00000110357610357611,7.07314707314704e-7],"translate":[-95.339887,39.404978]}}
