{"type":"Topology","objects":{"foo":{"type":"GeometryCollection","geometries":[{"type":"MultiPolygon","arcs":[[[0,1,2,3,4,5,6,7,8]]],"properties":{"postal_code":"76905","realtor_list_price":255473.333,"realtor_list_price_yoy":0.0801,"realtor_list_price_base":0.5895,"realtor_active_listings":60.667,"realtor_active_listings_yoy":-0.0215,"realtor_active_listings_base":1.1037,"realtor_new_listings":20,"realtor_new_listings_yoy":0.2,"realtor_new_listings_base":0.5983,"realtor_days_on_market":60.933,"realtor_days_on_market_yoy":0.2425,"realtor_days_on_market_base":0.2589,"zhvi":229537.649,"zhvi_yoy":-0.0565,"zhvi_base":0.5294,"zori":1288,"zori_yoy":"NA","zori_base":"NA"}},{"type":"MultiPolygon","arcs":[[[9,10,11,12,13,14,15,16]]],"properties":{"postal_code":"76941","realtor_list_price":402450,"realtor_list_price_yoy":0.1943,"realtor_list_price_base":"NA","realtor_active_listings":7.333,"realtor_active_listings_yoy":0.8333,"realtor_active_listings_base":-0.1831,"realtor_new_listings":1.333,"realtor_new_listings_yoy":0,"realtor_new_listings_base":0.8681,"realtor_days_on_market":60,"realtor_days_on_market_yoy":0.0526,"realtor_days_on_market_base":"NA","zhvi":263147.97,"zhvi_yoy":-0.0786,"zhvi_base":"NA","zori":"NA","zori_yoy":"NA","zori_base":"NA"}},{"type":"MultiPolygon","arcs":[[[17,18,19,20,21,-9,22,23,24,25,-10,26]]],"properties":{"postal_code":"76901","realtor_list_price":283322.333,"realtor_list_price_yoy":0.006,"realtor_list_price_base":0.5715,"realtor_active_listings":180,"realtor_active_listings_yoy":-0.1401,"realtor_active_listings_base":0.4218,"realtor_new_listings":50,"realtor_new_listings_yoy":0.2712,"realtor_new_listings_base":0.0755,"realtor_days_on_market":66.387,"realtor_days_on_market_yoy":0.1018,"realtor_days_on_market_base":0.2284,"zhvi":205695.018,"zhvi_yoy":-0.0429,"zhvi_base":0.4353,"zori":1450.214,"zori_yoy":0.043,"zori_base":"NA"}},{"type":"MultiPolygon","arcs":[[[-26,27,-24,28,29,-6,30,-4,31,32,33,34,-13,35,-11]]],"properties":{"postal_code":"76904","realtor_list_price":381308.98,"realtor_list_price_yoy":0.0643,"realtor_list_price_base":0.4202,"realtor_active_listings":256.333,"realtor_active_listings_yoy":-0.1271,"realtor_active_listings_base":0.384,"realtor_new_listings":65.333,"realtor_new_listings_yoy":0.1264,"realtor_new_listings_base":-0.0567,"realtor_days_on_market":59.51,"realtor_days_on_market_yoy":-0.0218,"realtor_days_on_market_base":-0.0045,"zhvi":319845.466,"zhvi_yoy":-0.0166,"zhvi_base":0.4985,"zori":1264.599,"zori_yoy":0.0585,"zori_base":"NA"}},{"type":"MultiPolygon","arcs":[[[-35,36,-33,37,38,-16,39,-14],[40]]],"properties":{"postal_code":"76935","realtor_list_price":760000,"realtor_list_price_yoy":0.1136,"realtor_list_price_base":0.9815,"realtor_active_listings":14.333,"realtor_active_listings_yoy":0.0238,"realtor_active_listings_base":-0.2206,"realtor_new_listings":3.333,"realtor_new_listings_yoy":1.5,"realtor_new_listings_base":0.1195,"realtor_days_on_market":43.8,"realtor_days_on_market_yoy":-0.2179,"realtor_days_on_market_base":-0.4828,"zhvi":449556.401,"zhvi_yoy":-0.0106,"zhvi_base":0.5999,"zori":"NA","zori_yoy":"NA","zori_base":"NA"}},{"type":"MultiPolygon","arcs":[[[41,-18,42]]],"properties":{"postal_code":"76958","realtor_list_price":"NA","realtor_list_price_yoy":"NA","realtor_list_price_base":"NA","realtor_active_listings":2,"realtor_active_listings_yoy":1,"realtor_active_listings_base":"NA","realtor_new_listings":0,"realtor_new_listings_yoy":"NaN","realtor_new_listings_base":"NA","realtor_days_on_market":"NA","realtor_days_on_market_yoy":"NA","realtor_days_on_market_base":"NA","zhvi":"NA","zhvi_yoy":"NA","zhvi_base":"NA","zori":"NA","zori_yoy":"NA","zori_base":"NA"}},{"type":"MultiPolygon","arcs":[[[43,-2]]],"properties":{"postal_code":"76861","realtor_list_price":"NA","realtor_list_price_yoy":"NA","realtor_list_price_base":"NA","realtor_active_listings":3.667,"realtor_active_listings_yoy":-0.1538,"realtor_active_listings_base":-0.1398,"realtor_new_listings":0,"realtor_new_listings_yoy":-1,"realtor_new_listings_base":-1,"realtor_days_on_market":"NA","realtor_days_on_market_yoy":"NA","realtor_days_on_market_base":"NA","zhvi":272975.968,"zhvi_yoy":0.0404,"zhvi_base":0.4383,"zori":"NA","zori_yoy":"NA","zori_base":"NA"}},{"type":"MultiPolygon","arcs":[[[-42,44,-21,45,-19]]],"properties":{"postal_code":"76934","realtor_list_price":255000,"realtor_list_price_yoy":"NA","realtor_list_price_base":"NA","realtor_active_listings":4.667,"realtor_active_listings_yoy":0,"realtor_active_listings_base":-0.2099,"realtor_new_listings":1.333,"realtor_new_listings_yoy":"Inf","realtor_new_listings_base":"NA","realtor_days_on_market":80,"realtor_days_on_market_yoy":"NA","realtor_days_on_market_base":"NA","zhvi":"NA","zhvi_yoy":"NA","zhvi_base":"NA","zori":"NA","zori_yoy":"NA","zori_base":"NA"}},{"type":"MultiPolygon","arcs":[[[-8,46,-29,-23]]],"properties":{"postal_code":"76903","realtor_list_price":196107.143,"realtor_list_price_yoy":0.0555,"realtor_list_price_base":0.5654,"realtor_active_listings":104.333,"realtor_active_listings_yoy":-0.2565,"realtor_active_listings_base":0.5015,"realtor_new_listings":28,"realtor_new_listings_yoy":-0.1064,"realtor_new_listings_base":0.0222,"realtor_days_on_market":51.952,"realtor_days_on_market_yoy":-0.028,"realtor_days_on_market_base":-0.0914,"zhvi":144738.478,"zhvi_yoy":-0.053,"zhvi_base":0.4679,"zori":1265.467,"zori_yoy":0.0378,"zori_base":"NA"}}]}},"arcs":[[[647168,872825],[1491,223],[483,-1927],[1413,430],[2187,-424],[541,-2172],[-422,-3104],[1096,-2276],[-167,-1793],[2425,-752],[1890,-1106],[-1073,-1497],[137,-1806],[1412,38],[2597,-3939],[-763,-1698],[411,-1664],[-1323,-3560],[1341,-938],[2829,-556],[912,-783],[507,-2153],[2120,-1800],[1722,-109],[244,-1189],[2829,-5361],[-310,-1684],[797,-1071],[8110,1824],[7424,1207],[1357,-138],[-112,14888],[25832,250],[1192,6503],[-915,1076],[-545,7161],[-1988,3941],[1870,4394],[-646,1069],[-51,3723],[-846,1151],[647,2008],[2135,1761],[-868,3793],[595,2222],[1317,108],[1043,4418],[-74,1177],[-2508,1307],[-7927,2161],[-3477,220],[-1715,1097],[2778,7447],[595,2892],[-200,3133],[744,3910],[1936,1287],[-125,1874],[1738,1956],[1962,6508],[2434,3349],[-622,1070],[793,1634],[-2708,-162],[-1813,-885],[-6189,2059],[-2559,-270],[-2511,1743],[-2017,559],[-1719,4489],[-1974,2212],[-1724,796],[-1298,2934],[128,9535],[550,1927],[1724,2706],[78135,173]],[[770402,960351],[-58,-32680],[-370,-1586],[536,-2341],[5,-8282],[-1001,2],[-565,-1735],[-283,-32505],[59,-44030],[-1768,-5235],[3802,-7048],[4190,-456],[-71,-1021],[-130,-22289],[-51,-4839],[16303,8469],[-19,-14807],[483,-1002],[3076,-3241],[594,-1473],[-322,-7766],[1140,-3750],[540,-3733],[-988,-927],[-2535,-8113],[495,-1018],[2893,-1934],[728,720],[2833,355],[-2,-27008],[-2395,-65],[-225,-11080],[2295,-101],[-2,-5450],[-2694,-244],[-312,-6269],[10133,-173],[-413,-9369],[403,-7819],[340,810],[6938,-151],[404,-1434],[7635,-76],[-93,3103],[256,14639],[15704,-339],[354,-16662],[-291,-16666],[15096,-365],[439,24170],[7403,-205],[4427,734],[2330,2016],[1324,1153],[86,5165],[46940,-1141]],[[915998,705259],[707,-5663],[-305,-29186],[-297,-35066],[-32204,382],[234,17825],[-3981,-78],[-171,-1151],[-3684,-239],[-1383,1580],[-1928,-133],[-240,-3907],[-1285,-884],[-987,-2034],[-1976,-1660],[-143,-9085],[-6978,134],[-3541,619],[-4851,1534],[-507,-19190],[-1655,-12],[0,-1402],[-4227,351],[56,1122],[-6730,-702],[-55,-4765],[12290,-491],[-111,-11143],[-7841,561],[-334,-13314],[-2447,70],[-223,-1682],[-4996,210],[-421,-2607]],[[835784,585253],[-4073,1020],[-3494,355],[-23631,453],[-20202,858],[-2381,-86],[-3197,-744],[-6381,-2348]],[[772425,584761],[17,120],[99,2945],[-16364,395],[-51,-2876]],[[756126,585345],[-4051,2097],[-2650,887],[-7624,257],[-4188,554],[-8563,305],[-1271,228],[-1315,563],[-24741,12841],[-1199,323],[1,120],[-1814,551],[-2951,4283],[-2117,39],[-1350,-762],[-24542,609],[212,13668],[6844,-76],[1831,-2229],[4295,4680],[-6172,7386],[2625,2974],[738,-589],[629,639],[8785,-13768],[104,-1],[-3449,5550],[-5375,8332],[-2099,3125],[-3337,5031],[-2157,2737],[-496,172]],[[670729,645871],[1432,15],[11769,949],[352,19699],[-4745,-644],[-4008,-562],[-3505,-166],[-878,167],[-4323,1376],[-2909,939]],[[663914,667644],[16,1945],[1504,-12],[30,3184],[-1433,-10],[0,1304],[-10,3453],[-57,3196],[-16,7356],[0,1614],[1401,-10],[-1366,1618],[13,1392],[18,5024],[45,4847],[-40,2819],[1766,0],[17,615],[5009,59],[72,452],[-60,751],[-6837,110],[11,1150],[1835,-6],[-1833,1045],[33,4250],[34,2426],[158,683],[650,794],[9421,7508],[-69,294],[15501,12476],[-5,5714],[18,5112],[-7751,54],[-7914,48],[-481,19],[508,1323],[63,15641],[-11979,69],[-19669,78]],[[642517,766029],[128,19994],[152,944],[306,772],[2372,4405],[2700,5296],[562,25431],[586,42702],[-1828,4741],[-327,2511]],[[145848,593834],[10134,-414],[6002,225],[819,662],[4362,-153],[5095,1897],[3338,796],[6903,3180],[660,554],[10773,11656],[-538,3558],[2595,11409],[-38,2024],[1733,4252],[1223,1339],[1635,-894],[-47,-2015],[1080,-2986],[692,-4260],[-339,-1112],[1554,-7341],[179,-2490],[3620,-9192],[52,-6115],[392,-723],[2417,-826],[1555,569],[680,-1037],[-1315,-2478],[4876,1285],[6242,3868],[2416,2565],[1135,452],[4219,2775],[1856,23],[4512,-704],[5133,-438],[7391,6308],[3779,4053],[3506,675],[678,-2158],[-152,-12784],[-342,-4561],[293,-2230],[-2355,-5622],[142,-4375],[724,-1030],[1702,4554],[39574,-845],[5267,109],[686,618],[-90,2303],[1134,367],[169,8978],[-1037,7029],[-221,7473],[254,1818],[1495,4661],[257,12989]],[[304307,632075],[2632,231],[11540,-3737],[1676,-1229],[1326,-2531],[2885,-1],[952,-2940],[557,-9841],[604,-1976],[-82,-4791],[320,-6308],[-423,-2862],[-904,-883],[805,-2404],[299,-4745],[-479,-3206],[-1115,-1854],[-1947,-1201],[-1473,-2082],[-1596,2810],[-1944,1759],[-4305,33],[-1738,1450],[-2061,2740],[-964,44],[-5395,-3007],[588,-5721],[-79,-2513],[-2507,-7425],[-750,-2987],[334,-1967],[1402,-2627],[500,-3399],[37,-4808],[10429,2839],[10413,3765],[9704,2125],[16651,5109],[-66,-1043],[1578,-7325],[308,-9010],[-386,-1291],[-154,-4959],[294,-4880],[2733,802],[96,-410],[42590,12472],[-109,-7107],[2841,-2849],[693,-7474],[409,-666],[18,4229],[-952,3514],[72,1382],[2798,2282],[3563,665],[7,-549]],[[406532,545718],[154,-38435],[311,-32303],[-1556,476],[-3373,-1268],[-9761,129],[-3486,842],[-2625,-777],[-2472,160],[-1452,-1943],[178,-3251],[-1044,-6927],[-2825,-303],[499,-2880],[-708,-1756],[1065,-43],[-105,-9664],[-3050,125],[-3651,-581],[-1449,328],[-5497,2568],[-2133,-3160],[2078,-1200],[3122,-2971],[945,-212],[748,-1115],[1687,-5247],[934,-709],[-1369,-1880],[-1617,-6866],[509,-2387],[1724,-3077],[2007,-1860],[-1821,-5756],[1580,-2514],[4822,-3247],[1698,-4495],[1383,-4930],[2082,-21],[4117,-1013],[883,1067],[-840,2219],[-3035,1934],[1082,1173],[1033,2556],[1757,541],[2227,-533],[1160,705],[522,1986],[1023,786],[406,1841],[3596,6702],[2922,107],[6613,4960]],[[407530,423599],[41,-15465]],[[407571,408134],[114,-9493]],[[407685,398641],[-3220,-89],[-210,-5661],[-694,-2614],[656,-2300],[-166,-3286],[-14876,103],[2741,-3586],[-1794,-2338],[-168,-1888],[-1273,-3468],[-3105,-1941],[-2885,-7714],[324,-1525],[-398,-2912],[-2288,-2316],[-2025,-145],[-1336,-1787],[219,-2238],[1635,-7615],[1439,-1995],[4070,-6957],[1599,-2006],[-570,-967],[-2765,-762],[-2832,1065],[-1651,2098],[-3362,-206],[-800,-2765],[-6917,602],[-4041,-1356],[-2287,-1136],[-1204,109],[3087,-320],[-327,-11150],[1108,211],[6913,-2207],[5113,-470],[1158,-4064],[1024,-1153],[1015,-6417],[-1986,1403],[-3869,928],[-2631,5781],[-401,-452],[-4268,626],[-3695,-1785],[-1574,-1551],[-779,-1990],[405,-3474],[1074,-4098],[-1016,-4290],[352,-1208],[1543,-579],[1268,-2388],[1761,-1337],[5367,-957],[5557,1447],[2125,2995],[4274,-1894],[1696,17],[3530,1191],[2985,407],[571,-806],[4042,1313],[5093,-1282],[1600,154],[789,-1328],[-349,-2185],[3923,-1578],[2339,-1653]],[[408318,286902],[222,-34966]],[[408540,251936],[-150438,-2834],[5470,5391],[14239,9737],[-198,1388],[-1755,2437],[457,2565],[1705,1890],[113,-5879],[5500,-210],[6914,5978],[6168,5822],[18214,9577],[9122,2542],[1026,2],[584,34841],[-6252,-673],[-5095,-5513],[-6227,-2636],[-1437,900],[-7164,-5824],[-1281,-1713],[-1485,-4278],[-1605,-1792],[1536,-2368],[1212,-663],[-283,-4666],[-1302,-2965],[-19,-3356],[-2583,-57],[-2599,1497],[-1327,-153],[-2311,-1044],[-1353,-3620],[-1610,-1279],[-1561,-286],[-5342,498],[-6945,3589],[-6711,719],[-1668,-398],[37,4054],[-825,529],[-9095,-246],[82,3071],[-953,2737],[-2697,539],[-1793,4528],[2395,54],[4735,933],[3503,-623],[1336,1587],[1410,3820],[1244,333],[214,-1855],[-1049,-1332],[-990,-3047],[2750,-2159],[168,7012],[5110,-90],[1301,2791],[-501,2535],[1613,1268],[-4909,265],[341,3275],[2492,3613],[-165,2781],[649,1167],[3704,3452],[1539,2860],[-309,2982],[-2132,2468],[-1153,2063],[218,1892],[-2454,5885],[292,3047],[-1152,4879],[764,2319],[-566,3494],[1743,3192],[83,1311],[-1867,3862],[-2256,2118],[-18,1675],[-2275,-688],[133,2206],[2011,1085],[-2431,7966],[259,3727],[-2982,1440],[-3030,2736],[-1631,-1192],[-8156,-4889],[-5406,-3568],[-5833,-5346],[-4927,-4015],[-11727,-6414],[-3097,-2393],[-13579,-14276],[-18490,-28262],[1723,-2872],[-1544,-4686],[194,-1912],[-711,-911],[776,-1425],[829,-4508],[-2708,-4374],[-3447,-8464],[-470,-2081],[439,-2193],[1540,-3430],[-5240,-1516],[5038,-6924],[1771,-4661],[3529,-6797],[5725,-5059],[1210,-2317],[-188,-3546],[-1172,-17],[397,-6651],[-36672,-753],[-10771,-220],[445,6363],[-654,1598],[568,36002],[-47955,3550],[-2194,17],[-28762,-3706],[-2586,157],[-46746,9532],[-2713,1798],[-1960,2966],[-1200,659],[-9278,39],[-1140,1718],[1815,5538],[3634,3257],[3259,2049],[4240,2032],[1739,-682],[2531,1163],[637,3914],[-912,2311],[2798,-1745],[-1752,6495],[-1892,2878],[12746,6601],[3738,1445],[-3619,6271],[318,4640],[-447,3432],[242,3530],[722,3728],[-1298,2588],[-184,2255],[-3163,2465],[-5760,1517],[-1535,1603],[51,831],[-66,16497],[21803,40],[2030,1604],[1353,254],[3112,1831],[2077,3116],[1811,8543],[1095,2064],[856,5593],[948,2186],[490,3352],[1212,3096],[106,-1487],[1625,-1314],[1416,1390],[3415,-1454],[3077,894],[-1233,3689],[-2867,4335],[-972,2217],[-2537,688],[4892,311],[2330,1510],[1417,2152],[-1636,8740],[1075,7792],[596,1640],[1743,898],[876,1751],[2244,-2216],[2812,-1085],[8252,520],[-30,4488],[-1916,3343],[-575,1949],[91,9906],[1203,2897],[2378,1151],[975,1703],[5637,16889],[-508,977],[7682,10309],[-3032,4588],[-469,3317],[-3423,2440],[-3346,992],[-2370,2143],[-2948,1748],[-4675,647],[-2038,2058],[-3740,1680],[-4446,730],[-3094,2562],[-4328,2549],[-2319,2410],[-1034,-81],[-1748,1541],[609,381],[1565,3609],[314,6278],[-980,5622],[76,6464],[-14173,284],[-61,7522],[-30404,176],[10136,12344],[904,1572],[738,2311],[1136,12366],[270,1503],[5720,17599],[295,1182],[508,5530],[43,15725],[2475,-2645],[4183,-3165],[3327,54],[4274,-1276],[473,-464],[488,-1946],[9735,-13732],[930,-820],[6391,-667],[2316,117],[1268,-1188],[5911,-1970],[5038,-1593],[-91,5662],[4141,4427],[3850,3680],[-395,2379],[4312,-3112],[5477,-5976],[5730,-1413],[3482,-4698],[2227,-1841],[1623,-2335],[2781,-1949],[2838,-1328],[1052,-933],[2367,-5220],[2312,-2652],[3367,-2090],[3600,1750],[4793,1159],[3831,381],[2779,1091],[1756,-1093],[7324,-1061]],[[294252,851737],[2777,3352],[1195,2816],[2327,2885],[2502,2099],[723,1642],[5984,2986],[-1740,-5384],[-173,-2272],[1522,-2244],[-288,-3235],[3203,-854],[2146,-2049],[3,-4365],[1047,-121],[2791,1345],[2756,-963],[2987,1402]],[[324014,848777],[1118,-3443],[-273,-1963],[-1580,-2910],[-279,-2043],[-1548,-1852],[2277,-2348],[-489,-2394],[1395,1219],[2202,789],[1988,-45],[2263,1178],[4800,860],[743,-2786],[5059,-3306],[2222,755],[2206,-2326],[2178,-1589],[2075,-2172],[2987,813],[5553,-2142],[7704,100],[4187,-5783]],[[370802,817389],[-1664,-951],[-4096,-88],[-1452,1246],[-2138,-2574],[-1257,-2220],[-2156,-348],[-4016,-1412],[-2638,-1456],[-1342,117],[-679,-808],[-1150,-3970],[-2906,-4194],[1203,-3157],[2014,-3730],[878,-2649],[1550,-2386],[2032,-1860],[3011,-889],[1721,-2258],[464,-3189],[-909,-4938],[1643,-1361],[3210,-5930],[1206,-814],[1691,-3868],[39312,-568],[1544,2975],[573,11531],[626,2297],[-1614,2055],[-1223,204],[-209,2326],[-1910,3612],[-2313,1197],[-3431,-2651],[-3515,286],[-3232,5226],[-1547,1293],[-1579,3071],[-455,2753],[-3949,526],[-1554,656],[-121,1746]],[[380425,802237],[2338,5950],[1910,2366],[-209,3735],[2189,763],[4818,731],[2332,-269],[3132,-1863],[1497,1209],[1948,108],[397,-754],[2800,-224],[2924,590],[1286,-1147],[1555,-19],[2483,-2772],[-548,-2420],[2483,1585],[2952,-7845],[1537,-2619],[2575,79],[7986,12273],[6483,9164],[2306,-3040],[3250,2773],[8313,-5991],[5836,-4529],[983,-1186],[926,-2949],[1980,1227],[-2770,2186],[7125,10654],[8410,-6492],[9827,14650],[893,575],[-1868,1721],[-2172,-1144],[-1690,182],[-776,2972],[-2988,-2082],[-2833,876],[-1567,-662],[-2336,3300],[-2237,2472],[836,1665],[-2170,1673],[-1932,-328],[-274,870],[-2102,354],[-670,2238],[-1378,993],[4122,6284],[1141,-845],[128,175],[141,179],[64,4090],[34,54],[1167,-89],[54,3691],[4955,741],[-5345,6900],[-1972,4503],[914,3868],[213,12076],[1654,2379],[199,4623],[3660,687],[1984,3683],[-113,1543],[786,252],[664,5959],[-1876,3147],[932,1309],[-27,1274],[-1184,3240],[363,2074],[-376,4695],[1597,4196],[-128,2091],[2543,1051],[1459,-1065],[2498,184],[1356,-388],[2534,286],[1669,2571],[266,2149],[-3955,670],[-199,873],[702,4288],[1619,2267],[1928,4155],[-611,1973],[-3536,2138],[3933,3577],[-961,448],[-656,3214],[-1461,2977],[-787,3005],[-2851,800]],[[475456,961788],[49329,-348],[25194,-161],[58326,-193],[29492,-292],[5669,-25095],[2553,-6197],[1156,-4555],[1909,-4984],[916,-12914],[-133,-11667],[-361,-6976],[-48,-6361],[-2329,-7237],[39,-1983]],[[642517,766029],[-2,-1128],[-1977,21],[0,-12052],[-10283,2318],[33,3707],[-1720,12],[12,3220],[-1035,4],[27,4065],[-4880,58],[-13,-3113],[-3901,34],[-1,-3604],[-4646,-213],[-769,1623],[197,34],[2252,29],[0,1401],[-3119,-70],[-1773,3824],[-7882,454],[-1148,66],[-5374,279],[-776,-106],[3500,-7234],[1749,-5353],[88,-451],[-786,2],[364,-2751],[-116,-12268],[-106,-21915],[-14,-154],[2347,-111],[3879,-2769],[2561,631],[5251,-1207],[568,-818],[-3045,-5263],[-494,-2020],[49,-404],[344,-1325],[2389,-2244],[612,-350],[5426,676],[1429,-2429],[292,-2372],[2554,-2943],[2671,2809],[1895,290],[2760,-1361],[-35,-4317],[-998,-1487],[-331,-881],[-72,-2233],[356,-2081],[2271,-1860],[-984,-1889],[470,-4367],[1183,-1447],[-1171,-2758],[1171,-23],[-13,-1387],[-1165,6],[1141,-1247],[-32,-1229],[-8233,92],[-1058,33]],[[624406,668483],[-5441,199],[-681,1314],[-920,-587],[270,-632]],[[617634,668777],[-2506,228]],[[615128,669005],[-438,820],[-807,-221],[-2586,-290],[-954,82],[-3041,325],[-4982,1508],[-5021,-3518],[-956,-630],[-1268,-871],[-5580,-3711],[-5094,-3531],[-4063,-2759],[-2515,-1712],[-1237,-850],[-529,2087],[1036,2081],[-3971,-5773],[-1750,-1206],[381,-635],[1626,-3432],[454,-4384],[674,-837],[-1441,-1309],[912,1063],[-1431,594],[-583,1866],[-3094,57],[1655,-5093],[1322,-1273],[1734,-26],[1201,334],[-200,-2424],[-87,-5941],[-11416,7182],[-4729,1278],[-2006,2668],[-12019,-6808],[-1227,2059],[-179,1997],[-1363,2421],[-758,4258],[-1245,-178],[-577,-1078],[-1169,842],[-5150,-806],[1632,4300],[-659,1594],[-3383,3206],[-2203,123],[-1242,1235],[934,1537],[-487,3412],[-2336,3559],[2618,4434],[1316,3714],[-15549,-17],[-387,-142],[-3785,-2513],[-1775,-495],[457,-2365],[-34,-3682],[5445,-8721],[30,-7382],[2114,-2253],[421,-3421],[1734,-2473],[87,-2085],[-831,-1038],[644,-4170],[1360,78],[2801,-3970],[47,-1648],[2819,537],[-288,-2329],[-7940,-4484],[-5077,-6],[-13641,-42],[-484,5998],[-16790,496],[-5569,1951],[-2027,-4465],[-2511,-1638],[2816,3123],[-880,1303],[-1952,1169],[-4277,4566],[-2842,1056],[-2485,2597],[-3090,-1230],[-3072,-2167],[-1754,-109],[-1268,885],[-1788,2693],[-1998,-92],[-1237,-1188],[-2156,987],[-2512,-536],[-2111,1049],[-4929,4410],[-1545,2962],[-2175,2077],[-1421,-709],[-4504,292],[-584,449],[-2339,-838],[-4142,685],[-202,2841],[-616,896],[-2977,1070],[-340,1004],[-988,-125],[-5339,-4658],[-1895,-404],[-4402,770],[-571,642],[-4401,392],[-1644,2489],[870,2497],[-1369,168],[-3520,-374],[-4348,-1890],[-2452,-1495],[-2929,-332],[-1312,-2006],[230,-1940],[-1967,-2167],[-1820,-740],[-2294,-2024],[-1838,-374],[-873,-1170],[-2807,-1120],[-1344,71],[-1684,3135],[-164,1446],[-1553,2995],[-3193,2812],[-2218,1367],[-2175,3211],[-2883,2171],[-1588,-709],[-1432,2526],[953,3071],[-415,2276],[-3170,2282],[-1693,3613],[-11,3918],[-8698,-62],[-8677,-3646],[-20689,-12362],[-1905,-2019],[-801,-2666],[-422,-16805]],[[145848,593834],[-1865,2616],[-801,2784],[-2207,4030],[-764,2316],[887,2573],[-199,3687],[-2280,4662],[18,3798],[-780,1662],[1183,1494],[1547,3233],[708,3237],[-287,1721],[2448,81],[19250,-195],[201,8458],[15661,-826],[16002,16914],[588,53],[14295,-343],[-40,-32232],[3975,1717],[2073,1683],[999,4003],[8760,6655],[3839,44],[1189,750],[2187,-579],[-542,8157],[959,315],[-421,2280],[649,1155],[-512,5567],[-6063,4552],[-12418,7065],[-3830,903],[-3488,1378],[-1043,3978],[-1671,351],[-1710,1321],[-2262,4378],[-2440,2365],[-2336,6326],[154,5049],[-1845,148],[-2241,1678],[-1995,588],[-10969,5931],[-6585,2162],[-2376,309],[-3193,-353],[-2088,305],[-169,3301],[1909,-1435],[3783,436],[611,2338],[1242,339],[2192,-715],[2055,525],[949,6195],[-169,4027],[1972,3133],[699,2401],[922,499],[-14200,354],[-579,343],[-881,406],[149,9487],[-1478,3304],[-6034,6720],[-1043,2288],[-6225,7725],[-72,1326],[4590,1266],[998,-489],[5217,-245],[3252,629],[2569,-457],[2992,-2330],[1769,-57],[3425,-1097],[3171,-3157],[1905,373],[2686,-480],[500,-1428],[-1489,-2587],[-7869,-7820],[-1745,-2184],[-162,-1935],[5759,3355],[2249,-1166],[4512,-933],[1990,-5161],[3493,-1707],[2635,-570],[1715,1303],[1317,-3302],[1014,-622],[2898,827],[-403,3429],[1759,1494],[637,2712],[806,753],[948,232],[2838,-1023],[666,1234],[3574,796],[3755,-2886],[784,-1359],[783,555],[2419,-2550],[3437,-1216],[2504,564],[5293,2389],[1302,-4107],[1918,-2999],[2009,-2276],[4426,-346],[1770,-1032],[880,-1598],[174,-3194],[1119,-3793],[-1609,-7652],[640,-3332],[-671,-4502],[1674,-3642],[943,-1122],[3693,-936],[962,-1697],[1346,2105],[3417,-1758],[2619,-527],[3194,1724],[1953,82],[8067,-2507],[-205,5758],[1229,1379],[-629,1333],[2252,2364],[529,2262],[-1177,2585],[-567,2568],[-300,4909],[2054,71],[801,-1671],[3255,927],[1311,-581],[2155,-2736],[2068,-266],[2442,510],[2573,1398],[1703,1831],[368,1477],[409,9314],[1437,-22],[5280,-4277],[2604,-2853],[1577,-2499],[3356,-624],[3366,-3355],[2730,3629],[3133,2806],[1950,2422],[2326,3713],[857,2490],[684,5186],[504,9954],[-1223,3906],[2012,3775],[892,4535],[722,1074],[1738,506],[-859,6319],[-2448,5305],[4110,-54],[-379,1378],[-1576,2445],[-4174,819],[-508,692],[-1082,5518],[-1279,3084],[-1384,2070],[-459,2110],[117,2443],[-1589,-568],[-992,2674],[-1697,1815],[-2903,1701],[-1234,1988],[-2010,1692],[-996,2400],[-1779,1687],[-1825,3459],[-4315,4924],[-1573,565],[-1494,4448],[577,2595],[-2279,-563],[-1747,2556],[-1230,3492],[-2348,4670],[555,1503],[1909,1761],[-214,4122],[-613,1336],[2036,3320],[4930,5351],[2925,5100],[924,2583],[-1880,2423]],[[615128,669005],[-3440,278],[-1,-2859],[1268,9],[8,-2143],[2409,-818],[2431,742],[-169,4563]],[[624406,668483],[704,-2671],[1518,-1611],[3973,55],[8,-4002],[1381,1192],[-2131,-4220],[-3922,-4786],[-5824,-6640],[-285,-2528],[3233,-280],[900,-2010],[-106,-361],[-218,-9880],[7407,-3265],[713,3251],[737,1307],[1969,1420],[5405,2301],[1997,-38],[3477,1093],[579,1346],[-1403,690],[-315,1795],[-1464,3426],[1509,4955],[1960,4190],[1153,1014],[3362,-5128],[1949,-1585],[2402,-909],[1853,-406],[4752,-107]],[[661679,646091],[5354,-117],[3696,-103]],[[756126,585345],[4034,-1551],[3066,-527],[2523,-34],[2718,317],[3958,1211]],[[835784,585253],[3239,-2147],[1599,-1523],[6477,-7002],[6061,-5278],[2654,-2075],[20513,-11576],[2721,-1264],[3805,-851],[-1283,-53722],[-15852,311],[-742,-32544],[-225,-1161],[-3685,-106],[-903,-3228],[-2293,-2339],[-2805,-4615],[-1262,-704],[-620,-2249],[-1495,-2674],[-491,-2577],[981,-2181],[-1052,-1406],[271,-2248],[-1518,-2074],[480,-3149],[-956,-3756],[16,-6164],[1489,-2336],[747,-3803],[1763,-770],[1613,2515],[5357,2799],[1474,1912],[3757,3132],[1184,-1445],[-445,-4095],[1739,-4037],[3285,131],[2088,-594],[1410,-1754],[793,-2496],[798,1043],[2310,9],[2049,-1370],[7659,-2477],[3417,1355],[6845,1012],[1381,-386],[3537,978],[2486,-175],[23,2383],[1077,1533],[602,-1649],[2678,-711],[-494,-18750],[7201,-8605],[1583,-4835],[530,-454],[3038,2119],[2170,-94],[3477,979],[2302,2624],[2650,-670],[3407,439],[5033,-1162],[-98,-5434],[-496,-50065],[-371,1259],[-1708,11123],[-1296,2428],[-1427,293],[-816,-1794],[-3560,-2548],[-1502,-2140],[-3978,378],[-2346,-381],[-2147,-4225],[1643,-2141],[3057,-1590],[187,-2241],[938,-222],[132,-2296],[-1211,-927],[-369,-1544],[-1241,-1076],[-7209,3312],[-23569,21479],[442,2032],[-1415,1876],[-1313,2650],[2147,3220],[2333,1564],[-37,1953],[810,2335],[1287,1439],[1348,3464],[83,6718],[-405,683],[-21802,-403],[1627,-1835],[3996,-3341],[-2213,-2196],[895,-1348],[-590,-1393],[1604,-1780],[-4579,-1255],[-11312,9971],[-3036,3152],[-904,-65772],[1085,-4884],[-185,-1580],[-257,-34868],[-84,-2244],[568,-2034],[2718,-5948],[1908,-2485],[1154,-3344],[1023,-1131]],[[870941,254110],[-53961,347],[-1814,-291],[-27047,-65],[-34102,-150],[640,1586],[-1317,2872],[388,3083],[725,2418],[39,3199],[-789,2376],[-58,5225],[-357,1045],[-3765,-85],[-3664,1837],[-5044,1302],[-3256,6615],[-2788,2102],[-1404,95],[-2562,1392],[-1850,-432],[-710,682],[-721,2826],[-2426,7150],[-747,1578],[-922,115],[32,31427],[-1461,636],[-13452,56],[-506,153],[-944,882],[-6945,13477],[-254,713],[-1109,11824],[-396,-1234],[385,-2059],[-6300,-7554],[-911,1470],[-2139,192],[-834,-1157],[-1690,144],[-2602,-882],[-2231,-3448],[-3661,-2436],[-2236,-429],[-2973,-3904],[-1689,-1209],[-2214,580],[-3719,5069],[-1778,1742],[-1593,5],[-2140,1170],[-1388,0],[-5469,-1336],[-692,885],[445,2597],[-395,2598],[-1484,-107],[-11271,7578],[395,4660],[-1810,-913],[-1202,-7057],[-717,-1070],[467,-1532],[-11586,392],[-3959,-791],[-2007,576],[-8655,3],[-1369,470],[-4947,395],[-3944,-377],[-2513,1212],[-2573,-429],[-1505,-1322],[-1265,5288],[-756,1849],[2224,6338],[3376,28242],[3390,27929],[15209,-64],[2493,-643],[7300,-1337],[11051,-4743],[7460,-1653],[2384,1404],[4139,1717],[4675,-574],[2368,53],[-511,4930],[-2939,5397],[-328,1360],[-2750,6932],[-8790,20754],[-2548,78],[-1484,889],[-11950,26],[-4871,2638],[1296,810],[-3428,2464],[-6145,1030],[-2891,-5222],[-615,-1707],[-1195,168],[-5205,-11744],[6010,50392],[-4376,-17352],[-2896,2114],[-1386,125],[-5305,-5510],[-1347,3307],[-692,6954],[-2515,-834],[-1671,-2033],[-125,3515],[1772,498],[-1790,5729],[974,4755],[1691,4591],[1336,1814],[2372,132],[-1409,617],[-3844,-311],[1324,1511],[-32,5926],[1157,3343],[1241,739],[1682,-2138],[326,2461],[82,1093],[-7856,5766],[-1379,521],[-3308,3118],[-2245,1557],[-1740,1967],[-5289,11225],[-363,-2925],[-5953,10304],[-443,-293],[-1098,-1255],[29,-865],[3074,-5419],[429,-1705],[12,-13247],[-380,-1749],[-1163,-523],[-33373,206],[-66,-23834]],[[535051,499488],[-5544,6132],[-2394,1928],[-9561,2195],[-8588,1073],[-1721,1072],[-16342,-14857],[-15015,-7311],[-946,-1378],[236,-1294],[2993,-3699],[2666,-1826],[2852,-702],[4561,-5439],[-1317,-1240],[926,-2873],[1522,-571],[744,-5270],[-1164,-5157],[-666,-699],[-1387,-48],[-1974,-1929],[-1026,894],[-719,-1168],[-9165,216],[-5284,-77],[93,11032],[-509,3240],[-917,715],[31,-3888],[-1560,218],[-3347,1807],[-663,-1054],[-2708,-796],[-1294,464],[-2153,-1967],[586,-4584],[-247,-1243],[-1864,-1145],[-352,-1207],[900,-5097],[-1543,-1337],[-3035,-306],[-1294,740],[-2316,-951],[-3128,2],[-4222,-1554],[-2357,-2114],[-1929,778],[-1676,-2024],[823,-408],[-223,-1938],[1758,-2261],[67,-7623]],[[435659,434959],[-6589,-5268],[-1142,-1838],[-406,-4124],[-2834,-77],[-2260,-1325],[-4188,-3605],[-4123,-4624],[-3330,-2374],[-3216,-3590]],[[407530,423599],[75,7722],[2941,-1022],[2987,-214],[759,1074],[606,2852],[2232,1469],[198,994],[2876,2369],[1793,2118],[3192,2246],[3033,3915],[711,3033],[-998,2149],[-3381,3830],[-348,845],[-2792,1941],[-6172,3178],[11038,6996],[5785,-1226],[7658,-155],[1080,862],[3000,3],[918,883],[3254,26],[712,580],[3206,-220],[90,4626],[-733,-1327],[-2320,-715],[-1909,692],[-1609,3070],[669,786],[-472,2766],[-3232,1191],[-4636,270],[-802,7825],[1865,1615],[-645,519],[-1682,5374],[-1884,1613],[-306,1687],[2833,7639],[451,3631],[1013,1729],[-4848,86],[-2819,1064],[-1357,-894],[-10981,-373],[-1775,1344],[-22,10441],[749,2164],[71,8614],[380,8050],[2208,1990],[2796,596],[93,2996],[-2470,-2041],[-5662,-3130],[-2637,-540],[-429,136],[-3387,507],[-1962,1870]],[[435659,434959],[1195,854],[5473,1610],[3551,148],[2804,-821],[1571,330],[5102,3160],[7643,8687],[2906,4846],[1771,1562],[1025,-36],[-33,-18623],[1145,-3221],[2004,-1309],[1307,-199],[68300,-444],[1052,2903],[3234,4438],[447,2200],[-19316,210],[138,7543],[3281,134],[319,10017],[1306,3266],[-253,14877],[3850,-7],[-444,12679],[14,9725]],[[870941,254110],[2884,-3602],[382,-2732],[-536,-17667],[1022,-2116],[-4568,-13305],[1709,-2131],[-365,-2547],[1915,1648],[-169,-1668],[993,-8874],[116,-2932],[-1833,-2694],[-1307,109],[-1895,-1186],[-1797,51],[-1037,-656],[-2874,-4422],[-203,-2882],[-1788,-1613],[-1916,245],[-1385,-504],[3575,-4944],[-914,-3792],[-2086,-3010],[-1293,-1255],[-2886,-3804],[763,-3263],[-1093,-763],[4624,-9856],[1516,-2209],[1427,-4523],[1586,-2279],[5836,-6090],[4012,-3487],[207,-2287],[-333,-103533],[-2367,-659],[-1078,-5127],[-1317,-2202],[-1295,-783],[-2495,1333],[-1179,20],[276,7086],[-583,3182],[-2043,865],[-2413,-259],[244,-3529],[-748,-567],[-2288,456],[-1145,1092],[-1047,-168],[-1585,-1447],[638,-1172],[-472,-1426],[-95,-4527],[-2979,-474],[-1105,-1345],[-3435,176],[-221,-2456],[-796,-2666],[176,-1818],[1746,-2555],[-3824,-525],[-5909,360],[-7493,12],[-1998,-42],[-3465,-380],[-78344,245],[-4668,117],[-17529,3897],[-2030,304],[-15388,-142],[-6629,450],[-20225,-35],[-1343,-79],[-2289,-654],[-21716,-12795],[-2409,-1057],[-1808,-231],[-7588,-12],[-179,9580],[1114,4082],[-483,7271],[654,4276],[897,3197],[3325,1994],[1647,2357],[1079,5292],[-4126,2789],[-4423,7824],[-79,17302],[-17384,-72],[69,27414],[2017,454],[2082,-1401],[7231,-1693],[2526,62],[1486,-492],[3882,-2169],[311,-1610],[2376,541],[995,2089],[1811,2524],[-607,3195],[2245,4636],[4113,-220],[691,-684],[55,-14795],[22705,-902],[-478,2624],[559,4360],[-289,1940],[1915,2201],[2006,3651],[165,3194],[-650,2524],[-1626,615],[-2733,-747],[-1915,1931],[142,2732],[853,1041],[-319,1733],[504,1802],[-158,3229],[2400,4278],[4566,2524],[1178,1235],[2247,-113],[2289,-1700],[1339,-1546],[3281,-464],[2059,-902],[1825,-98],[945,2063],[-197,1662],[-2306,1807],[-1974,6828],[40,1325],[1706,5626],[554,3144],[-6577,6384],[-2717,-1025],[234,56845],[-3179,2077],[-1944,689],[-3111,19],[-4622,-745],[-4749,1049],[-1565,817],[-1396,1526],[-803,1774],[-5822,3487],[-1623,6752],[-4986,631],[-209,1909],[-5013,5250],[-1973,3182],[-1398,4375],[-1125,639],[-2802,3006],[-3567,1970],[-1400,1336],[-3173,4085],[-575,3501],[249,2618]],[[631081,253491],[-58525,-448],[-41,-16217],[-8253,8],[-1820,2848],[2590,13299],[-150275,-1462],[-6217,417]],[[408318,286902],[-389,69736],[3461,2678],[1728,-2304],[1459,-1060],[4445,-2065],[2196,60],[8361,-2516],[1489,-2540],[2314,2572],[3417,-296],[3071,446],[4352,-155],[2545,733],[84,1015],[2981,-781],[-948,5040],[1979,4938],[5,1260],[-2583,5066],[-8672,-1187],[-4172,-1707],[180,8417],[-5307,2693],[-1401,-426],[-3875,1743],[-1781,-1409],[-2420,210],[-537,-1459],[633,-2069],[-931,-4747],[502,-3753],[-1206,-215],[-3101,1711],[-3631,1302],[-1107,972],[1095,1296],[555,3168],[1460,1856],[743,2051],[1313,916],[280,2879],[1216,1521],[1137,3501],[38,4015],[-715,2793],[-3226,2826],[-3065,1309],[-2876,-161],[-1726,1410],[-3,456]],[[631081,253491],[59926,226],[20,11009],[-111,837],[96,16418],[668,4039],[-172,1094],[4520,-915],[3258,1711],[2659,214],[3975,2091],[1608,-53],[-24,9601],[1893,2061],[1685,26],[3322,1767],[2256,534],[3792,2824],[1223,2665],[202,1791],[-2084,4339],[-910,668],[-4479,856],[-5096,264],[-1724,-1585],[-2342,2466],[-923,2563],[-1101,1453],[-1628,723],[-1465,1970],[-1380,785],[-2287,-577],[-2047,-1678],[-1164,-5949],[-68,-2555],[-3220,-5608],[-1224,-1334],[-1921,5094],[-3625,1088],[-4979,2671],[-2358,561],[-3001,-478],[-602,-2843],[-2582,-3226],[-379,-2694],[-3399,-3806],[-4713,-9522],[-8982,9487],[-1628,2531],[-5786,15047],[-2008,2514],[-12702,7982],[-2245,886],[-3449,410],[527,-4594],[-127,-1713],[-2675,-4826],[-456,-1358],[205,-6124],[-7143,-1177],[-2320,-1299],[-3446,-3174],[-2595,-1545],[-2840,-96],[-4828,-1491],[-632,-1082],[-3838,1156],[-1087,1489],[-2127,-1358],[-2706,-361],[-491,2701],[-5570,-1176],[377,-2783],[2869,-6680],[481,-7074],[-942,-7532],[4047,-727],[1806,949],[2428,133],[2744,840],[954,2799],[2272,2499],[121,1839],[3072,1408],[2405,-1170],[6602,-1716],[3578,-1728],[520,-705],[6341,-2376],[3652,-3557],[11855,-182],[182,-5747],[1161,-6188],[-1580,-1544],[-4311,-2403],[-685,-807],[-1095,-11963]],[[441179,962059],[-300,-1075],[1115,-2713],[-2032,-6621],[-2176,-2302],[-1198,-520],[-2173,-3085],[-389,-3221],[-1525,-3468],[-114,-4122],[-1841,-4466],[-14567,-22245],[-3239,-7609],[744,-1871],[1530,-187],[4170,-7656],[-6255,7189],[-2687,1884],[12414,-15657],[-4996,-7657],[-8406,-6705],[-2541,1639],[-5634,-5784],[-3801,4074],[-1218,2638],[-4241,4586],[714,1220],[-1650,-499],[-5617,7819],[-2076,-4749],[-2087,-3555],[-2506,-1812],[-957,-1866],[-732,-4135],[-49,-5570],[-408,-1861],[206,-4988],[-470,877],[97,5595],[-661,804],[-5804,483],[-1498,951],[-1797,2836],[-1133,480],[-1724,4081],[-2097,1232],[-4435,606],[-2293,-357],[-6238,-2065],[507,-2109],[-810,-1309],[-1745,-86],[-386,-1150],[889,-1986],[885,-3765],[-249,-3262],[-1769,-974],[-2237,-83],[-3899,-2279],[-3835,-710],[-1176,-1135],[-2375,-165],[-3341,-2193],[-5049,-2649]],[[294252,851737],[-1794,-244],[-965,-1324],[-2466,545],[-2693,-435],[-3343,-2521],[-939,-55],[-3007,1707],[-1787,-376],[-1096,765],[-2599,-1163],[-859,862],[-985,2927],[-2849,1583],[-7217,-94],[-3756,-3285],[-284,1002],[-1228,-621],[-4157,-1079],[-3350,-1783],[-2116,-665],[-1073,-1001],[314,14332],[3045,3128],[2064,-624],[1279,732],[3926,0],[1324,811],[-2204,1575],[-122,3206],[3286,2020],[2041,2836],[1458,772],[781,34715],[4367,273],[4439,-396],[23361,-522],[-751,7442],[935,901],[2025,-1527],[825,4807],[-58,2567],[754,6502],[-10,6739],[2288,2423],[2521,5478],[941,5221],[2601,5596],[35,2016],[-1905,1089],[2388,1613],[1982,-1361],[2183,-2831],[4330,-1346],[-562,-2641],[1083,-2255],[1839,38],[829,-1132],[47,-2058],[1013,-815],[445,-2868],[2465,-1586],[589,-2783],[2068,-1009],[2326,-3721],[2378,-2231],[1711,-1054],[354,1041],[2136,-260],[3406,-1139],[1664,142],[1987,-2241],[1825,80],[3250,4315],[-2636,1752],[2077,3057],[1246,9449],[16511,-4023],[7340,-1467],[1833,2935],[1142,4570],[648,10065],[91,4003],[65942,-774]],[[770402,960351],[14934,110],[43373,212],[-30,6819],[-279,32507],[21007,-22],[580,-2369],[140,-30044],[84657,73],[1220,-2276],[1938,-695],[151,-1527],[-2733,-2680],[-1417,-188],[-445,-1928],[-1466,-2134],[-70,-5417],[13819,69],[16108,0],[-104,-34429],[4578,-2615],[3179,-119],[8083,-39],[14732,-48],[1234,-241],[5272,-2989],[1136,-1023],[-18669,-16441],[-11897,-4969],[-2,-450],[-7742,-3296],[-16150,-6873],[-88,-10580],[-228,-1531],[-96,-33819],[-53,-2477],[-864,27],[-688,-61737],[-129,-28377],[77,-16357],[-148,-15921],[-3025,-1700],[-1423,-124],[-22876,526]],[[441179,962059],[34277,-271]],[[380425,802237],[-692,3155],[-2013,5510],[-642,4260],[-1045,2355],[-2038,1693],[-3193,-1821]],[[663914,667644],[-69,-8161],[-48,-3910],[-3911,351],[22,-1579],[2802,-59],[1063,-1001],[-52,-4096],[-2002,30],[-40,-3128]]],"bbox":[-101.12923,30.87102,-100.051085,31.726617],"transform":{"scale":[0.0000010781460781460846,8.555978555978551e-7],"translate":[-101.12923,30.87102]}}
