{"type":"Topology","objects":{"foo":{"type":"GeometryCollection","geometries":[{"type":"MultiPolygon","arcs":[[[0,1,2,3]]],"properties":{"postal_code":"32948","realtor_list_price":659166.667,"realtor_list_price_yoy":-0.143,"realtor_list_price_base":0.9194,"realtor_active_listings":11.667,"realtor_active_listings_yoy":-0.3269,"realtor_active_listings_base":0.0179,"realtor_new_listings":4,"realtor_new_listings_yoy":0.5,"realtor_new_listings_base":-0.1045,"realtor_days_on_market":77,"realtor_days_on_market_yoy":0.145,"realtor_days_on_market_base":0.1625,"zhvi":335720.974,"zhvi_yoy":0.0217,"zhvi_base":0.7221,"zori":"NA","zori_yoy":"NA","zori_base":"NA"}},{"type":"MultiPolygon","arcs":[[[4,5,6,7]]],"properties":{"postal_code":"32962","realtor_list_price":232552.469,"realtor_list_price_yoy":-0.1537,"realtor_list_price_base":0.2449,"realtor_active_listings":219,"realtor_active_listings_yoy":-0.1085,"realtor_active_listings_base":0.2721,"realtor_new_listings":54,"realtor_new_listings_yoy":0.0946,"realtor_new_listings_base":-0.2142,"realtor_days_on_market":79.864,"realtor_days_on_market_yoy":-0.2099,"realtor_days_on_market_base":0.1143,"zhvi":259652.228,"zhvi_yoy":-0.0145,"zhvi_base":0.6963,"zori":1901.069,"zori_yoy":-0.0011,"zori_base":"NA"}},{"type":"MultiPolygon","arcs":[[[8,9,-5,10,11]]],"properties":{"postal_code":"32960","realtor_list_price":325562.5,"realtor_list_price_yoy":0.0245,"realtor_list_price_base":0.6253,"realtor_active_listings":110.333,"realtor_active_listings_yoy":-0.361,"realtor_active_listings_base":0.0903,"realtor_new_listings":33.333,"realtor_new_listings_yoy":-0.2063,"realtor_new_listings_base":-0.1605,"realtor_days_on_market":75.1,"realtor_days_on_market_yoy":0.0392,"realtor_days_on_market_base":0.0456,"zhvi":280646.554,"zhvi_yoy":-0.0167,"zhvi_base":0.6149,"zori":2029.568,"zori_yoy":0.0199,"zori_base":"NA"}},{"type":"MultiPolygon","arcs":[[[12,13,14,15,16,-1]]],"properties":{"postal_code":"32958","realtor_list_price":381239.872,"realtor_list_price_yoy":0.0134,"realtor_list_price_base":0.5621,"realtor_active_listings":175.667,"realtor_active_listings_yoy":-0.2003,"realtor_active_listings_base":-0.0325,"realtor_new_listings":52,"realtor_new_listings_yoy":-0.037,"realtor_new_listings_base":-0.2552,"realtor_days_on_market":77.821,"realtor_days_on_market_yoy":0.0807,"realtor_days_on_market_base":0.1593,"zhvi":345619.819,"zhvi_yoy":-0.0031,"zhvi_base":0.6135,"zori":2203.75,"zori_yoy":0.0913,"zori_base":"NA"}},{"type":"MultiPolygon","arcs":[[[-11,-8,17,18]]],"properties":{"postal_code":"32968","realtor_list_price":525343.824,"realtor_list_price_yoy":0.0483,"realtor_list_price_base":0.6888,"realtor_active_listings":96.333,"realtor_active_listings_yoy":-0.1162,"realtor_active_listings_base":-0.1817,"realtor_new_listings":22.667,"realtor_new_listings_yoy":-0.2609,"realtor_new_listings_base":-0.3804,"realtor_days_on_market":66.118,"realtor_days_on_market_yoy":0.0642,"realtor_days_on_market_base":-0.1042,"zhvi":427902.027,"zhvi_yoy":-0.0082,"zhvi_base":0.5738,"zori":"NA","zori_yoy":"NA","zori_base":"NA"}},{"type":"MultiPolygon","arcs":[[[-6,-10,19,-14,20]]],"properties":{"postal_code":"32963","realtor_list_price":1149783.088,"realtor_list_price_yoy":0.0363,"realtor_list_price_base":0.4782,"realtor_active_listings":283,"realtor_active_listings_yoy":-0.2232,"realtor_active_listings_base":-0.4255,"realtor_new_listings":45.333,"realtor_new_listings_yoy":0,"realtor_new_listings_base":-0.1886,"realtor_days_on_market":118.75,"realtor_days_on_market_yoy":-0.1184,"realtor_days_on_market_base":-0.1131,"zhvi":1057939.181,"zhvi_yoy":0.0011,"zhvi_base":0.7065,"zori":5630,"zori_yoy":"NA","zori_base":"NA"}},{"type":"MultiPolygon","arcs":[[[-3,21,-12,-19,22]]],"properties":{"postal_code":"32966","realtor_list_price":335161.923,"realtor_list_price_yoy":-0.0494,"realtor_list_price_base":0.2761,"realtor_active_listings":172.667,"realtor_active_listings_yoy":-0.065,"realtor_active_listings_base":0.3348,"realtor_new_listings":43.333,"realtor_new_listings_yoy":-0.1333,"realtor_new_listings_base":0.0005,"realtor_days_on_market":76.969,"realtor_days_on_market_yoy":0.0368,"realtor_days_on_market_base":0.0369,"zhvi":329079.897,"zhvi_yoy":-0.0419,"zhvi_base":0.4682,"zori":2034.556,"zori_yoy":-0.0027,"zori_base":"NA"}},{"type":"MultiPolygon","arcs":[[[-17,23,-15,-20,-9,-22,-2]]],"properties":{"postal_code":"32967","realtor_list_price":450250,"realtor_list_price_yoy":-0.0021,"realtor_list_price_base":0.3137,"realtor_active_listings":297,"realtor_active_listings_yoy":-0.1072,"realtor_active_listings_base":0.2372,"realtor_new_listings":72,"realtor_new_listings_yoy":0.0385,"realtor_new_listings_base":0.0662,"realtor_days_on_market":82.944,"realtor_days_on_market_yoy":-0.0764,"realtor_days_on_market_base":-0.0192,"zhvi":404872.041,"zhvi_yoy":-0.0175,"zhvi_base":0.5961,"zori":2778,"zori_yoy":0.0823,"zori_base":"NA"}}]}},"arcs":[[[584107,836292],[4916,-9438],[4801,-10253],[2090,-9248],[393,-7671],[-1770,-17137],[-2134,-58872],[-1327,-40637],[-548,-19151]],[[590528,663885],[-614,-17238],[-356,-17481],[531,-11085],[3664,-38346],[2970,-24921]],[[596723,554814],[4150,-32907],[30,-246],[23,-183],[3814,-30419],[2220,-17405],[57,-449],[130,-5912],[23338,-133105],[3160,-14835],[1625,-6503],[6590,-22159],[2171,-8304],[-65072,997],[-9952,-205],[-128929,1673],[-14809,233],[1040,164304],[-936,505],[-55751,297],[-973,3286],[162,14684],[873,9931],[-2098,239],[141,17945],[2247,149633],[-231,11000],[572,151226],[814,1383],[114,10931],[770,0],[82,14103],[-518,3911],[-31485,228],[-135573,2200]],[[204519,840891],[-4677,5783],[332,23800],[-482,3100],[482,10492],[-893,24012],[-225,62281],[522,7450],[79863,-2226],[12836,865],[10037,1408],[8889,-3188],[-164,-21228],[-8423,-22951],[-140,-27550],[7418,-1197],[-355,-55968],[1730,-3106],[28844,-85],[79,2503],[-21,-2503],[60733,-89],[-1350,1358],[502,35823],[9757,-142],[528,30265],[6002,-133],[8853,-438],[36282,-1055],[430,68614],[322,22812],[657,401],[55144,-1171],[-115,-28895],[867,-5186],[2921,-8160],[62403,-120295]],[[835125,186684],[14428,-316],[12750,-347],[12625,-221],[-982,4798],[4694,-212],[1154,-4690],[1527,-22],[-822,3188],[5750,-348],[-18,-2935],[7447,-63],[285,2872],[156,5988],[12787,-770],[-2334,10505],[561,15732],[8921,-259]],[[914054,219584],[627,-4744],[4923,-15483],[5655,-21979],[4011,-15580],[3182,-12365],[4997,-38591],[2292,-17566],[12745,-93273]],[[952486,3],[-455,-3],[-34986,215],[-628,0],[-956,0],[-262,0],[-1505,-54],[-7136,104],[-4338,720],[-24637,-155],[-13975,227],[-160,-192],[-29537,44]],[[833911,909],[-18,1149],[410,45549],[108,22916],[17,632],[7334,-212],[34,11622],[-3637,-344],[82,11948],[-3688,91],[220,34902],[48,7238],[18,3977],[143,23201],[143,23106]],[[804720,348724],[-5,363],[12999,-284],[28663,-341],[655,-3],[2986,29],[20535,-64],[15553,-24936],[799,-2200],[1630,-21159],[1770,-8469],[287,7],[9727,-963],[3530,5205],[1129,755],[2805,3693]],[[907783,300357],[1696,-3302],[754,-50467],[1028,-9419],[2793,-17585]],[[835125,186684],[-29500,442]],[[805625,187126],[161,23232],[71,11174],[54,11805],[-1839,95],[71,4135],[-71,12942],[1910,-127],[93,2819],[7,508],[9,496],[6,218],[3,107],[-41,1733],[-28,3374],[5,20512],[-71,18118],[-3072,11711],[-375,4514],[4179,22632],[-1720,287],[-257,11313]],[[584107,836292],[81047,-411],[3111,18722],[3558,2594],[9959,18422],[1084,2478],[3714,8390],[313,941],[4489,23819],[-714,15792],[653,3074],[5968,8491],[21848,45]],[[719137,938649],[8689,-26989],[13382,-51379],[11061,-46028],[3896,-10963],[5130,-14428],[26732,-67339],[4991,-12954],[12995,-35154],[18335,-17547],[7154,-11926],[-3022,-3731],[-157,2885],[-3334,6705],[-2818,401],[-1182,-1408],[718,-6601],[1193,-2013],[429,-5761],[-15525,-16076]],[[807804,618343],[-4250,-4423],[-2968,-4094],[-4389,-6228],[-3148,-145],[-3556,11531]],[[789493,614984],[-15528,51032],[4620,-16102],[-7161,108],[30,-23220],[-7323,155],[16,5745],[-3712,72],[0,-4163],[-332,-13],[-1638,108],[-1803,18],[-47,8583],[1954,7020],[-5577,120],[7,-5786],[-3982,70],[73,-11459]],[[749090,627272],[-14492,-50],[9,-11212],[-11079,95],[54,11126],[-3738,7],[15,-4227],[-29,-18563],[-12850,195],[-2048,70],[11,3706],[175,2241],[21,4135],[-714,1161],[-2881,4221],[-96,7313],[-3573,82],[-902,-1600],[-3248,-57],[-2402,755],[-5089,6524],[104,1610],[-4666,2415],[-392,1897],[-12590,63],[-68,-11357],[-5856,142],[-328,11493],[2,6272],[-15,1054],[6968,3870],[-7702,382],[38,4899],[-209,0],[70,6111],[-1075,148],[-2936,10],[-14750,-622],[-18176,161],[-5249,76],[-9026,1471],[-7429,94],[-3660,95],[-1449,-63],[-1739,-48],[-37,389],[-5536,129]],[[833911,909],[-58867,789],[-29330,710],[-24880,-12],[-4392,312],[-808,10],[-64819,1379],[-15355,530],[-6582,-1199],[-87571,581]],[[541307,4009],[536,3605],[-54,42739],[-28737,0],[-1530,3157],[-30285,473],[-13925,-2083],[-252,45836],[-15662,28],[1409,2304],[210,42434],[13123,148],[334,46117],[15548,-189],[16422,-1976],[13208,72],[352,73967],[30053,-568],[-375,-160888],[857,-505],[27679,-379],[3835,492],[69949,-1597],[358,68844],[11508,-142],[3152,-237],[54,4356],[35,2273],[54,16919],[28500,63],[767,-95],[28821,-599],[375,63],[29321,-474],[3663,-76],[39,11692],[18507,-467],[-14,-7105],[3853,-1604],[-2530,-2850],[5375,-32],[29785,-599]],[[907783,300357],[-547,1666],[-8349,26212],[-4811,19997],[-2052,12279],[-3344,27244],[-1943,10789],[-6438,35621],[-8567,837],[-1786,536],[-5495,16853],[-5460,18330],[-1247,5489],[-7493,21108],[-1171,2172],[-4425,15479],[-1016,243],[-407,2990],[-3500,6515],[-5707,18500],[-2363,2311],[-2042,6777],[-2411,4637],[-1918,4258],[-27,1591],[2236,855],[-6095,8880],[-3887,14905],[-2639,4690],[-1811,10701],[-5264,15521]],[[719137,938649],[361,0],[42396,82],[1548,492],[4728,6329],[5415,10423],[2124,-650],[-28,-528],[33646,-113594],[22041,-79039],[2438,-7552],[18645,-57742],[870,-2695],[7042,-24452],[5571,-19347],[2249,-7810],[6938,-18788],[6763,-23073],[5887,-20083],[5392,-22397],[311,-1295],[1259,-5228],[3096,-21676],[12165,-64520],[8219,-39694],[4882,-23578],[2293,-15142],[667,-4408],[44,-287],[1667,-11013],[549,-3623],[3977,-17567],[313,-1382],[453,-2001],[1546,-15222],[455,-4478],[4906,-23283],[189,-896],[6518,-41767],[796,-24150],[197,-1010],[4957,-25423],[3013,-9834],[582,-1898],[2099,-6853],[1747,-5698],[8406,-19341],[6129,-14100],[6218,-18282],[1077,-5007],[1471,-6843],[10712,-86650],[5923,-35710],[-2860,-221],[-16946,-63],[-27707,-79]],[[596723,554814],[3982,2633],[2235,2762],[50794,-834],[7286,-63],[-64,-1247],[1269,414],[6323,-88],[118,-80552],[13532,-754],[7013,539],[1112,17516],[-384,-75065],[20862,-190],[411,16212],[970,-15994],[6071,-723],[93,-1663],[-273,-33116],[702,-45987],[28764,-508],[82,11613],[18790,-190],[10786,0],[3589,-31],[-68,-11758],[3765,-584],[18539,284],[75,11310],[1623,-26]],[[541307,4009],[-181053,-152],[-12644,-173],[-102581,644],[-1159,281],[-8543,536],[-48901,-458],[-600,194639],[-973,71969],[-134786,-2772],[-9257,101],[-9046,-647],[-5796,767],[-10940,-312],[-369,71697],[-231,58326],[-201,51136],[-350,107872],[-1715,-338],[-9496,-152],[-1298,130062],[-1241,148622],[-127,1654],[22651,35],[73880,1247],[102486,2386],[5502,-88]],[[749090,627272],[322,-23389],[7357,-158],[-54,-5619],[7179,-189],[18,5650],[14964,-347],[7285,158],[0,11584],[3332,22]]],"bbox":[-80.881566,27.557248,-80.3215593,27.874051],"transform":{"scale":[5.600072600072624e-7,3.16803316803317e-7],"translate":[-80.881566,27.557248]}}
