{"type":"Topology","objects":{"foo":{"type":"GeometryCollection","geometries":[{"type":"MultiPolygon","arcs":[[[0,1,2,3],[4]]],"properties":{"postal_code":"86025","realtor_list_price":248250,"realtor_list_price_yoy":0.0374,"realtor_list_price_base":"NA","realtor_active_listings":14.333,"realtor_active_listings_yoy":0.4333,"realtor_active_listings_base":0.3406,"realtor_new_listings":2,"realtor_new_listings_yoy":-0.4,"realtor_new_listings_base":-0.1459,"realtor_days_on_market":63,"realtor_days_on_market_yoy":0.1014,"realtor_days_on_market_base":"NA","zhvi":201056.503,"zhvi_yoy":0.0609,"zhvi_base":0.591,"zori":"NA","zori_yoy":"NA","zori_base":"NA"}},{"type":"MultiPolygon","arcs":[[[5,6]]],"properties":{"postal_code":"85933","realtor_list_price":435332.051,"realtor_list_price_yoy":-0.0048,"realtor_list_price_base":0.7823,"realtor_active_listings":139.333,"realtor_active_listings_yoy":0.1909,"realtor_active_listings_base":0.0091,"realtor_new_listings":26,"realtor_new_listings_yoy":0.3,"realtor_new_listings_base":-0.2863,"realtor_days_on_market":83.59,"realtor_days_on_market_yoy":-0.0476,"realtor_days_on_market_base":0.0543,"zhvi":372661.682,"zhvi_yoy":-0.0025,"zhvi_base":0.8708,"zori":"NA","zori_yoy":"NA","zori_base":"NA"}},{"type":"MultiPolygon","arcs":[[[7,8,9,10]]],"properties":{"postal_code":"85902","realtor_list_price":"NA","realtor_list_price_yoy":"NA","realtor_list_price_base":"NA","realtor_active_listings":0.667,"realtor_active_listings_yoy":"NA","realtor_active_listings_base":"NA","realtor_new_listings":0,"realtor_new_listings_yoy":"NA","realtor_new_listings_base":"NA","realtor_days_on_market":"NA","realtor_days_on_market_yoy":"NA","realtor_days_on_market_base":"NA","zhvi":"NA","zhvi_yoy":"NA","zhvi_base":"NA","zori":"NA","zori_yoy":"NA","zori_base":"NA"}},{"type":"MultiPolygon","arcs":[[[11]],[[12,13,14,-10]]],"properties":{"postal_code":"85929","realtor_list_price":498683.621,"realtor_list_price_yoy":-0.1338,"realtor_list_price_base":0.712,"realtor_active_listings":103,"realtor_active_listings_yoy":-0.0096,"realtor_active_listings_base":0.0247,"realtor_new_listings":19.333,"realtor_new_listings_yoy":-0.3409,"realtor_new_listings_base":-0.1213,"realtor_days_on_market":87.621,"realtor_days_on_market_yoy":0.2732,"realtor_days_on_market_base":0.0626,"zhvi":417299.941,"zhvi_yoy":0.0094,"zhvi_base":0.8529,"zori":"NA","zori_yoy":"NA","zori_base":"NA"}},{"type":"MultiPolygon","arcs":[[[15,16,17,-6]]],"properties":{"postal_code":"85923","realtor_list_price":"NA","realtor_list_price_yoy":"NA","realtor_list_price_base":"NA","realtor_active_listings":4,"realtor_active_listings_yoy":0.2,"realtor_active_listings_base":0.3041,"realtor_new_listings":0,"realtor_new_listings_yoy":"NaN","realtor_new_listings_base":-1,"realtor_days_on_market":"NA","realtor_days_on_market_yoy":"NA","realtor_days_on_market_base":"NA","zhvi":"NA","zhvi_yoy":"NA","zhvi_base":"NA","zori":"NA","zori_yoy":"NA","zori_base":"NA"}},{"type":"MultiPolygon","arcs":[[[18,-14],[19]]],"properties":{"postal_code":"85935","realtor_list_price":588845.833,"realtor_list_price_yoy":-0.0992,"realtor_list_price_base":0.7452,"realtor_active_listings":143.667,"realtor_active_listings_yoy":0.1312,"realtor_active_listings_base":-0.2269,"realtor_new_listings":32,"realtor_new_listings_yoy":-0.0204,"realtor_new_listings_base":-0.0865,"realtor_days_on_market":78.979,"realtor_days_on_market_yoy":-0.1387,"realtor_days_on_market_base":-0.0792,"zhvi":541253.831,"zhvi_yoy":0.0023,"zhvi_base":0.9732,"zori":"NA","zori_yoy":"NA","zori_base":"NA"}},{"type":"MultiPolygon","arcs":[[[-3,20]]],"properties":{"postal_code":"85942","realtor_list_price":"NA","realtor_list_price_yoy":"NA","realtor_list_price_base":"NA","realtor_active_listings":2,"realtor_active_listings_yoy":-0.1429,"realtor_active_listings_base":0.575,"realtor_new_listings":0,"realtor_new_listings_yoy":"NaN","realtor_new_listings_base":"NA","realtor_days_on_market":"NA","realtor_days_on_market_yoy":"NA","realtor_days_on_market_base":"NA","zhvi":"NA","zhvi_yoy":"NA","zhvi_base":"NA","zori":"NA","zori_yoy":"NA","zori_base":"NA"}},{"type":"MultiPolygon","arcs":[[[-1,21]]],"properties":{"postal_code":"86032","realtor_list_price":"NA","realtor_list_price_yoy":"NA","realtor_list_price_base":"NA","realtor_active_listings":1.667,"realtor_active_listings_yoy":0.25,"realtor_active_listings_base":-0.356,"realtor_new_listings":0,"realtor_new_listings_yoy":"NaN","realtor_new_listings_base":"NA","realtor_days_on_market":"NA","realtor_days_on_market_yoy":"NA","realtor_days_on_market_base":"NA","zhvi":"NA","zhvi_yoy":"NA","zhvi_base":"NA","zori":"NA","zori_yoy":"NA","zori_base":"NA"}},{"type":"MultiPolygon","arcs":[[[22,-8,23,-17]]],"properties":{"postal_code":"85934","realtor_list_price":449291.667,"realtor_list_price_yoy":-0.0677,"realtor_list_price_base":"NA","realtor_active_listings":13.333,"realtor_active_listings_yoy":0.2903,"realtor_active_listings_base":0.1129,"realtor_new_listings":2,"realtor_new_listings_yoy":-0.4,"realtor_new_listings_base":0.3526,"realtor_days_on_market":86,"realtor_days_on_market_yoy":0.3565,"realtor_days_on_market_base":"NA","zhvi":"NA","zhvi_yoy":"NA","zhvi_base":"NA","zori":"NA","zori_yoy":"NA","zori_base":"NA"}},{"type":"MultiPolygon","arcs":[[[24]]],"properties":{"postal_code":"85939","realtor_list_price":408050,"realtor_list_price_yoy":0.0166,"realtor_list_price_base":0.6437,"realtor_active_listings":20.333,"realtor_active_listings_yoy":-0.1029,"realtor_active_listings_base":0.1599,"realtor_new_listings":6.667,"realtor_new_listings_yoy":0.4286,"realtor_new_listings_base":1.024,"realtor_days_on_market":64.4,"realtor_days_on_market_yoy":0.3298,"realtor_days_on_market_base":-0.2544,"zhvi":376666.17,"zhvi_yoy":0.0209,"zhvi_base":0.8576,"zori":"NA","zori_yoy":"NA","zori_base":"NA"}}]}},"arcs":[[[387441,728113],[64173,615],[3690,-1293],[211,19415],[10,479],[5346,-3051],[-772,959],[326,1673],[-169,1781],[-1563,3106],[-500,2693],[-12885,8515],[-3197,2322],[-3642,1277],[-6377,994],[-8728,1622],[-4787,951],[-3143,929],[379,401],[-3179,1166],[-143,1522],[11411,-3019],[3014,2051],[5779,1845],[1480,1088],[2805,3346],[9894,7853],[39748,27678],[13875,10553],[17109,13061],[1232,1627],[1284,306],[25854,19820],[320,81194],[57,12367]],[[546353,953959],[9699,-3],[144520,57],[29072,-2],[96500,-38],[4424,-123],[1487,97],[99725,-103],[67198,113],[599,-133],[422,1],[-2343,-105616],[-54,-13451],[-287,-19664],[728,0],[688,-22936],[234,-4616],[474,-11348],[-1932,-34878],[343,-70883],[-9313,-59],[478,-23748],[198,-9881],[961,-69108],[-9615,-1032],[-4020,-1658],[-3597,191],[-3691,-663],[-1239,1253],[-1832,-703],[-484,703],[-3284,1177],[567,583],[-495,2038],[933,319],[-2452,1173],[-1454,1419],[1841,1072],[-1842,954],[-3387,451],[-1705,655],[-3498,-1532],[-1433,507],[147,1931],[-567,1927],[-1391,574],[-86,-1022],[-2757,-134],[-1025,2878],[-907,573],[-1316,-1344],[-273,-1353],[-1646,570],[-212,865],[-2256,323],[-2630,1183],[-364,1071],[1850,726],[-746,1124],[-2436,-757],[1171,-887],[-2426,72],[246,547],[-2791,888],[-3293,117],[-2478,-707],[289,1375],[-3743,459],[-3907,1104],[-1047,1138],[-5173,-30],[-1600,-2149],[-942,-94],[-1052,1246],[-1282,-838],[-2240,453],[-1316,1246],[-3437,220],[-4880,-45],[-127,-752],[-3191,493],[-3157,-1407],[-3360,359],[220,-754],[-6433,-282],[119,-1017],[-5092,-856],[-1494,355],[-3207,2235],[-1927,954],[560,-1496],[-3760,-300],[-2163,-834],[-2715,-434],[-2708,1084],[-7452,765],[-4404,143],[-2072,935],[4372,-31],[219,445],[-4769,1316],[-3269,595],[-1365,-1179],[-2342,-569],[941,2035],[3504,1035],[-4506,-37],[-1223,614],[2851,978],[-3200,1401],[-1392,-175],[-951,1196],[2104,-259],[467,757],[-2895,143],[746,1160],[-824,991],[-1671,-709],[-2878,-435],[262,1617],[-911,2944],[-1374,-422],[-2446,1483],[85,529],[-4772,913],[-2953,-338],[338,1058],[-3098,53],[-1681,-1219],[-1519,13],[-434,1098],[1442,645],[-2835,824],[-2504,-1331],[-4195,1614],[-2123,-267],[-934,-815],[-2681,923],[-6357,-382],[-2876,-683],[-2808,-4429],[-6689,-1317],[-7182,573],[-5514,82],[-5310,2117],[-2459,301]],[[752999,601841],[-767,837],[-1245,833],[2751,4219],[38,926],[3396,4381],[1589,2179],[-1234,4221],[-4035,5834],[4183,30],[5281,32],[2062,-1473],[3603,59],[2169,1458],[16812,93],[2,5973],[-5733,-285],[-5139,-553],[-4227,309],[-4509,-126],[-4245,3959],[2938,1361],[1558,1493],[320,1307],[1522,1269],[5275,989],[3045,989],[3576,1754],[2902,764],[426,1120],[2124,242],[-139,2446],[-1839,787],[2018,715],[145,5296],[-11537,-20],[14,-2782],[-1709,-209],[-11789,-2],[-4497,159],[-1779,-400],[-1148,-1201],[-367,-1056],[-4324,-1524],[-2523,-1490],[153,-9117],[79,-2227],[-4124,-131],[85,2192],[-4743,-125],[-6114,1700]],[[733299,639046],[-4909,1349],[-2519,504],[-7523,1269],[-15564,839],[-22597,469],[-1593,152],[-10746,2499],[-4825,1126],[-12342,1246],[-20648,1683],[-1790,-126],[-16220,38811],[-1295,4737],[-889,1319],[-1229,1344],[-8778,7338],[-2702,2647],[-1247,1498],[-1842,-524],[-1267,-1005],[-62694,-55415],[-1067,-844],[-1615,-1050],[-6868,-3662],[-23962,-12763],[-1402,-894],[-2026,-1596],[-13549,-12703],[1641,-1901],[8070,-6262],[4501,-38119],[439,-4030],[102,-7453],[-2452,-7749],[-1127,-1479],[-2427,-1650],[-2268,-4065],[1782,-3179],[-584,-5402],[-2217,-5481],[-262,-2042],[-3426,-3972],[-3049,-1483],[-9605,-7184],[-5683,-5564],[-2556,-4681],[102,-2135],[-525,-2634],[-4424,-2435],[-3392,-9362],[-305,-608],[7119,-4709],[1276,-2442],[-96,-1641],[2253,-1573],[253,-765],[-575,-6770],[5328,-786],[4936,-1434],[871,-4920],[2063,-830],[3333,-2153],[672,-1645],[449,-4728],[1855,-1625],[-704,-1420],[2580,-878],[1910,-1570],[2118,-616],[2470,58],[1872,-821],[5364,-1119],[1237,-784],[2752,-410],[4694,95],[7730,-3434],[-3598,-1308],[-1305,-1027],[-4479,-2372],[-2750,-3137],[-987,-1923],[-3524,-2951],[-4410,-356],[356,-2725],[1729,-1475],[-935,-1592],[-9003,-713],[-859,-1189],[-1450,-232],[728,-982],[-681,-2299],[701,-12175],[-12673,741],[-6414,-663],[-3454,189],[-9859,1195],[-7610,73],[-15067,620],[-18134,-226],[-5609,361],[-54,1604],[-3953,2385],[-8023,2407],[-3838,1981],[-450,1061],[-2342,1898],[669,2670],[-954,3491],[0,2633],[-6668,-76],[-5080,1512],[-3177,1792],[-3176,3173],[-1272,2333],[70,2633],[-3002,4257],[-249,2277],[-1271,1755],[138,5377],[-777,392],[-4506,-31],[-3901,-498],[-4257,417],[-8938,-249],[-13757,325],[-1398,1003],[-2593,-373],[489,1492],[-1702,3146],[-2060,5746],[1700,2793],[-1106,1553],[1088,2537],[-2767,-135],[170,26404],[1057,980],[-833,539],[364,260],[11422,8380],[6673,4842],[-4535,275],[-3289,1749],[-3522,5695],[1170,1631],[4663,4193],[1271,618],[6731,2087],[4766,1964],[14908,7254],[-7606,31614],[6580,17599],[10850,28395],[4092,-495],[70,2464],[-2088,1157],[-250,960],[2645,2915],[2815,2437],[1517,2620],[4694,5544],[799,2457],[2423,2314],[1116,2602],[481,5593],[1390,4224],[-254,2188],[-1390,1623],[-5803,4583],[-3415,2046],[-2033,1614],[-3585,1703],[-5653,5284],[667,2985],[-1012,3901],[-1144,289],[1841,2880],[799,2448],[6088,7890],[2488,2804],[1133,2548],[2498,4125],[4861,9770],[2997,5266],[532,14276]],[[682710,749088],[1913,-3025],[47839,13774],[569,448],[17285,4778],[4507,928],[34368,9665],[2059,520],[2804,537],[4858,516],[9027,-205],[403,1290],[826,856],[1224,978],[4042,1544],[3556,971],[1549,-201],[6238,1520],[3359,3132],[3720,767],[3224,1371],[6614,839],[3789,-654],[3430,68],[5923,1819],[-69,909],[3798,907],[2179,2083],[3269,874],[2988,-2110],[434,-4302],[686,-1412],[18613,1036],[1888,1469],[19153,1057],[9416,105],[1409,980],[3270,-613],[2232,139],[2050,-514],[2177,134],[59,22893],[-18154,-1339],[-37630,-4120],[-30739,-1926],[-6265,-189],[-8215,74],[-812,285],[-11537,310],[-4773,-20],[-7686,-378],[-20515,-2211],[45,6970],[-33674,-37],[-80,-5888],[-23800,-1689],[-13273,-867],[-4176,-572],[-1251,-339],[-16231,-7543],[-3176,-382],[1584,-1607],[209,-229],[5088,-4950],[-215,-1097],[-3482,-3642],[600,-2347],[1898,-2496],[-1096,-1944],[-2588,-1085],[1252,-429],[962,-1497],[-1769,-1792],[-85,-269],[-162,-18],[-51,-49],[9,-143],[42,-54],[68,-27],[221,-9],[93,4],[-616,-178],[-1050,-1421],[341,-2294],[-2934,-1623],[-162,-1151],[2273,-1617],[111,-1098],[-1981,-2065],[1991,-847],[136,-846],[-2159,-3971],[-152,-1415],[-1574,18],[-978,-2182],[-560,-1640]],[[300553,315743],[2298,-517],[1137,-968],[-1375,-837],[61,-3058],[3053,-3561],[64,-3281],[1374,-1361],[7,-2462],[1918,-59],[487,-3612],[1773,-3648],[-5186,-1167],[-3006,479],[-6301,-2806],[-8159,-5038],[-2870,-1020],[-2445,-1886],[-1799,-721],[-693,-2769],[-1202,-1058],[5798,-985],[3243,475],[-945,-197],[-330,-1814],[-1349,-1741],[-3416,-2060],[-570,-2365],[-1603,-1040],[-370,-1505],[-2070,-3152],[-4489,-2967],[-786,-1441],[-3706,-22],[-2612,1158],[162,-1614],[1362,-1905],[-1630,-1519],[-1274,-2309],[-2103,-1489],[-4918,252],[39,-884]],[[258122,249269],[-4376,-218],[-3610,1238],[-260,-1364],[-2429,-223],[2,-1229],[-4792,-2659],[-4657,-272],[-8994,1605],[-3712,1264],[-6869,1487],[-1080,-2007],[-10065,-378],[-4039,803],[-3401,-23],[-6535,-2480],[-16553,864],[-3834,-493],[-6259,614],[-5889,-102],[-11181,1524],[-2323,-290],[-6599,-2107],[-2543,-1844],[-3919,-867],[-1067,-924],[-895,-2471],[-3816,-2047],[-9311,-4517],[-8197,-1929],[-421,-1834],[289,-2251],[930,-1682],[2510,-873],[-1745,-1108],[-3669,-1366],[-3790,-268],[-3254,303],[-6366,1756],[-10411,4590],[-5965,1753],[-4520,-5253],[-3224,-411],[-6882,1898],[-6813,4064],[-2389,4710],[-16480,3133],[-5337,-1709],[-12744,-1592],[-6904,-462],[-11602,934],[-1747,335],[-385,1019],[1559,1197],[8,1073],[-1373,2227],[6670,-708],[3168,324],[6983,3766],[4063,800],[2679,1041],[1968,-55],[7277,-2670],[187,966],[-1769,2561],[772,2167],[4539,971],[2393,1792],[383,1999],[1512,1531],[1020,2204],[2111,2147],[-8800,1343],[-4153,92],[3730,1943],[1723,1700],[4433,2838],[4575,1438],[7814,319],[2182,1044],[2003,1997],[4540,2834],[-621,4956],[-1275,1758],[204,1187],[1503,1332],[-1349,2229],[-4232,4054],[-2384,3439],[-524,3251],[551,2578],[-695,2753],[-3904,-1926],[-2849,309],[-3410,-1292],[-3345,399],[779,2437],[148,6283],[1305,1727],[-33,1608],[1660,2928],[-2966,1759],[-624,1263],[-3025,1721],[5291,4541],[1966,2637],[464,2080],[783,-27],[4252,69],[-78,-1017],[1149,-318],[281,-21],[54,953],[647,16],[716,-185],[-11,959],[-1818,697],[-62,1256],[-5047,49],[-2861,-23],[-5782,7893],[356,355],[-529,3512],[737,794],[1127,-8],[251,122],[23,1047],[777,761],[-77,909],[-718,-102],[-642,540],[1859,360],[-923,2779],[1994,1207],[884,16],[1832,155],[1566,313],[-923,1090],[1892,725],[-17,1438],[826,10],[249,-2200],[1227,-250],[1440,-598],[1096,-57],[354,764],[2143,-854],[13385,-1875],[3452,549],[6345,-5],[-582,1784],[3842,1797],[2320,3384],[2291,1743],[2995,1238],[2076,361],[3827,1990],[2804,3723],[5419,3747],[2879,873],[3841,2443],[4582,4603],[-35,661],[4934,3751],[8131,602],[3321,1241],[13792,2285],[-94,-6221],[2304,-852],[4577,-3969],[2262,-820],[5933,491],[3979,-166],[-2292,-394],[-742,-2037],[1006,-2637],[598,-3715],[4555,-2208],[2572,-955],[691,-2638],[-214,-1061],[-2681,-2085],[-1501,-2026],[-3895,-1959],[-1373,-1980],[-2119,-958],[-3234,-3054],[-336,-1599],[-1640,-1164],[-3717,-315],[-3475,-2481],[-2110,-437],[-3720,-1900],[10188,-1493],[-5359,-1698],[176,-878],[2229,-1399],[512,-2502],[-2762,-36],[-1025,-821],[-151,-3340],[-1421,-2295],[1273,-4696],[4195,-542],[6629,-1577],[16877,-5434],[7356,-1658],[6617,-642],[9056,-357],[5808,-890],[1965,1088],[2172,376],[4653,2101],[6851,5390],[2323,2735],[131,869],[7688,5255],[4843,1329],[4091,3377],[1138,171],[4657,-395],[4730,1146],[6210,5],[3463,-1126],[5575,-3092],[1669,-1266],[9426,-145],[5047,776],[1021,234],[3436,2479],[1727,513],[2059,-2464],[2927,-378],[1058,-1595],[1232,-4940],[1986,-4468],[8477,-1676],[988,16]],[[418497,184161],[3780,-2703],[4448,-1793],[6064,-1337],[4565,-645],[13351,-960],[6584,178],[9007,-202],[1418,588],[12492,1486],[10925,-132],[3651,366],[7297,2879],[3184,2104],[366,4009],[3806,3444],[7104,4446],[3901,1931],[3344,892],[5277,127],[5803,367],[4863,1340],[1598,1190],[102,2796]],[[541427,204532],[1741,-96],[1629,-1205],[3364,95],[3557,-1474],[2358,-469],[695,-3442],[1991,-414],[-466,-1286],[4008,-1837],[6337,-466],[1770,308],[2697,-996],[2647,269],[878,1252],[7408,111],[4251,-1909],[5863,-1916],[-470,-2079],[-1069,-2658],[1554,-1146],[4611,-966],[1154,-3314],[2718,-502],[3732,309],[4230,-164],[4332,-1195],[8705,-3399],[1359,367],[1226,-1554],[2037,-713],[13291,-389],[3124,-574],[5922,1114],[2314,-485],[1459,-2945],[2333,-2205],[3343,-948],[3600,-3112],[2457,489],[3258,-97],[1562,375],[2488,2411],[7046,1232],[6316,2529],[2981,1722],[1118,-87],[293,-1503],[4421,-2418],[2865,-2622],[2148,-1321],[3624,-3916],[-1370,-2977],[1860,-637],[1471,-1846],[2729,-19],[4665,1442],[1481,728],[1109,1023],[9140,622],[3678,2592],[3722,1325],[3057,256],[4994,957],[4997,1921],[2306,-294],[1229,-1029],[244,-1582],[315,-406],[-309,-1295],[20,-555],[1778,-749]],[[749353,160770],[2228,140],[5859,-3214],[-739,-394],[107,-1001],[-366,-1182],[2909,-1443],[349,-954],[1636,-913],[858,299],[175,500],[5844,-2325],[-102,-711],[564,-890],[2911,-1130],[3980,-3014],[2845,-1333],[1092,-957],[-2122,-1946],[-535,-2131],[-246,-1534],[2794,-1327],[4643,-1166],[1969,288],[239,-3239],[-4443,-1208],[-418,-748],[568,-799],[-709,-1381],[2474,-1308],[2378,-2177],[-1979,-1331],[-369,-1433],[1384,-1244],[3858,63],[2019,-571],[6149,-3388],[4974,1249],[3255,56],[7435,-1207],[6588,-1943],[3024,-166],[-1716,-2072],[-3348,-1388],[-4079,88],[-5591,-1202],[-1274,69],[-4434,-2648],[-3625,-319],[-498,-890],[-4618,-3762],[-3366,-422],[-2389,-2252],[-3361,-2224],[1244,-964],[-470,-2086],[415,-1120],[-1988,-2755],[-4754,-2291],[-1007,-1201],[-123,-2685],[508,-1536],[3211,-2025],[292,-1065],[2370,-1747],[-641,-1295],[223,-698],[1665,-992],[955,-377],[3400,-682],[1360,48],[3377,736],[-177,-956]],[[793994,72944],[-1095,-1703],[-657,-2464],[-1341,-1169],[-1387,-463],[163,1594],[-2729,-53],[-981,-2528],[-3675,-1837],[-2481,-58],[-1632,-926],[-2041,-65],[-515,-1104],[-2574,-1247],[-1139,-3608],[-3,-1193],[1337,-1397],[-803,-2170],[1007,-3111],[-646,-1174],[-4600,-3044],[-3968,-1410],[-1190,-163],[-2224,-1278],[-5319,-1905],[-7746,-313],[-1759,-963],[-5085,-958],[-6484,-1832],[-960,-843],[-4479,-2289],[-6323,-3706],[-5058,-4145],[-5447,-1416],[-740,-628],[-1103,-1649],[-774,-2553],[1903,-5866],[-656,-1953],[1591,-2268],[455,-3419],[-514,-1703],[-1606,-1748],[-2262,-315],[848,-1901],[-231423,1],[-30893,3],[-13415,-2],[-626,1502],[-3205,2017],[-203,2150],[-3874,2328],[-1357,1644],[-1945,1310],[-1193,2139],[-2570,2322],[468,2820],[5300,3217],[476,1965],[2590,1501],[22,1353],[1196,1102],[1168,3345],[1749,1500],[2155,2866],[986,683],[3568,6172],[3640,4916],[1867,4494],[354,1691],[17,3571],[-1547,1578],[2293,2939],[2165,1430],[954,1216],[921,2883],[-464,2659],[509,996],[-765,3933],[562,1951],[-2380,3655],[1319,1255],[-1088,2157],[-2654,2372],[907,769],[-619,1713],[726,1439],[97,3960],[-209,4426],[664,2434],[-1707,3290],[1139,1843],[-2257,1453],[-1184,1551],[-2421,4558],[282,2127],[-1827,775],[-106,1716],[-780,1156],[-1770,1009],[-587,1145],[-2555,1863],[-384,2373],[-1647,2532],[-3629,3729],[325,1068],[-2598,942],[-3574,3567],[-3169,1843],[-2055,255],[-1935,525],[1939,219],[-466,1012],[-3894,1461],[-1795,-213],[-7202,1039],[-1820,1559],[-3097,1008],[-1671,2536],[-1719,600],[-534,1106],[-4026,1670],[2530,1425],[-1551,916],[-2173,-205],[-1865,1159],[428,3138],[-528,2221],[-984,1774],[808,785],[2531,-37],[3515,1288],[5362,3629],[1041,1907],[3083,520],[2147,1323],[1299,2432],[1874,1225],[2628,679],[684,658],[-283,1640],[2367,1715],[785,2132],[1118,712],[4860,1433]],[[757184,162671],[830,342],[1848,-213],[-1189,-270],[107,-638],[-1367,-25],[-229,804]],[[749353,160770],[3242,287],[1334,-702],[5840,1162],[1079,1288],[432,3132],[2218,-4],[4891,12],[16,-4461],[1158,-25],[1616,3],[1,-85],[2836,-17],[121,-2795],[5218,-32],[11380,-69],[9,767],[834,-286],[9478,-4394],[402,-525],[-2791,-4266],[-953,-1755],[1045,-1128],[1753,-1275],[4593,-1321],[2352,934],[7448,1104],[2249,-747],[-491,-1382],[1475,486],[3830,38],[3513,-428],[317,-691],[-2459,74],[-1440,-766],[598,-1027],[-2247,-1886],[4532,-465],[1651,896],[1967,-989],[3161,447],[3472,-454],[114,1606],[-5958,181],[551,4500],[-341,1723],[5958,542],[14,2622],[-1796,2924],[-2240,1338],[-2259,793],[-14468,3374],[-2852,863],[-3813,1878],[15856,-38],[2299,38],[9399,50],[26800,129],[4862,34],[3293,4],[-382,9983],[-374,13413],[27463,25],[95131,85],[-33,-3755]],[[992257,181737],[-2466,-99],[-9425,-3870],[-7247,-2499],[-10850,-2835],[-9231,-1872],[-8877,-647],[-11272,-2489],[408,-3396],[5088,-1116],[-1692,-1939],[-528,-1942],[-2215,-1642],[-459,-2446],[481,-722],[-979,-2819],[676,-3416],[-979,-1644],[-2350,-1625],[778,-2110],[5133,-2315],[-524,-584],[-2458,1121],[-5270,318],[-4285,1401],[-1262,2764],[1054,1082],[-352,1867],[-3442,1252],[-1405,1494],[-3934,262],[-2566,-1363],[-2424,-261],[-4145,617],[-1511,1232],[-1757,-149],[-3935,934],[-1475,859],[-6080,-3920],[-2109,-225],[-2951,-1642],[-5083,623],[1867,723],[-1821,5558],[-5038,-2372],[-2186,-589],[-2535,-384],[-4334,113],[-4786,902],[-9672,-2095],[-4611,-608],[4016,-778],[3584,1588],[4429,841],[1997,-965],[-4568,262],[-1651,-281],[-1335,-1325],[843,-1382],[-2810,-2465],[-911,-2576],[-1447,-298],[86,-1690],[3413,-896],[3089,-1529],[-353,-2385],[1314,-122],[126,-5659],[356,1],[-407,-6538],[434,-2812],[5793,6],[103,-5877],[5439,10],[-4462,-3320],[-1410,-6],[-2582,2455],[-1174,890],[-11152,-292],[3723,-1568],[564,-2670],[2564,-1604],[281,-1755],[1616,-1568],[2528,-860],[4425,-783],[1917,-1283],[-1400,-2033],[-3192,-285],[-3981,524],[-964,2399],[-3702,-55],[452,-258],[-589,-1822],[-3536,537],[-607,-1490],[-2398,-33],[-212,-3566],[-5384,-280],[-8,-2720],[1378,14],[5395,-1608],[-4413,-2312],[-3608,361],[2839,-3978],[5747,-4756],[1648,-391],[2417,-1809],[3541,-297],[3119,206],[1577,-446],[1049,-1548],[5190,-1603],[4485,-2275],[770,-802],[-1295,-803],[-4053,-1348]],[[865864,69513],[-780,410],[-973,211],[-5935,211],[-3923,-960],[-3321,-517],[-9939,460],[-6313,61],[-2622,-690],[-1868,-6],[-6319,2394],[-5428,367],[-7273,-1416],[-2953,705],[-7199,3059],[-3483,-882],[-3541,24]],[[300553,315743],[23733,24],[99718,67],[16469,18],[50316,56]],[[490789,315908],[-1176,-1444],[1268,-411],[-3485,-1644],[-1689,-1195],[-4859,-2186],[-2283,-3372],[-4298,-2286],[-4157,-1810],[-8382,-1659],[-4835,349],[-3790,-777],[-4238,-1624],[-1625,-1109],[-2781,-869],[-1454,-903],[-313,-1879],[-1165,-1390],[-1597,-306],[-6925,427],[705,-361],[572,-10103],[819,-1394],[-162,-482],[6643,-1587],[9093,-3252],[-140,-267],[351,-237],[-1327,-844],[-5002,-1542],[-7962,-3387],[-745,-760],[-1986,-4690],[-1112,-735],[-819,-1525],[-4419,-5108],[-1090,-2828],[-2332,-2930],[-2166,-1987],[-3071,-2098],[-752,-1274],[-2412,-1915],[2835,-3058],[-1008,-1912],[473,-693],[-2531,-1255],[-404,-1269],[-2651,-2984],[-504,-2440],[1464,-1876],[-1208,-1809],[138,-1651],[-1594,-883],[1275,-313],[-1489,-2862],[-1618,-1745],[153,-851],[3333,-2166],[514,-1195],[-898,-4267],[73,-1990],[966,-2389],[-307,-2536],[-2251,-2576],[-800,-3064],[-1108,-1505],[-81,-3227],[-1547,368],[-3814,-365],[-2645,324],[-3233,1711],[-919,-19]],[[396305,194017],[-4883,1133],[-2990,-168],[-4381,-2856],[-11943,-1895],[-2713,492],[-3182,1330],[-5997,1775],[-4407,1578],[-5318,5669],[-1315,2696],[-2130,1466],[-3281,1267],[-7059,1769],[-7865,1037],[-4585,2650],[-1157,999],[3318,3578],[-1788,1641],[-628,2912],[1072,922],[919,403],[551,2181],[-608,68],[-1883,921],[-1433,2153],[-2863,642],[-1120,-530],[-5533,954],[-345,1166],[-3485,847],[-3083,-885],[-2626,52],[-5038,1604],[15,2712],[-1917,781],[-9705,-259],[-3078,276],[-2777,1421],[-173,2106],[-1552,-681],[-6500,1578],[-5055,-169],[-37,439],[273,698],[-507,1393],[-2027,606],[-5867,6588],[-1497,192]],[[992257,181737],[-237,-28914],[-285,-39837],[18,-10385],[-1226,-82],[-11215,-45],[-22,-8817],[-10,-4218],[-1,-709],[-4058,-596],[-4033,110],[-5788,-1178],[-6320,-1962],[-3913,-298],[-6763,140],[-1682,-616],[-3192,-2703],[-3659,-853],[-5999,-774],[-1790,69],[-10163,3210],[-2833,-173],[-4028,153],[1733,-5228],[815,-2439],[125,-2599],[426,-3886],[3128,-3528],[-1032,-964],[-1727,-3368],[-1817,296],[-1904,-3343],[253,-1268],[620,-243],[-1751,-2508],[-8744,-4462],[-425,-895],[922,-2016],[-2796,-5047],[-259,-2397],[-2978,-2388],[-2603,1085],[-1485,1677],[-2236,1111],[-2189,1883],[-439,2790],[-1292,2637],[-2012,1831],[-1351,2349],[-311,2806],[-977,1898],[-283,1950],[-4448,3608],[-632,3246],[-2531,979],[-2389,296],[-3234,1317],[-3826,216],[-1545,858]],[[917031,65574],[1104,131],[-37,-614],[1369,-204],[360,1361],[-2239,3],[-557,-677]],[[752999,601841],[-3049,-665],[-269,853],[-3060,1302],[-2248,1451],[-2959,120],[726,2127],[204,2936],[-2814,963],[-5831,3241],[-1575,1673],[-3727,1203],[-2176,1467],[16,5372],[-487,743],[59,5382],[1688,6054],[576,393],[5226,2590]],[[387441,728113],[-68347,-863],[-7777,-487],[-11805,1078],[-5844,1132],[-26390,10573],[-1005,195],[-16655,85],[-2898,-3827],[-2495,-2292],[-10409,-13059],[-3612,-3856],[-14075,-4007],[-1710,-372],[-985,1438],[918,990],[-3741,2025],[-10303,-3],[-2608,-1097],[-3634,-195],[-2944,-783],[-992,393],[-5835,-1585],[-327,-764],[1076,-1545],[-671,-612],[-3237,519],[-1553,-182],[34,28984],[152,23705],[690,17167],[2193,1043],[5405,1337],[3188,53],[56,-873],[7254,-480],[4330,-669],[6087,1008],[2792,-159],[8475,385],[5698,-253],[277,8728],[11309,-280],[8070,-492],[7864,-704],[65388,-6648],[1826,170841],[4926,322],[5182,66],[88,18272],[-1029,-4],[135,20159],[3855,-837],[2033,1468],[4287,-619],[2126,-592],[840,-853],[4376,270],[2418,1428],[5505,-789],[5944,-475],[4470,180],[4227,-1872],[949,130],[1504,-1318],[1883,-145],[4899,2703],[2623,877],[6129,894],[2092,-160],[2789,1174],[1520,1297],[1261,-482],[-500,2351],[3946,1819],[3309,-938],[4333,-340],[3306,-907],[4698,-3226],[3382,-3231],[3819,-2281],[2868,-626],[7774,-1190],[149,1023],[-1932,1338],[-2020,401],[-2292,1067],[-4060,4370],[-1254,5106],[2073,-129],[2054,593],[3087,-893],[2227,480],[4197,-992],[5449,424],[3071,-188],[1727,-2727],[2122,-2278],[484,-1337],[1507,-519],[564,-1818],[2795,-2491],[2708,-532],[-3038,-4143],[-56,-1755],[-827,-1379],[-1696,-1142],[-1797,-1964],[-318,-1118],[-101,-17111],[-671,-2511],[513,-1811],[345,-1],[85720,-228],[12985,-6]],[[490789,315908],[44676,51],[31831,-13432],[5756,-2387],[-1760,-1731],[-3336,-1613],[-3659,-2654],[-3984,-1736],[2541,-1348],[1197,-2273],[2461,-1512],[376,-3418],[2521,-863],[7477,-1249],[1289,-2429],[-1429,-3178],[-4739,-1684],[-3006,569],[-3239,-1213],[-1831,-1587],[-1127,168],[-2218,-1606],[-2253,-280],[3273,-1130],[6409,-1212],[359,-3883],[-327,-7644],[-997,-316],[-244,-1860],[-1478,-3366],[-1514,-1785],[-4140,-2341],[-1378,-2009],[-2392,-1376],[-2311,472],[-2920,1389],[-2525,545],[-3801,-732],[-4147,977],[-9915,1016],[2776,-2527],[1133,-3845],[604,-3757],[3167,-1959],[-3095,-1532],[1407,-1475],[-567,-1719],[-2184,-2543],[-1334,-491],[2089,-1751],[10,-978],[1535,-1204],[1004,-608],[2493,-3913],[2370,-1668],[504,-1650],[-4357,-2903],[-738,-3200],[473,-1348],[1661,-430],[2191,-3215]],[[418497,184161],[-4713,3889],[-2351,2780],[-4631,1102],[-4509,3],[-2172,166],[-3816,1916]],[[552336,363614],[1939,1363],[1622,92],[811,1849],[1621,1736],[-529,2390],[493,1008],[-599,1979],[-1336,-574],[-3699,1584],[14973,97],[6498,612],[1172,964],[90,5795],[11304,66],[103,4769],[1118,-2752],[3030,1787],[3983,759],[3559,1428],[3765,4210],[2357,1454],[2741,-18],[24434,242],[11898,125],[2164,-9],[31262,154],[-8,-1439],[-18,-1264],[1985,-7],[13354,-142],[-539,-1256],[-1484,-2126],[-1309,-1288],[-4887,-4541],[-749,-1397],[1999,17],[43,-2234],[-2037,-1],[-2096,-1],[50,-1111],[151,-178],[-331,-646],[36,-299],[2251,44],[83,-2339],[-145,-2555],[-985,-3303],[1659,-4598],[1164,-1329],[7289,-3820],[3004,34],[-353,504],[2149,1494],[4336,2222],[-2432,1195],[-741,1885],[-2398,878],[-2079,-599],[-1234,785],[-3525,727],[-4196,1587],[-599,1064],[1268,2296],[-530,1401],[1334,2486],[708,1045],[1203,1155],[-842,-9],[-65,2240],[2542,23],[5084,1762],[1623,2398],[-808,2121],[4444,1613],[1332,2619],[4927,-35],[3905,29],[276,-1987],[5007,-167],[2852,-485],[3449,-97],[5949,-27],[5087,-608],[1054,-1623],[9003,1041],[10543,-426],[-6071,-3459],[406,-1057],[5377,-1109],[3234,-1694],[6174,-1918],[3799,-2027],[1582,-151],[6436,-1694],[2108,815],[7754,-4767],[42,-1794],[6596,-664],[9,-3617],[22002,-16],[35,-2377],[6750,-1362],[3239,-336],[-14037,-2997],[-1381,-110],[25,-4644],[9887,-129],[9870,72],[2911,-3271],[-152,-1983],[-4261,-6430],[-18420,-232],[-39,-5676],[-11074,85],[-311,-8761],[5881,-205],[-81,-2944],[-5562,-13],[2,-2998],[-4644,-41],[1556,-947],[2689,-2320],[589,-521],[-10721,-11],[-1265,591],[-13230,8639],[-1673,-47],[-8689,1110],[-2341,-76],[-14268,-2057],[-427,844],[825,240],[6,2281],[-2469,487],[-4833,-27],[-1409,-378],[-735,397],[-3588,930],[-7591,2840],[-4326,1547],[-1651,-728],[-791,-2109],[-2673,-691],[-4645,1131],[203,1654],[-1347,1732],[1653,1665],[-267,1303],[-1762,1406],[1613,1573],[-418,1730],[2787,659],[1357,885],[96,1159],[-4756,2275],[-1458,-247],[-3439,252],[1163,-1097],[-4928,-1],[2,-5786],[-5909,0],[20,-2976],[3114,-3130],[4114,-3340],[5236,-3527],[2981,-1453],[5535,-4038],[602,-737],[1128,-2354],[431,-674],[1759,-1790],[-2820,0],[-6039,3],[-113,-4861],[-23499,40],[-22023,38],[482,11786],[-22508,112],[-31,10342],[-1257,222],[-7787,51],[862,1368],[-14695,35],[-22608,50],[93,11808],[-21909,91],[-33,3915],[-21980,130],[-681,9934],[-1656,560],[739,1774]]],"bbox":[-110.627349,34.000046,-109.842938,35.226888],"transform":{"scale":[7.844117844117759e-7,0.0000012268432268432318],"translate":[-110.627349,34.000046]}}
