{"type":"Topology","objects":{"foo":{"type":"GeometryCollection","geometries":[{"type":"MultiPolygon","arcs":[[[0,1,2,3,4]]],"properties":{"postal_code":"68785","realtor_list_price":"NA","realtor_list_price_yoy":"NA","realtor_list_price_base":"NA","realtor_active_listings":1.667,"realtor_active_listings_yoy":0.6667,"realtor_active_listings_base":"NA","realtor_new_listings":0,"realtor_new_listings_yoy":"NaN","realtor_new_listings_base":"NA","realtor_days_on_market":"NA","realtor_days_on_market_yoy":"NA","realtor_days_on_market_base":"NA","zhvi":"NA","zhvi_yoy":"NA","zhvi_base":"NA","zori":"NA","zori_yoy":"NA","zori_base":"NA"}},{"type":"MultiPolygon","arcs":[[[5,6,7]]],"properties":{"postal_code":"57025","realtor_list_price":392410,"realtor_list_price_yoy":0.1738,"realtor_list_price_base":1.0782,"realtor_active_listings":9.333,"realtor_active_listings_yoy":0.1667,"realtor_active_listings_base":0.3099,"realtor_new_listings":3.333,"realtor_new_listings_yoy":0.25,"realtor_new_listings_base":-0.3012,"realtor_days_on_market":66.6,"realtor_days_on_market_yoy":0.1483,"realtor_days_on_market_base":0.7447,"zhvi":297644.158,"zhvi_yoy":0.0391,"zhvi_base":0.5766,"zori":"NA","zori_yoy":"NA","zori_base":"NA"}},{"type":"MultiPolygon","arcs":[[[8,9,10,11,12]]],"properties":{"postal_code":"51030","realtor_list_price":"NA","realtor_list_price_yoy":"NA","realtor_list_price_base":"NA","realtor_active_listings":1,"realtor_active_listings_yoy":-0.4,"realtor_active_listings_base":-0.7687,"realtor_new_listings":0,"realtor_new_listings_yoy":"NaN","realtor_new_listings_base":-1,"realtor_days_on_market":"NA","realtor_days_on_market_yoy":"NA","realtor_days_on_market_base":"NA","zhvi":345392.682,"zhvi_yoy":0.0357,"zhvi_base":0.6029,"zori":"NA","zori_yoy":"NA","zori_base":"NA"}},{"type":"MultiPolygon","arcs":[[[13,14,15]]],"properties":{"postal_code":"51101","realtor_list_price":"NA","realtor_list_price_yoy":"NA","realtor_list_price_base":"NA","realtor_active_listings":3,"realtor_active_listings_yoy":2,"realtor_active_listings_base":-0.7194,"realtor_new_listings":0,"realtor_new_listings_yoy":-1,"realtor_new_listings_base":-1,"realtor_days_on_market":"NA","realtor_days_on_market_yoy":"NA","realtor_days_on_market_base":"NA","zhvi":180366.731,"zhvi_yoy":-0.0808,"zhvi_base":0.0813,"zori":"NA","zori_yoy":"NA","zori_base":"NA"}},{"type":"MultiPolygon","arcs":[[[16,17,-14,18,19]]],"properties":{"postal_code":"51105","realtor_list_price":151316.667,"realtor_list_price_yoy":-0.0528,"realtor_list_price_base":"NA","realtor_active_listings":12,"realtor_active_listings_yoy":0.2,"realtor_active_listings_base":0.3595,"realtor_new_listings":4,"realtor_new_listings_yoy":-0.1429,"realtor_new_listings_base":-0.4881,"realtor_days_on_market":44.833,"realtor_days_on_market_yoy":0.1012,"realtor_days_on_market_base":"NA","zhvi":136332.978,"zhvi_yoy":0.0064,"zhvi_base":0.7451,"zori":"NA","zori_yoy":"NA","zori_base":"NA"}},{"type":"MultiPolygon","arcs":[[[20,21,22,23,24]]],"properties":{"postal_code":"51016","realtor_list_price":125000,"realtor_list_price_yoy":-0.067,"realtor_list_price_base":"NA","realtor_active_listings":5,"realtor_active_listings_yoy":0,"realtor_active_listings_base":-0.0195,"realtor_new_listings":1.333,"realtor_new_listings_yoy":1,"realtor_new_listings_base":0.2375,"realtor_days_on_market":63,"realtor_days_on_market_yoy":-0.2222,"realtor_days_on_market_base":"NA","zhvi":175266.071,"zhvi_yoy":0.0207,"zhvi_base":0.8581,"zori":"NA","zori_yoy":"NA","zori_base":"NA"}},{"type":"MultiPolygon","arcs":[[[-20,25,26]]],"properties":{"postal_code":"51104","realtor_list_price":260478.714,"realtor_list_price_yoy":0.0634,"realtor_list_price_base":0.3618,"realtor_active_listings":54.667,"realtor_active_listings_yoy":0.1549,"realtor_active_listings_base":-0.0593,"realtor_new_listings":32.667,"realtor_new_listings_yoy":0.1136,"realtor_new_listings_base":-0.062,"realtor_days_on_market":44.51,"realtor_days_on_market_yoy":-0.0718,"realtor_days_on_market_base":0.0025,"zhvi":227923.28,"zhvi_yoy":0.0325,"zhvi_base":0.5861,"zori":1291.667,"zori_yoy":"NA","zori_base":"NA"}},{"type":"MultiPolygon","arcs":[[[27,28,29]]],"properties":{"postal_code":"51034","realtor_list_price":180600,"realtor_list_price_yoy":1.7795,"realtor_list_price_base":"NA","realtor_active_listings":6,"realtor_active_listings_yoy":-0.5385,"realtor_active_listings_base":1.6749,"realtor_new_listings":2,"realtor_new_listings_yoy":2,"realtor_new_listings_base":0.6364,"realtor_days_on_market":87,"realtor_days_on_market_yoy":2.625,"realtor_days_on_market_base":"NA","zhvi":174417.738,"zhvi_yoy":-0.0064,"zhvi_base":0.5259,"zori":"NA","zori_yoy":"NA","zori_base":"NA"}},{"type":"MultiPolygon","arcs":[[[30,31,32,33,34,-6]]],"properties":{"postal_code":"57038","realtor_list_price":"NA","realtor_list_price_yoy":"NA","realtor_list_price_base":"NA","realtor_active_listings":5.333,"realtor_active_listings_yoy":-0.1111,"realtor_active_listings_base":-0.4975,"realtor_new_listings":0,"realtor_new_listings_yoy":"NaN","realtor_new_listings_base":-1,"realtor_days_on_market":"NA","realtor_days_on_market_yoy":"NA","realtor_days_on_market_base":"NA","zhvi":391262.815,"zhvi_yoy":0.0322,"zhvi_base":0.608,"zori":"NA","zori_yoy":"NA","zori_base":"NA"}},{"type":"MultiPolygon","arcs":[[[35,36]]],"properties":{"postal_code":"51063","realtor_list_price":233725,"realtor_list_price_yoy":0.2985,"realtor_list_price_base":"NA","realtor_active_listings":3.333,"realtor_active_listings_yoy":-0.0909,"realtor_active_listings_base":1.2102,"realtor_new_listings":1.333,"realtor_new_listings_yoy":-0.3333,"realtor_new_listings_base":2.6364,"realtor_days_on_market":29,"realtor_days_on_market_yoy":-0.5756,"realtor_days_on_market_base":"NA","zhvi":187088.531,"zhvi_yoy":0.0111,"zhvi_base":"NA","zori":"NA","zori_yoy":"NA","zori_base":"NA"}},{"type":"MultiPolygon","arcs":[[[37,-34,38,39,40,41,-2]]],"properties":{"postal_code":"68743","realtor_list_price":"NA","realtor_list_price_yoy":"NA","realtor_list_price_base":"NA","realtor_active_listings":1,"realtor_active_listings_yoy":0,"realtor_active_listings_base":-0.1727,"realtor_new_listings":0,"realtor_new_listings_yoy":"NaN","realtor_new_listings_base":-1,"realtor_days_on_market":"NA","realtor_days_on_market_yoy":"NA","realtor_days_on_market_base":"NA","zhvi":325088.88,"zhvi_yoy":0.0135,"zhvi_base":0.6315,"zori":"NA","zori_yoy":"NA","zori_base":"NA"}},{"type":"MultiPolygon","arcs":[[[42,-30,43,44,45,46]]],"properties":{"postal_code":"51056","realtor_list_price":"NA","realtor_list_price_yoy":"NA","realtor_list_price_base":"NA","realtor_active_listings":"NA","realtor_active_listings_yoy":"NA","realtor_active_listings_base":"NA","realtor_new_listings":"NA","realtor_new_listings_yoy":"NA","realtor_new_listings_base":"NA","realtor_days_on_market":"NA","realtor_days_on_market_yoy":"NA","realtor_days_on_market_base":"NA","zhvi":169030.996,"zhvi_yoy":0.0749,"zhvi_base":"NA","zori":"NA","zori_yoy":"NA","zori_base":"NA"}},{"type":"MultiPolygon","arcs":[[[47,48,49,50,51,-41]]],"properties":{"postal_code":"68731","realtor_list_price":413750,"realtor_list_price_yoy":0.2786,"realtor_list_price_base":"NA","realtor_active_listings":3.667,"realtor_active_listings_yoy":-0.2667,"realtor_active_listings_base":-0.3413,"realtor_new_listings":0.667,"realtor_new_listings_yoy":0,"realtor_new_listings_base":-0.6577,"realtor_days_on_market":21,"realtor_days_on_market_yoy":-0.7407,"realtor_days_on_market_base":"NA","zhvi":258451.659,"zhvi_yoy":0.0889,"zhvi_base":0.744,"zori":"NA","zori_yoy":"NA","zori_base":"NA"}},{"type":"MultiPolygon","arcs":[[[-4,52,53]]],"properties":{"postal_code":"68733","realtor_list_price":"NA","realtor_list_price_yoy":"NA","realtor_list_price_base":"NA","realtor_active_listings":1.667,"realtor_active_listings_yoy":-0.1667,"realtor_active_listings_base":-0.2495,"realtor_new_listings":0,"realtor_new_listings_yoy":-1,"realtor_new_listings_base":-1,"realtor_days_on_market":"NA","realtor_days_on_market_yoy":"NA","realtor_days_on_market_base":"NA","zhvi":186887.303,"zhvi_yoy":0.0837,"zhvi_base":0.733,"zori":"NA","zori_yoy":"NA","zori_base":"NA"}},{"type":"MultiPolygon","arcs":[[[-3,-42,-52,54,55,-53]]],"properties":{"postal_code":"68741","realtor_list_price":"NA","realtor_list_price_yoy":"NA","realtor_list_price_base":"NA","realtor_active_listings":1,"realtor_active_listings_yoy":-0.25,"realtor_active_listings_base":-0.1755,"realtor_new_listings":0,"realtor_new_listings_yoy":"NaN","realtor_new_listings_base":-1,"realtor_days_on_market":"NA","realtor_days_on_market_yoy":"NA","realtor_days_on_market_base":"NA","zhvi":333555.213,"zhvi_yoy":0.0341,"zhvi_base":0.8375,"zori":"NA","zori_yoy":"NA","zori_base":"NA"}},{"type":"MultiPolygon","arcs":[[[56,57]]],"properties":{"postal_code":"57004","realtor_list_price":394287.5,"realtor_list_price_yoy":0.1117,"realtor_list_price_base":"NA","realtor_active_listings":14.333,"realtor_active_listings_yoy":-0.3485,"realtor_active_listings_base":0.0878,"realtor_new_listings":4,"realtor_new_listings_yoy":-0.1429,"realtor_new_listings_base":0.1168,"realtor_days_on_market":66.667,"realtor_days_on_market_yoy":0.4957,"realtor_days_on_market_base":"NA","zhvi":327815.085,"zhvi_yoy":0.0409,"zhvi_base":0.7921,"zori":"NA","zori_yoy":"NA","zori_base":"NA"}},{"type":"MultiPolygon","arcs":[[[58,-57]]],"properties":{"postal_code":"57034","realtor_list_price":"NA","realtor_list_price_yoy":"NA","realtor_list_price_base":"NA","realtor_active_listings":2.667,"realtor_active_listings_yoy":0.6,"realtor_active_listings_base":"NA","realtor_new_listings":0,"realtor_new_listings_yoy":"NaN","realtor_new_listings_base":"NA","realtor_days_on_market":"NA","realtor_days_on_market_yoy":"NA","realtor_days_on_market_base":"NA","zhvi":"NA","zhvi_yoy":"NA","zhvi_base":"NA","zori":"NA","zori_yoy":"NA","zori_base":"NA"}},{"type":"MultiPolygon","arcs":[[[-12,59,60,61,62,63]]],"properties":{"postal_code":"51007","realtor_list_price":"NA","realtor_list_price_yoy":"NA","realtor_list_price_base":"NA","realtor_active_listings":1,"realtor_active_listings_yoy":-0.25,"realtor_active_listings_base":-0.3033,"realtor_new_listings":0,"realtor_new_listings_yoy":"NaN","realtor_new_listings_base":-1,"realtor_days_on_market":"NA","realtor_days_on_market_yoy":"NA","realtor_days_on_market_base":"NA","zhvi":292811.163,"zhvi_yoy":0.0821,"zhvi_base":"NA","zori":"NA","zori_yoy":"NA","zori_base":"NA"}},{"type":"MultiPolygon","arcs":[[[64,-9,65,-17,-27,66,67]]],"properties":{"postal_code":"51108","realtor_list_price":527500,"realtor_list_price_yoy":0.4533,"realtor_list_price_base":0.8406,"realtor_active_listings":7.667,"realtor_active_listings_yoy":-0.2333,"realtor_active_listings_base":-0.5056,"realtor_new_listings":5.333,"realtor_new_listings_yoy":0,"realtor_new_listings_base":-0.1122,"realtor_days_on_market":27.5,"realtor_days_on_market_yoy":-0.3785,"realtor_days_on_market_base":-0.6286,"zhvi":259382.773,"zhvi_yoy":0.0294,"zhvi_base":0.5598,"zori":1449,"zori_yoy":"NA","zori_base":"NA"}},{"type":"MultiPolygon","arcs":[[[68,-68,69,70,71,-32]]],"properties":{"postal_code":"51109","realtor_list_price":200925,"realtor_list_price_yoy":0.1664,"realtor_list_price_base":0.4231,"realtor_active_listings":8,"realtor_active_listings_yoy":0.4118,"realtor_active_listings_base":0.7127,"realtor_new_listings":2.667,"realtor_new_listings_yoy":-0.4286,"realtor_new_listings_base":-0.1268,"realtor_days_on_market":58.5,"realtor_days_on_market_yoy":0.9136,"realtor_days_on_market_base":0.1706,"zhvi":174724.076,"zhvi_yoy":0.0582,"zhvi_base":0.7633,"zori":"NA","zori_yoy":"NA","zori_base":"NA"}},{"type":"MultiPolygon","arcs":[[[-50,72,73,-63,74,75]]],"properties":{"postal_code":"51054","realtor_list_price":417088.889,"realtor_list_price_yoy":0.0305,"realtor_list_price_base":0.3237,"realtor_active_listings":15.667,"realtor_active_listings_yoy":0.4688,"realtor_active_listings_base":-0.4532,"realtor_new_listings":6,"realtor_new_listings_yoy":2,"realtor_new_listings_base":-0.0146,"realtor_days_on_market":42.333,"realtor_days_on_market_yoy":-0.5153,"realtor_days_on_market_base":-0.4672,"zhvi":360762.344,"zhvi_yoy":0.0438,"zhvi_base":0.5237,"zori":"NA","zori_yoy":"NA","zori_base":"NA"}},{"type":"MultiPolygon","arcs":[[[-24,76,77,78,79]]],"properties":{"postal_code":"51004","realtor_list_price":"NA","realtor_list_price_yoy":"NA","realtor_list_price_base":"NA","realtor_active_listings":3.333,"realtor_active_listings_yoy":0.25,"realtor_active_listings_base":0.3753,"realtor_new_listings":0,"realtor_new_listings_yoy":-1,"realtor_new_listings_base":-1,"realtor_days_on_market":"NA","realtor_days_on_market_yoy":"NA","realtor_days_on_market_base":"NA","zhvi":193444.721,"zhvi_yoy":0.0802,"zhvi_base":"NA","zori":"NA","zori_yoy":"NA","zori_base":"NA"}},{"type":"MultiPolygon","arcs":[[[-40,80,-71,81,82,83,-48]]],"properties":{"postal_code":"68776","realtor_list_price":286093.75,"realtor_list_price_yoy":-0.1418,"realtor_list_price_base":0.4718,"realtor_active_listings":12.667,"realtor_active_listings_yoy":-0.2963,"realtor_active_listings_base":-0.3462,"realtor_new_listings":8,"realtor_new_listings_yoy":0.2,"realtor_new_listings_base":-0.3006,"realtor_days_on_market":41.75,"realtor_days_on_market_yoy":0.049,"realtor_days_on_market_base":-0.0575,"zhvi":234117.419,"zhvi_yoy":0.0506,"zhvi_base":0.7371,"zori":"NA","zori_yoy":"NA","zori_base":"NA"}},{"type":"MultiPolygon","arcs":[[[-7,-35,-38,-1,84]]],"properties":{"postal_code":"68770","realtor_list_price":"NA","realtor_list_price_yoy":"NA","realtor_list_price_base":"NA","realtor_active_listings":2.667,"realtor_active_listings_yoy":0,"realtor_active_listings_base":-0.4053,"realtor_new_listings":0,"realtor_new_listings_yoy":"NaN","realtor_new_listings_base":-1,"realtor_days_on_market":"NA","realtor_days_on_market_yoy":"NA","realtor_days_on_market_base":"NA","zhvi":239027.846,"zhvi_yoy":0.0986,"zhvi_base":0.7021,"zori":"NA","zori_yoy":"NA","zori_base":"NA"}},{"type":"MultiPolygon","arcs":[[[85,86]]],"properties":{"postal_code":"51015","realtor_list_price":"NA","realtor_list_price_yoy":"NA","realtor_list_price_base":"NA","realtor_active_listings":1,"realtor_active_listings_yoy":0.5,"realtor_active_listings_base":"NA","realtor_new_listings":0,"realtor_new_listings_yoy":-1,"realtor_new_listings_base":"NA","realtor_days_on_market":"NA","realtor_days_on_market_yoy":"NA","realtor_days_on_market_base":"NA","zhvi":"NA","zhvi_yoy":"NA","zhvi_base":"NA","zori":"NA","zori_yoy":"NA","zori_base":"NA"}},{"type":"MultiPolygon","arcs":[[[87,-22]]],"properties":{"postal_code":"51018","realtor_list_price":"NA","realtor_list_price_yoy":"NA","realtor_list_price_base":"NA","realtor_active_listings":1,"realtor_active_listings_yoy":0.5,"realtor_active_listings_base":"NA","realtor_new_listings":0,"realtor_new_listings_yoy":-1,"realtor_new_listings_base":"NA","realtor_days_on_market":"NA","realtor_days_on_market_yoy":"NA","realtor_days_on_market_base":"NA","zhvi":"NA","zhvi_yoy":"NA","zhvi_base":"NA","zori":"NA","zori_yoy":"NA","zori_base":"NA"}},{"type":"MultiPolygon","arcs":[[[-11,88,-25,-80,89,-86,90,-60]]],"properties":{"postal_code":"51039","realtor_list_price":252000,"realtor_list_price_yoy":-0.0818,"realtor_list_price_base":"NA","realtor_active_listings":5.333,"realtor_active_listings_yoy":0.1429,"realtor_active_listings_base":1.0311,"realtor_new_listings":0.667,"realtor_new_listings_yoy":0,"realtor_new_listings_base":3.25,"realtor_days_on_market":41,"realtor_days_on_market_yoy":-0.6822,"realtor_days_on_market_base":"NA","zhvi":271676.071,"zhvi_yoy":0.0365,"zhvi_base":0.6654,"zori":"NA","zori_yoy":"NA","zori_base":"NA"}},{"type":"MultiPolygon","arcs":[[[91,-28,-43,92,-78]]],"properties":{"postal_code":"51044","realtor_list_price":"NA","realtor_list_price_yoy":"NA","realtor_list_price_base":"NA","realtor_active_listings":"NA","realtor_active_listings_yoy":"NA","realtor_active_listings_base":"NA","realtor_new_listings":"NA","realtor_new_listings_yoy":"NA","realtor_new_listings_base":"NA","realtor_days_on_market":"NA","realtor_days_on_market_yoy":"NA","realtor_days_on_market_base":"NA","zhvi":174350.067,"zhvi_yoy":0.055,"zhvi_base":"NA","zori":"NA","zori_yoy":"NA","zori_base":"NA"}},{"type":"MultiPolygon","arcs":[[[-72,-81,-39,-33]]],"properties":{"postal_code":"57049","realtor_list_price":490357.5,"realtor_list_price_yoy":-0.1417,"realtor_list_price_base":0.2709,"realtor_active_listings":44.333,"realtor_active_listings_yoy":0.031,"realtor_active_listings_base":0.2504,"realtor_new_listings":13.333,"realtor_new_listings_yoy":0.1765,"realtor_new_listings_base":0.4348,"realtor_days_on_market":52.1,"realtor_days_on_market_yoy":-0.2965,"realtor_days_on_market_base":-0.3494,"zhvi":425353.619,"zhvi_yoy":0.0155,"zhvi_base":0.4029,"zori":"NA","zori_yoy":"NA","zori_base":"NA"}},{"type":"MultiPolygon","arcs":[[[-51,-76,93,-55]]],"properties":{"postal_code":"68030","realtor_list_price":"NA","realtor_list_price_yoy":"NA","realtor_list_price_base":"NA","realtor_active_listings":3,"realtor_active_listings_yoy":2,"realtor_active_listings_base":0.896,"realtor_new_listings":0,"realtor_new_listings_yoy":-1,"realtor_new_listings_base":-1,"realtor_days_on_market":"NA","realtor_days_on_market_yoy":"NA","realtor_days_on_market_base":"NA","zhvi":265687.517,"zhvi_yoy":0.0537,"zhvi_base":0.7991,"zori":"NA","zori_yoy":"NA","zori_base":"NA"}},{"type":"MultiPolygon","arcs":[[[-15,-18,-66,-13,-64,-74,94,-83,95]]],"properties":{"postal_code":"51106","realtor_list_price":228751.953,"realtor_list_price_yoy":-0.0478,"realtor_list_price_base":0.0322,"realtor_active_listings":79.333,"realtor_active_listings_yoy":0.4601,"realtor_active_listings_base":0.0383,"realtor_new_listings":42.667,"realtor_new_listings_yoy":0.0667,"realtor_new_listings_base":-0.0072,"realtor_days_on_market":38.344,"realtor_days_on_market_yoy":0.1738,"realtor_days_on_market_base":-0.1808,"zhvi":224504.982,"zhvi_yoy":0.0278,"zhvi_base":0.5934,"zori":"NA","zori_yoy":"NA","zori_base":"NA"}},{"type":"MultiPolygon","arcs":[[[-61,-91,-87,-90,-79,-93,-47,96,-45,97,-36,98]]],"properties":{"postal_code":"51026","realtor_list_price":"NA","realtor_list_price_yoy":"NA","realtor_list_price_base":"NA","realtor_active_listings":"NA","realtor_active_listings_yoy":"NA","realtor_active_listings_base":"NA","realtor_new_listings":"NA","realtor_new_listings_yoy":"NA","realtor_new_listings_base":"NA","realtor_days_on_market":"NA","realtor_days_on_market_yoy":"NA","realtor_days_on_market_base":"NA","zhvi":250899.05,"zhvi_yoy":0.098,"zhvi_base":"NA","zori":"NA","zori_yoy":"NA","zori_base":"NA"}}]}},"arcs":[[[135130,364111],[-32,8937],[9,338],[228,878],[18,329],[-647,3770],[402,2127],[14968,-39],[-252,24056],[15030,3]],[[164854,404510],[317,-39053],[-20,-2879],[8,-3113],[6,-876],[-83,-2213],[-71,-2908],[6,-3043],[12,-3566],[27,-8968],[7391,-893],[3728,-536],[1926,-333],[5572,-1752],[3,1037],[3636,2],[92,1076],[113,1882],[7353,39],[177,-5995],[4411,-4],[-133,-23733]],[[199325,308681],[-139,-11957],[-1414,-96],[-2018,-1452],[-2919,-3371],[-1061,-1063],[-200,-6047],[5070,22],[-532,-1363],[-946,-815],[-2176,-360],[-1232,-1980],[159,-19493]],[[191917,260706],[-29924,42],[-125,23976],[-14878,-29]],[[146990,284695],[-43,11992],[-52,9840],[2187,2085],[-2209,59],[-177,11944],[-7268,112],[71,2267],[-4452,840],[-3160,-45],[-15,8723],[2937,-5],[201,5999],[42,4924],[80,1027],[-8053,-3],[-3619,-2167],[-3416,-1044],[7,775],[3630,790],[3152,2159],[3319,3258],[309,1041],[2866,75],[2251,1382],[476,777],[2334,447],[2433,1204],[-2026,918],[-1580,2416],[-9489,52],[-47,5991],[3824,7],[4,715],[3619,112],[4,749]],[[305901,507547],[-1005,-111],[-21024,431],[0,-12634],[-14980,-49],[-12,-8508],[-6657,5299],[-4587,3233],[-3731,25],[29,-5501],[-47,-6480],[-30189,76],[29,-12008],[-15005,15],[-15,-12389],[273,-779],[3359,-1983],[403,-3679],[780,-304],[2086,-2285],[2547,-3925],[556,-1997],[-137,-3512],[2106,-1953],[3181,-1600],[0,-1555],[-3753,26]],[[220108,435400],[-6585,3718],[-13186,4287],[-4153,2390],[-3356,2865],[-8869,10329],[-6979,7457],[-2211,3596],[-1300,3624],[-422,5493],[179,2168],[1401,3775],[1683,2804],[8003,10173],[3261,3682],[2695,1690],[993,1584],[560,2845],[58,295],[-76,1914],[-451,856],[-2760,2546],[-4884,2439],[-23297,6411],[-5701,234],[-5098,-452],[-3711,-328],[-1857,-406],[-1432,-1137],[-9830,-1968],[-10828,835],[-2119,461]],[[119836,519580],[-8920,1940],[-504,110],[-4223,1839],[-1718,1255],[-914,2053],[1522,10032],[-224,6727],[-895,5226],[-3504,4457],[75,10602],[-288,8005],[2760,-3711],[467,-962],[12144,213],[304,11676],[-58,24068],[7218,39],[7865,-95],[704,612],[-619,1689],[-6,27964],[-6,1587],[-12,16537],[6,6408],[-8073,23],[4,11763],[8063,2],[-17,5844],[-4,6131],[6916,-8],[1107,-395],[1389,86],[5690,-2057],[17,5699],[4881,-18],[2002,1636],[2744,478],[-606,666],[2219,24],[12,-2515],[3893,18],[11,-9072],[-1953,-167],[-1684,-2970],[-2356,-565],[27,-1400],[1625,-2400],[-783,-1967],[455,-1457],[-1165,-754],[1477,-1647],[761,566],[2051,-56],[1147,-2561],[1860,927],[309,773],[1645,550],[1335,-1100],[526,-1653],[1193,-1230],[-22,-2297],[2146,-188],[1358,1530],[2002,-248],[167,-2178],[-881,-1384],[1166,-2162],[2024,-645],[15374,-181],[287,-115],[-112,-15611],[846,-977],[1850,-271],[-1030,-970],[-1577,-499],[540,-1370],[1020,112],[-936,-1180],[1658,-1144],[-1000,-1308],[7132,291],[1237,-417],[7470,52],[53,-3037],[5235,19],[960,-2152],[1517,-825],[401,18],[1381,160],[3826,2911],[1714,2603],[157,469],[-257,22938],[15256,58],[140,-11148],[4931,17],[1813,1085],[1352,2383],[2451,6412],[252,1263],[18338,51],[1240,27],[2043,-1669],[-786,-1122],[-928,-777],[-4094,-2217],[-3024,397],[-471,-398],[-315,-265],[264,-3826],[2690,-416],[952,-776],[-18,-558],[-46,-1438],[-1147,-4520],[-1548,-2548],[-2690,627],[-542,-815],[2129,-3534],[-832,-1380],[-4912,381],[-1370,-981],[2035,-2814],[-927,-3353],[-594,-568],[-11448,829],[-2400,-5917],[-2779,-1382],[-56,-961],[-77,-1327],[-6530,-1431],[-264,-1335],[2118,-1477],[-177,-1335],[-1808,-810],[-26,-1263],[1514,-1531],[4070,-4118],[1228,-432],[1637,1592],[1213,531],[999,-303],[738,-795],[597,-1932],[-808,-1042],[-4263,-667],[-3356,-1948],[-427,-4873],[-2173,-1418],[-976,-2108],[2955,-2522],[-99,-129],[-1078,-1405],[-3620,1595],[-321,-760],[-299,-709],[-200,-476],[6278,-4144],[-2567,-2777],[200,-1971],[5522,1461],[1237,-376],[-497,-4703],[-1371,-2061],[2001,-1421],[-1540,-4381],[-2483,-1224],[-644,-2462],[2965,-1528],[1407,710],[124,1620],[1028,133],[3531,-6068],[2955,-534],[2245,1180],[1809,1574],[3121,-285],[870,-1559],[-1029,-1415],[-2277,-202],[-2307,-1819],[-10,-713],[1164,-838],[3648,102],[2706,2641],[1285,493],[3804,-3337],[343,-3772],[-2588,-439],[-561,-943],[717,-943],[3944,212],[1921,3466],[2814,-783],[1007,-5834],[7781,-221],[297,-1654],[-2257,-1186],[-481,-1042],[963,-520],[3371,946],[701,-804],[-2317,-3105],[-1712,-490],[-481,-1089],[963,-1040],[3279,4],[1164,758],[380,1969],[1663,1800],[1069,-247],[1588,-3594],[4066,-2728],[2304,-2879],[-212,-921],[-1808,-68],[-736,-682],[-48,-3542],[1251,-784],[8820,3226],[2399,-95],[1491,-827],[2972,-4099],[212,-2709],[-503,-2551],[-10,-47]],[[505855,399575],[1092,3],[-29,1012],[2693,240],[-148,10638],[30146,139],[-134,23365]],[[539475,434972],[14985,416],[15469,-55],[10247,-185],[4760,-173],[14994,-26],[15004,-34],[33,-11427],[14971,-83]],[[629938,423405],[-80,-11992],[-14986,57],[174,-24009],[7710,-31],[21,-6254],[3923,-41],[-254,-5706],[-3833,5],[71,-3758],[11171,-8485],[10097,-7471],[-3665,-1077],[-291,-5234],[-18443,-121],[91,-11932],[4151,-6],[691,-285],[983,-2031],[1792,-148],[-53,-9481],[-14606,-16]],[[614602,325389],[286,11892],[-52646,1673],[-35212,314],[-14,-1458],[-1378,-936],[-850,-1721]],[[524788,335153],[-863,-900],[-158,-485],[-851,-2057],[-207,-5024],[414,-1227],[-6736,1063],[-1781,554],[2600,92],[37,11988],[7529,91],[123,11982],[-20051,-124],[-875,1861],[-1907,1807],[62,5694],[-1119,20],[-363,751],[2456,2271],[-1199,-6],[1685,508],[-80,3547],[786,1969],[1886,1343],[-315,5576],[71,10072],[526,866],[1477,268],[1373,4970],[-811,833],[54,3154],[-2689,-23],[-7,2988]],[[405829,384218],[1131,-1],[2240,-445],[588,-912],[-567,-5],[25,-1792],[2004,1055],[3391,-38],[3,-521],[1149,505],[1920,-43],[294,854],[-29,2780],[6662,31],[1661,-150],[55,-3465],[680,-895],[1499,48],[2428,-928],[583,-2654]],[[431546,377642],[-2275,84],[-684,755],[-106,-328],[-1498,-2425],[-8163,-57],[585,-907],[-1529,-344],[529,-3501],[-3504,2595]],[[414901,373514],[-1715,640],[-8062,1509],[-3135,1383],[260,458],[1461,2044],[103,562],[920,12],[-9,909],[1118,1589],[-13,1598]],[[427084,399980],[2489,-33],[1275,3428],[5825,6375],[3031,-687],[1953,-134],[7123,-4288],[3845,-1781],[3249,-3125],[2922,-295],[1397,-2022],[3601,-3676]],[[463794,393742],[0,-397],[-2479,52],[-447,-1032],[-2362,-1857],[-2156,-826],[-743,-2019],[-3044,37],[99,-5237],[1858,-399],[-38,-5512],[-1537,157],[-9945,-827],[136,-1033],[-1810,-443],[96,-2097],[-5102,1729],[-4,206],[-1082,-3],[0,-394],[-2593,500],[-1077,1621],[-18,1674]],[[405829,384218],[-16,1367],[1128,-14],[-20,911],[-1119,-7],[-28,915],[368,854],[195,0],[-23,1738],[-554,3],[511,845],[-1650,23],[-575,838]],[[404046,391691],[-24,824],[568,8],[-12,832],[1172,-10],[-7,-836],[2250,2],[1150,-34],[1113,13],[2381,-25],[544,-829],[-244,-631],[934,12],[1084,97],[1953,-964],[1502,2449],[436,-277],[482,936],[3173,3125],[2055,1742],[684,464],[722,422],[1122,969]],[[751089,363438],[7589,-23],[7543,-7],[229,12016],[-9,6049],[-141,17966],[14977,-110],[72,-12001],[15083,31],[15032,129],[-21,11836],[14951,-20],[-138,11965],[2590,52],[3248,-1078],[308,-1187],[1779,-776],[-1230,-3261],[589,-106],[-17,729],[16205,184],[60,5846],[3378,-39],[11690,-141],[54,5752],[42,6293],[-4094,34],[-293,3877],[1485,4256],[1651,2769],[8025,53],[15081,114],[936,178],[28973,41],[8644,12],[476,-1453],[-1446,-227],[1992,-1022],[-497,-1743],[-1019,-1137],[-1801,-360],[-878,700],[-213,-1174],[428,-1534],[1377,-2215],[-189,-834],[-2015,-512],[-164,-2481],[-1089,-1421],[2038,-245],[428,-928],[-971,-1288],[3248,-1817],[2512,891],[4077,78],[2037,719],[-24,1061],[900,1497],[877,341],[972,-1269],[1588,-302],[545,1761],[3722,-169],[-24,2330],[2726,-208],[1351,757],[1324,-404],[-37,-17050]],[[947611,405213],[-139,-6054],[-202,-11880],[-211,-24091],[-30504,76],[-4528,0],[-48,-8171],[26290,398],[3974,-61],[-39,-6028],[-15086,-167],[-54,-12113],[15066,88],[-295,-24066],[-15036,-116],[-87,-11987],[30130,-156],[1,-6274]],[[956843,294611],[20,-6044],[-15042,347],[-101,-5923],[-7490,-3],[-211,-5983],[-7435,33],[-198,-12048],[-29789,267],[-28,12057],[-14313,-45]],[[882256,277269],[34,11680],[-1588,36],[-7746,5838],[-334,91],[-5242,42],[-25,15060],[-2925,16],[-808,458],[-1,2129],[-892,404],[-10318,28],[-18,6055],[-7484,61],[-62,11990],[110,2519],[-4449,-2076],[-1075,-735],[-2778,154],[-12745,189],[-1421,1858],[114,4241],[-7681,19],[-7466,-4],[-13583,-39],[-488,21],[-3775,8],[-7432,69],[-3737,36],[-7494,0],[-3778,-31],[-11331,68],[-7504,40]],[[748334,337494],[67,12030],[64,6047],[21,7882],[2603,-15]],[[404046,391691],[-441,-3],[-585,-94],[-2833,1219],[-1140,21],[-1110,900],[1092,18],[-15,2129],[-2127,19],[-6,4058],[-743,1370],[17,2683],[-641,1855],[-489,282],[-487,-3],[-425,152],[-501,-259],[-1337,-1111],[-3000,545],[-522,897],[2403,609],[831,1017],[2312,-272],[-981,1110],[-595,1342],[-3046,4100],[-766,729],[-233,3117],[-69,110]],[[388609,418231],[364,211],[155,-115],[3296,-211],[261,9005],[-3756,571],[87,1834],[-1501,1335],[360,2129],[1125,93],[298,2542],[16677,-39],[2108,-15],[-15,-3456],[744,-314],[-99,-1369],[1078,342],[2610,-664],[2290,-67],[1668,-1676],[3696,-1338],[1273,-1132],[1274,-2190],[78,-5569],[2456,-54],[1406,-306],[793,-343],[4138,-2832],[3245,-2361],[-4085,-6315],[-370,99],[-307,11],[10,-1149],[-3120,-4916],[238,8]],[[807454,175121],[7437,-27],[14841,-12],[49,5624],[4150,448],[213,2805],[-3459,6779],[-5529,5473],[-1847,2853],[-5548,3748],[-2907,1909],[-1149,297],[8607,85]],[[822312,205103],[1761,-36],[2564,-3496],[1794,-129],[1918,-717],[923,744],[1686,177],[1451,-2956],[2025,-1913],[2777,-994],[3458,-2406],[952,-1108],[5679,-5069],[1688,-178],[14205,168],[16927,-10755],[-148,-13173],[6937,-100],[-140,-12005],[7484,-102],[-89,-5985],[9245,-183],[4138,169],[2308,-647],[3044,-2163],[3897,-1736],[25,4561],[11425,-14],[1763,-1140],[5989,151],[6766,-1858],[16820,11],[9507,-2317],[13860,-3375],[17,-3622],[-13794,56],[-43,-11998],[13803,-28],[30,-6045],[20,-11101],[350,-317],[-338,-1113],[63,-17412],[7464,-30],[8,-11984],[-14857,42],[-35,6055],[-6863,70],[-40,-6100],[-14918,40],[-3084,19],[-916,-4597],[-1378,-1443],[-3118,-2759],[-6746,-6422],[-994,212],[-20269,-164],[-826,366],[-164,-348],[197,-8976],[-7814,118],[-3659,-5],[0,-3008],[3723,-94],[-44,-3175],[-7366,137],[16,-5865],[-7506,25],[-34,-2890],[-3660,25],[15,2960],[-3751,117],[103,-15107],[7370,-45],[-49,-12136],[-3514,947],[-2260,1964],[-3085,61],[-2381,669],[-3740,-338],[-7427,-115],[42,9081],[-4974,17],[-17518,73],[-6204,110],[-3901,1013],[-8411,-198],[-3751,-959],[340,2508],[-510,1452],[-211,4984],[89,11966],[7272,49],[161,5109],[489,975],[-235,1832],[215,3735],[-419,423],[-5440,63],[-5398,-104],[-258,6078],[-5113,114],[-6513,-6285],[-1789,2],[-1624,-320],[1155,2025],[-638,1588],[-139,2899],[-1667,894],[-1115,1830],[-506,2148],[425,3143],[-234,1307],[300,3083],[-385,1536],[545,4961],[-377,758],[970,4678],[2780,1457],[2950,2839],[659,167],[1227,2349],[801,624],[635,2815],[-478,5406],[164,985],[-429,1104],[-9579,69],[29,5011],[-954,920],[-7586,-25],[2795,5299],[597,647],[-6851,-108],[-2698,245],[187,11166]],[[792379,126713],[-266,18337],[393,4976],[-84,1017],[7369,-33],[46,9046],[7491,-15],[53,6053],[20,3022],[53,6005]],[[305901,507547],[-152,-773],[450,-1363],[3205,-2407],[5587,-1929],[1862,-5510],[2168,-123],[3695,-3296],[758,-2311],[-6,-28]],[[323468,489807],[-222,-1015],[-730,-3334],[-1484,-1820],[-2054,-1240],[-2129,-184],[-3216,1],[-2078,-1092],[-543,-1641],[1311,-3907],[1507,-1198],[1731,270],[2577,2689],[2104,2209],[1937,605],[2915,-878],[2890,-1793],[3691,-6403],[3428,-9026],[-959,-2897],[90,-335],[214,-794],[1496,-681],[5174,-506],[648,-1417],[-1685,-1283],[-1441,-1518],[-381,-1533],[816,-1673],[6438,-2312],[621,-879],[-108,-1223],[-1534,-1744],[-8311,-8596],[-169,-175]],[[336012,434484],[-13135,207],[-1876,-100],[-19799,68],[-2193,14],[156,-4689],[-3,-404],[-158,-5397],[59,-6394],[-23,-2120],[-521,-6616],[-683,-7944]],[[297836,401109],[-2,1],[-6888,-139],[-7760,-2073],[-3538,-1773],[-9076,-6547],[-5193,-2009],[-3735,-653],[-2486,-58],[-3246,-76],[-2130,323],[-2022,305],[-1998,721],[-751,420],[-10342,5784],[-1703,2806],[-834,1999],[-1708,4095]],[[234424,404235],[-1064,3867],[-354,2483],[3,918],[14,5897],[-7,31],[-1533,6124],[-2073,3579],[-4259,4676],[-3430,2667],[-56,44],[-1557,879]],[[600042,147050],[-86,-5538],[14680,-640],[82,-5988],[7522,-160],[0,-11811],[7163,19],[-189,-14882],[-74,-3624],[2117,-1387],[925,-1883],[1769,-138],[1157,-801],[194,-1614],[827,-959],[2076,-1105],[830,-2673],[1180,-599],[3,-3501],[1568,-2814],[16852,-123],[-7,11917],[12294,-297],[10217,-24166]],[[681142,74283],[-261,4],[-22384,648],[258,-12718],[-14693,359],[275,-12042],[-41107,596],[-3809,72],[-14863,321],[-98,-12129],[-14903,327],[-153,12089],[-15011,455],[417,-23124],[622,-991],[-3994,25],[3445,-1793],[2001,-3006],[3176,-3018],[1827,-3126],[-185,-1291],[-2188,78],[-38,-254],[2185,-30],[484,-2718],[-71,-2114],[-1387,-2198],[-1101,-1196],[-5085,-3762],[-1699,6],[-3798,-1075],[-2133,-1526],[-2296,-345],[-453,-807],[-3494,2292],[-4805,1610],[-6471,437],[-5911,-1791],[-1185,-1138],[-3868,740],[-835,290],[-1276,443],[-3643,2034],[-2139,2216],[-1112,1864],[-19,35],[-2029,3890],[-1593,5006],[-628,1972],[-688,8186],[202,3103],[1779,6122],[1707,3177],[304,566],[1808,2289],[422,823],[2753,5374],[799,5870],[-53,553],[-502,5248],[-1213,2755],[-2606,3982],[-2072,1974],[-3221,2237],[-2792,998],[1722,297],[-3415,2217],[16743,25],[505,20840],[357,14911],[7700,55],[16955,94],[-5139,11938],[28557,429],[338,6],[3710,49],[-3679,5340],[-12512,18118],[16611,-179],[29848,-247]],[[164854,404510],[21411,-111],[191,-1197],[2068,-5863],[0,-3079],[411,-1671],[3188,-4264],[2896,-1966],[-143,-593],[-16,-23357],[17370,0],[14392,-29],[2872,2974],[3314,247],[53,1793],[-13899,8766],[-1420,1030],[412,6901],[-315,5287],[-7750,-35],[-179,2941],[-4615,30],[78,5859],[-874,3106],[932,2929],[29193,27]],[[297836,401109],[5779,-1403],[2465,-598],[4923,-2453],[2195,-1571],[2768,-2518],[3419,-4534],[208,-457],[1273,-2792],[916,-3262],[610,-1042],[667,-1139],[5600,-6278],[1585,-1169]],[[330244,371893],[-1881,-476],[-2159,-1227],[-4530,-3724],[-3737,-4386]],[[317937,362080],[-200,116],[-6790,68],[-4977,31],[647,-5963],[93,-8223],[-1286,-795],[-2277,-909],[-7008,-2984],[-4614,-1975],[-438,-150],[-2389,-13],[-15,-1112],[-19,-1242],[-8,-233],[-24,-626],[-3414,87],[51,987],[-354,51],[-2717,375],[-945,125],[-137,-2144],[-1040,717],[-154,375],[473,1163],[-1759,188],[-1031,19],[-6,-393]],[[277599,339620],[-99,-2552],[-5787,34],[-709,-1602],[715,-1931],[-745,-2714],[-935,-380],[-555,-2035],[-994,-515],[-1964,1258],[-2755,19],[-6030,-535],[-3947,-1824],[-824,-2641],[784,-2872],[-730,-703],[-9275,57],[-7499,-32],[-196,-12012],[-14834,-6],[-48,-2],[-3620,21],[-3997,26],[-2631,34],[14,-1030],[-923,3],[-8,1040],[-10682,-45]],[[718341,205363],[38797,-616],[3706,-2100],[2178,-713],[-87,-8925],[21906,-16],[-9,-2754],[4247,1109],[3075,2030],[-178,-6665],[2359,2277],[2614,1405],[2974,761],[52,-7104],[5400,28],[594,88],[1489,-184],[37,-2947],[-41,-5916]],[[792379,126713],[-3000,-738],[-2553,-1823],[-4621,-1207],[-4160,1168],[-4314,254],[-1975,870],[-308,-2113],[1613,-4382],[-2515,-2534],[-2784,-1773],[-2797,-2614],[-4897,-2409],[-4090,-123],[-790,-358],[-1536,374],[-10425,-67],[-1343,603]],[[741884,109841],[21823,24658]],[[763707,134499],[4985,4042],[4570,5298],[676,1260],[-55787,198]],[[718151,145297],[-14792,-63],[-6181,165],[-12905,347],[-3769,4151],[-5946,7019],[-308,586],[7336,39],[3754,347],[6570,1403],[3025,448],[5820,-567],[1658,269],[-6068,2302],[193,244],[974,816],[5911,391],[3387,-49],[2841,1261],[2460,2184],[4343,870],[1994,-37],[-1,17921],[-337,475],[-687,137],[1022,699],[44,9874],[-148,8834]],[[317937,362080],[-178,-2983],[146,-8882],[39,-2984],[32,-941],[114,-5080],[15050,69],[11156,-34],[7779,108],[-613,-109],[2706,-2700],[6059,-2068],[-253,-1336],[3546,-54],[-79,-2963],[699,-89],[6879,51],[2757,0],[11246,-27],[207,-2],[352,-2888],[82,-2658],[4,-523],[65,0],[69,-4742],[1009,-6255],[3077,-18],[10,1814],[-25,3277],[3652,-14],[1359,80],[3981,-87],[101,5903],[2044,-38],[13,839],[121,424],[70,1796],[7343,-38],[-9,-3119],[-14,-5740],[2763,-37],[1531,-154]],[[412827,319878],[-1960,-1890],[-4867,-4693],[-1891,-1825],[-1247,-1202],[-1381,-2486],[-427,-1843],[-1020,-4411]],[[400034,301528],[-10,-42],[406,-5677],[2670,-5917],[127,-282],[1670,-3701],[246,-1995],[304,-2478],[-4261,-8417],[-828,-1295]],[[400358,271724],[-25567,142],[-41284,217],[-362,-3008],[-1305,8]],[[331840,269083],[-3618,3146],[-5548,5977],[-7710,5979],[3568,-89],[-95,17804],[-14892,112],[-95,17735],[-7350,778],[-13749,62],[-312,6053],[-1391,2715],[-978,2971],[-731,4150],[-1340,3144]],[[191917,260706],[-156,-11967],[1781,10],[-1765,-1663],[-81,-10327],[-15117,-117],[-20,-12035],[10045,98],[361,1144],[2247,1870],[2356,345],[6277,-409],[2825,272],[5277,2038],[6291,4026],[1266,1127],[631,1596],[21128,-125],[1237,-488],[15,-5518],[15002,95],[158,18019],[7130,-39],[531,1],[6922,-55],[49,-6041],[187,-29996],[7210,-44],[799,-2939],[6854,11],[6,-9761]],[[281363,199834],[59,-11405],[-44941,70],[-14955,63],[118,-12097],[-15064,126],[7,12003],[-14921,103],[-50,-36109],[104,-9010],[1,-2958],[-14760,90],[-31,2808],[-11295,-22],[-85,5989],[-3740,-1],[354,-20952],[-52347,218],[-1632,-62],[-2542,2058],[-1751,1109],[-858,726],[-1314,1971],[-1632,3114],[-664,1471],[-813,1054],[-775,1004],[-737,1769],[-501,3125],[-1133,3288],[-3071,3518],[-4046,5741],[-597,1434],[216,3645],[-113,2757],[307,2315],[-307,4129],[155,4140],[-31,11759],[18177,-101],[54,6034],[-3745,28],[113,5394],[2,557],[-50,11925],[7439,32],[0,12019],[3821,3],[3702,11],[-42,35962],[-7382,60],[-37468,63],[27,6014],[3784,-16],[85,5973],[41057,-41],[71,5983],[40,6017],[3159,9],[3726,33],[7513,-17],[14929,-62]],[[331840,269083],[-7595,162],[-1655,701],[-1172,1842],[-618,428],[-692,357],[-860,713],[-520,472],[-3910,4512],[-3703,204],[14,-3131],[-7178,53],[2,-124],[36,-2643],[0,-18014],[10935,-74],[3209,-50],[15625,-261],[-252,-3200],[166,-16648],[1143,4],[15,-1176],[-1156,-55],[123,-1580],[1314,-1234],[4042,-75],[-165,-1365],[2075,378],[913,1405],[-685,955],[983,-52],[358,1140],[-209,599],[477,437],[472,76],[-331,-1082],[494,-1],[-1135,-12073],[372,-3443],[1992,-4944],[899,-6169],[-4581,53],[-587,491],[249,3753],[-2412,2787],[-724,2492],[89,7425],[-6133,-732],[-1802,-725],[-1814,-2071],[-4444,-2642],[-4468,-566],[-490,-16696]],[[318546,199696],[-22265,253],[-146,-119],[-14772,4]],[[191607,939732],[5,-6055],[7220,-9],[156,-11712],[-7382,-42],[-9,-6179],[10,-11999],[7107,-1]],[[198714,903735],[248,-18255],[7657,-93],[11,-5675],[-15018,-11],[-5,-12071],[-15151,88],[88,-24043],[-15099,67],[-25,-30389],[-33,-3344],[58,-567],[591,-1758],[-667,3],[147,-11987],[-35,-6538],[-18,-5382],[-18,-18097],[-11,-5969],[-9547,15],[-1606,-1848],[-297,-1398],[-2008,-640],[-1382,-973],[29,-22216],[-1,-2988],[-11,-2820],[-23,-3158],[15121,34],[-316,-12250],[-7988,24],[-7262,4],[12,-2910],[-7892,-65],[-4272,21],[-2758,144],[-205,2828],[-15063,37],[18,-6453],[-7259,-41],[123,6420],[-4316,-16],[149,-3497],[-3903,-26],[-57,-8483],[-15116,88],[58,6002],[49,6013],[19,3156],[10,2588],[7856,2],[80,6442],[-46,2899],[-39,2897],[16,2768],[7,409],[436,3063],[1495,11998],[-9829,-6],[-11,12017],[-15119,-8],[44,-12042],[-15227,17],[-15211,28],[49,11993],[-15174,-18],[45,12029],[15164,-11],[179,23759],[-15145,10],[-72,11961],[-15052,34],[-24,34440],[5509,205],[2079,1385],[7506,-28],[-263,24122],[7071,4],[-20,6069],[8132,20],[-2,5915],[7296,-2],[7880,0],[15178,-34],[-7,12000],[-15165,31],[-49,12026],[15198,-39],[-39,12066],[-15200,-4],[-54,12034],[15209,15],[-15,6281],[-30,5714],[-7373,-4],[-26,6093],[-7796,63],[-25,5899],[-105,12039],[7168,-4],[-47,6162],[-17,5876],[-7177,1],[-111,12054],[15217,-23],[-102,5672],[7879,-5],[7394,-1],[-52,6410],[7532,-38],[7660,-42],[85,-6563],[7605,-17],[7280,-19],[-28,6561],[45676,-76],[29,-12004],[15197,-13],[76,-18063],[8012,22],[111,-30000],[7169,-15]],[[191607,939732],[45073,-77],[-73,11965],[15206,-44],[16,-11941],[30363,-30],[19136,33],[11182,-11],[3557,4],[44937,134],[-683,-5532],[-14,-726],[-56,-2967],[649,-7727],[1102,-2291],[3927,-3313],[862,-133],[2537,664],[3974,-1591],[3778,-4954],[-435,3421],[-2189,1880],[-1789,5251],[72,5893],[6851,212],[11336,259],[82,-3003],[3756,37],[82,2982],[7575,40],[-32,-6008],[-40,-6087],[-11827,-10],[-3416,-1437],[33,-4664],[4588,82],[2576,1365],[1654,444],[6380,-536],[641,-59],[897,-145],[4111,-811],[411,-133],[1023,-853],[45,-4545],[-1602,-116],[-2476,828],[-2277,1328],[-3081,54],[-905,-1404],[-2287,-1683],[-1339,145],[-202,-567],[1031,-2715],[-1208,-1370],[363,-1223],[-1340,-1296],[1519,-1815],[-1258,-1742],[-1703,-191],[-1220,-1124],[394,-1271],[1421,-332],[322,-734],[-1107,-820],[-1876,-263],[-569,-945],[641,-1174],[-276,-1561],[863,-978],[-108,-874],[-2200,-1208],[-2505,-343],[-742,-815],[-132,-2283],[-848,-1171],[-2326,35],[-706,1130],[-1444,-418],[-48,-2842],[-1969,-1247],[-999,-1446],[-470,-2692],[439,-1806],[-4162,-58],[-2657,47],[-48,-422],[-783,-6898],[-2294,-6212],[-2031,-2917],[-1720,-872],[-3921,-928],[-1338,189],[-2463,1211],[-2867,-967],[-7527,-5704],[-1099,-1230],[-524,-2103],[-334,-162],[-800,3337],[391,7334],[13,3980],[-15104,36],[-129,12167],[-15149,-142],[145,-12051],[-30366,170],[-15133,18],[-23,12026],[-30211,-65],[-161,2281],[-112,21831],[-15111,-16],[-12,12011],[-7725,6],[130,-7166],[-3207,70],[-1494,1553],[-2838,754],[10,4797],[-7867,9]],[[614602,325389],[123,-6028],[246,-17790],[13305,-2],[919,-881],[3,-5063],[3,-6012]],[[629201,289613],[18,-11351],[-14130,-34],[-214,-11882],[-2578,352],[-2849,1582],[-1699,1379],[-6880,4202],[-934,1273],[-15,3290],[-7442,127],[-15,-14588],[-1686,73],[-2601,-1233],[-2987,829]],[[585189,263632],[-17,3221],[-29872,147],[-22215,-4]],[[533085,266996],[-90,8294],[-309,3841],[-334,5770],[-7511,97],[-35,6280],[7136,-239],[80,6194],[1061,1186],[-32,4398],[-2358,9235],[-1735,1496],[-748,3404],[-929,1091],[-590,1912],[-1809,2811]],[[524882,322766],[-133,1745],[39,10642]],[[373785,489811],[6794,370],[1886,-787],[6837,118],[20,-17523],[374,-421],[3413,-24],[534,-43],[404,-197],[156,-196],[1416,-2547],[1282,-4],[109,-2970],[-116,1],[-24,-2636],[1415,-4127],[1495,53],[940,657],[8311,-62],[2722,-310],[528,238],[3390,50],[11145,-149],[33,8741],[267,1207],[2980,4497],[408,1521],[255,4439],[1438,3572],[24442,-148],[328,11902],[7334,-107],[15,-6768],[228,-3416],[-190,-22525],[16936,-180],[3021,-210],[2934,6098],[277,-1],[-5384,-11914],[-995,-1963],[-1853,-2756],[-2881,-3612],[2795,-359],[-3035,-2516],[7387,35],[2460,-1643],[3388,-769],[1236,-851],[2535,-2624],[1151,-531],[1846,-2608],[123,-704],[28210,-105],[55,11981],[14978,-26],[-63,-11987]],[[505855,399575],[-18997,241],[-622,-266],[-6583,-57],[-7527,-78],[-8,-2966],[64,-10167],[-1128,-8],[-7260,7468]],[[388609,418231],[-1953,2647],[-1523,1064],[-298,2299],[-3198,1758],[-2092,1952],[-3358,-440],[-41,1994],[-1891,-71],[-56,2924],[-5441,-117],[-40,3024]],[[368718,435265],[1708,43],[3817,98],[-384,11990],[-3717,-59],[-101,6013],[-3737,-49],[-68,3090],[7534,73],[-37,2966],[-82,11859],[103,5],[11,6036],[20,12481]],[[323468,489807],[1644,279],[1396,-683],[-5,1337],[1321,159],[145,1522],[1814,3363],[-596,2433],[2926,3248],[1733,1299],[1201,1620],[290,1319],[3379,-267],[2603,2231],[1954,-3],[558,295],[1182,767],[3255,135],[1786,-662],[3517,-246],[11041,-22],[9206,-89],[-28,-15557],[-5,-2474]],[[368718,435265],[-3457,-80],[-15382,-305],[623,-1363],[2999,-3165],[371,-14552],[600,-5389],[-153,-2765],[246,-5038],[-177,-722],[187,-928],[824,-4090],[1980,-9806],[460,-2019],[1296,-1711],[4174,-2287],[3607,-1371],[3974,-1186],[8289,-1292],[1820,34],[15,-1234]],[[381014,375996],[-3991,329]],[[377023,376325],[-92,50],[-3911,346],[-3849,1206],[-797,-233],[-5155,-1507],[-2177,286],[-2505,487],[-247,-947],[-620,-647],[-1111,-191],[-2464,314],[-1359,1181],[-549,2733],[200,753],[560,2105],[1685,2787],[439,1673],[614,297],[-3155,5014],[-1480,1283],[-3226,-657],[-4053,1413],[-929,323],[-2209,4011],[1651,2508],[11,18],[2567,983],[5785,2218],[10,24],[680,1798],[-22,99],[-1,1],[-590,2552],[1610,4970],[573,8980],[8,7990],[-1219,248],[-4619,420],[-3608,-70],[-1894,-240],[-2912,-59],[-1323,448],[-980,941],[-348,2250]],[[400034,301528],[4119,-6],[2642,-5981],[1547,-2884],[1768,3894],[2696,1957],[3338,-9],[82,-8745],[258,-256],[3581,-24],[7463,-76],[3715,23],[3741,297],[123,10958],[-7,671],[-5,580],[23,5456],[2781,37],[230,1409],[272,1578],[314,3093]],[[438715,313500],[1242,45],[6993,36],[47,-806],[3910,-310],[2526,879],[337,-879],[3159,-2977],[1452,560],[1953,2595],[1097,552],[-594,688],[-36,3026],[1048,3021],[2628,62],[86,4412],[-251,4977],[-3275,2591],[12588,390],[1729,-2569],[838,-208],[1760,-4369],[-1280,-1514],[-1340,-4514],[981,-1365],[975,-332],[14967,245],[1610,-70],[12039,-8444],[-22,12868],[-4763,3866],[-1992,981],[10608,58],[144,-5615],[4038,32],[410,-1118],[-91,-366],[728,-704],[182,-775],[1365,-1785],[209,-1452],[540,-400],[2627,-2369],[2687,-3923],[2266,-1425],[42,15671]],[[533085,266996],[-7928,12],[-22244,283],[-233,6199],[-11243,-109],[-114,3037],[-3757,22],[-74,3006],[-14859,-14],[-173,-11762],[-1667,-8],[1927,-3454],[149,-8747],[-6985,-122],[-667,130],[5438,-8607],[3598,-3469],[-3937,19],[-2652,-10],[-17064,-17],[-2154,73],[-1372,-739],[-11327,-1809],[-7500,-1014],[-3599,719],[-1781,-254]],[[422867,240361],[-8091,3600],[-5128,2733],[-3865,2694],[-2967,3253],[-1554,1705],[-2984,6674],[-293,2675],[192,3332],[633,2273],[180,282],[1368,2142]],[[882256,277269],[-74,-12041],[-22471,7],[234,-9744],[-829,-2222],[-2840,-12],[-29,-3017],[7404,12],[-443,-4149],[-2971,-377],[-2912,835],[-802,-1705],[-3804,-1458],[-2148,-3562],[-1299,-587],[-165,-1118],[-2716,-2462],[190,-1023],[-2125,-2500],[96,-2235],[-1131,-852],[-2527,-591]],[[840894,228468],[144,3561],[-6582,34],[-638,-500],[-719,-2462],[-16743,169],[-1846,-1157],[-3858,552],[411,844],[-4080,4145],[-4202,4507],[-9859,10402],[-7389,7768],[-2654,2930],[-15187,6],[-399,-1495],[-6333,-512],[-826,-303],[-5316,-512],[-6862,-139],[-502,-2662],[-1276,-438],[-3637,-60],[-455,-473],[-4626,-7729],[-1865,-1194],[-3069,-2917],[-708,-265],[-6204,215],[52,-2755],[7172,63],[913,-290],[-490,-1065],[-85,-4533],[-43,-2859],[-5858,78],[-5848,-198],[-3166,1073],[30,-13108]],[[718291,217189],[-7407,-8],[-77,5982],[-7276,-31],[34,5954],[-1355,101],[-28186,711],[-110,17866]],[[673914,247764],[81,10955],[144,1002],[11019,-220],[84,17972],[18671,-266],[14490,-24],[161,10718],[2113,209],[1598,1356],[140,2181],[2067,4578],[660,111],[1061,733],[1769,4031],[-1944,316],[9,24072],[14771,-61],[64,11810],[321,274],[3389,-23],[2056,36],[1696,-30]],[[330244,371893],[437,-322],[189,-140],[3360,-1635],[9066,-2185],[6529,-314],[1679,-81],[2474,332],[7875,3217],[4248,2487],[486,137],[8671,2439],[1765,497]],[[381014,375996],[9059,-747],[3524,-291],[1698,-175],[6186,-640],[87,-9],[3134,-323],[1923,-547],[8213,-2335]],[[414838,370929],[62,-18],[7736,-7945],[1,-1],[7,-7],[460,-1161],[2756,-8279],[388,-1165],[912,-8379],[8,-71],[-411,-3769]],[[426757,340134],[-11,-102],[-38,-354],[-2761,-7539],[-2531,-3977],[-8118,-7830],[-471,-454]],[[135130,364111],[-3615,25],[-11,1442],[-7609,192],[24,2119],[-104,420],[-3753,146],[-60,9112],[-10,2996],[-7603,66],[-3999,67],[-1834,-454],[-1594,432],[-6334,120],[-1063,-10],[-25,2612],[-1705,3111],[-3086,442],[-7306,-52],[-2758,1102],[-159,938],[-3906,269],[42,730],[82,1944],[-19,812],[-18956,199],[14,-6116],[-5663,-12],[4,-2970],[-8313,37],[-2484,-1057],[-1463,-1781],[-907,-352],[-10875,29],[-67,23802],[-11126,219],[-18818,162],[-71,11944],[7134,-79],[7870,-17],[3735,-5],[10982,-51],[77,6058],[14819,29],[-15,6020],[-7250,-15],[-234,20814],[3758,155],[-18,2465],[1631,572],[3737,241],[894,794],[4417,1894],[4392,261],[6,2887],[18966,-74],[11156,39],[3726,18],[-5,3051],[5,11857],[7516,-4],[-13,2894],[3834,-32],[-47,2968],[3726,64],[-162,23962],[3846,-22],[348,3046],[3445,-15],[-3,2240],[1682,1362],[2384,199],[1881,-813],[1776,-216],[-270,8965],[110,1272]],[[658654,262799],[-80,-1506],[218,-3276],[4269,1],[0,-6720]],[[663061,251298],[0,-9271],[-9878,213],[-2278,390],[-768,633],[-889,2722],[775,2286],[-667,2229],[1170,5234],[1877,2268],[-1056,-87],[-725,1507],[1449,748],[430,1029],[1173,247],[35,-872],[3037,966],[1908,1259]],[[947611,405213],[7421,-60],[22455,51],[3,-2642],[-191,-15355],[-177,-11993],[14886,41],[-126,-9581],[-168,-2463],[75,-7677],[-3495,-1293],[-3898,-377],[48,-5088],[8703,-29],[1009,-910],[1917,-475],[2675,19],[725,-824],[-28,-3771],[-55,-6103],[172,-12067],[5,-8239],[-4273,113],[-426,-1287],[-2272,-871],[-376,-1638],[7300,-55],[91,-3001],[226,-8990],[41,-2989],[121,-8883],[-28394,-134],[-11,5883],[-14751,86]],[[629938,423405],[15,11477],[15151,-42],[-321,-7777],[55,-3883],[30248,-251],[22740,411],[3354,-1],[-9712,-12001],[6215,-25],[7435,-5],[164,-11984],[30070,60],[85,-11969],[-15069,7],[69,-11993],[15060,37],[5922,-16],[-1003,-3030],[-2047,-531],[-823,-1235],[142,-1130],[13588,35],[-187,-6121]],[[673914,247764],[-1985,343],[-8868,3191]],[[658654,262799],[1396,389],[54,2424],[887,4640],[-125,4299],[-379,3381],[-1373,16],[-1,2889],[-1222,69],[-618,1196],[422,1697],[-1280,296],[-1611,1391],[-1521,2055],[-119,923],[1438,1190],[-25401,-41]],[[840894,228468],[421,-2477],[3495,-2528],[7249,-3559],[-15,-2907],[155,-5418],[-636,-389],[-6517,-239],[-279,-553],[163,-3652],[-1084,-1700],[-4046,-27],[-2554,2121],[-8225,6217],[-1302,-1310],[-526,-1308],[-2005,-2673],[-2924,-631],[48,-2332]],[[718341,205363],[-50,11826]],[[422867,240361],[1186,-528],[6795,-6243],[2696,-3452],[1397,-2729],[580,-2099],[412,-2979],[129,-933],[8,-2086],[32,-7668],[2041,-4948],[3828,-4978],[3369,-2795],[-98446,351],[-27878,366],[-470,56]],[[438715,313500],[-671,4350],[-1710,3713],[-3898,5611],[-1281,2659],[3528,648],[-752,2546],[-440,6154],[-2801,360],[-2514,377],[-1419,216]],[[414838,370929],[49,202],[14,2383]],[[718151,145297],[4,-12119],[3216,-229],[4012,-1014],[7009,-1228],[3799,-246],[3604,-1946],[909,1472],[11136,8424],[1430,794],[1618,-38],[34,-2418],[362,-513],[3491,-45],[3595,-331],[1337,-1361]],[[741884,109841],[-3979,-4482],[-11381,-16457],[-1303,-2145],[-4881,-13140],[-1951,-22],[-3939,68],[-11338,97],[-21970,523]],[[600042,147050],[63,47754],[114,24176],[106,11939],[-7484,58],[17,5982],[-7521,-19],[-115,17951],[-3593,-17],[-106,5981],[3681,-16],[-15,2793]]],"bbox":[-96.937243,42.0363784,-95.632988,43.24345],"transform":{"scale":[0.000001304256304256302,0.0000012070728070728133],"translate":[-96.937243,42.0363784]}}
