{"type":"Topology","objects":{"foo":{"type":"GeometryCollection","geometries":[{"type":"MultiPolygon","arcs":[[[0,1,2,3,4,5]]],"properties":{"postal_code":"80467","realtor_list_price":856454.545,"realtor_list_price_yoy":-0.1136,"realtor_list_price_base":0.8884,"realtor_active_listings":34.667,"realtor_active_listings_yoy":0.0196,"realtor_active_listings_base":-0.1649,"realtor_new_listings":7.333,"realtor_new_listings_yoy":0.1,"realtor_new_listings_base":-0.1608,"realtor_days_on_market":70.091,"realtor_days_on_market_yoy":-0.0579,"realtor_days_on_market_base":0.1508,"zhvi":678809.425,"zhvi_yoy":0.0272,"zhvi_base":1.0115,"zori":"NA","zori_yoy":"NA","zori_base":"NA"}},{"type":"MultiPolygon","arcs":[[[6,7,8]]],"properties":{"postal_code":"80428","realtor_list_price":1934166.667,"realtor_list_price_yoy":0.8809,"realtor_list_price_base":"NA","realtor_active_listings":12.333,"realtor_active_listings_yoy":-0.1957,"realtor_active_listings_base":-0.549,"realtor_new_listings":2,"realtor_new_listings_yoy":0,"realtor_new_listings_base":-0.4007,"realtor_days_on_market":80,"realtor_days_on_market_yoy":0.3043,"realtor_days_on_market_base":"NA","zhvi":908957.263,"zhvi_yoy":0.0277,"zhvi_base":1.0328,"zori":"NA","zori_yoy":"NA","zori_base":"NA"}},{"type":"MultiPolygon","arcs":[[[9,10,11,12,13]]],"properties":{"postal_code":"81625","realtor_list_price":342947.368,"realtor_list_price_yoy":-0.0536,"realtor_list_price_base":0.8778,"realtor_active_listings":96.333,"realtor_active_listings_yoy":-0.0302,"realtor_active_listings_base":-0.2839,"realtor_new_listings":25.333,"realtor_new_listings_yoy":0.2667,"realtor_new_listings_base":-0.2428,"realtor_days_on_market":67.158,"realtor_days_on_market_yoy":-0.1278,"realtor_days_on_market_base":-0.0567,"zhvi":311443.841,"zhvi_yoy":0.0077,"zhvi_base":0.7625,"zori":"NA","zori_yoy":"NA","zori_base":"NA"}},{"type":"MultiPolygon","arcs":[[[-12,14,15,-1,16]]],"properties":{"postal_code":"81639","realtor_list_price":637670.833,"realtor_list_price_yoy":-0.1354,"realtor_list_price_base":1.0091,"realtor_active_listings":35.333,"realtor_active_listings_yoy":0.1277,"realtor_active_listings_base":0.6119,"realtor_new_listings":4,"realtor_new_listings_yoy":-0.3333,"realtor_new_listings_base":-0.2143,"realtor_days_on_market":87.667,"realtor_days_on_market_yoy":0.0464,"realtor_days_on_market_base":0.642,"zhvi":522216.874,"zhvi_yoy":0.0452,"zhvi_base":1.0024,"zori":"NA","zori_yoy":"NA","zori_base":"NA"}},{"type":"MultiPolygon","arcs":[[[-14,17,18,19]]],"properties":{"postal_code":"81640","realtor_list_price":"NA","realtor_list_price_yoy":"NA","realtor_list_price_base":"NA","realtor_active_listings":6.333,"realtor_active_listings_yoy":0,"realtor_active_listings_base":-0.0639,"realtor_new_listings":0,"realtor_new_listings_yoy":-1,"realtor_new_listings_base":-1,"realtor_days_on_market":"NA","realtor_days_on_market_yoy":"NA","realtor_days_on_market_base":"NA","zhvi":"NA","zhvi_yoy":"NA","zhvi_base":"NA","zori":"NA","zori_yoy":"NA","zori_base":"NA"}},{"type":"MultiPolygon","arcs":[[[20,-7,21,-15,-11]]],"properties":{"postal_code":"81653","realtor_list_price":"NA","realtor_list_price_yoy":"NA","realtor_list_price_base":"NA","realtor_active_listings":1.333,"realtor_active_listings_yoy":0.3333,"realtor_active_listings_base":0.3333,"realtor_new_listings":0,"realtor_new_listings_yoy":"NaN","realtor_new_listings_base":"NA","realtor_days_on_market":"NA","realtor_days_on_market_yoy":"NA","realtor_days_on_market_base":"NA","zhvi":"NA","zhvi_yoy":"NA","zhvi_base":"NA","zori":"NA","zori_yoy":"NA","zori_base":"NA"}},{"type":"MultiPolygon","arcs":[[[-22,-9,22,-2,-16]]],"properties":{"postal_code":"80487","realtor_list_price":1563876.404,"realtor_list_price_yoy":0.1592,"realtor_list_price_base":1.1287,"realtor_active_listings":346,"realtor_active_listings_yoy":0.0949,"realtor_active_listings_base":-0.1476,"realtor_new_listings":59.333,"realtor_new_listings_yoy":-0.1359,"realtor_new_listings_base":-0.3044,"realtor_days_on_market":83.236,"realtor_days_on_market_yoy":0.152,"realtor_days_on_market_base":0.0183,"zhvi":1306795.605,"zhvi_yoy":0.0472,"zhvi_base":1.196,"zori":3550.873,"zori_yoy":0.0559,"zori_base":"NA"}},{"type":"MultiPolygon","arcs":[[[-5,23,24]]],"properties":{"postal_code":"80469","realtor_list_price":520000,"realtor_list_price_yoy":0.0421,"realtor_list_price_base":"NA","realtor_active_listings":3.333,"realtor_active_listings_yoy":1,"realtor_active_listings_base":-0.1389,"realtor_new_listings":1.333,"realtor_new_listings_yoy":1,"realtor_new_listings_base":1.875,"realtor_days_on_market":16,"realtor_days_on_market_yoy":0.3333,"realtor_days_on_market_base":"NA","zhvi":439814.432,"zhvi_yoy":0.0027,"zhvi_base":0.8688,"zori":"NA","zori_yoy":"NA","zori_base":"NA"}},{"type":"MultiPolygon","arcs":[[[-24,-4,25]]],"properties":{"postal_code":"80483","realtor_list_price":447750,"realtor_list_price_yoy":"NA","realtor_list_price_base":"NA","realtor_active_listings":4.667,"realtor_active_listings_yoy":0.4,"realtor_active_listings_base":0.4465,"realtor_new_listings":0.667,"realtor_new_listings_yoy":"Inf","realtor_new_listings_base":2.3333,"realtor_days_on_market":51,"realtor_days_on_market_yoy":"NA","realtor_days_on_market_base":"NA","zhvi":476940.528,"zhvi_yoy":0.0036,"zhvi_base":0.8949,"zori":"NA","zori_yoy":"NA","zori_base":"NA"}},{"type":"MultiPolygon","arcs":[[[-19,26]]],"properties":{"postal_code":"81610","realtor_list_price":"NA","realtor_list_price_yoy":"NA","realtor_list_price_base":"NA","realtor_active_listings":2.333,"realtor_active_listings_yoy":0.75,"realtor_active_listings_base":-0.3411,"realtor_new_listings":0,"realtor_new_listings_yoy":"NaN","realtor_new_listings_base":-1,"realtor_days_on_market":"NA","realtor_days_on_market_yoy":"NA","realtor_days_on_market_base":"NA","zhvi":"NA","zhvi_yoy":"NA","zhvi_base":"NA","zori":"NA","zori_yoy":"NA","zori_base":"NA"}}]}},"arcs":[[[800093,217597],[18,2732],[1396,29],[-118,3162],[1212,4076],[692,3840],[1144,4073],[638,1783],[1050,4059],[-130,38010],[-7705,458],[-31,15050],[1652,-82],[1,985],[5994,-108],[-2,11811],[1834,78],[4157,176],[-36,86],[-21,535],[1238,101],[308,7548],[507,1094],[0,104],[1407,561],[3927,2261],[1058,1701],[535,1742],[1442,1811],[1504,2643],[765,1943],[838,783],[1127,1835],[820,856],[1984,3591],[1936,1686],[600,1474],[-16168,28234]],[[815666,368318],[5023,-1164],[21007,14031],[413,2655],[8272,-96],[1689,-19],[-67,-20044],[1758,2214],[1304,2845],[1306,43],[351,1967],[915,1893],[954,747],[1739,-1590],[254,-677],[1442,-1315],[382,-860],[560,-3952],[1023,594],[1084,-715],[794,-1346],[255,-1913],[1512,-1897],[561,-3198],[399,-861],[218,-2766],[746,-1449],[-412,-1510],[1948,-3650],[37,1185],[703,-668],[1225,-3626],[869,72],[414,-1233],[-376,-2967],[749,-3210],[559,-1400],[-133,-2376],[246,-5356],[470,-3483],[1237,466],[1087,-167],[670,-867],[1113,194],[1187,1960],[1249,498],[1121,-733],[727,686],[1063,175],[76,-1827],[10276,4599],[1367,-274],[3263,476],[-9,-1606],[-1959,-158],[-9,-1342],[-4263,-76],[17,-4038],[770,927],[119,-4820],[-693,-41],[133,-3317],[-3995,-58],[15,-1311],[-3131,-2484],[-5013,-72],[27,-27897],[6021,-192],[7690,-46],[26,10801],[355,339],[1023,3330],[788,1489],[762,3693],[1349,430],[1084,2544],[1146,197],[147,-433],[-130,-999],[1016,-953],[512,1430],[2921,929],[-161,-1569],[1321,-3541],[549,-59],[-524,-2314],[267,-1408],[9,-3278],[-976,-337],[-794,-3237],[561,-1043],[1628,193],[-522,-3190],[528,-1087],[1014,-133],[-344,-2823],[247,-677],[848,404],[39,-7680],[1102,99],[740,2467],[276,6127],[64488,-208],[469,-3464],[834,-1371],[324,-2007],[759,-2719],[-726,-1911],[-952,-985],[-282,-1531],[987,-613],[1372,-1447],[1833,-750],[302,-553],[1118,-217],[492,1580],[2027,-222],[460,884],[2314,-1816],[824,-1428],[408,-1987],[498,-421],[567,-2406],[1139,-1873],[853,-607],[1734,-384],[1141,-1068],[811,-1705],[1696,-306],[1593,-1618]],[[999905,250436],[-266,-108870],[-1602,-12],[-18,-21914],[-2913,-4111],[-1763,-1376],[-930,-1694],[-1922,-529],[-399,-723],[1301,169],[-827,-154],[-623,-2479],[-1249,-2777],[-752,-953],[1171,95],[1984,-1811],[-157,-1916],[-841,-1860],[-465,-1972],[408,-1213],[-663,-999],[137,-1687],[-319,-1500],[-579,-262],[49,-2192],[-617,-1548],[-396,-3212],[530,-658],[-728,-691],[-222,-3260],[210,-1576],[-937,-928],[-247,-2121],[616,-1476],[222,-4123],[-1023,-618],[-628,-1548],[-1553,262],[-74,-1406],[-603,-1524],[-1404,667],[-1048,3383],[271,1763],[-610,-2061],[103,-2945],[361,-2173],[-861,951],[30,1154],[-1201,-100],[-1083,944],[-89,738],[-1273,-1193],[-1904,-3123],[-877,-502],[-1286,1451],[-865,-906],[-2319,-204],[-1366,3376],[-784,316],[-1666,5138],[-2568,415],[-2544,5767],[-1242,887],[-3269,-52],[-1220,1512]],[[954503,80472],[-1561,2535],[-599,2074],[-591,1024],[32,1375],[-505,1178],[-210,-65],[-4595,2537],[-3437,3111],[-3731,3053],[-5551,9126],[-4716,10728],[476,2196],[222,2938],[-1478,2791],[-568,2727],[-521,542],[-1060,647],[-1192,4368],[-1216,319],[-802,772],[-1087,2292],[-1213,3059],[-497,-178],[-332,-1224],[-730,-640],[-1134,1412],[-1228,398],[-788,1041],[-206,2801],[-64,2430],[-604,2041],[-1447,576],[-782,834],[-1315,4006],[-506,92],[-1178,1502],[-835,-35],[-1483,-722],[-1818,645],[-1134,1450],[-1580,-122],[-747,485],[-1163,2576],[-1333,-167],[-1417,1227],[-1380,808],[-1187,-988],[-430,-3001],[-980,-2177],[-850,-1250],[-711,-2172],[-1134,-1080],[-1270,641],[-1675,-1696],[-746,126]],[[887916,149438],[4,46067],[304,8706],[31,24191],[-895,-1321],[-815,-262],[-1058,-2641],[-50,1286],[-806,1207],[-812,-1497],[-788,1201],[-590,40],[-980,-1091],[-276,-2567],[-827,-354],[142,-881],[-1075,-1994],[-783,-211],[332,-1247],[-323,-1772],[-1363,881],[-766,-2847],[-370,-137],[-685,-1722],[113,-1691],[-918,-74],[-752,-2236],[648,-2720],[-1007,-916],[128,-1033],[-874,159],[-83,-715],[-884,339],[24,2139],[-255,55],[3,36],[863,8672],[533,975],[-424,3361],[-1681,3014],[-158,7237],[-694,1904],[-1340,6280],[-1186,1953],[391,-813],[530,-989],[470,-1204],[412,-2754],[-544,-885],[-190,-1418],[-921,-983],[-640,-1441],[-3010,27],[-1366,-823],[-575,588],[-711,-493],[-483,658],[-3979,-1009],[-1742,-1192],[-1741,-2316],[-1226,-3077],[-720,-596],[-690,-1418],[-1166,-1236],[-373,-1201],[-561,5],[-960,-1547],[-1135,-408],[-889,-1279],[-1286,-828],[-575,-1594],[-705,-451],[-128,-1063],[-1318,-256],[-756,-680],[-510,-3681],[-966,-2269],[-1514,-1919],[-690,-2835],[-712,-1469],[-276,-2823],[-397,-594],[0,-2801],[-1220,429],[-2376,-721],[2,-631],[48,-15593]],[[832325,173629],[-1262,-635],[-1191,-1375],[-1670,-1187],[-1915,-2134],[-1120,-719],[-3047,-1072],[-1389,406],[-2597,-3040],[-1852,-469],[-1277,-635],[-798,1708],[-856,-292],[-480,-3738],[-827,-906],[-814,94],[-1356,1364],[-1013,94],[-734,-625],[-1784,-2051],[-566,-1927],[-670,-4154],[-666,-2770],[-1678,-4716],[-368,-386],[-893,677],[-178,2478],[393,2437],[-497,552],[-541,-542],[-1158,-3124],[-996,-1801],[-1795,-2061],[-591,364],[-12,1208],[789,2790],[112,2843],[-194,1135],[-554,260],[-534,-1520],[-959,41],[-479,5030],[-592,1697],[-1872,1812],[-1286,2644],[-2237,7736],[-459,1344],[-951,0],[-2960,-3863],[-2117,-1874],[-1162,270],[-1112,875],[-1509,552],[-1827,1270],[-1638,2572],[-769,2311],[-636,1104],[-583,2738],[-1670,1843],[-1423,21],[-1190,864],[-1187,42],[-1125,979],[-1025,-271],[-1166,1041],[-1335,-531],[-1584,1385],[-1120,-448],[-1116,1364],[-1844,-114],[-451,1739],[-628,156],[-1840,-927],[-141,-2322],[670,104],[513,1510],[694,-2228],[1373,-1780],[1414,-969],[58,-1083],[-765,-1874],[-66,-1593],[450,-1760],[1017,-2394],[120,-813],[-235,-697],[-1034,-229],[-814,-989],[-1109,-2468],[-1203,-1239],[-297,-1083],[1397,-2749],[401,-1406],[-2199,3655],[-782,2624],[-3092,3259],[-3568,5373],[-2245,1208],[-1625,614],[-1745,1895],[-388,1093],[-484,6060],[-604,1999],[-1587,3277],[60363,1075],[1635,-4],[6551,-17],[207,1026],[-209,6037],[947,3545],[1441,2590],[423,1543],[-985,-287],[70,1585],[-838,1089],[-1068,250],[-2013,1262],[-1001,53],[-1111,872],[-149,2747],[-674,858],[-61,2315],[-419,1541],[-860,-113],[-174,1073]],[[827337,985921],[-480,2029],[540,1553],[1478,611],[763,3561],[965,1919],[-334,1288],[883,837],[170,2170]],[[831322,999889],[16383,110],[59053,-813],[-1521,-2806],[-64,-3297],[725,-1560],[1141,-1508],[2575,-2682],[137,-654],[-1524,-2370],[-499,-1343],[-160,-3266],[-656,-2779],[-813,1996],[-1215,527],[-1955,-1102],[-1467,-1480],[-327,-3265],[-598,-2301],[-153,-1544],[301,-3449],[-117,-1771],[121,-2937],[963,-4120],[248,-3751],[-152,-2375],[650,-1661],[1789,-1483],[741,-6687],[-110,-5572],[150,-1040],[1128,-2608],[1210,-872],[232,-629],[-95,-2089],[1600,-1232],[-58,-4231],[1496,-3564],[-508,-890],[-972,-279],[969,-1023],[1817,893],[2090,-342],[1394,-1115],[885,538],[1585,-266],[762,353],[1225,2930],[635,2283],[-67,2971],[618,-1913],[334,-2274],[1136,-2903],[571,-3307],[141,-1955],[-310,-1687],[2940,-2273],[241,-520],[611,-4740],[571,-2972],[876,-1980],[168,-3760],[241,-1100],[-901,-1485],[-920,-831],[1003,-672],[544,-1158],[460,-713],[1169,-419],[425,-805],[1331,344],[1015,1511],[459,2753],[929,-630],[1038,857],[665,-227],[-289,2375],[998,677]],[[936360,895927],[311,-620],[-200,-5907],[-1334,-1691],[-26,-4286],[-262,-1906],[62,-2786],[-1782,-4621],[-120,-1432],[805,-1135],[47,-3074],[349,-1909],[-495,-2749],[-861,-1130],[-515,-2319],[429,-2102],[-707,-882],[-117,-1383],[272,-2016],[-275,-451],[951,-1717],[373,-1918],[-274,-2327],[734,-740],[-12,-1191],[-914,-1621],[-688,-3179],[513,-1631],[-658,-776],[117,-1299],[602,-1730],[-472,-2644],[1069,-409],[-144,-2191],[1170,-2533],[1679,-169],[2023,-1732],[1166,-3031],[-379,-2687],[1126,-2640],[-400,-1562],[376,-1186],[5,-2317],[323,-1413],[-533,-7515],[690,-1229],[424,-3520],[-528,-1502],[52,-1621],[401,466],[34,-1312],[-456,-1377],[527,-1687],[-303,-1410],[490,-1435],[232,-1970],[-285,-2271],[482,-2447],[-529,-1437],[-60,-3117],[615,-764],[119,-1027],[-496,-1276],[332,-859],[-490,-1360],[361,-268],[492,-2588],[26,-3760],[233,-1708],[-499,-2364],[278,-1771],[-842,-2730],[-854,26],[-2023,-3035],[-976,-201],[-955,-1476],[-773,-387],[-1556,-2463],[-2473,-2722],[-1070,-1780],[-2058,-1318],[-2784,-144],[-3580,-3464],[-1739,-1075],[-35,-1337],[-2253,-2773],[-672,-467],[-550,-1262],[-260,-2935],[344,-919],[-501,-3474],[-548,-2670],[-733,-1910],[-930,129],[265,-1643],[-851,-876],[-268,-1635],[-2441,-2811],[-497,-90],[-1325,-1481],[91,-1853],[-1580,-1088],[8,-788],[276,-2784],[-11,-2588],[220,-2215],[484,-806],[2809,-1617],[-1872,-1483],[-938,154],[-1274,2271],[-711,-1213],[-2035,-434],[-444,-667],[-1315,-4721],[-1939,-54],[-1502,553],[-1183,-3492],[436,-1360],[-243,-2318],[-1110,-3638],[141,-2489],[594,-1551],[607,-3943],[980,-1574],[-892,-277],[-460,734],[-459,2484],[-1280,1125],[-2771,-807],[-1789,-1118],[-1715,621],[-534,2406],[324,3167],[-807,1978],[-314,2988],[-468,1767],[-1318,2276],[-500,390],[-1019,-666],[-1676,-551],[-2591,-101],[336,1023],[213,1259],[-1465,360],[-1502,-6],[-883,-2724],[-691,-585],[-303,-3727],[-957,-1778],[-505,-2617],[419,-3058],[-735,-2285],[-1296,-1243],[-852,2178],[176,861],[-860,2842],[-466,3104],[-2646,2823],[-3545,-245],[-1512,-411],[-602,2075],[-678,1031],[-1061,2862],[-376,2057],[-593,1296],[-1000,586],[377,1686],[-338,1636],[-1062,414],[-598,1353],[-1694,1240],[-892,1368],[-1845,1903],[2263,-1713],[721,-951],[1243,-47],[1143,502],[995,-643],[956,1382],[2355,1298],[1058,-1150],[1081,42],[1662,-1042],[578,354],[2642,137],[1046,-487],[953,-1365],[2045,-1318],[-118,6466],[-849,1897],[-669,713],[-2195,5321],[-388,304],[-1532,4682],[-951,1255],[-302,1203],[-127,3610],[110,1148],[-1105,3161],[-1828,939],[-912,1112],[-398,2028],[190,1702],[671,523],[571,2933],[-342,1093],[808,1624],[-412,489],[-1018,-345],[-719,1958],[117,1122],[-979,2542],[-977,4436],[-1130,2042],[-359,2400],[-1769,2060],[-105,2683],[162,1677],[-264,1958],[-813,2934],[-138,2333],[-678,1583],[-374,573],[-1112,-321],[-1447,386],[-2030,1055],[-2080,-1597],[-1181,-534],[-833,943],[-986,126],[-936,-810],[-1239,-1724],[-1056,-928],[-1781,128],[-1021,1016],[-1275,587],[-1356,1717],[-1316,-842],[-1229,424],[-1007,2393],[-2450,1618],[-2243,-949],[112,-1021],[-1568,-1233],[-807,-1532],[-1051,-796],[-453,2787],[448,3019],[-457,801],[-802,-485],[-790,-1008],[-975,-2403],[-513,-2603],[581,-2857],[1066,-3195],[27,-1135],[-695,-1888],[-1272,-1950],[-1415,3421],[-925,819],[23,2217],[-608,3225],[-159,7003],[-810,8289],[311,394],[270,2224],[-253,2419],[-853,2200],[-105,1075],[489,2720],[944,2569],[1460,2552],[1272,1746],[5732,15042],[1158,19278],[7884,16280],[2443,2219],[1449,1612],[881,1483],[954,704],[529,1120],[1490,919],[2086,330],[1493,-445],[2653,1550],[1513,1511],[927,560],[483,768],[220,2480],[912,1676],[2200,2211],[1138,447],[212,1580],[-263,1001],[-486,1130],[203,1479],[-633,3520],[156,2328],[450,2492],[1627,4187],[-735,2141],[94,3516],[-575,4750],[-801,8307],[-686,239],[-396,2313],[-1055,4320],[-352,2128],[-829,1475],[-1012,720],[1,1844],[411,2266],[-245,1131],[-754,46],[-839,809],[-994,167],[-1185,2749],[190,2768],[379,2278],[-111,1631],[-3838,4757],[-1347,455],[-762,-376],[-2802,-156],[-1156,1910],[-1079,32],[-404,6459],[-980,4021],[-780,-179],[604,2125],[85,5347],[-338,1592],[510,3460],[-579,2378],[-1120,1203],[477,3845],[-752,772],[-502,1287],[-1807,2113],[-1024,2569],[-3189,5270],[-605,1403],[-707,525]],[[525112,998576],[36999,28],[27186,21],[21702,200],[7595,71],[31456,291],[38250,354]],[[688300,999541],[791,-983],[967,-229],[1848,-21],[-181,-291],[-546,-4405],[116,-2509],[-253,-6341],[-703,-1916],[-723,-3290],[-58,-1604],[1025,-1614],[-8,-968],[-752,-3145],[-881,-2082],[-988,-1385],[-674,-2051],[492,-3384],[260,-3884],[327,-1301],[-368,-6529],[546,-3446],[1848,-4186],[70,-8819],[128,-4831],[323,-2791],[637,-1343],[1302,-6528],[1335,-2208],[2510,-2103],[1997,-3644],[1377,-4977],[2398,-3686],[1525,166],[1575,-2082],[1555,-2437],[674,-3175],[1364,-2249],[1795,-4530],[-33,-1074],[-1146,-1615],[114,-1181],[1428,-3984],[904,-732],[163,-1201],[916,-1266],[1474,-1131],[1159,-1367],[193,-1617],[942,-2059],[97,-17957],[20,-3440],[559,-86301]],[[717740,763815],[575,-85939],[-12,-380],[95,-7451],[-326,-89828],[-22519,18],[-1185,4],[29,-4216],[36,-56074],[-16453,-132],[-3938,-2610],[-895,-822],[-928,-63],[-1044,-812],[-509,886],[23,-11537],[3,-1142],[-245,-89586]],[[670447,414131],[-3494,-2915],[-6989,-2485],[-7093,-4496],[-813,-160],[-804,-1118],[-251,-1968],[-619,-2041],[-1855,-2627],[-304,-1466],[-2420,-8510],[-1584,-2329],[-2483,-1846],[-2877,544],[-815,4769],[-1246,1873],[-3153,1337],[-1943,-1869],[-545,-2024],[-50,-4095],[-285,-3024],[-274,526],[-1086,4635],[-1764,486],[-1032,1412],[-1193,246],[-1689,-372],[-1184,-2140],[-699,-3437],[464,-1147],[144,-5133],[-347,-5978],[-495,-3547],[-2152,-10883],[-716,-2789],[-1073,-2854],[-505,-2029],[-161,-2329],[248,-1038],[-514,174],[-3059,-1208],[-2096,1874],[-889,10],[-1575,-5633],[-455,-2790],[-1728,104],[-2105,-937],[-1827,968],[-3361,-437],[-1301,2189],[-605,2583],[-1457,1699],[-2127,1538],[-1110,-836],[-1001,112],[-581,1759],[-830,628],[-540,4008],[927,3770],[-422,2375],[-1623,1199],[-160,1654],[331,1890],[-942,993],[-984,-1461],[-950,198],[-456,1264],[-572,4555],[-539,1016],[-1542,-1677],[-645,-1510],[-1563,-6872],[-1141,-3884],[-984,-3946],[-409,-947],[-62,-1635],[-1398,-3790],[-686,-3332],[-794,-2634],[-471,-3415],[-711,-2177],[-772,-1459],[-3210,-821],[-1290,-1635],[-1079,1458],[-1745,-1312],[-1236,708],[-1178,1354],[-893,-802],[-513,-1583],[-562,-187],[-281,-1385],[-658,1697],[104,1010],[-910,3457],[-1046,906],[-1501,-968],[-612,-1510],[-198,3644],[-947,21],[-1252,-1458],[-62,4155],[-695,-1645],[-972,-1364],[-980,-396],[-1058,885],[-291,-638],[-2491,1001],[-1419,-262],[-1333,260],[180,-1332],[-473,167],[-728,2214],[-2117,406],[-1171,-286],[-364,1215],[-898,689],[-1139,2596],[-536,690],[-797,-115],[-1327,-2419],[-389,562],[347,1656],[29,3092],[1149,3030],[17,1333],[-1112,2957],[-185,2331],[1047,3932],[-187,1294],[-571,767],[238,2244],[-749,954],[-299,-4793],[-646,-1481],[-1236,-313],[-244,-1083],[-761,-989],[-1393,1218],[-699,2593],[-649,-1364],[-748,-416],[-1009,-2562],[-254,-2454],[-1342,-2814],[-1819,-2822],[-302,-937],[-1931,-3415],[-632,0],[-1170,1676],[-331,-21],[-777,-2395],[-42,-1468],[-596,1735],[-1544,2691],[-655,2216],[65,3004],[718,2691],[-1208,333],[-827,-616],[-3198,-3779],[-1258,-224],[-482,1238],[-1162,857],[-1014,1215],[-1050,-651],[-1602,11281],[-471,1614],[-3457,8611],[-1281,2457],[-3568,5404],[-1352,1770],[-591,21],[-1182,-969],[-5632,1677],[-401,406],[-3527,7799],[-2501,3436],[-918,1936],[-2657,7713],[-857,4438],[-619,5624],[-660,-363],[-2306,-3451],[-1347,-81],[-2250,-656],[-3807,520],[-521,334],[-716,2374],[-2571,-1916],[-509,2155],[-814,489],[-1381,-541],[-1182,-1312],[-1120,974],[-1665,-3090],[-1097,-3160],[-269,-2972],[-542,-1853],[-555,-118],[-839,1147],[-619,-1096],[-98,-2619],[-804,-3524],[-704,-1881],[-668,-3072],[-1459,-4762],[-915,-1097],[-3536,-265],[13,-1428],[-593,-2929],[-2058,-70],[-1326,-714],[-1241,1692],[-1153,240],[-309,-2243],[-765,-8132],[-670,-1999],[-637,-6956],[-227,-1239],[-1253,-3123],[-1649,-1989],[-588,-1812],[-1165,-2134],[-869,-2458],[-380,-2551],[-1435,-125],[-2534,-1468],[-9278,6498],[-239,1645],[-67,1936],[-2373,3655],[-1182,2447],[-1443,3551],[-430,281],[-4106,62],[-595,1437],[-513,52],[-967,2936],[-331,1802],[-2629,2613],[-459,1021],[157,4102],[628,2759],[95,2510],[-16,5528],[-236,5061],[199,9558],[8,14296],[-58,1041]],[[400798,417462],[3163,4780],[289,833],[211,1062],[2505,37917],[-19681,-1021],[1217,4898],[-87,2655],[232,1364],[1389,2749],[1001,3113],[2402,5904],[860,1229],[1782,3196],[2236,4404],[4348,79],[-168,892],[-2083,1893],[-753,198],[21,1458],[-943,41],[5,1761],[2,5125],[-3,7334],[-161,1513],[-829,3027],[1101,-609],[2740,827],[963,-1783],[99,-2025],[-910,-3767],[812,-2211],[1562,-1802],[975,694],[318,1591],[-397,2551],[535,917],[1937,30],[1452,1944],[537,-744],[-460,-2514],[-751,-62],[-214,-1379],[-1062,-658],[-1050,-1718],[-849,-3056],[275,-2490],[1474,-2694],[111,-2394],[968,-1810],[635,141],[631,1668],[409,1970],[1701,817],[969,-2028],[1602,-4271],[1127,-1514],[1119,-643],[1199,1133],[699,1533],[2098,2235],[848,-100],[485,-695],[419,-2404],[174,-6958],[-1287,-3143],[1649,-1539],[633,2415],[777,1114],[1278,875],[446,-1697],[352,271],[1947,4081],[1075,1198],[1058,2103],[1518,4279],[1083,4040],[116,2145],[702,3530],[521,5383],[-82,1864],[-786,2728],[50,2603],[-645,1989],[1542,2176],[277,3259],[521,1010],[-248,1916],[1319,187],[2286,2030],[2278,-739],[657,-614],[1687,-6008],[955,-1864],[959,-437],[2994,-312],[2274,-2062],[868,-1468],[1472,1031],[1244,1822],[553,2046],[-1,-5067],[-328,-3323],[386,-1022],[148,4738],[359,2096],[2741,8513],[653,1210],[594,2548],[984,559],[374,2263],[978,827],[246,2041],[573,908],[837,-727],[-49,2167],[322,1547],[1686,953],[843,999],[-223,1501],[508,1880],[384,143],[1438,-1643],[1153,2570],[756,1072],[1289,141],[1166,2453],[-49,1119],[-732,1428],[-992,-1380],[-1227,1810],[-991,-47],[240,2328],[1054,5701],[-1963,280],[-1934,1143],[-181,1827],[147,2304],[-1063,1094],[-979,-802],[-2138,198],[438,3936],[-488,1520],[1481,2447],[922,364],[690,1218],[1856,115],[1656,4830],[411,1655],[176,2935],[1134,3098],[1793,906],[834,-146],[963,2541],[388,1987],[858,1674],[365,1489],[1571,2379],[786,752],[886,-156],[983,939],[1501,2371],[321,1371],[1190,1272],[635,1490],[2001,2253],[2275,164],[3286,1140],[1887,1240],[1392,1386],[5471,99],[1785,-279],[1274,-1391],[389,-1087],[2521,125],[1095,500],[3043,4008],[331,958],[744,3842],[1311,8236],[2418,3884],[-587,479],[-500,750],[-298,833],[-2518,14379],[-396,2332],[86,5186],[-301,4664],[-439,1385],[-6292,7518],[-377,864],[-140,1375],[219,4248],[-1021,5175],[66,4362],[475,3051],[-628,2010],[-1393,2217],[-414,2291],[-777,2572],[-604,3467],[-264,4061],[-1079,1666],[-385,1468],[21,2020],[306,2218],[-161,4144],[251,1340],[828,2304],[1120,979],[1460,3259],[1554,2728],[153,5581],[-612,3144],[-219,2010],[17,23729],[533,7633],[169,5830],[-798,3884],[-1066,2041],[-2225,3748],[-1054,1479],[-4684,3946],[-2741,3634],[-4,-4863],[281,-1593],[-240,-1114],[-21,-4675],[-1422,-5560],[-819,-4967],[-529,-5820],[-392,-1354],[-492,-5695],[173,-3436],[1249,-1437],[293,-1624],[-682,-2114],[95,-1385],[-827,-5435],[-488,-1114],[13,-2457],[-1914,-1573],[-914,-1291],[-1393,-3477],[-2134,-2395],[-3216,-427],[-922,-1791],[-1489,-1333],[-1244,-697],[-1522,-2541],[-1075,-4213],[-444,2113],[-2095,1863],[-1298,2961],[-1237,1364],[-1938,680],[-998,2391],[-486,-160],[-1444,1159],[-525,1321],[-1817,115],[-797,676],[-692,-1097],[-529,-3425],[-17,-2052],[-1377,-5706],[-1079,-3290],[-1158,-718],[-1232,-3301],[-1223,-999],[-1224,-1687],[-1009,-292],[-1625,-3967],[-959,-1603],[-723,-438],[-629,-1166],[-1823,-1145],[-1183,-2811],[-1443,197],[-1939,-937],[-2571,-2769],[-2212,-1489],[-3436,-3926],[-657,-2384],[-356,-3926],[-951,-3300],[-157,-2249],[-401,-1021],[-1389,406],[-587,-270],[-1211,-2874],[-1712,-1718],[-2849,0],[-975,-448],[-1022,438],[-2943,447],[-1129,-1072],[-1472,281],[-996,1812],[-2485,-229],[-736,-833],[-889,-209],[-1116,635],[-678,698],[-1199,1781],[-1902,-771],[-1096,-2124],[-2993,-614],[-723,-3363],[-670,-636],[-1927,-229],[-802,-749],[-1650,260],[-1277,1957],[-1001,6081],[-4,896],[835,2738],[282,4009],[-265,1385],[-889,-615],[-748,-2655],[-567,-177],[-955,198],[-880,1406],[-579,1551],[-1257,312],[-930,-916],[-2349,-1197],[-512,541],[78,2978],[624,2176],[5,1812],[529,2072],[-13,1156],[1241,4654],[132,3020],[-372,4341],[21,1469],[-430,1478],[-1079,-10],[-1042,-2083],[-931,-489],[-1295,739],[-474,1758],[-105,2887],[-609,1592],[-2996,1753],[-1781,395],[-2019,14],[-2115,-277],[-2228,208],[-956,1499],[-843,2936],[-1244,969],[-831,-854],[-935,-2010],[-351,-2332],[-70,-2624],[-418,-1916],[265,-6861],[-261,-3051],[-620,-3863],[29,-2322],[-790,-3415],[-835,-2114],[-3642,-6497],[-947,-3936],[-347,-791],[-2779,-3978],[-1546,-1270],[-2080,-521],[-2741,-1311],[-1926,-2125],[-1055,-1603],[-2956,-10652],[-422,-968],[-3638,-6018],[-2286,-4988],[-4804,-4050],[-517,-698],[-4474,-8777],[-1352,-958],[-4051,-1802],[-1592,-1582],[-1199,-2791],[-232,-1020],[331,-3259],[37,-4686],[-223,-3706],[-1368,-3884],[-1662,-2655],[-1530,-1479],[-2348,-1614],[-1774,-2832],[-227,-1124],[-323,-4821],[-351,-1770],[-1472,-2687],[-534,-3852],[-161,-2280],[-1819,104],[-2311,510],[-1761,5533],[-339,527],[946,885],[1935,-489],[1369,177],[773,2655],[-513,2342],[-74,2656],[657,2446],[438,969],[1183,1093],[1501,854],[1166,1728],[3357,7101],[-430,1927],[227,2915],[658,1406],[-2121,-1489],[-2742,1197],[-1194,-1301],[-798,1093],[-2105,1853],[-574,4738],[86,760],[2870,11870],[926,5664],[194,3384],[500,3030],[3122,11995],[-194,4342],[-732,3894],[777,4019],[-1174,7851],[227,4186],[186,593],[2229,2322],[537,3884],[-388,3623],[301,3009],[-587,1937],[232,2114],[1087,2436],[1013,5061],[0,3686],[306,1936],[99,5862],[128,677],[3552,9860],[174,740],[322,4644],[-608,3331],[-302,4301],[-686,6518],[170,2561],[-228,5165],[166,1405],[1257,1968],[1025,3478],[1174,2436],[1550,2322],[579,3061],[951,1843],[120,833],[0,4623],[124,2041],[591,2020],[-566,2551],[-1646,1708],[-1748,1031],[-277,531],[-125,2384],[-624,-396],[-719,1333],[-2146,2041],[-306,750],[-624,-1406],[-1509,208],[-269,-979],[-219,1333],[-2464,2530],[-31,1420],[407,1042],[21,2313],[-227,1810],[172,1353],[43,3834],[-291,2703],[19,3351],[862,4708],[-40,1640],[892,3273],[314,3467],[25,2176],[509,2822],[190,4134],[-46,3196],[741,4540],[644,1760],[1004,1303],[-2546,572],[-189,1597],[-964,2767],[-1877,4678],[117,1197],[479,1059],[3318,2949],[1801,3558],[488,124],[-684,739],[-3200,94],[-913,562],[-1121,1208],[-1554,2207],[-1820,4228],[-901,3446],[-1005,1666],[-458,1551],[-1505,937],[-740,4759],[-1109,1333],[356,1926],[-1604,2239],[-1534,968],[-2448,3176],[-1885,3665],[-508,291],[-1766,-1020],[-541,677],[-674,3738],[-418,885],[-1960,593],[-74,2145],[-1679,4935],[-707,136],[-806,1103],[-1265,136],[25,1489],[1038,1499],[789,3634],[265,5248],[306,979],[-182,1718],[508,3425],[774,3717],[632,4124],[538,458],[748,-812],[285,322],[1170,4811],[1451,2436],[600,1770],[2166,3665],[794,2916],[4598,1124],[1269,-947],[2629,-3760],[246,1557],[1123,1082],[2079,1235],[-285,2166],[2460,927],[881,-2437],[8,-2072],[2411,21],[454,542],[513,2290],[843,833],[3519,-208],[554,-1322],[1174,2821],[1712,-2884],[-54,-2509],[335,-1364],[-1580,-8892],[-1376,-3332],[-848,-1125],[1426,-1312],[4590,-7299],[450,-416],[2448,958],[4262,239],[3072,-656],[6322,2187],[2977,2759],[2894,4425],[2063,2177],[918,385],[9534,2468],[607,-84],[459,-354],[37975,-34402],[1881,-2176],[1283,-1122],[1189,-1252],[-4,-3124],[864,-7142],[401,-1000],[2241,-3728],[749,-874],[11171,-8882],[885,-73],[3344,1427],[1410,-63],[3469,-1978],[4862,-5217],[959,-749],[2621,-1052],[4147,-1010],[2047,-812],[2084,-1739],[2025,-656],[3573,979],[1860,10],[2390,1021],[1959,291],[1493,-812],[1509,-1385],[1989,-2270],[1434,-1967],[662,-1843],[1433,18],[1042,-3155],[367,-384],[6597,-259],[1314,239],[2200,2083],[1621,52],[2794,1708],[1051,1166],[765,-458],[847,-5009],[-145,-1603],[914,-3561],[988,-1624],[-198,-4665],[206,-1364],[352,-1073],[1712,-1582],[1016,-2624],[1274,-1593],[1695,-4103],[310,-3602],[-198,-2666],[483,-3925],[1696,-3894],[169,7330],[1187,2488],[909,5029],[1402,-156],[484,-499],[1223,531],[554,-438],[1059,-2717],[1914,62],[893,-1124],[1187,-833],[219,-1416],[732,-1739],[-38,-1458],[-417,-4571],[3956,42],[472,-156],[165,1051],[1364,4238],[83,5591],[-397,2124],[-1273,3311],[157,5082],[277,1228],[1612,4082],[604,1895],[1554,6331],[249,1842],[1620,1594],[1261,2311],[591,1645],[2866,4988],[1835,4498],[1265,6601],[732,2624],[244,448],[1137,-531],[1121,322],[2335,3062],[1476,2551],[294,2957],[893,4071],[-732,3884],[248,2551],[389,1634],[446,438],[1381,62],[749,552],[343,489],[2799,9434],[856,2155],[1066,1447],[2183,1656],[761,1125],[786,2467],[1695,2343],[1393,2395],[1236,1510],[794,1457],[455,3197],[2059,6924],[703,2020],[1306,2770],[1245,6143],[3506,15587],[479,5945],[-18311,-854],[-2518,52],[-3411,1875],[-1464,437],[21,6404],[798,5924],[-608,1635],[100,2988],[-2456,4839]],[[717740,763815],[1346,3054],[1073,3693],[1376,2165],[2014,-620],[328,741],[1140,-584],[652,-1632],[1086,-1488],[1314,260],[1026,-1640],[793,-426],[-1092,-847],[1813,-1195],[493,-20],[791,2003],[974,-86],[1425,1437],[1758,991],[2954,7134],[1064,-698],[-36,-2246],[776,288],[1374,2033],[1952,1637],[1822,755],[1350,1099],[-575,-2769],[925,-2060],[363,-3776],[357,-1480],[1334,-2409],[766,-2247],[721,-402],[271,-2114],[1518,-1482],[274,-2609],[1064,-374],[273,-1231],[1548,1543],[-859,2037],[-349,2057],[359,958],[900,88],[2144,5726],[-306,3634],[-618,645],[161,2185],[-431,2632],[-842,3183],[479,3176],[758,8141],[75,4823],[-2017,3754],[-316,1825],[-476,484],[-607,3649],[-614,1179],[-515,2897],[-974,2225],[281,4029],[-313,1161],[680,3129],[-164,1848],[-600,1682],[-1016,5141],[816,3793],[579,1599],[2365,-931],[1288,2928],[1088,681],[88,-1500],[904,1656],[429,-861],[1795,566],[516,1070],[697,-688],[2531,661],[2450,-2209],[1011,1925],[389,-10],[535,2830],[678,1473],[2026,228],[710,-750],[258,983],[866,-625],[-196,1421],[869,248],[1808,-1151],[1536,672],[1225,-748],[466,261],[1754,-1385],[1040,157],[124,-1621],[726,-1546],[1418,-1795],[2380,808],[-681,-1828],[3609,-1242],[1569,-777],[765,-1111],[-116,-5398],[447,-1357],[2223,-4321],[332,-1194],[217,-3643],[906,-7671],[522,-7400],[673,-4539],[575,-877],[1602,-1062],[744,-2636],[1326,128],[1606,-2092],[1334,-489],[1254,-2832],[1024,-5071],[168,-2848],[704,-800],[898,-2132],[1769,-1712],[307,-2880],[1020,-744],[1030,209]],[[811961,772322],[-26,-8661],[-76,-85407],[-234,-493],[-4973,-6965],[-1745,-3677],[-894,-3010],[42,-2799],[645,-4181],[1396,-4761],[431,-870],[-1254,-1147],[-1446,328],[-1026,2232],[-695,-431],[-351,-2175],[507,-1348],[-1575,1236],[-1023,2809],[-851,1588],[-572,2970],[-386,690],[-1288,-406],[-2018,966],[-685,-351],[-757,-1226],[-1254,485],[-2410,-814],[-237,-2820],[-1191,-2851],[-780,-2642],[-118,-2373],[-391,-1328],[52,-2588],[-924,-2101],[-508,-39],[-377,-1875],[-506,-843],[-140,-2193],[-661,-774],[-958,-105],[-392,-1045],[-368,-2711],[-979,-4470],[-2003,-2491],[-449,-2276],[-994,-1283],[740,-2903],[-517,-3517],[960,-1219],[-15,-3491],[834,-1760],[74,-1154],[-1173,-3296],[-186,-1265],[325,-745],[-324,-1448],[387,-328],[-196,-1252],[302,-784],[864,208],[-119,-1438],[-968,-1711],[-1928,-5639],[-677,-190],[-728,-1038],[-1177,-3398],[-870,-685],[-81,-1423],[-612,-58],[-728,-2036],[-1087,-168],[-1735,-2828],[-157,-1257],[-893,-3032],[-1214,-1310],[-899,-4017],[-1061,-1256],[-1929,-141],[-1075,-1940],[27,-1560],[-927,-4661],[946,-1810],[-669,-2501],[-184,-2801],[-503,-3285],[-1497,-5331],[-146,-2730],[-300,-1820],[662,-1092],[46,-3657],[-602,-5747],[-1241,-6145],[-349,-899],[-906,-562],[103,-3273],[410,-1577],[87,-2456],[437,-2099],[-398,-5172],[241,-2029],[585,-2003],[-1037,-1687],[2444,2007],[957,253],[847,918],[2445,146],[1893,-129],[148,5105],[2010,-1328],[4960,-127],[746,-3148],[187,-2752],[2306,-6491],[628,-2284],[805,-1437],[342,-3261],[1284,-3098],[2761,-4156],[1312,-4254],[246,-2206],[0,-2381],[-246,-2360],[311,-2357],[1353,-2159],[-996,370],[-1621,-424],[-785,-1527],[-2154,-2121],[-1346,-2974],[275,-2090],[1648,-4588],[329,-1423],[186,-3283],[-162,-3236],[1201,-3167],[114,-1908],[1125,1171],[1374,438],[-543,1662],[997,1266],[-383,3303],[875,1321],[291,1280],[-780,2688],[54,2437],[1151,715],[590,3892],[1244,1371],[1174,-2998],[-93,-1988],[646,-988],[943,-2657],[1256,-555],[1227,306],[1533,-501],[1520,1551],[801,-259],[427,1523],[-9,1676],[1026,4461],[624,468],[262,-894],[1218,445],[-767,-4404],[200,-2147],[-480,-132],[245,-1595],[-327,-578],[275,-2003],[-936,-13],[-1008,-978],[1740,-1337],[1178,-1438],[658,181],[-39,-2620],[726,-974],[1234,-3222],[1073,-484],[485,-5575],[-421,-498],[-1493,-4321],[695,155],[-1094,-2321],[-1155,-942],[-1852,164],[-20,-1103],[3307,-2805],[-3602,-5842],[21,-12738],[14748,-129],[1,-877],[-117,-15152],[1995,-8],[120,-524],[-1055,-6406],[164,-1425],[-805,-4865],[104,-2077],[2449,-593]],[[800093,217597],[-1355,1680],[-415,-418],[-1041,852],[-1479,6050],[-1339,2828],[-1546,2269],[-2528,2081],[-175,-524],[-1522,223],[-762,828],[-909,2043],[-1328,665],[-1384,3298],[-1502,1859],[-1459,2707],[-1340,3242],[-211,4012],[160,1574],[-782,3510],[-1359,182],[-497,999],[-934,-2138],[-3297,828],[-411,580],[-1027,-189],[-2869,1400],[-2150,-73],[-738,552],[-2221,2676],[-777,1475],[-1428,808],[-1200,207],[-812,1167],[-1564,-154],[-1936,763],[-1558,-230],[-1435,-798],[-819,815],[-1106,2367],[-1460,1773],[-184,714],[133,1807],[-763,3549],[-2285,-2638],[-1753,-3895],[-649,-1033],[-735,424],[-295,-878],[-3184,-1986],[-2172,-2349],[-2137,485],[-328,1635],[-1354,514],[-1648,-466],[-1451,1194],[-1712,2898],[-1458,1015],[-265,1206],[-1064,2086],[-828,81],[-1533,1835],[-336,1730],[7,-3374],[782,-3793],[404,-3002],[20,-5756],[-584,-3225],[135,-1757],[-449,-819],[-504,-3318],[-26,-3989],[-448,-4300],[382,-3869],[1365,-3787],[779,-4485],[964,-3106],[223,-2672],[-597,76],[-166,2723],[-1110,3771],[-1181,1761],[-703,3856],[268,1383],[-483,3343],[-474,1318],[607,1822],[322,2492],[-614,1855],[436,2648],[-280,1280],[322,1404],[711,655],[-591,852],[1258,2708],[256,4440],[-735,375],[-168,1277],[282,1806],[-523,1333],[-316,5359],[-1370,4402],[-652,823],[-228,-745],[-2205,1524],[-2547,1048],[-384,-1061],[-1109,482],[-2196,354],[-792,1162],[-1029,464],[-859,-1110],[-818,176],[-1949,2079],[-368,2300],[-1515,1044],[-24,1248],[-1157,-289],[-2246,173],[-1715,747],[-998,999],[-3398,1470],[-822,1412],[-440,1910],[-493,389],[-3133,-1152],[-616,733],[-986,68],[-1891,1863],[-2348,-98],[-2105,-2175],[-1483,-1140],[-2055,-2895],[-2021,284],[673,-1714],[-450,-1912],[-516,1653],[176,1454],[-744,1405],[-1161,416],[323,898],[-720,623],[-551,1826],[-579,289],[47,1925],[902,1593],[203,1474],[-609,656],[58,2699],[-614,55],[1000,2036],[-759,1782],[-760,252],[335,1447],[-242,1635],[-819,139],[569,2152],[-519,879],[-754,-245],[-2207,4358],[255,26754],[-68,844],[782,67670]],[[400798,417462],[-2787,-3956],[-2542,-1531],[-811,-1947],[-785,-2572],[-2927,-4550],[-3386,-4904],[-306,-968],[-1336,-9267],[-359,-1687],[-2601,-7132],[-1385,-4280],[-33,-3332],[-248,-1031],[-4188,-9527],[-1245,-4821],[-2472,-11474],[-550,-1874],[-761,-4509],[228,-7986],[-666,-3915],[-281,-3561],[66,-2915],[-835,1364],[-740,-1687],[-806,-312],[-158,-1062],[-847,239],[-203,-927],[-2207,21],[-1803,771],[-976,-1395],[-1935,603],[-669,573],[-414,1708],[37,2197],[-1174,1166],[-1873,146],[-1042,635],[-1372,2238],[-195,2416],[-467,2843],[87,2061],[-1509,3030],[-504,2010],[-273,3342],[-1520,3509],[-972,-1448],[-2370,-10],[-1948,-3446],[-467,1822],[-645,-750],[-442,510],[-1476,-1999],[-1877,1021],[-1476,-948],[-715,615],[-1572,-979],[-574,-2156],[-546,261],[-2233,-458],[-1901,1801],[-732,-1114],[-1340,760],[-70,-1093],[-1063,-1114],[-2703,-2135],[-798,-1499],[-939,-4311],[-116,-1926],[840,-4019],[-517,-2562],[649,-3259],[-699,-2717],[-264,-1843],[479,-2249],[137,-6446],[314,-1759],[33,-2020],[-542,-4061],[-182,-6456],[269,-2957],[-29,-4456],[-149,-2780],[344,-4748],[-220,-2541],[-810,-2040],[-401,-2031],[79,-2561],[-166,-1604],[-388,-2124],[-1030,-3415],[-554,-2624],[-529,-1124],[-600,-2395],[-397,-4665],[-351,-687],[-810,114],[-600,667],[-343,1572],[-1100,885],[-1294,6883],[873,3738],[-46,4768],[-236,3457],[-711,4936],[-3117,11109],[-17,6446],[-343,874],[-591,-645],[-2373,2689],[170,-1379],[-805,-3570],[182,-4711],[-388,-879],[-1425,512],[-1346,-47],[-476,1818],[-1500,4563],[-586,2410],[-2071,-1118],[-1010,-1183],[-1245,-582],[-840,2273],[-814,624],[-1531,2473],[-401,4978],[823,1676],[488,2083],[-492,1707],[-368,2874],[-517,604],[-538,3603],[-384,4935],[12,4363],[-558,2998],[-1000,2801],[-335,2197],[-914,2937],[-244,2394],[132,1375],[674,2447],[625,791],[434,2176],[-455,5654],[-1307,4060],[-401,2354],[95,2259],[1452,3072],[512,3238],[224,4988],[487,3331],[1051,3780],[-418,656],[-83,3145],[-256,1135],[-2121,3613],[-1555,1509],[-1666,4384],[-227,2207],[74,4051],[-223,1582],[-922,2760],[-1100,1811],[-2381,2989],[-662,1447],[-1004,4394],[-174,1322],[-930,2155],[-546,2968],[-819,1479],[-1327,4341],[-1066,1854],[-2175,2082],[-1360,1604],[-2373,-510],[-3093,416],[-2814,-1418],[-584,23],[-459,541],[-972,2603],[-674,719],[-1836,218],[-1265,-437],[-1091,-1072],[-1782,-3207],[-3643,-5852],[-2960,-3603],[-1757,-3103],[-1630,-1639],[-1309,-287],[-1617,313],[-2162,-282],[-2440,-718],[-2352,-1364],[-827,-187],[-2262,885],[-2025,-32],[-2534,1053],[-192,-463],[-3206,43],[-3052,2050],[-775,1060],[-347,1861],[-9136,-24],[-79,-15094],[-12328,-288],[-2553,186],[-6307,-92],[322,-1047],[-916,-1597],[-543,-2190],[-383,-4216],[-742,-2930],[-12,-1310],[198,-2643],[741,-679],[566,-3570],[370,-637],[357,-5089],[-1790,-441],[-2481,-1229],[-3547,2187],[-2063,1687],[-3948,5414],[-2307,1072],[-1241,-447],[-533,-719],[-1240,-3176],[-654,-676],[-1848,-112],[5,-2510],[-1823,-3513],[-1080,-3947],[-1786,-1268],[-1187,-1603],[-1566,-791],[-2411,-2159],[-737,-2302],[441,-1942],[-72,-3145],[409,-531],[571,-2916],[1431,-2020],[91,-1572],[-641,-1822],[4,-1052],[-1559,-3592],[-988,-2738],[-1373,-448],[1894,-2010],[744,-2586]],[[158364,333817],[290,-1766],[-406,-1395],[-752,1218],[-9112,-1645],[-6086,2957],[-2985,1135],[-3448,1936],[-703,906],[-426,2530],[-1459,1281],[-2746,583],[-1207,750],[-2414,302],[-402,1666],[-789,1760],[-157,2238],[-893,968],[-162,1240],[-628,31],[-1488,-2062],[-1063,-947],[-761,-2645],[-1542,687],[-1104,3030],[-1166,1093],[-1091,-312],[-1327,1406],[-1637,302],[-1667,-42],[-1645,-1853],[-1059,-802],[-5697,-31],[-963,801],[-1646,-853],[-3898,93],[-1336,937],[-1616,-437],[-360,281],[-1001,-760],[-3055,31],[-674,-666],[-1083,-135],[-922,645],[-1166,-62],[554,-1791],[-918,-313],[-1674,-270],[-707,302],[-1071,-375],[-2419,-3801],[-835,-406],[-1091,1125],[-1861,208],[-2050,1468],[-1820,2718],[-818,906],[-1154,-854],[-1509,1260],[-3258,-229],[-1699,-1167],[-781,-1041],[-852,21],[-2113,-3217],[-2096,-1125],[-1257,-3915],[-368,-541],[-1372,-448],[-1522,-906],[-2650,135],[-2117,1167],[-7012,145],[-3435,-3623],[-1493,-3457],[-1836,-2374],[-949,852],[-966,1776],[-1799,1689],[-4229,2177],[-1165,982],[-1809,4117],[-464,2310],[-171,8139],[-176,1934],[-780,7],[240,-2196],[-73,-6374],[197,-3599],[1645,-4412],[1686,-2152],[2657,-1345],[-1918,-156],[-1100,-1375],[-2774,729],[-1691,-250],[-666,698],[-1323,312],[-851,1656],[-807,-760],[-880,93],[-2435,-1530],[-1456,-1333],[-2522,-1416],[-744,614],[-1836,656],[-2327,-2259],[-1232,260],[-2954,-1411]],[[6,326246],[3,84370],[0,7261],[262,52815],[-159,5071],[307,41585],[-44,425],[-5,51],[0,12],[839,82112],[-85,35787],[-51,9379],[-295,54095],[261,116116],[-137,37315],[-372,100923],[-161,43536],[11984,-103],[56622,-485],[10181,6],[29728,19],[64704,39],[43180,-570],[10753,525],[4925,0],[77946,1],[20493,1],[28702,355],[55686,1675],[51083,-28],[1886,-1],[55517,42],[1353,1]],[[688300,999541],[7740,72],[20527,-110],[6142,-33],[25527,-137],[51727,346],[17231,116],[14126,94],[2,0]],[[827337,985921],[-1444,-522],[-812,1347],[797,-2715],[-614,-2019],[-216,-2968],[432,-4432],[1431,-2687],[28,-1123],[-815,-2458],[-764,-3187],[-1839,-1974],[-683,-1253],[-344,-2720],[-968,-1679],[-1048,-340],[-1265,640],[-551,-642],[-1047,-2515],[-1921,-2001],[-1094,-2865],[-750,129],[-653,-1370],[-836,-409],[-369,-2502],[-720,-1089],[-1142,-670],[-932,-4231],[-1648,-2828],[-43,-1432],[-1590,-2370],[-2,-1009],[-1238,-2030],[-539,-2263],[-52,-2201],[334,-1574],[850,-1739],[464,-5170],[-835,-6622],[318,-4022],[-413,-1515],[-852,-1175],[-614,-2302],[-474,-3206],[-513,-671],[-684,-2705],[-359,-438],[185,-3232],[-795,-1879],[-209,-1947],[-731,-1112],[19,-2386],[-418,-409],[-211,-2584],[-487,-1045],[297,-1346],[-694,-3596],[386,-2852],[-401,-1444],[628,-3798],[-392,-2503],[140,-1012],[489,-1318],[1158,-1733],[1634,-933],[590,-1534],[607,-2851],[1059,-1148],[7774,85],[5,-2618],[20,-78877]],[[936360,895927],[1252,2748],[776,872],[1072,-562],[360,-1033],[595,319],[1328,-478],[819,-1042],[770,-26],[649,-2182],[83,-3667],[-1041,-2233],[2119,-135],[1362,-2283],[2137,-346],[2063,183],[3275,-2107],[629,-949],[490,-1336],[-1567,-5444],[-900,-2331],[392,-2637],[687,-714],[830,-2092],[-178,-2222],[700,-2754],[661,-1544],[146,1929],[991,421],[3414,-1936],[606,140],[2073,1646],[3413,1083],[3243,2091],[499,679],[410,2113],[37,1821],[1355,2305],[-77,1603],[461,1233],[2109,2755],[1030,181],[2392,-2468],[244,-1268],[-359,-4153],[575,-2034],[857,-1068],[204,-1923],[786,-1547],[-96,-2111],[437,-2833],[616,-1755],[1039,-934],[815,88],[2209,-1992],[135,-2973],[195,-2601],[577,-1621],[614,883],[-17,-2420],[1211,-1083],[1672,-2581],[1244,-4292],[29,-3721],[-1830,-1632],[-1549,-661],[554,-2537],[-909,-3844],[-223,-2339],[457,-3388],[-436,-3661],[1636,-1607],[165,-1786],[486,-1052],[1415,-871],[1542,-28],[1202,-1528],[1518,-508],[410,502],[303,-1274],[1906,-3501],[-345,-2585],[1024,-1706],[527,-1581],[-687,-2245],[159,-3728],[503,-908],[-398,-1351],[279,-878],[-438,-3148],[152,-3048],[-156,-2615],[386,-2314],[-398,-2543],[-971,-1357],[-271,-1181],[-1147,-2276],[-1983,-2306],[-738,-2657],[-207,-2901],[257,-2004],[-1332,242],[-2834,-2873],[-1168,-2378],[-590,-2327],[67,-1420],[-606,-1504],[-1710,-2730],[-318,-1265],[83,-2124],[1416,-1433],[760,-1906],[330,-2472],[878,-761],[-1184,-2479],[-418,-2195],[373,-769],[715,-3487],[-163,-1823],[-846,-914],[-1376,-3145],[-1166,-480],[-1487,-2063],[-807,-49],[111,-1124],[1075,-460],[1363,-3064],[417,-3515],[-1210,-2714],[-562,-2248],[1419,-2734],[244,-1678],[-583,-3549],[302,-2341],[656,-2505],[-20,-1529],[-1469,-1852],[238,-4131],[469,-3606],[911,-2530],[253,-2408],[-230,-1741],[-1675,-4675],[-125,-1881],[-958,-1168],[-1776,-1350],[-81,-1765],[-739,-1014],[-1256,-599],[-1178,5],[113,-2156],[991,-1033],[945,-1789],[551,-2842],[-2078,-1521],[-474,-1836],[468,-5488],[138,-4527],[-1959,-2519],[-547,54],[-106,-2303],[337,-2399],[1079,-4862],[383,-937],[2926,-613],[138,-1352],[-1045,-1167],[-264,-2135],[-1046,-3512],[-1182,-2773],[869,-4218],[-920,344],[-2154,-2244],[-1221,-3093],[-456,-2550],[-2215,300],[1079,-1889],[-1218,-4289],[69,-1778],[-975,-3679],[62,-2288],[934,-4005],[-251,-3297],[828,-1448],[200,-1659],[1297,-2461],[189,-2758],[1243,-1244],[535,-3897],[-331,-2544],[-1338,-3379],[-702,-2855],[438,-2632],[-529,-1596],[-93,-1762],[-908,-2337],[1425,-2995],[729,-2589],[110,-2205],[1111,-3779],[823,-3517],[158,-2465],[-436,-2695],[4,-2022],[2126,-4721],[616,-810],[611,-2505],[432,-4293],[1214,-214],[957,-382],[447,-1833],[14,-2844],[265,-1769],[2068,-2281],[762,-1456],[147,-2046],[-772,-2420],[-796,-3359],[-173,-3380],[676,-2572],[1071,-1120],[981,4],[2201,-4352],[1159,-1756],[-752,-1372],[-129,-1057],[753,-1423],[1437,-1495],[147,-2122],[-54,-3842],[-302,-1713],[112,-1864],[506,-988],[86,-2693],[619,-1781],[-335,-2388],[-2161,-2157],[524,-1279],[244,-2198],[458,-1478],[-404,-2263],[-2530,-3293],[-616,-3284],[-947,-1101],[-90,-3555],[818,-2210],[749,61],[1605,1214],[714,-197],[-234,-5170],[408,-4336],[-619,-3180],[1018,-3470],[34,-4735],[251,-1358],[807,-708],[868,278],[-148,-4735],[-31,-25],[-229,-58552],[-37,-49365],[1223,79],[7283,-82],[3,-19137],[-81,-10678],[50,-3298],[-63,-27281]],[[887916,149438],[-666,370],[-1499,11125],[-3973,13530],[-813,3765],[-1366,455],[352,1680],[-1551,-155],[-542,778],[52,-2098],[-2094,996],[6071,-23695],[530,-2774],[775,-7701],[-2345,119],[-936,-2196],[-207,-2322],[195,-2054],[476,-2224],[49,-2198],[-610,-356],[-1386,-2931],[-806,-452],[-1842,1117],[-671,-451],[-1024,1262],[-1099,-190],[-938,-1287],[-508,-1754],[-355,-2725],[-1206,823],[-1289,1671],[-910,626],[-1164,-649],[-920,-1795],[-1141,-646],[-5315,32],[-1049,-2031],[-1162,-188],[-790,475],[-970,-526],[-1395,1130],[4,2783],[753,2914],[1617,4783],[701,1658],[1547,4517],[-2636,138],[-561,455],[-776,-397],[-4576,121],[-1681,-79],[-1301,-750],[-2519,600],[-2614,1660],[-973,-1013],[-2239,764],[-1105,-1496],[-1560,904],[-1250,-1571],[-1316,-2797],[-1238,-1005]],[[832151,138183],[174,35446]],[[954503,80472],[-23037,102],[-603,-3284],[-569,-4571],[-291,-925],[35,-2813],[408,-3940],[-1194,-2621],[-549,-5644],[-623,-2181],[25,-2438],[-457,-2699],[-155,-3147],[-720,-2214],[149,-2552],[-452,-1770],[249,-2398],[796,-3081],[-808,-2954],[15,-1192],[865,-2423],[103,-1223],[-150,-3722],[-3029,109],[-3531,1817],[-1914,3045],[-463,2211],[-1158,2584],[-1083,1706],[-1079,2549],[-2570,2963],[-546,398],[-823,1628],[-764,5032],[-1147,273],[-1466,2512],[-1457,1473],[-2089,1691],[-772,3753],[-879,1925],[-738,-276],[-680,1000],[-1814,390],[-2115,3406],[-548,-741],[516,-1840],[-913,-4281],[-12,-1348],[-952,-4693],[-45,-7771],[-924,-2180],[-277,-2225],[-793,-1369],[-609,-2089],[-19076,96],[-1091,1360],[-1467,600],[-2049,-481],[-725,-693],[-309,-1754],[68,-2097],[463,-2063],[1950,-3321],[267,-2842],[-1692,-784],[-1715,-157],[-1027,-3486],[-1733,-2766],[-1192,-407],[-2937,-5107],[-422,-1293],[-2058,-2246],[-1307,-591],[-968,-2103],[198,-857],[905,-664],[1017,302],[1013,-1724],[-956,-1356],[-1362,436],[-1554,-337],[-1578,176],[-1689,1821],[-187,1041],[-1138,1106],[-398,-572],[-811,1708],[-842,-51],[-554,-698],[-2009,-713],[-826,-909],[-2811,-1774],[-394,2212],[-410,2243],[-550,1360],[9,1263],[-824,-1340],[-683,-234],[-993,722],[-489,959],[488,1608],[-935,-284],[1248,1410],[1766,2931],[751,1624],[-727,898],[-1316,-1245],[-1214,-2269],[-2515,-2055],[-1417,215],[-1503,-244],[-48,39494],[-129,75713],[-300,1449],[72,10519]],[[158364,333817],[1407,-1593],[292,-2254],[2646,-418],[2178,997],[173,-3705],[-217,-2241],[134,-1928],[987,-2997],[-267,-3024],[519,-548],[1977,-597],[556,-1930],[1001,-882],[4485,-1506],[630,-1407],[395,-2072],[2461,600],[1174,-1476],[237,-1840],[-139,-4140],[516,-4211],[34,-4642],[976,-3167],[2175,-1713],[346,-2214],[-234,-977],[680,-804],[865,-2469],[1324,-6195],[-185,-3294],[1450,-1426],[798,-2997],[2693,311],[3960,2114],[418,-823],[3601,-10152],[624,-1333],[1055,-593],[678,-1375],[2207,-10152],[748,1074],[478,-1502],[-92,-1126],[-842,-2515],[234,-817],[-743,-1623],[62,-2320],[-436,-858],[-47,-1966],[1265,-1523],[-12923,-22354],[-877,-342],[-10686,-3173],[-1580,-5987],[-893,-2593],[-264,-5112],[866,-1884],[481,-1895],[6,-1500],[-177731,288],[6,139230]]],"bbox":[-109.0509687,40.043035,-106.63225,41.003444],"transform":{"scale":[0.000002418721118721118,9.60409960409959e-7],"translate":[-109.0509687,40.043035]}}
