{"type":"Topology","objects":{"foo":{"type":"GeometryCollection","geometries":[{"type":"MultiPolygon","arcs":[[[0,1,2,3,4]]],"properties":{"postal_code":"80726","realtor_list_price":"NA","realtor_list_price_yoy":"NA","realtor_list_price_base":"NA","realtor_active_listings":1,"realtor_active_listings_yoy":-0.4,"realtor_active_listings_base":-0.4148,"realtor_new_listings":0,"realtor_new_listings_yoy":"NaN","realtor_new_listings_base":-1,"realtor_days_on_market":"NA","realtor_days_on_market_yoy":"NA","realtor_days_on_market_base":"NA","zhvi":271390.224,"zhvi_yoy":0.0508,"zhvi_base":0.5558,"zori":"NA","zori_yoy":"NA","zori_base":"NA"}},{"type":"MultiPolygon","arcs":[[[5,6,7,8]]],"properties":{"postal_code":"80722","realtor_list_price":"NA","realtor_list_price_yoy":"NA","realtor_list_price_base":"NA","realtor_active_listings":1,"realtor_active_listings_yoy":0,"realtor_active_listings_base":"NA","realtor_new_listings":0,"realtor_new_listings_yoy":"NaN","realtor_new_listings_base":"NA","realtor_days_on_market":"NA","realtor_days_on_market_yoy":"NA","realtor_days_on_market_base":"NA","zhvi":370622.102,"zhvi_yoy":0.0287,"zhvi_base":"NA","zori":"NA","zori_yoy":"NA","zori_base":"NA"}},{"type":"MultiPolygon","arcs":[[[-1,9,10]]],"properties":{"postal_code":"80747","realtor_list_price":"NA","realtor_list_price_yoy":"NA","realtor_list_price_base":"NA","realtor_active_listings":1.667,"realtor_active_listings_yoy":-0.4444,"realtor_active_listings_base":-0.2344,"realtor_new_listings":0,"realtor_new_listings_yoy":"NaN","realtor_new_listings_base":"NA","realtor_days_on_market":"NA","realtor_days_on_market_yoy":"NA","realtor_days_on_market_base":"NA","zhvi":241542.967,"zhvi_yoy":0.021,"zhvi_base":0.7445,"zori":"NA","zori_yoy":"NA","zori_base":"NA"}},{"type":"MultiPolygon","arcs":[[[-10,-5,11,12,13]]],"properties":{"postal_code":"80736","realtor_list_price":"NA","realtor_list_price_yoy":"NA","realtor_list_price_base":"NA","realtor_active_listings":1.667,"realtor_active_listings_yoy":-0.4444,"realtor_active_listings_base":0.0415,"realtor_new_listings":0,"realtor_new_listings_yoy":"NaN","realtor_new_listings_base":"NA","realtor_days_on_market":"NA","realtor_days_on_market_yoy":"NA","realtor_days_on_market_base":"NA","zhvi":312027.385,"zhvi_yoy":0.0441,"zhvi_base":0.6037,"zori":"NA","zori_yoy":"NA","zori_base":"NA"}},{"type":"MultiPolygon","arcs":[[[-8,14]]],"properties":{"postal_code":"80720","realtor_list_price":245440.625,"realtor_list_price_yoy":-0.1228,"realtor_list_price_base":0.2399,"realtor_active_listings":12,"realtor_active_listings_yoy":-0.3208,"realtor_active_listings_base":0.2287,"realtor_new_listings":5.333,"realtor_new_listings_yoy":0,"realtor_new_listings_base":1.2881,"realtor_days_on_market":59.875,"realtor_days_on_market_yoy":-0.1385,"realtor_days_on_market_base":0.3005,"zhvi":240181.05,"zhvi_yoy":-0.0634,"zhvi_base":0.7929,"zori":"NA","zori_yoy":"NA","zori_base":"NA"}},{"type":"MultiPolygon","arcs":[[[-3,15]]],"properties":{"postal_code":"80731","realtor_list_price":217500,"realtor_list_price_yoy":-0.1721,"realtor_list_price_base":"NA","realtor_active_listings":10,"realtor_active_listings_yoy":0,"realtor_active_listings_base":1.1798,"realtor_new_listings":2,"realtor_new_listings_yoy":0.5,"realtor_new_listings_base":0.4464,"realtor_days_on_market":148.667,"realtor_days_on_market_yoy":0.3577,"realtor_days_on_market_base":"NA","zhvi":268107.637,"zhvi_yoy":0.028,"zhvi_base":0.7858,"zori":"NA","zori_yoy":"NA","zori_base":"NA"}},{"type":"MultiPolygon","arcs":[[[-13,16,-6,17]]],"properties":{"postal_code":"80751","realtor_list_price":244340,"realtor_list_price_yoy":-0.0723,"realtor_list_price_base":0.4106,"realtor_active_listings":69.667,"realtor_active_listings_yoy":-0.1504,"realtor_active_listings_base":0.9462,"realtor_new_listings":16.667,"realtor_new_listings_yoy":-0.3243,"realtor_new_listings_base":-0.2427,"realtor_days_on_market":69.36,"realtor_days_on_market_yoy":-0.0167,"realtor_days_on_market_base":0.3915,"zhvi":247432.999,"zhvi_yoy":0.0072,"zhvi_base":0.6289,"zori":1059.444,"zori_yoy":"NA","zori_base":"NA"}}]}},"arcs":[[[540969,924374],[-112,856],[1141,318],[1815,-388],[1283,710],[-148,640],[1374,527],[434,1219],[1764,2207],[1809,-8],[436,1554],[1478,1563],[1271,47],[732,-1232],[4402,-1411],[952,-750],[2982,945],[858,2120],[2296,-522],[-94,3608],[16914,165],[-254,22940],[18094,-192],[27,1692],[-567,9919],[-17704,129],[11,11523],[135,-4],[17858,-210],[-46,11092],[-17855,697],[-17152,-1089],[9,6576],[-110,108]],[[565002,999723],[71,-2],[15579,-23],[1488,-38],[140,1],[15918,41],[1826,-155],[14801,248],[2516,-36],[14470,76],[2708,-165],[30878,138],[17263,77],[6112,-110],[10846,68],[13432,-104],[3512,3],[73680,78],[780,-65064],[152,-1197],[276,-27093],[597,-72711]],[[792047,833755],[-34820,-127]],[[757227,833628],[128,49294],[-102647,-25054]],[[654708,857868],[-293,14490],[-3948,-366],[-1061,332],[-3763,100],[-1956,-279],[-6294,923],[-809,-418],[-5214,139],[-3340,-475],[-3109,487],[-3879,-1272],[-1300,-1228],[-2582,-1388],[-3168,516],[-1934,-1278],[-1873,-291],[-1161,-1616],[-1783,-745],[-2418,-1932],[338,-721],[-2048,-1223],[-4031,-4952],[-1844,-174],[-1895,-718],[-3002,-308],[-2751,-721],[-2074,-169],[-2503,-1265],[-1968,-439],[-1554,331],[-6500,-1826],[-2986,-1113],[-5009,-678],[-758,-570],[-2609,-674],[-2480,75],[-2318,-706],[-957,-983],[-1988,-509],[-2829,444],[-1883,-387],[-1657,-1720],[-1017,-435],[-3125,-190],[-3516,-3005],[-2298,-757],[-4847,-1085],[-2136,-1049],[-2873,-801],[-2599,-1920],[-343,941],[1404,1490],[97,6094],[-638,867],[2305,852],[5766,1507],[31088,10417],[-463,20854],[-16878,-181],[-678,46321],[-7797,-107]],[[197600,652307],[80,1027],[-741,11286],[17045,193],[373,-3152],[150,-4279],[-2298,-1265],[-507,-674],[-3529,-1951],[1271,-83],[3383,2060],[7747,-759],[1923,2251],[2568,1272],[-218,2421],[2342,622],[72,2656],[2623,1199],[18596,228],[137,-5785],[14184,256],[-7098,-8567],[600,-130],[3835,97],[1509,1114],[-1651,438],[664,710],[2315,-878],[517,-1224],[1420,-335],[-1460,3096],[-2078,1001],[1445,524],[2334,-370],[1692,-2199],[2000,-770],[-914,-2439],[-2081,-1019],[-506,-1903],[-3535,-2811],[-2307,-656],[-25,-1159],[-1203,-1740],[-1582,-401],[-2124,-1344],[-2199,-219],[-1582,-688],[-2416,-254],[-1420,-708],[-3299,-544],[-3769,-2938],[1020,-2054],[253,-1236],[244,-1555],[2051,818],[2106,1522],[21369,119],[43,5745],[7793,63],[112,-1169],[2860,-2772],[2225,-886],[3986,-2578],[2142,-781],[3797,-2542],[750,-1573],[2186,-1326],[1185,-266],[1889,420],[914,-302],[2939,382],[2401,-1805],[1959,-1893],[1593,-377],[5479,197],[1729,-202],[3790,-1513],[4223,-645],[5151,-577],[5837,345],[3150,1938],[1211,349],[3875,-80],[3255,792],[8690,62],[846,-34598],[-8478,-169],[945,-22834],[-312,-11273]],[[345091,551260],[-8595,-80]],[[336496,551180],[-409,-4],[-6717,-54],[-52563,-420],[-7601,2],[-77460,-403]],[[191746,550301],[17805,16901],[-1085,751],[-5,1287],[-2327,1267],[-3604,2625],[-2931,788],[-355,22928],[4380,3847],[44,1597],[3816,2211],[4307,1881],[25,3351],[-4222,3467],[-453,3578],[3438,2406],[-11741,-24],[-52,8645],[-4,8548],[-1182,15952]],[[540969,924374],[-24781,-224],[-1581,-349],[-17319,-78],[71,-11518],[-51841,-569],[-249,11799],[-34093,-406],[148,-22732],[-31890,286],[-3193,-93],[100,-11423],[182,-16964],[-4367,2282],[-2003,1641],[-2993,141],[-1524,-1667],[-1678,-478],[-4352,-81],[-1049,-431],[-1498,-1793],[-165,-1347],[1431,-2328],[2091,-903],[542,-1047],[-22246,-80]],[[338712,866012],[-30207,-308],[-188,34150],[-13996,379],[-786,575],[-2081,-2806],[-31,-20879],[-16844,-109],[107,46060],[-23111,160],[-8337,-133],[-624,156],[-1217,1258],[40,1455],[-401,2983],[201,993],[-501,4607],[-5194,-24],[602,1168],[40,1740],[-161,1881],[-40,6709],[-11975,-111],[-18803,513],[-20404,-196],[-13712,475],[-93038,36],[-3341,-1255],[-3264,960],[-36704,-184],[102,34208],[-2731,2967],[467,1160],[1366,1091],[832,1579],[-217,5392],[124,6030],[-652,575],[85,0],[9631,221],[57985,74],[44,-30],[22339,467],[12989,-258],[15390,-307],[2092,-1],[50828,71],[204660,289],[1136,-36],[15228,91],[1380,0],[13039,-19],[4246,-73],[32860,186],[1724,-68],[15599,-193],[1081,-36],[15960,59],[1027,-90],[1627,-11],[970,29],[13254,165],[1541,-200],[15715,182],[1379,-110],[15662,106],[1498,-52]],[[654708,857868],[-20414,-5060],[-3792,-1251],[-19882,-7376],[-25809,-9632],[-51845,-19360],[-29395,-10993],[-4377,-1893],[-69002,-35628]],[[430192,766675],[-442,31024],[-2651,-1387],[-3642,-3036],[-1971,-582],[-1785,-1271],[-2607,-2427],[-744,-270],[-3000,126],[-3440,-731],[-2664,277],[-4216,-13],[-5509,-1050],[-1544,-706],[-4436,134],[-2612,-837],[-1572,588],[-3238,-581],[-2160,95],[-2689,-510],[-2732,-1408],[-1714,-1250],[-634,-1097],[-1602,-663],[190,-2630],[-3236,-3398],[-993,-1924],[-276,491],[-335,1894],[355,1411],[-281,2077],[562,618],[1632,4238],[7769,3109],[-524,-162],[879,2085],[-218,19194],[-52282,5],[131,3871],[-68,7718]],[[325893,819697],[10104,87],[-3272,1995],[-70,2282],[-2478,1951],[324,570],[-1338,2901],[469,1481],[-4117,54],[409,761],[-38,10874],[17613,308],[-343,11589],[-120,5621],[-4174,154],[-150,5687]],[[336496,551180],[-332,-23323],[34437,506],[91,-11592],[70,-34507],[308,-143],[35714,332],[452,-10071],[17038,51],[8011,30],[8673,15],[472,13],[8252,272],[9088,287],[16276,-365],[71,-2464],[25473,-8758],[-16715,-82],[162,-22526],[-16615,-132],[29,-11166],[-8103,138],[-18327,-358],[-16325,43],[42,-11294],[-34233,-267],[2015,-70521],[16956,271],[252,-27962],[395,-6780],[-17007,-164],[1835,-69173],[15897,-114],[471,-23053],[253,-11762],[16839,81],[6317,16],[880,-969],[0,966],[33974,44],[-10,-10343],[34128,43],[-46,6529],[270,2201],[1100,1039],[1198,430],[2959,143],[146404,104],[700,-33584],[2301,-102618],[-298,-23260],[-53035,-408],[-1824,73],[-992,209],[-8354,3274],[-16052,6196],[-3593,1498],[-69877,275],[51,-11563],[-33881,241],[-82,11556],[-51316,-356],[228,-11514],[-7745,-85],[-129,-11576],[-8730,-85],[203,-34651],[-67637,-467],[92,11206],[-778,11511],[-51023,-57],[-500,34781],[-66208,-1122],[181,-11594],[-17419,-187],[-15870,-133],[-33152,-488],[-7476,189],[-9487,-96],[86,11592],[16748,-112],[33299,529],[-1173,12017],[321,22971],[17277,189],[118,5958],[-1060,3487],[-2354,2369],[-45369,-928],[775,57242],[-84125,222],[124,11385],[-17038,855],[-16989,-201],[184,17320],[-8793,730],[-425,5354],[-8221,266],[-17141,-1],[-127,10697],[56924,81],[12685,37],[16839,26],[21136,50],[-143,23647],[17127,-323],[501,23761],[-334,10736],[8457,7],[-364,45844],[8218,188],[25,11646],[-85231,-429],[-181,600],[722,72265],[319,4410],[-75,767],[468,3826],[364,33154],[338,32667],[-164,776],[7,363],[40489,20847],[249,-230],[6445,3308],[1,372],[48122,24730],[7657,4197],[3803,2451],[5866,4391],[2741,2376],[18735,17809]],[[792047,833755],[74,-22909],[49,-11638],[51705,89],[51857,12],[17304,-66],[-220,11705],[17318,-74],[-148,11671],[34646,-245],[25779,-175],[25,-6016],[9000,-65],[315,-17033],[248,-11547],[-34679,25],[458,-23195],[-1300,-6],[-13018,-44],[-663,-26013],[17229,148],[-339,-11438],[17055,146],[-497,-28944],[44,-5675],[-17144,-69],[12,-3797],[-8512,1263],[-1125,130],[-7527,-59],[1,-808],[10,-802],[25,-7899],[14765,308],[2452,-33],[28,-23066],[-17188,-216],[38,-23006],[30,-11510],[160,-11692],[183,-11591],[707,-46477],[17112,114],[213,-18321],[-17136,12],[-77,6634],[-7589,-63],[-27,-5590],[-9404,0],[66,-5755],[-8467,17],[-3,-11870],[-8555,-58],[-17185,-89],[-153,23073],[-34139,-85],[-80,-11538],[-17040,-110],[23,-5974],[37,-5761],[-16606,-52],[-561,-11205],[-17104,1],[153,11490],[-51694,-27],[-87,23031],[-68352,94],[-330,-23120],[-17454,-59],[148,34640],[-36,20005],[8933,-81],[-14,3264],[8738,40],[303,23190],[-17598,-338],[61,11473],[17754,430],[16922,-37],[-349,22700],[17049,6],[-22,11550],[-34128,-57],[-25,34487],[16829,80],[-330,11562],[17166,122],[581,23059],[-17029,-170],[31,12953],[17043,-2541],[113,39438],[-5573,-43],[-129,8792],[-55,2776],[-195,11400],[-35585,108],[-251,13639],[-138,863],[-296,8954],[17733,62],[9716,-621],[8672,93],[312,4],[-705,23820],[34816,73]],[[430192,766675],[-8543,-4446],[-2975,-1536],[108,-12385],[-23987,31],[-9032,-4680],[-1137,-592],[208,-52588],[112038,353],[42,-11358],[7911,109],[581,-46262],[-8252,-37],[-8879,-13],[165,-11309],[1224,-11974],[16820,93],[-601,-11490],[17404,147],[308,11318],[-690,11881],[7791,26],[857,-69817],[-6063,-27],[-1668,-81],[-50897,-270],[-33970,-272],[-33982,-238],[-1278,25],[-743,-65],[-4085,85],[-37444,-180],[-3017,128],[-13315,9]],[[197600,652307],[-4350,-16],[162,-841],[-4296,-257],[-1174,980],[1039,2530],[1219,-43],[-1233,2408],[1897,1311],[-349,414],[-3515,-105],[-439,-688],[-2393,-1132],[-1193,378],[-207,1598],[961,1133],[1335,453],[-329,810],[-923,-506],[-2677,-351],[392,-18254],[-16151,-19],[-3648,1783],[-1697,1633],[-484,1881],[-2544,2251],[-1354,209],[-2973,-568],[-1380,832],[-938,2202],[-207,1577],[-2130,727],[-2853,2803],[-885,1820],[1153,-2655],[909,-14486],[-10147,159],[-24174,32],[-1096,23044],[-16389,393],[-16832,158],[-46,11106],[-16815,219],[-432,11136],[271,11766],[-11928,-540],[-969,-186],[-1747,-508],[-2246,-1186],[227,19882],[4051,-34],[320,2775],[12787,-92],[351,14350],[-224,15],[-16870,105],[349,19140],[100,3720],[-8004,72],[-548,483],[44,2324],[-1026,1085],[-19086,95],[273,34691],[34369,-55],[211,11532],[-34381,61],[74,39035],[-1819,3853],[199,4102],[111,1905],[1402,4883],[1243,788],[15392,742],[604,202],[329,14702],[155,10],[4710,-121],[2855,-585],[95342,-220],[-173,-22410],[17933,-14],[-20,10866],[16547,44],[247,-11464],[261,-154],[51160,49],[16974,-175],[8427,-86],[25757,134],[68,11533],[6473,-50],[10296,169],[26,-11573],[8421,71],[8849,84],[185,-23265],[8527,-4],[-121,-11179],[8721,-36]]],"bbox":[-103.53553,39.741765,-102.419332,41.002558],"transform":{"scale":[0.0000011161991161991133,0.0000012607942607942605],"translate":[-103.53553,39.741765]}}
