{"type":"Topology","objects":{"foo":{"type":"GeometryCollection","geometries":[{"type":"MultiPolygon","arcs":[[[0,1,2,3,4,5]]],"properties":{"postal_code":"96117","realtor_list_price":"NA","realtor_list_price_yoy":"NA","realtor_list_price_base":"NA","realtor_active_listings":3.667,"realtor_active_listings_yoy":0.2222,"realtor_active_listings_base":-0.0952,"realtor_new_listings":0,"realtor_new_listings_yoy":"NaN","realtor_new_listings_base":-1,"realtor_days_on_market":"NA","realtor_days_on_market_yoy":"NA","realtor_days_on_market_base":"NA","zhvi":298064.084,"zhvi_yoy":0.0584,"zhvi_base":0.4577,"zori":"NA","zori_yoy":"NA","zori_base":"NA"}},{"type":"MultiPolygon","arcs":[[[6]]],"properties":{"postal_code":"96137","realtor_list_price":619482.759,"realtor_list_price_yoy":-0.0263,"realtor_list_price_base":0.3349,"realtor_active_listings":92.667,"realtor_active_listings_yoy":-0.0702,"realtor_active_listings_base":-0.2896,"realtor_new_listings":19.333,"realtor_new_listings_yoy":0.9333,"realtor_new_listings_base":-0.1968,"realtor_days_on_market":88,"realtor_days_on_market_yoy":0.0321,"realtor_days_on_market_base":0.2252,"zhvi":446530.951,"zhvi_yoy":0.0185,"zhvi_base":0.5497,"zori":"NA","zori_yoy":"NA","zori_base":"NA"}},{"type":"MultiPolygon","arcs":[[[7,-2,8,9,10,11]]],"properties":{"postal_code":"96123","realtor_list_price":"NA","realtor_list_price_yoy":"NA","realtor_list_price_base":"NA","realtor_active_listings":0.667,"realtor_active_listings_yoy":-0.3333,"realtor_active_listings_base":"NA","realtor_new_listings":0,"realtor_new_listings_yoy":-1,"realtor_new_listings_base":"NA","realtor_days_on_market":"NA","realtor_days_on_market_yoy":"NA","realtor_days_on_market_base":"NA","zhvi":"NA","zhvi_yoy":"NA","zhvi_base":"NA","zori":"NA","zori_yoy":"NA","zori_base":"NA"}},{"type":"MultiPolygon","arcs":[[[-10,12,-6,13,14]]],"properties":{"postal_code":"96130","realtor_list_price":287250,"realtor_list_price_yoy":0.0589,"realtor_list_price_base":0.2971,"realtor_active_listings":87.333,"realtor_active_listings_yoy":-0.0871,"realtor_active_listings_base":-0.242,"realtor_new_listings":18.667,"realtor_new_listings_yoy":0.12,"realtor_new_listings_base":-0.3784,"realtor_days_on_market":80.25,"realtor_days_on_market_yoy":-0.1185,"realtor_days_on_market_base":0.2765,"zhvi":238645.105,"zhvi_yoy":0.0136,"zhvi_base":0.3799,"zori":"NA","zori_yoy":"NA","zori_base":"NA"}},{"type":"MultiPolygon","arcs":[[[15,16]]],"properties":{"postal_code":"96009","realtor_list_price":"NA","realtor_list_price_yoy":"NA","realtor_list_price_base":"NA","realtor_active_listings":4.667,"realtor_active_listings_yoy":-0.1765,"realtor_active_listings_base":-0.17,"realtor_new_listings":0,"realtor_new_listings_yoy":"NaN","realtor_new_listings_base":-1,"realtor_days_on_market":"NA","realtor_days_on_market_yoy":"NA","realtor_days_on_market_base":"NA","zhvi":212044.321,"zhvi_yoy":0.0064,"zhvi_base":0.2561,"zori":"NA","zori_yoy":"NA","zori_base":"NA"}},{"type":"MultiPolygon","arcs":[[[17,-4,18]]],"properties":{"postal_code":"96136","realtor_list_price":"NA","realtor_list_price_yoy":"NA","realtor_list_price_base":"NA","realtor_active_listings":1,"realtor_active_listings_yoy":0,"realtor_active_listings_base":"NA","realtor_new_listings":0,"realtor_new_listings_yoy":-1,"realtor_new_listings_base":"NA","realtor_days_on_market":"NA","realtor_days_on_market_yoy":"NA","realtor_days_on_market_base":"NA","zhvi":"NA","zhvi_yoy":"NA","zhvi_base":"NA","zori":"NA","zori_yoy":"NA","zori_base":"NA"}},{"type":"MultiPolygon","arcs":[[[19,20,21,22]]],"properties":{"postal_code":"96109","realtor_list_price":725000,"realtor_list_price_yoy":"NA","realtor_list_price_base":"NA","realtor_active_listings":4,"realtor_active_listings_yoy":-0.0769,"realtor_active_listings_base":-0.2937,"realtor_new_listings":0.667,"realtor_new_listings_yoy":"Inf","realtor_new_listings_base":0.1912,"realtor_days_on_market":115,"realtor_days_on_market_yoy":"NA","realtor_days_on_market_base":"NA","zhvi":188300.567,"zhvi_yoy":0.0182,"zhvi_base":0.2304,"zori":"NA","zori_yoy":"NA","zori_base":"NA"}},{"type":"MultiPolygon","arcs":[[[23,-21]]],"properties":{"postal_code":"96113","realtor_list_price":"NA","realtor_list_price_yoy":"NA","realtor_list_price_base":"NA","realtor_active_listings":5,"realtor_active_listings_yoy":2.75,"realtor_active_listings_base":-0.0462,"realtor_new_listings":0,"realtor_new_listings_yoy":"NaN","realtor_new_listings_base":-1,"realtor_days_on_market":"NA","realtor_days_on_market_yoy":"NA","realtor_days_on_market_base":"NA","zhvi":127480.649,"zhvi_yoy":0.0157,"zhvi_base":0.3442,"zori":"NA","zori_yoy":"NA","zori_base":"NA"}},{"type":"MultiPolygon","arcs":[[[24,25]]],"properties":{"postal_code":"96119","realtor_list_price":"NA","realtor_list_price_yoy":"NA","realtor_list_price_base":"NA","realtor_active_listings":1,"realtor_active_listings_yoy":0,"realtor_active_listings_base":0,"realtor_new_listings":0,"realtor_new_listings_yoy":"NaN","realtor_new_listings_base":"NA","realtor_days_on_market":"NA","realtor_days_on_market_yoy":"NA","realtor_days_on_market_base":"NA","zhvi":"NA","zhvi_yoy":"NA","zhvi_base":"NA","zori":"NA","zori_yoy":"NA","zori_base":"NA"}},{"type":"MultiPolygon","arcs":[[[-23,26]]],"properties":{"postal_code":"96121","realtor_list_price":"NA","realtor_list_price_yoy":"NA","realtor_list_price_base":"NA","realtor_active_listings":2.667,"realtor_active_listings_yoy":-0.3333,"realtor_active_listings_base":-0.4384,"realtor_new_listings":0,"realtor_new_listings_yoy":"NaN","realtor_new_listings_base":-1,"realtor_days_on_market":"NA","realtor_days_on_market_yoy":"NA","realtor_days_on_market_base":"NA","zhvi":298482.103,"zhvi_yoy":0.0305,"zhvi_base":0.3358,"zori":"NA","zori_yoy":"NA","zori_base":"NA"}},{"type":"MultiPolygon","arcs":[[[-14,-5,-18,27]]],"properties":{"postal_code":"96128","realtor_list_price":"NA","realtor_list_price_yoy":"NA","realtor_list_price_base":"NA","realtor_active_listings":3,"realtor_active_listings_yoy":0.8,"realtor_active_listings_base":-0.3116,"realtor_new_listings":0,"realtor_new_listings_yoy":-1,"realtor_new_listings_base":-1,"realtor_days_on_market":"NA","realtor_days_on_market_yoy":"NA","realtor_days_on_market_base":"NA","zhvi":296322.68,"zhvi_yoy":-0.0283,"zhvi_base":0.2809,"zori":"NA","zori_yoy":"NA","zori_base":"NA"}},{"type":"MultiPolygon","arcs":[[[-25,28,-12,29]]],"properties":{"postal_code":"96132","realtor_list_price":"NA","realtor_list_price_yoy":"NA","realtor_list_price_base":"NA","realtor_active_listings":1,"realtor_active_listings_yoy":-0.4,"realtor_active_listings_base":"NA","realtor_new_listings":0,"realtor_new_listings_yoy":"NaN","realtor_new_listings_base":"NA","realtor_days_on_market":"NA","realtor_days_on_market_yoy":"NA","realtor_days_on_market_base":"NA","zhvi":"NA","zhvi_yoy":"NA","zhvi_base":"NA","zori":"NA","zori_yoy":"NA","zori_base":"NA"}},{"type":"MultiPolygon","arcs":[[[-16,30]]],"properties":{"postal_code":"96068","realtor_list_price":"NA","realtor_list_price_yoy":"NA","realtor_list_price_base":"NA","realtor_active_listings":1.667,"realtor_active_listings_yoy":0.6667,"realtor_active_listings_base":"NA","realtor_new_listings":0,"realtor_new_listings_yoy":"NaN","realtor_new_listings_base":"NA","realtor_days_on_market":"NA","realtor_days_on_market_yoy":"NA","realtor_days_on_market_base":"NA","zhvi":"NA","zhvi_yoy":"NA","zhvi_base":"NA","zori":"NA","zori_yoy":"NA","zori_base":"NA"}}]}},"arcs":[[[697025,534920],[2143,474],[2051,-22],[3451,1932],[5349,497],[1441,-98],[1580,570],[4900,1148],[1564,-822],[1749,39],[4480,1057],[1791,760],[1108,1142],[1296,3273],[464,495],[2758,4628],[4312,3083],[6463,9809],[77,3515],[4284,1328],[2012,1859],[2816,1368],[1735,1667],[-157,696],[-3275,5506],[400,574],[7432,34],[-1542,811],[-448,1338],[-1868,2386],[-807,3579],[-884,1178],[824,1163],[-913,495],[1565,910],[464,2111],[664,676],[105,1617],[-1161,1089],[-144,1624],[-1857,3307],[829,2119],[-227,1498],[1254,818],[2410,733],[1557,3041],[321,1801],[1412,1850],[273,3049],[1765,1753],[518,1353],[-214,2988],[461,869],[-542,1974],[-1208,1550],[-2064,1454],[-1001,1144],[-925,3323],[-172,1618],[1735,583],[721,1486],[1693,2297],[2218,847],[3752,293],[2855,1360],[701,1259],[1947,1457],[-1483,1030],[-4810,2337],[-1293,34],[-2947,1094],[-1853,1253],[-40,841],[-3783,1635],[-4447,-176],[-2752,790]],[[749908,653071],[1982,501],[5070,-557],[2536,672],[1737,-509],[18738,-48],[-324,1766],[1195,803],[1389,1745],[201,1318],[-492,823],[478,804],[2919,2315],[2324,721],[153,817],[-1247,401],[253,1341],[1795,814],[1300,-267],[-1236,2859],[2919,872],[3039,2120],[2376,806],[2131,1597],[824,1256],[4141,754],[1242,608],[2062,-396],[1971,996],[1798,-130],[2646,1989],[2492,355],[3656,2441],[1788,894],[3456,889],[2454,290],[2076,1195]],[[829750,685926],[4049,1633],[2206,57],[894,445],[1697,2075],[1865,-1154],[2608,81],[546,1579],[2247,1928],[1537,1919],[1603,1309],[2523,801],[2998,674],[2967,491],[3642,-267],[12312,-1923],[2493,-144],[3327,193],[4036,-1685],[2060,-2105],[770,-3342],[3521,-4568],[8101,-6967],[1010,-1249],[835,-1999],[3003,-3737],[276,-969],[4176,-5956],[2251,-1266],[2192,-511],[1752,420],[2399,62],[2376,-712],[1431,-1686],[1799,92],[693,-1377],[1222,-681],[-344,-1193],[392,-1037],[2606,-1377],[1777,46],[807,-618],[1222,293],[3414,-1919],[1753,-2198],[3183,-2399],[138,-1673],[-691,-743],[922,-1099],[6806,-814],[5339,-1035],[7447,941],[2528,-377],[3232,-1786],[3091,-1975],[4074,1034],[2250,-1177],[5759,-2114],[5058,-1317],[3512,-1787],[4197,-3536],[-122,-3798],[3793,-283],[-151,-2114],[3585,-944],[640,311],[416,-50434],[-3741,-102],[-2936,-312],[-9065,-2112],[-4844,-1947],[-20859,-18175],[83,-549],[-1496,-3027],[-1836,-2083],[-3830,-2576],[-1223,-3031],[-442,-432],[-2481,-1735],[-3268,-1245],[-3488,-3525],[-10949,-1228],[-5318,575],[-1686,-94],[-8396,855],[-1432,-119],[-1013,-659],[-16771,-1282],[-16356,-179],[-39721,-4075],[-258,-403],[-18339,-6221],[-1023,-1529],[-1924,-1058],[-3278,-531],[-3859,-2582],[-1511,-809],[-1621,-2190],[-1198,-820],[-7314,-1569],[-2716,-1434],[-847,-770],[-2708,-3245],[-2589,-3346],[-1356,-850],[-1837,-2124],[-3591,-4600],[-370,-133]],[[782393,490994],[645,4190],[-586,1938],[-2899,-11698],[-3510,-9695],[-4,-3091],[-1571,-3214],[-953,-1216],[-1821,-1015],[-8617,-3368],[-2754,-1472],[-1001,-1496],[-226,-4236],[-552,-1409],[-887,-833],[11254,-7722],[1207,-463],[7595,-39],[-430,-4837],[-5202,347],[-334,271],[-3399,896],[-20139,3885]],[[748209,446717],[-22940,4262],[-2555,-96],[-3858,698],[-3752,-161],[-7859,-584],[-4486,522],[-2813,646],[-1661,-318],[-2466,1490],[-1918,172],[-1333,915],[-2252,278]],[[690316,454541],[-1903,451],[-1859,39],[-1883,598],[-2696,-587],[-1466,450],[-7082,-222],[-2696,317],[-2293,-1116],[-1174,469],[-2623,364],[-419,472],[-2855,369],[-3500,1166],[-1654,186],[-1664,-390],[-2084,286],[-2360,1665],[-2948,7],[-1054,683],[-2513,417],[-2260,-20],[-1600,1416],[-3010,565],[-1158,-313],[-2783,62],[-2537,1163],[-5044,-87],[-1758,-863],[-1257,-15],[-1841,-722],[-1669,-1198],[-5609,-1790],[-1383,-248],[-3114,35],[-1682,-616],[-1997,-1300],[-1268,-148],[-1598,-1275],[-3143,-474],[-2224,442],[-30,10801],[36,392],[2332,189],[3680,783],[15753,480],[-21,86],[-17,9222],[-1130,117],[-24253,103],[-59,4528],[528,1003],[203,2621],[-464,778],[2642,1722],[-229,1294],[1422,1144],[613,1259],[-877,766],[646,857],[998,265],[1482,1192],[880,2026],[1159,712],[362,1802],[-1404,1235],[169,1834],[-1761,945],[-2564,240],[-1824,491],[-1232,1280],[-2424,1319],[-3905,898],[-3281,1684],[-932,736],[-836,1504],[-154,5132],[325,547],[-1363,1288],[394,1449],[1434,426],[682,868],[3204,-722],[2466,68],[2080,-1609],[1083,-134],[3704,400],[2254,-676],[1886,-1330],[1426,1415],[853,2107],[2981,319],[5240,1785],[970,856],[389,675],[2231,-335],[2569,1640],[2413,586],[1263,1406],[-52,1001],[4035,1558],[306,1124],[1873,106],[1470,575],[1076,-157],[324,-1016],[2112,-941],[1810,814],[131,2223],[1877,1784],[397,1628],[1541,1477],[-305,2538],[-2216,1412],[0,2055],[529,815],[-917,1248],[214,2074],[-454,2044],[840,-29],[1224,1810],[122,1200],[1075,-701],[33,-1958],[1831,-6302],[-168,-2207],[-560,-2037],[350,-1341],[-400,-3110],[973,-1161],[-1919,-2816],[2223,-3733],[803,-445],[2386,307],[2447,-1499],[1919,-466],[1320,-1085],[184,-764],[283,-1083],[3583,-2318],[638,-2406],[-689,-1753],[-134,-1283],[2444,851],[3074,1927],[1446,-203],[6447,900],[3029,-867],[3034,1590],[1151,2560],[2347,2812],[3404,2715],[2732,1562],[2435,2765],[2178,850],[6271,2812],[2704,-49],[1567,265]],[[0,607416],[664,2796],[-408,4425],[1509,1797],[809,-1676],[1971,-1604],[-290,-2722],[3062,-1827],[2867,-2843],[441,-1366],[1433,-768],[1123,801],[-142,1348],[1853,2530],[512,1570],[2629,1744],[-1030,1275],[1592,1511],[677,1577],[2344,2339],[841,1537],[1396,500],[1541,-645],[1365,169],[2613,2565],[1049,-3423],[573,-960],[-126,-1894],[2913,-3508],[317,-785],[142,-4048],[-801,-1264],[-3231,-2473],[-1097,-1337],[248,-1922],[-469,-1177],[724,-612],[-929,-919],[-1505,-413],[-3224,-1504],[385,-2147],[-600,-996],[649,-947],[-159,-2281],[-994,-1894],[941,-1367],[2273,-1682],[813,-107],[1208,984],[3937,2154],[8456,-1710],[1724,729],[692,1419],[3179,1952],[2927,-1326],[2424,-631],[-74,-794],[1837,-2155],[3762,-1774],[1829,-405],[1160,-971],[7619,-2632],[3294,-1685],[4106,1891],[521,41],[1524,-2435],[403,-2849],[-4677,519],[-1039,-1786],[113,-1829],[-838,-755],[-996,-2729],[-985,-870],[-828,-3221],[-3293,-280],[-3360,-3036],[-918,-1199],[183,-1156],[1819,-1193],[-414,-1193],[807,-1362],[-208,-667],[1898,-1952],[218,-1546],[-1271,-1601],[-521,-1897],[1930,-367],[978,236],[1109,-1510],[-745,-817],[576,-1450],[2278,464],[2278,-805],[1704,-154],[3314,1332],[2798,-392],[608,-1141],[2095,-759],[2049,-1379],[2347,326],[2877,-1952],[4188,-774],[529,-791],[2900,46],[1309,530],[1338,-570],[4723,1877],[-281,1924],[373,1212],[-437,1233],[689,648],[1381,-95],[655,1034],[1295,293],[3463,2419],[4087,960],[937,1590],[1948,2182],[-410,390],[1025,1636],[-440,351],[944,1417],[1423,465],[862,951],[-1419,463],[-626,1783],[-856,888],[235,1513],[1312,557],[1137,1106],[222,1065],[1541,1128],[1061,1412],[4166,807],[2947,1489],[3492,2210],[1904,503],[2531,-292],[755,626],[3001,653],[1804,99],[-82,1388],[972,1148],[-1669,665],[-1271,2525],[246,1027],[1477,1870],[-2181,3609],[456,3657],[1584,975],[-1420,-183],[860,4180],[3430,8123],[67,731],[-2527,4734],[-620,786],[-2663,1948],[-151,1122],[2431,2427],[14112,-7379],[3183,-2334],[741,-1251],[1406,-4537],[1187,-1919],[-4098,-1777],[-520,-879],[12441,-11539],[-6424,275],[-3300,-2477],[-150,-938],[2909,-4480],[-2318,311],[-2343,1101],[-1646,-310],[-2744,14],[-592,905],[-4760,-1],[-1165,-394],[3565,-9188],[-2848,-1202],[-19,-798],[-1482,-1450],[-2078,-375],[-2110,-803],[-3225,-2222],[-1257,-1707],[-3926,3433],[-223,2542],[-3723,101],[-2234,-1051],[-582,98],[-212,2297],[-1239,859],[312,-1917],[-423,-1704],[1584,-1502],[-1361,-948],[-1091,-1363],[-224,-2039],[-1005,-1082],[-364,-2092],[1033,-2591],[2196,-2835],[-270,-1972],[351,-3511],[468,-1760],[4892,-4517],[1060,-1919],[-411,-963],[-2404,724],[-1235,1646],[-205,946],[-1740,765],[-2833,-196],[-2896,-2510],[-2329,-169],[-2827,475],[-2302,-410],[-462,-1007],[-1089,-263],[-1718,484],[-662,679],[-1849,414],[-1337,-477],[2,-1057],[-1174,-1735],[-242,-1400],[656,-915],[3134,-1295],[341,-1429],[2015,-894],[2042,-1893],[2528,-3],[1952,1337],[1927,-306],[2629,-1853],[2550,-2246],[1091,958],[3543,660],[589,944],[1416,-699],[-2163,-1619],[27,-3785],[-2755,-1713],[-1665,-204],[-1118,-712],[-2870,-4225],[-357,-1227],[804,-782],[-201,-2506],[393,-1351],[-432,-1124],[-2834,-1329],[-329,-1782],[798,-1243],[-2918,-15],[285,-1287],[-1292,-345],[509,-1174],[-734,-1910],[-227,-1476],[-2868,-1288],[-939,-1317],[-1732,28],[476,-1181],[-1225,-2046],[-1705,113],[-483,-1409],[-2621,1089],[-1011,777],[-2481,325],[-1815,-2906],[-731,-198],[529,-1617],[-1129,-1160],[-304,-1851],[-1868,-817],[-1891,-1310],[-741,-1183],[311,-388],[-1716,-781],[-482,-2135],[-248,-2975],[-639,-702],[2023,-1230],[2580,-695],[496,-1402],[-2123,-770],[-1192,-1826],[242,-1033],[903,-807],[-999,-722],[1261,-1704],[-206,-1470],[475,-1082],[-322,-898],[-1440,210],[-3022,1437],[-1689,1908],[-1353,576],[-615,-826],[89,-1912],[790,-1711],[-1768,-1573],[-317,-1235],[-2843,-422],[-910,-640],[-2796,104],[-1233,-377],[-1426,158],[-1004,851],[-1297,212],[-925,-1368],[1441,-2101],[-88,-1655],[790,-1461],[1634,-2002],[-907,-1795],[111,-1638],[-1649,-1460],[-137,-751],[2215,-1043],[986,-1398],[88,-2126],[1537,-2557],[1699,-1344],[1515,302],[3073,2145],[874,-1341],[3776,-230],[2239,-385],[1779,434],[5001,-235],[1834,-1456],[1082,-1294],[505,-1631],[-691,-3121],[-69,-2331],[-656,-2108],[51,-1742],[971,-4058],[2179,-614],[103,-741],[-749,-942],[1289,-1450],[-1125,-607],[-391,-1792],[283,-1511],[-302,-2110],[1445,-922],[1167,-248],[6653,778],[1296,392],[2988,1527],[9275,-7690],[2266,-16],[2757,910],[5748,5027],[1932,2230],[3374,709],[575,837],[-663,1227],[486,1407],[1240,294],[1192,-312],[1349,-2108],[1054,-403],[1263,107],[3101,1126],[7507,1075],[1882,75],[242,496],[1868,-117],[6639,59],[569,-1265],[2322,-2254],[2333,-1376],[2998,-1328],[3495,-1099],[102,7421],[3402,-50],[2172,-923],[2027,-1493],[1924,-172],[24788,2100],[8983,437],[36918,1747],[7734,438],[2096,735],[883,634],[5670,4907],[2935,1478],[1519,1377],[-365,1431],[953,574],[-387,717],[360,1437],[1597,1496],[965,376],[385,854],[2944,680],[2591,23],[719,-257],[13066,4863],[-848,1151],[-6411,125],[879,1776],[-682,1258],[952,648],[1957,2865],[-1405,897],[-379,1223],[2218,-712],[1853,733],[1849,1452],[1735,820],[2560,122],[874,-213],[2356,240],[601,695],[820,-807],[2704,-66],[1617,1051],[1441,-632],[1969,610],[1079,1208],[580,-99],[370,-935],[2397,-796],[-978,-920],[409,-929],[1622,-905],[197,-1710],[1434,-617],[2532,722],[6052,644],[-4760,-602],[-1691,-699],[-1788,-1918],[-2451,-952],[-1054,-1078],[1626,-2377],[-1160,-1091],[560,-1663],[-1581,-68],[-588,1263],[-1423,544],[-1527,-1348],[202,-1049],[-1243,-449],[-155,-1370],[-979,-323],[-1563,764],[-2597,255],[-526,-308],[43,-832],[1032,-1322],[-209,-1895],[549,-882],[-652,-843],[1248,-1330],[2444,-553],[1271,-738],[498,-2270],[-950,-1276],[268,-1360],[-1181,-1185],[-422,-1289],[-1292,-197],[-612,1211],[-3222,179],[-994,-216],[-2085,1134],[-1939,508],[-1862,-1008],[-2367,645],[-1273,-884],[-2220,-7],[-1266,-1388],[785,-1154],[-449,-1046],[-1480,77],[-779,-450],[-1658,35],[-3129,-1715],[-1254,249],[-1724,-464],[-2583,-1833],[1402,-1723],[-262,-1988],[-467,-443],[1195,-2173],[-1270,-1863],[-2184,-440],[-848,-779],[-3603,310],[-4257,2369],[-2093,1382],[-6267,714],[-94,-1283],[485,-1039],[-556,-678],[-1548,-455],[277,-648],[-1350,-1287],[-4864,-3454],[-3329,-4225],[-1463,-81],[-4855,2301],[1155,1506],[-1211,11],[171,992],[-2010,439],[-550,531],[-788,-371],[-3267,551],[1196,-1384],[-1332,-763],[-1250,485],[-928,-204],[-2314,-1365],[59,-1038],[700,227],[358,-817],[-1056,-228],[-822,529],[-1958,269],[-134,-901],[-1421,-493],[39,786],[-1436,-210],[-1056,-1446],[-1083,-700],[-1256,103],[-132,848],[-1074,777],[-3222,-368],[-899,-584],[-1207,269],[-740,625],[547,1725],[826,33],[-1082,828],[18,942],[-2035,-1026],[-981,-1364],[-2031,477],[-767,-1251],[1476,-408],[-2116,-805],[-1826,964],[-269,676],[1345,606],[1131,10],[1386,1666],[-1758,770],[185,1205],[-4016,-1654],[-1437,-1309],[230,-1115],[1138,-223],[-1700,-1122],[-1128,929],[898,1015],[-677,793],[-1376,-252],[-146,-1178],[844,-1420],[973,-279],[-1246,-1240],[-1097,795],[-1717,-1156],[523,-854],[1179,-126],[3166,902],[1485,-584],[760,-870],[4782,-1921],[2951,4],[292,560],[2081,788],[3395,388],[2423,-627],[1442,-646],[944,-1093],[2117,-1597],[3559,-1318],[4420,332],[2626,-792],[2558,-1021],[1230,-1004],[617,-1713],[650,-427],[237,-3161],[1189,-427],[1229,-1194],[1569,-569],[4661,-680],[1858,1465],[2362,343],[5,-2175],[-2012,-2250],[-1810,-3222],[-977,-2409],[-1839,-2409],[-1053,-3538],[-1536,-2885],[-228,-2666],[-1962,-4104],[-27206,71],[-143,9457],[-14333,-181],[-5360,105],[-2983,-537],[-334,-243],[-1059,-2314],[-751,-755],[347,-1008],[1341,-1537],[1491,-709],[2723,1009],[950,-26],[292,-841],[2767,-1195],[3628,441],[1072,-967],[-519,-1176],[1509,-1440],[-859,-1028],[387,-303],[2888,719],[2736,-1970],[1377,1169],[1641,-240],[168,-1638],[1362,-1275],[1930,-1321],[1187,51],[1594,-705],[1784,-56],[911,-864],[1590,-355],[1947,121],[2318,596],[2074,-666],[2433,997],[3480,-839],[-1309,-1245],[393,-1206],[-461,-977],[339,-252],[2840,-60],[982,-261],[1381,-1040],[3089,1788],[921,-206],[88,-723],[-1554,-159],[-795,-1040],[-1968,-1506],[-1453,-358],[-1048,1025],[-1305,10],[-443,-835],[-1612,-54],[-334,-1819],[-1224,-181],[-3554,29],[-1978,-972],[-1075,1345],[-6380,3785],[-4669,560],[-5587,1389],[-2223,1518],[-2777,422],[-2335,113],[-3209,-687],[-3347,815],[-932,-177],[-2112,741],[-2394,-44],[-3233,1160],[-1924,728],[-1804,-206],[-706,-1012],[-2957,-1843],[-566,-696],[-1952,-194],[-1793,755],[-1791,-378],[-3609,-143],[-5997,-2774],[-1079,-634],[-1910,-2724],[-646,-1502],[18,-1627],[-2301,-3482],[-941,-789],[-1759,-2716],[31,-597],[1119,-884],[3959,-1229],[1072,-1318],[1398,122],[2062,-537],[2028,1491],[3397,1100],[2594,-1423],[-1943,241],[-1076,-135],[-6263,-1968],[-3126,-313],[-4853,116],[-665,4432],[61,632],[1719,2920],[1025,883],[2054,2986],[181,1996],[525,1280],[1794,2616],[2441,4168],[-1506,87],[379,1380],[1046,1294],[1479,687],[-1067,2729],[-2536,1598],[-703,730],[198,861],[-848,283],[-336,1023],[-1836,1474],[-661,1377],[435,1105],[-677,1534],[691,2178],[-254,2040],[-835,979],[-189,1662],[556,1609],[-1101,2749],[-659,632],[311,2288],[943,1224],[-2145,2352],[-699,1414],[482,917],[-705,1048],[-3075,2530],[-1734,344],[-1230,1277],[77,2154],[578,1086],[-1721,-2592],[-2391,1140],[-1134,869],[121,1619],[-2658,10],[-1294,546],[-992,1065],[-2295,895],[-1107,1385],[-2611,-588],[-1496,932],[-493,925],[-519,-1037],[-800,-294],[-1937,428],[-876,560],[420,-1828],[-891,-658],[-2246,-559],[34,-659],[-3567,232],[-1299,894],[959,-2165],[1348,127],[894,-1672],[-911,-15],[30,-975],[-2448,-787],[612,-654],[109,-1319],[-570,-1611],[-1199,-911],[-1491,960],[-1168,-1011],[-1098,-1519],[-1276,-845],[-890,258],[-1576,-1063],[-24,-1862],[-699,-557],[103,-2185],[-322,-3409],[-477,-298],[-693,20],[-1663,1074],[677,-2237],[62,-2581],[699,-1668],[-187,-774],[1253,-1224],[390,-1012],[1528,-486],[-62,-1805],[650,-1980],[558,-394],[-742,-1131],[-1968,1420],[-994,1997],[-1133,1551],[-2349,2123],[-1411,2834],[-1242,1264],[-2097,-415],[-225,2739],[-2352,6100],[-9,2874],[545,997],[-53,1289],[-1657,3253],[-1375,1592],[-879,4427],[395,2765],[909,3540],[-621,2391],[1540,428],[301,143],[-883,-160],[-1232,656],[-192,1418],[-3246,6983],[-2264,2873],[-1646,1413],[-2035,769],[-1323,1317],[-2358,1316],[-1122,-89],[-2628,963],[-3046,19],[-2352,-1238],[-1519,30],[-2235,-1110],[-713,-136],[-643,416],[-1080,1828],[-11798,726],[10,209],[-172,103],[11813,-754],[-681,4081],[-742,2332],[-1228,2208],[-609,3561],[-1532,2364],[-2898,1044],[49,1799],[-1082,1113],[2042,1304],[494,724],[-617,1778],[-1158,1216],[-507,1378],[674,714],[-4039,4800],[-1054,2573],[-651,941],[-961,250],[-1440,-431],[-1899,-2752],[-731,-29],[-1236,1137],[-2148,1069],[-1552,1145],[-3152,247],[-514,-675],[-1274,-147],[-1829,1443],[183,1447],[-1446,3527],[-2423,2589],[-19,1550],[783,2272],[-409,571],[-673,2863],[-1822,-707],[-91,-867],[-1148,-1271],[-3033,1130],[-1727,-328],[-2509,776],[-803,1038],[452,809],[-557,3644],[1686,4483],[-1121,1182],[-1725,-1287],[-1892,-525],[-1655,-1080],[-737,128],[-1402,1743],[-1961,769],[-1260,-993],[-2390,-314],[-313,550],[501,2877],[42,2552],[594,1741],[308,2032],[-626,1179],[221,1599],[114,1122],[-1692,830],[-674,1953],[17768,543],[-227,2744],[-36,12526],[108,34737],[3352,-106],[111,29698],[-13025,19],[-8802,279],[62,19419],[-7303,8],[53,9893],[-5507,16],[119,1284],[-2350,2595],[-157,1906],[-680,1636],[978,766],[366,2673],[-1343,1457],[-1403,428],[-547,741]],[[749160,812350],[3660,2344],[2523,1957],[984,494],[7393,43],[3822,2378],[13332,48],[1183,-238],[5515,2810],[2315,516],[1200,1531],[-2100,1598],[-1300,1531],[800,2131],[-2401,2131],[-2800,3064],[0,865],[2400,1465],[1901,3796],[400,1264],[2301,1932],[1199,3062],[5293,4750],[2555,2018],[764,1478],[2168,933],[168,2234],[1475,1689],[1616,1152],[-728,1494],[1885,1584],[677,970],[492,-629],[1900,371],[1074,565],[-1479,1520],[2780,319],[5462,78],[1081,-1041],[2937,-709],[2182,251],[-618,-1634],[3015,-695],[2267,-1569],[284,-2541],[-282,-3174],[389,-859],[855,-57],[972,919],[-490,-3654],[427,-508],[585,-4091],[-299,-1460],[2638,-2737],[2744,-1371],[1881,6],[-245,-898],[2087,-2616],[1589,-1253],[200,-901],[-575,-1011],[-205,-1930],[490,-2165],[-2553,-2577],[-4532,-4996],[-1472,-2712],[-2151,-2435],[-895,-3345],[-1118,-2449],[-1924,-1593],[1721,-1093],[1003,-1041],[938,-3385],[-46,-3581],[263,-3162],[55044,758],[-18,-1488],[1073,-916],[-24,-722],[2429,-1328],[231,-1992],[3861,-3298],[2410,-485],[2701,-1390],[860,-795],[-1153,-28],[-271,-1531],[2326,340],[7773,-142],[578,1024],[2828,926],[4735,1783],[2139,-692],[1127,-848],[1562,-201],[3718,-952],[4195,-412],[3688,-959],[3333,796],[1145,608],[1462,-201],[1430,280],[1918,1721],[3610,1324],[1329,1130],[3767,738],[1831,1304],[1783,256],[1417,586],[3832,3601],[2459,-105],[5347,-1634],[4119,332],[3343,1530],[1541,174],[15931,-6401],[1524,-721],[1642,-1336],[758,-1563],[1423,-547],[69,-2718],[0,-1053],[170,-23136],[-1265,-399],[-2315,-1254],[-1511,-1476],[-2332,-47],[-2184,-1106],[-2760,-654],[-937,-1522],[-9,-2360],[317,-4213],[370,-2124],[-360,-1848],[-7432,877],[-2386,-24],[-1460,-1590],[-3646,-1695],[-1124,-1616],[532,-1734],[1251,-69],[1510,-926],[3149,-2530],[-1111,-882],[-5744,-1996],[-889,-636],[-2289,-742],[-2185,-1768],[-2899,-566],[-836,-1863],[-2690,-1310],[-1001,-760],[-4937,-1022],[-1772,279],[-1251,-521],[-2728,-444],[-1182,390],[-2499,-152],[-2653,-768],[-1786,-2],[-1556,472],[-2546,-331],[-955,260],[-3939,2724],[-2829,474],[-3604,-236],[-2641,774],[-778,704],[-2742,1107],[-2561,-830],[-667,-511],[-527,-2195],[-887,-1687],[-578,-2200],[-1704,-4080],[-77,-1982],[-2173,-2002],[-975,-498],[-75127,-954],[-67,-25158]],[[749908,653071],[-876,203],[-5195,916],[-1283,578],[-7978,350],[-2831,-70],[-1747,386],[-2460,-305],[-1316,-500],[-6791,203],[-2764,-601],[-1887,206],[-5067,1334],[-3952,-286],[-3301,1427],[-3792,1016],[-1523,-756],[-3006,-233],[-1501,-1107],[-2132,-698],[-1637,-1760],[-3051,5]],[[685818,653379],[-1920,3],[-2248,-344],[-3440,-902],[-2411,-896],[-11989,-1858],[-931,-1092],[-2861,-940],[-1872,-262],[-741,44],[-12723,2523],[-2320,374],[-1987,-301],[-3690,-1086],[-1074,-558],[-1433,-1747],[-2573,-1169],[-2206,-122],[-1749,534],[-1069,-224],[-2922,5029],[-1863,4135],[-463,2877],[1567,7248],[-1480,1565],[-924,2960],[127,1312],[1455,1888],[-368,1903],[1877,2736],[-439,762],[824,2033],[303,3070],[1539,-148],[1655,3086],[-649,488],[548,1808],[-1924,2003],[-1946,1211],[-2283,675],[-3238,2761],[-1467,4827],[-971,1412],[303,2018],[-379,1647],[-1286,1678],[-745,2390],[-1323,1376],[-72838,1026],[429,2149],[-1435,4207],[-2708,881],[-642,1895],[-1522,1337]],[[533393,721601],[-698,1314],[-1572,1262],[64,2867],[615,1021],[-1395,1044],[-488,3955]],[[529919,733064],[-155,1742],[-790,1659],[148,1010],[-1484,2150],[109,1795],[-1321,1140],[-135,2197],[538,483],[3078,1518],[3420,609],[1449,454],[3273,3808],[-3,1182],[984,2011],[10766,-1003],[6886,-994],[3714,-1927],[1318,-1946],[206,-1020],[2346,-1497],[2224,-207],[1307,-561],[2435,25],[1800,629],[3222,453],[3029,1114],[9914,2354],[4955,2805],[-33,1878],[-825,6493],[-969,775],[-2362,619],[7542,6475],[5182,757],[4980,116],[1394,-173],[5816,-15],[12041,5425],[-2813,2494],[-627,1123],[-2496,2976],[-1779,185],[-543,639],[-2039,327],[-5306,-81],[-4925,573],[-1861,750],[-2276,1819],[-6777,3493],[-2504,2475],[-5686,3426],[-18,3679],[1060,286],[39800,-171],[522,70],[9647,-11488],[1237,-828],[2800,-1099],[1910,-1482],[4207,894],[8111,4177],[60759,134],[7522,2531],[5023,1423],[2087,1155],[941,1309],[3280,1535],[4523,917],[6123,3737],[110,4782],[3190,2711],[40,2482]],[[685818,653379],[-1991,-3338],[-784,-679],[-3874,-1184],[-7372,-5396],[-1471,-3006],[-2766,-1572],[-689,-771],[-274,-1681],[-1264,-2869],[837,-2510],[2081,-3542],[1269,-1277],[233,-1298],[-760,-1162],[625,-2151],[1415,-6713],[1847,-2814],[71,-1655],[1317,-2847],[2,-1547],[-965,-2601],[1272,-3960],[1546,-1870],[714,-387],[8337,-3098],[3641,-1037],[3943,-289],[4556,-1794],[-289,-55411]],[[690316,454541],[16,-1473],[-487,-774],[508,-533],[-2238,-4891],[-923,-960],[-1962,-541],[-63214,-403],[-86,-7359]],[[621930,437607],[-3416,262],[-490,298],[-1224,-1025],[-373,434],[-4746,114],[-89,-1865],[-7732,190],[-7517,1014],[-745,-173],[-6399,42],[50,-528],[-1461,94],[-2229,-1010],[-1174,-177],[-2631,168],[-1972,-430],[-2267,-55],[407,794],[-680,769],[-2436,-57],[-157,-959],[-3692,-87],[-285,552],[-2186,-771],[117,-1031],[-802,-1826],[-1063,-1846],[-610,-1171],[-91,-803],[-1057,-27],[-1104,255],[-1610,-288],[-1850,-2941],[-5028,-365],[-2154,1288],[41,-957],[-7190,-13],[565,-9628],[-64,-1906],[-1736,-386],[-2364,782],[-818,-214],[-620,733],[-969,-771],[-2026,-75],[-1510,490],[-1711,-841],[-1054,326],[-2397,-311],[-1231,308],[-1484,-175],[-2342,-1497],[-673,-1330],[-862,-346],[-136,-4341],[-6580,-65],[306,-7587],[-1205,464],[-425,1080],[-2621,241],[-1246,916],[-1099,-134],[-732,1559],[-2088,3],[-1539,-860],[-188,-2470],[-878,-1020],[-2759,-888],[104,3828],[-7157,39],[-389,4879],[-20814,592],[-36212,-66],[-121,5076],[-8563,-110],[-6641,87],[1842,48],[438,1061],[-384,-421],[-3836,703],[-1852,763],[-994,1161],[-1837,35],[-1320,-365],[-3728,-2906],[-2174,-1],[24,-2608],[-607,-162],[-509,-626],[-507,-217],[-753,-73],[-1665,-455],[-796,-491],[-61,-325],[-2287,-8],[-15,-1144],[-488,48],[-336,-569],[-40,-1070],[-177,-384],[212,-493],[790,-679],[-6,-614],[-9201,-29],[-2817,2755],[-2256,3094],[-744,2187],[-1599,741],[-762,-720],[-79,6857],[245,2624],[262,581],[2265,-852],[597,-551],[3077,-130],[602,220],[484,1303],[-1426,607],[1427,21],[879,-419],[1118,-2299],[3097,-908],[934,1913],[-841,1200],[-194,1244],[-828,1713],[-358,2510],[-832,1563],[-1717,2265],[-3322,1730],[-2994,1005],[-1990,1703],[-2076,2281],[-633,1319],[-323,3935],[294,693],[-194,1845],[-644,944],[-1869,1077],[82,-763],[-2332,-2743],[-926,-2427],[-1215,-978],[-2,588],[2719,4356],[729,785],[73,2133],[-634,920],[119,3062],[-1586,1879],[-200,1088],[953,901],[5673,2500],[2293,1629],[5794,4239],[5879,2554],[2045,-994],[1346,-23],[-1570,-422],[-2396,-4723],[-433,-2915],[445,-812],[-457,-820],[316,-895],[1003,-118],[960,2574],[1428,1097],[363,1077],[697,97],[974,-883],[1955,-65],[1549,1127],[765,-1243],[699,944],[3885,2253],[1651,2281],[1628,400],[1018,888],[1749,216],[-147,955],[-19255,97],[2226,966],[3717,2469],[1279,1319],[1242,1818],[2527,2005],[1656,633],[6964,1412],[-938,155],[-4418,2096],[-2202,748],[-4711,733],[-4803,104],[-2076,404],[-1936,-113],[-2060,1009],[-2602,3326],[-1613,871],[-5534,1081],[-1738,-26],[-1476,-475],[-3749,311],[-2776,-321],[-3938,866],[321,433],[3135,-768],[1892,2],[1321,420],[2688,-625],[1328,104],[2168,712],[3864,-267],[1382,-305],[2526,205],[1068,-600],[1076,-1503],[1993,-10],[758,1489],[-388,2134],[-1070,1881],[-197,1817],[1128,1679],[836,-166],[1534,579],[479,1221],[-919,1211],[1687,-456],[3450,388],[2387,650],[2975,217],[764,1237],[-91,1674],[1834,1890],[981,484],[-1531,1049],[1259,2094],[-383,798],[1605,890],[-361,1606],[1491,1024],[393,1134],[2051,1452],[-679,845],[-152,1638],[784,722],[-98,1081],[1812,657],[580,602],[1730,472],[1044,2331],[2344,1673],[170,861],[-1030,1041],[1714,1817],[600,1928],[-783,1342],[-85,3000],[368,1127],[-341,2243],[-1962,337],[-1450,1126],[-2924,116],[-149,861],[-1436,861],[-2176,818],[-2012,178],[-2015,1393],[-3219,983],[-1781,225],[2008,1017],[2465,239],[201,571],[-1257,1624],[-1496,800],[-633,2255],[-1198,1008],[-333,1266],[587,906],[-1433,20],[-3714,3260],[-292,2843],[-3592,892],[-923,1021],[-1616,936],[-3512,1111],[-4444,2140],[-2328,974],[-3231,-786],[-2939,551],[-1832,-1311],[205,-802],[-2118,-2912],[-3362,-589],[-1796,-1332],[-3545,-233],[-1658,-495],[-2549,19],[-13,-975],[-3171,-2400],[-342,-1597],[-1088,488],[-3244,400],[-1191,821],[-3541,466],[-50,575],[-4256,1742],[-496,481],[10,1572],[1328,3144],[-1085,4228],[-1080,1869],[-23,3024],[960,744],[587,1759],[1143,1295],[-98,727],[1582,1231],[641,1070],[1804,1743],[2516,1474],[-2149,1631],[-817,1987],[-4859,-130],[-4129,-892],[-1455,213],[811,1627],[-1364,-348],[-2481,-25],[-2975,632],[-3263,1232],[146,-779],[-1681,-1368],[163,803],[-1682,2553],[-398,1568],[-3002,740],[-631,829],[854,2469],[-252,1328],[-990,434],[-1000,1334],[2903,137],[4249,-1360],[1363,-945],[80,-899],[3399,129],[1575,-755],[883,581],[-1807,1256],[2481,944],[3285,192],[2080,-963],[248,1360],[3395,395],[1041,-73],[-664,-2722],[323,-3520],[3990,1712],[2146,1443],[2055,-705],[2694,428],[381,579],[2908,1421],[-275,788],[716,2392],[34,1557],[2864,1100],[2206,480],[156,538],[-2,1338],[-869,180],[-1448,2932],[-2445,2077],[-2075,2841],[1221,449],[4507,-1506],[2816,-1976],[2518,-616],[2063,23],[6276,-1275],[1254,-685],[2099,2257],[-717,2866],[3135,671],[-644,697],[356,1205],[-552,1582],[566,1207],[-623,785],[-1700,378],[-89,1416],[776,669],[1273,533],[1541,-572],[2650,-75],[-586,2007],[365,1062],[-400,2107],[-1323,641],[-83,1867],[-523,335],[2331,766],[1469,-365],[3029,12],[1720,-281],[760,-707],[1944,-28],[1570,2022],[1869,465],[938,1438],[-1756,865],[-3683,339],[-1515,-102],[-1309,667],[-818,-560],[-1066,169],[-1736,-444],[-2307,277],[-1384,2179],[207,-703],[-1175,-1520],[-1976,-290],[-1601,-2839],[-889,-749],[-796,153],[-916,-1039],[-2579,-84],[-4075,997],[-2058,-270],[-3796,2391],[-340,880],[3481,1105],[2100,-23],[295,632],[-705,848],[-2437,1620],[-978,971],[1901,1306],[293,2033],[-1743,1238],[-131,1241],[3003,1611],[545,710],[488,2413],[-371,2648],[1098,1534],[2781,1491],[725,880],[-2010,462],[-765,2064],[-96,1992],[-2082,1560],[-2322,2208],[190,2576],[-239,1288],[-2998,2286],[-1824,345],[-1343,686],[-599,1735],[-1585,668],[2006,1340],[683,1719],[-805,1468],[106,1579],[287,403],[3005,-130],[1442,983],[294,1027],[1334,1910],[956,723],[2078,559],[1609,-216],[960,-630],[2274,-667],[1190,-1611],[-1315,2387],[279,874],[1534,2093],[238,2191],[-819,1103],[-1767,-533],[-1331,28],[-1032,-1014],[-1091,-390],[-878,435],[-3499,-691],[-1987,642],[-1867,1141],[-1614,563],[-2927,-1478],[-5518,-220],[-705,2163],[-1037,1065],[-1633,-65],[-1047,387],[-215,764],[-1292,573],[-1484,21],[-4267,-1456],[-3928,-768],[-73,2431],[-1580,2711],[825,1814],[520,3515],[1212,1673],[2529,2277],[2161,334],[406,663],[4336,-881],[3343,-1071],[2613,-1522],[4465,-535],[1515,-812],[202,-664],[866,923],[2833,566],[1791,1336],[1115,2008],[282,1644],[2065,524],[-1424,1453],[-1239,2473],[8762,9],[-571,895],[656,1111],[-1347,856],[-1321,2766],[-198,2500],[326,317],[2917,-1510],[2610,-313],[1790,-923],[623,-1746],[1936,-1481],[2648,-179],[-1136,-1161],[-38,-1151],[59508,-135],[71232,-396],[-3041,2881],[-2012,1573],[-430,1294],[-1739,1524],[-546,2712],[747,373],[-301,1028],[565,548],[4920,-583],[1506,-748],[136,-809],[-1116,-452],[213,-2591],[1716,-1916],[2004,-1095],[1392,-1283],[1796,-395],[762,-1086],[1052,-108],[2661,443],[1600,614],[807,797],[544,1987],[775,1316],[-748,1325],[4013,1252],[226,1199],[1042,474]],[[64772,915511],[2724,1129],[2557,2781],[1132,1854],[936,2531],[3151,2992],[4080,5300],[1144,-1612],[695,-292],[143,-1579],[1168,-1048],[8634,-4368],[402,1461],[1893,2292],[925,207],[3289,-1196],[1180,50],[764,797],[417,-2407],[1538,-2929],[1671,-2296],[1767,-2015],[2457,-1884],[1118,-1736],[4842,-3296],[2303,-2217],[2309,-1167],[1535,-187],[517,1284],[2275,-256],[203,1313],[1819,2788],[-1454,416],[-465,1500],[-651,631],[606,829],[2346,304],[523,1297],[-1882,403],[107,810],[1355,-78],[-60,2140],[-1734,-277],[397,1044],[1187,-8],[235,878],[-845,1200],[-1359,-167],[-479,-955],[-2280,878],[307,639],[-540,1721],[705,550],[-1148,782],[-44,1523],[-1398,541],[-1062,-449],[-1181,227],[-123,21598],[-1273,2724],[-776,2336],[3796,2191],[-851,533],[-8867,2028],[-17493,-23],[-857,4880],[-199,2073],[-2639,16920],[-1125,3154]],[[85139,986598],[1625,1689],[6737,3257],[-831,1179],[-1700,637],[-1493,1756],[-3434,1179],[-3154,1825],[-2240,1835],[23667,-11],[18285,-2],[30271,-1],[54239,-13],[279,-1068],[3365,-131],[73,-9650],[7461,14],[124,-22088],[3656,-205],[83,-7348],[16911,20],[1165,-520],[4053,-2598],[1954,-785],[2786,5091],[993,1317],[377,2412],[419,327],[6632,-91],[771,418],[58,10415],[177,1428],[21960,15],[1067,-1529],[6597,-17904],[1325,-5570],[2556,-7157],[3436,-6160],[3072,-3168],[921,-722],[4624,-2521],[1894,-839],[1372,-1218],[6650,-4320],[2006,-2022],[9934,-10862],[11045,-12017],[2257,-2008],[1834,-1281],[183,-910],[-498,-2728],[1031,-4055],[664,-956],[-1768,-3093],[547,-2035],[-124,-2126],[-2816,-2195],[-178,-1172],[136,-410],[2954,-2796],[1513,-287],[1625,-829],[2924,489],[2986,1147],[1456,-916],[2197,-340],[-95,-3341],[499,-1032],[-1900,-2310],[-545,-3113],[1757,-426],[3984,-82],[2084,-999],[2499,-2925],[-114,1093],[3897,1588],[2623,-195],[3382,-596],[3827,291],[-1318,-581],[-693,-1633],[-4384,67],[608,-5281],[-3815,-211],[-2840,178],[-2644,-115],[-481,1213],[-5151,1888],[-1345,167],[1260,-1176],[-131,-523],[-1919,-1488],[870,-634],[1289,-1997],[-1498,-568],[-405,-2302],[1771,-2114],[-460,-3660],[-1102,1183],[-3201,323],[-3149,901],[-856,615],[-929,1839],[-3049,1054],[-1046,731],[-2325,2275],[-2221,680],[-2111,1597],[-1631,586],[-2105,-240],[-1099,760],[-2095,537],[-1608,-761],[-2210,-370],[-1085,-1724],[-1277,-601],[724,-1473],[608,-3018],[-671,-919],[-2081,-165],[-9201,4753],[-11382,2108],[-6826,778],[-2646,606],[-2006,-462],[-1527,1691],[-205,1418],[-532,457],[43,1650],[-1949,1625],[-761,2907],[-1217,1509],[-2820,-261],[-987,-444],[0,3670],[-1081,2007],[-1945,816],[502,417],[-571,1527],[190,1000],[1041,999],[637,1608],[-1267,950],[-1683,218],[-1305,861],[-1724,31],[-3133,-698],[-1844,876],[-333,2029],[732,2258],[-121,1866],[-1249,634],[-183,1013],[1520,350],[830,2324],[-1225,1558],[466,1473],[-3137,662],[-814,-247],[-1416,1188],[-3747,978],[-2623,132],[-817,-634],[-1860,736],[-2208,-913],[-2210,193],[-1118,535],[-1855,-328],[-1758,-1991],[-1736,-505],[-1637,1382],[-2815,231],[-827,-849],[-600,-1788],[-710,-599],[-827,-1781],[-3551,-1287],[-403,-2368],[-325,-5320],[2217,-1800],[1168,-2473],[308,-1470],[-266,-1467],[237,-1664],[1207,-1875],[203,-1484],[-618,-2120],[388,-2071],[-158,-2463],[-1511,-1809],[-1833,-845],[-386,-718],[-312,-3098],[-598,-889],[-2337,653],[-2150,-1018],[-1317,-146],[-2604,-1669],[-892,31],[-3017,1015],[-1367,-80],[-1824,-994],[-1196,-77],[-2306,1957],[-685,-110],[-3096,-2362],[-2081,-149],[-3536,1272],[-697,-62],[-1589,-1092],[-1767,-379],[-969,453],[112,854],[-1185,2891],[1637,157],[2701,1487],[-407,1202],[-261,2800],[658,439],[1533,-91],[1296,1189],[-4109,7075],[-1627,-1943],[-498,1098],[-1408,1602],[-1471,1086],[-33,826],[-893,1945],[854,1422],[23,1104],[-1537,1721],[-2476,-919],[-2498,-1599],[-1443,-1688],[286,-2219],[-2986,-1846],[-1570,-1223],[-2366,-435],[-2359,-1191],[192,-1158],[-1320,-2249],[158,-2646],[475,-1766],[1156,-2582],[-913,-187],[-1664,787],[-3009,722],[570,-1853],[1367,-738],[715,-2607],[1548,-2741],[-1145,-1275],[-440,-1254],[993,-1556],[551,-1976],[1205,-1788],[-2325,-808],[-4894,-453],[-2136,-1085],[-2175,-2851],[-2181,-780],[-4602,-678],[-2824,527],[-3260,-603],[-1865,535],[-559,673],[-4719,121],[-1327,-441],[-1777,-1086],[-3302,-520],[-4104,-1004],[-1472,-62],[-1870,-1226],[-1303,672],[-1892,93],[-1874,-385],[-764,-793],[-4278,-1459],[-1218,-1451],[-2735,-1508],[457,1865],[-366,2092],[-590,1101],[-2957,1544],[-266,457],[-1840,686],[-2176,-334],[-2481,4],[-1045,-666],[175,2556],[-2098,2798],[-251,325],[-3553,8],[2184,3891],[2899,2450],[-427,1383],[455,1044],[1368,1473],[-231,2964],[379,2613],[1038,1171],[842,2086],[445,270],[1824,225],[3740,-1158],[1285,0],[933,646],[-1433,1179],[-1542,505],[-1350,1236],[-4732,1788],[587,1257],[2074,3039],[39,2016],[2061,2277],[-528,2629],[330,1029],[-2834,535],[-678,870],[1841,1421],[349,2601],[885,1349],[-947,1739],[-1332,-927],[-2380,580],[-4669,1545],[-86,-1475],[-5171,-108],[-3393,138],[-1338,-1486],[-3359,373],[-1138,1023],[-2108,1135],[-3212,-1063],[-5316,-1365],[-1883,-177],[-368,-650],[369,-2474],[-147,-2530],[-2201,-3850],[-452,-396],[-2341,-910],[-1112,338],[-1879,-373],[-1092,2790],[-1833,1409],[-4116,2072],[-1792,2323],[-2189,317],[-1436,-238],[493,2996],[-713,2251],[-1132,1723],[52,2422],[-345,1924],[258,1769],[-1898,2768],[1731,5385],[-60,728],[1051,2668],[1119,1713],[1913,1928],[2665,3859],[1276,2125],[2504,-301],[1228,333]],[[697894,415980],[14558,241],[-124,9703],[7243,116],[5115,310],[3088,-200],[7047,8],[1803,485],[5795,-343],[5389,43],[478,177],[-77,20197]],[[782393,490994],[-503,-3951],[498,-3021],[1970,-5552],[291,-399],[4915,-3607],[1714,-2249],[2511,-1371],[3320,-1165],[8222,-2226],[4168,-1901],[4792,-3797],[73,-1569],[-2922,-1505],[-1886,-1464],[-2670,-937],[-505,-913],[-120,-1570],[1740,-2120],[4625,-2326],[994,-1171],[-318,-1990],[439,-2711],[1113,-14],[2121,704],[3908,304],[5473,1378],[3542,458],[4025,841],[5138,305],[5918,906],[2584,806],[2264,1487],[3044,942],[3563,166],[3159,-443],[5649,-1523],[806,280],[777,-1219],[1714,-126],[1173,-617],[1789,-2398],[3515,-1075],[2132,-1115],[390,-1460],[4060,-961],[2639,862],[2550,-1116],[1620,70],[3488,1005],[3785,452],[2916,868],[3635,1370],[8340,-196],[5812,5255],[6057,4647],[4738,1949],[1681,1587],[2260,-212],[1851,439],[2188,-535],[2645,848],[1130,762],[3802,1646],[2155,-148],[1901,940],[287,643],[3180,2307],[706,1022],[2012,910],[3413,3731],[2039,1033],[5794,913],[1797,-126],[2796,359],[3842,858],[3727,-112],[2988,140],[2316,902],[3914,616],[3616,-522],[1379,278],[3103,-388],[2738,-1517],[2029,-1530],[1532,-732],[-79,-54501],[0,-398],[-21,-39083],[-1,-725],[-90,-11519],[-469,-59786],[-1721,74],[-16350,26],[-7934,6072],[-5328,3919],[-14800,121],[242,9881],[-2574,-304],[-1126,146],[-3313,4560],[-7330,5222],[703,33616],[-73,1636],[-3673,1660],[-12868,4759],[-1363,138],[-13437,5160],[-1639,616],[16,350],[-4736,2035],[-39418,15092],[-4574,-2567],[-3556,-2308],[-8535,-5110],[-2081,-480],[-2858,-105],[-2013,3502],[-2108,1887],[-788,286],[-2301,2739],[-584,1111],[-1448,1089],[-816,1794],[462,2776],[-623,1554],[-3144,1957],[-3706,505],[-2197,698],[-1492,887],[-73,1305],[2606,-1315],[1817,-285],[-265,1445],[-3317,3196],[545,910],[-1487,-442],[-2524,2347],[-947,424],[-2705,2058],[-915,1077],[302,1457],[-1658,237],[-2534,-38],[-947,424],[-936,-789],[-6931,-1540],[-2633,106],[-1684,1174],[2318,-105],[2380,1041],[72,2856],[-1010,3026],[-5414,2608],[313,-1364],[1210,-1428],[1343,-684],[979,-1539],[-53,-1757],[-3619,-2842],[-695,-1308],[-1873,-353],[-981,-661],[-2583,-839],[-4958,-3042],[-370,-1100],[992,-413],[-1191,-1727],[-3260,-650],[-1763,-1463],[-2263,297],[-7207,-995],[-2774,628],[-3497,72],[-1547,-534],[-1223,129],[-3573,-502],[-2620,-662],[-193,-1925],[-2763,-193],[-1036,558],[-1596,-1168],[-935,-1947],[-2737,-1647],[-450,850],[-2661,1531],[-1409,-1254],[-3530,2423],[1339,1514],[-6343,-31],[-13,2430],[-7298,-13],[-84,4885],[-3579,-9],[-45,2467],[-2332,-13],[5,-2499],[-1173,-383],[-2714,-20],[-446,-561],[-239,-4178],[124,-2133],[-3647,-188],[-11273,-148],[-47,2596],[-3630,-295],[1132,1395],[-826,1943],[1614,2871],[1577,1317]],[[787505,296141],[23816,-181],[21743,-336],[391,-211],[6345,100],[11257,-245]],[[851057,295268],[1,-2009],[-9718,-1464],[-3104,-835],[-1996,-1050],[1656,-252],[518,-1533],[2217,-246],[1938,-1944],[1175,673],[2698,-866],[19723,-138],[-191,-1877],[744,-617],[1526,137],[871,-436],[2402,-2176],[4060,-2814],[4520,-3361],[484,-887],[4145,-2577],[1489,-369],[1129,-754],[2621,334],[2833,940],[-4453,8135],[-446,1404],[-227,2330],[633,2454],[1084,1831],[2944,2733],[4530,2118],[4844,1245],[10301,2663],[1646,301],[2743,161],[21889,-637]],[[938286,295885],[8494,-171],[1986,169],[42602,5566],[4836,484],[3120,524],[-149,-18938],[-84,-23412],[0,-133],[45,-9714],[-89,-3685],[-263,-78072],[-506,-22345],[-303,-13371],[-803,-35450],[-344,-24481],[-1297,211],[-2530,1458],[-1416,558],[-530,1266],[-817,165],[-2447,-315],[-1682,-986],[-2024,-2420],[-1112,-1905],[-1057,-627],[-1937,-472],[-2293,-970],[-2099,-150],[-4067,280],[-2298,847],[-3855,23],[-2138,-628],[-2079,-299],[-1134,154],[-1751,-625],[-5608,475],[-900,-160],[-5235,-87],[-3143,-795],[-854,-470],[-1378,-2454],[-922,525],[962,1382],[-668,1076],[-1453,599],[88,1347],[-2016,1627],[-82,813],[985,1162],[-1190,710],[-967,2226],[-750,913],[363,1871],[-1505,789],[-340,1002],[504,2444],[-750,648],[-1254,168],[-1556,-1171],[-884,2269],[361,3010],[1439,2429],[-257,2573],[-3569,-114],[-626,2452],[560,1562],[-297,2087],[-959,808],[449,-2232],[-39,-806],[-1191,-2914],[66,-3217],[-973,-3346],[-1290,-4223],[-501,-1984],[442,-2261],[-851,-2959],[769,-2905],[35,-2299],[2130,-3286],[1,-3064],[-1195,-3646],[-82,-1147],[-1119,-1791],[-1118,-813],[827,-753],[4006,-346],[2092,-514],[1046,-575],[1923,-2456],[3261,-1746],[1744,-2231],[-1781,-3170],[-1909,-2148],[-1437,-4807],[-106,-1656],[-1837,-3868],[-2284,-1074],[-696,-4885],[846,-821],[-1109,-787],[-1323,-1591],[-114,-642],[-1263,-870],[-126,-2389],[812,-1334],[57,-2651],[-290,-2600],[-1524,-1402],[-2119,-1353],[-1314,-446],[-2089,-2276],[-742,-2057],[-1851,-1846],[-2344,-916],[167,-992],[882,-1236],[-13122,27],[-16213,-833],[437,19466],[14450,-167],[98,10018],[6547,90],[-364,9846],[1906,25],[4972,78],[-338,10182],[2502,9072],[-393,23142],[171,35804],[6727,-32],[-167,19718],[-7162,24],[93,19729],[-13679,28],[-105,5551],[-1219,1],[-5736,4],[25,4932],[-7108,18],[-18,4892],[-7191,40],[38,4187],[-7161,85],[191,10239],[-7578,73],[208,9776],[-7258,132],[-23,10041],[-14421,84],[-48,10301],[-44,9514],[-7300,14],[-341,9189],[1550,-27],[-243,19326],[-7,799],[-14608,-403],[-13997,265],[78,14951],[-14471,-92],[-713,5499],[-6598,-718],[-21751,28]],[[763918,275724],[175,8408],[-225,1921],[-3,11011],[18852,-441],[1348,-476],[3440,-6]],[[851057,295268],[226,10012],[593,111],[13931,-75],[6995,-29],[-845,1420],[-3009,23],[4746,8907],[7025,-242],[-216,628],[3747,2472],[70,3154],[1222,568],[-7456,3771],[135,1032],[8249,28],[-62,1038],[-937,585],[476,20308],[-8206,87],[-366,9351],[-4303,91],[-5828,363],[-1666,311],[-761,2406],[-553,4261],[-1100,4368],[-718,930],[-434,1726],[-1557,2513],[-993,2805],[6184,1148],[1827,650],[12776,-1340],[125,706],[1975,690],[10146,-1126],[1746,-55],[11002,1787],[1490,112],[-404,-1574],[-215,-15877],[-470,-2292],[-99,-5451],[-567,-1731],[653,-1988],[-1460,617],[-336,-720],[-2454,631],[-1263,1011],[-2820,-763],[-5,-593],[-1427,302],[-3897,44],[-135,-5270],[-918,-310],[-508,-18101],[673,-2325],[-472,-17635],[428,-746],[455,-300],[6164,-243],[1167,203],[4934,85],[1184,1676],[-92,-4380],[33628,-217],[-191,-8931]],[[610140,839667],[-5974,129],[-6,-29338],[-29365,-161],[59,12373],[-14792,72],[-24,7373],[-23230,204],[-572,2493],[-1827,1877],[-45,5261],[-2728,302],[-334,373],[-597,-637],[-29687,341],[10,19746]],[[501028,860075],[99,9018],[-784,58067],[2325,497],[763,500],[4274,-412],[2376,-535],[-1255,1319],[1723,72],[760,457],[327,1238],[-271,1952],[896,1899],[-2462,2222],[-973,466],[-3750,5527],[430,1517],[-254,2286],[2172,2567],[4058,3316],[-157,827],[-344,496],[-3306,2371],[-1169,2076],[-2765,2482],[-1340,2006],[-2330,1371],[-767,1599],[-207,4452],[-488,2101],[780,1208],[7,26655],[16790,16],[4137,291],[4147,-3930],[-445,-1904],[1861,-4296],[-1039,-3409],[-1175,-780],[-407,-1470],[525,-661],[-385,-1674],[390,-1119],[1256,-1212],[3208,-461],[2905,-1426],[-408,-624],[1925,-1590],[831,-1313],[2263,-385],[3305,-2525],[1560,-26],[3957,-1271],[2417,-1416],[3771,215],[-311,-453],[1919,-1823],[695,-2636],[-192,-1179],[1018,-1781],[3116,-2454],[-113,-1780],[-1057,-1015],[1424,-2385],[0,-1833],[1104,-838],[1375,-109],[978,-2733],[-1812,-1167],[640,-1648],[1006,-229],[3266,613],[994,-3070],[4739,-153],[2154,1883],[994,266],[172,1105],[2932,3434],[2039,1244],[2487,759],[2133,142],[2279,757],[1530,135],[2094,-890],[1513,-73],[2102,570],[2544,2664],[3501,1225],[1740,1932],[2340,581],[1886,-718],[6604,-833],[682,669],[3228,1387],[1418,-2075],[1128,-912],[1975,-2381],[1959,-1453],[4522,-2240],[2042,-1252],[2619,-2900],[477,-2009],[2873,-3486],[515,-52],[-664,1688],[2216,-797],[4054,2210],[166,907],[1340,-628],[2202,-3229],[273,-1595],[804,-868],[2859,-1311],[3252,-932],[2514,-1008],[1798,-1329],[4908,-2255],[4433,53],[-1558,-1105],[-1868,316],[-1924,-193],[-2593,-1755],[-3979,-337],[-1162,-557],[-1608,-2104],[-106,-1550],[544,-1238],[-432,-990],[1348,-1689],[-706,-2462],[464,-816],[-3232,-4433],[234,-1660],[-1021,-945],[2605,-1611],[2216,-2694],[1292,-1037],[-2601,137],[-1064,-1807],[-1672,-599],[1535,-1038],[272,-1377],[2839,-748],[3359,-1503],[2231,-2042],[1242,-444],[1573,-1352],[2419,-1525],[1633,-2044],[3469,-1035],[4722,-2609],[1709,-539],[3295,-2244],[457,-2569],[2839,-564],[92,-804],[1691,-1930],[434,-1213],[-445,-2286],[578,-774],[-588,-1539],[-1975,-1140],[-1786,-74],[-1251,-513],[-1337,-1393],[351,-714],[-1419,-1133],[-2870,-884],[-1836,-1040],[-1569,-63],[-2369,-1070],[-2570,-509],[-1629,-1397],[-2325,-342],[-2113,465],[-1657,-156],[-3326,-1264],[-2058,453],[-2864,-594],[-2258,1274],[-2836,-49],[-1547,669],[-261,967],[-6014,2240],[-1741,259],[-1033,1098],[-965,-1873],[8,-2454],[-743,-641],[-3495,-1681],[-3011,-2499],[-1493,-2087],[-7663,-4212],[-1777,-3707],[-928,-5682],[-2244,-1713]],[[763918,275724],[-29110,266],[-60,4952],[-14704,-29],[161,4752],[-11019,-99],[-3570,84],[187,6326],[29,1154],[-6375,-3],[-8361,60],[39,4554],[-7447,-8],[265,10028],[-7407,-59],[258,4987],[-14939,83],[-74,4796],[-7237,141],[466,9820],[-6809,-1],[-138,9748],[-4870,17],[-1204,1305],[-1683,2591],[-7,2022],[1463,873],[1297,1554],[21,1104],[2293,1922],[412,736],[3354,1520],[1744,1190],[1902,2349],[3332,587],[5401,3899],[600,847],[419,-137],[3188,-6672],[1660,-1446],[4036,-2829],[2605,-3104],[2964,-1357],[1149,-826],[1577,-163],[3661,-1112],[5001,-3663],[1551,-127],[1224,-2353],[2698,-933],[2604,-1235],[3038,-2124],[3089,-1071],[7509,-2089],[1407,-747],[1842,-657],[2375,-371],[8508,-216],[2930,-976],[4138,-832],[3573,-233],[7491,-1122],[1659,-357],[4024,-1906],[4124,-1664],[-3733,367],[412,-2200],[1170,-2055],[99,-859],[1346,-3419],[814,-1308],[2489,-1576],[3285,-1245],[2269,-324],[2642,-858],[4823,-1948],[3817,-2431],[1367,-651],[3449,-1063],[3724,-1369],[2608,-379],[3229,-1707],[1523,-304]],[[697894,415980],[-18075,-163],[-7277,-15],[-4164,-118],[-364,198],[-1195,-30],[-677,37],[-1847,-114],[-921,24],[125,9992],[-14718,-107],[-1257,59],[-21895,48],[-496,898],[-4418,3909],[955,2340],[170,2085],[-444,1561],[534,1023]],[[610140,839667],[23300,-307],[45613,200],[-133,945],[53775,250],[1068,-2690],[-195,-598],[162,-1291],[1237,-2816],[2812,-1810],[-407,-2526],[3554,-3281],[595,-1680],[964,-1109],[-595,-1041],[292,-948],[1798,-1597],[1302,-700],[1605,-1593],[678,-1513],[1171,-897],[424,-2315]],[[529919,733064],[-799,-85],[-1551,2207],[-1883,1463],[-3527,1023],[-1757,261],[-3643,-87],[-1143,559],[-2481,371],[-1743,1050],[-1032,1017],[-1672,541],[-1244,1490],[-2086,1839],[-4017,2012],[-3298,1142],[-1499,1057],[-2867,298],[1210,792],[638,2189],[771,1325],[605,3072],[1548,161],[3754,3321],[131,653],[-425,1249],[-2224,841],[-1505,1179],[-2152,713],[-2640,-225],[-2113,728],[-4444,2265],[-1694,1937],[-1791,1204],[-1143,1798],[-385,2917],[695,1603],[-307,1505],[-1853,911],[-1433,2173],[173,1075],[1247,1175],[3955,635],[3656,1135],[-6969,2251],[-3764,2338],[-7335,3388],[-6750,2820],[-11683,5474],[-2764,1110],[-883,2365],[1530,1787],[1675,1092],[-2511,2496],[1030,411],[-231,1371],[580,1131],[1945,14],[2878,689],[1588,1183],[172,1503],[707,1338],[2861,732],[826,530],[3769,1131],[8944,11],[2263,401],[1511,-713],[289,2214],[-378,700],[-4608,3178],[-284,1672],[-1082,4058],[-510,1208],[-324,2601],[-679,2575],[-1660,2951],[-786,2917],[-1190,2116],[-3481,2609],[-1677,937],[24,453],[1427,1349],[1927,317],[1876,767],[589,601],[2561,1207],[-3,2306],[-1412,1660],[-296,1361],[33365,-88]],[[64772,915511],[-2987,453],[-3293,1828],[-3306,1415],[-2778,757],[-2488,419],[1501,502],[1411,1814],[-132,576],[-3037,2853],[-5301,2439],[-1294,1718],[-5771,5354],[-3481,4795],[-857,2263],[-1757,1296],[-633,323],[-1089,1061],[-422,1222],[-353,1559],[-349,417],[-986,231],[-208,568],[-190,292],[-642,1511],[192,846],[-568,1430],[-170,3199],[-1590,1934],[-1493,1088],[-1206,426],[-91,-1248],[-1705,697],[-2841,2736],[-695,1011],[-596,2516],[-880,565],[82,1351],[-674,809],[-318,1852],[982,937],[2269,601],[-706,824],[1237,1046],[-118,1114],[574,2230],[1073,955],[1937,680],[585,874],[3139,1372],[3236,711],[77,976],[765,-855],[54,-1940],[-2199,-3055],[810,-611],[1589,-2765],[2065,-903],[1484,-2044],[167,-1537],[820,-2319],[2912,-432],[3371,-1],[4760,-878],[1876,76],[2353,709],[4721,292],[3666,-1019],[-1036,1769],[446,1087],[2757,-117],[3199,-818],[-358,917],[4275,217],[372,1503],[1533,1937],[-234,1904],[1394,1705],[186,1269],[1631,530],[1155,-241],[-77,1067],[2259,-193],[1301,-683],[5708,-438],[187,6647],[3165,3109]]],"bbox":[-121.298256,39.707658,-119.9960515,41.184469],"transform":{"scale":[0.000001302205802205804,0.0000014768124768124746],"translate":[-121.298256,39.707658]}}
