{"type":"Topology","objects":{"foo":{"type":"GeometryCollection","geometries":[{"type":"MultiPolygon","arcs":[[[0,1]]],"properties":{"postal_code":"79535","realtor_list_price":259900,"realtor_list_price_yoy":-0.9606,"realtor_list_price_base":"NA","realtor_active_listings":0.667,"realtor_active_listings_yoy":-0.3333,"realtor_active_listings_base":"NA","realtor_new_listings":1.333,"realtor_new_listings_yoy":1,"realtor_new_listings_base":"NA","realtor_days_on_market":"NA","realtor_days_on_market_yoy":"NA","realtor_days_on_market_base":"NA","zhvi":"NA","zhvi_yoy":"NA","zhvi_base":"NA","zori":"NA","zori_yoy":"NA","zori_base":"NA"}},{"type":"MultiPolygon","arcs":[[[2,3,-1,4]]],"properties":{"postal_code":"79556","realtor_list_price":175704.63,"realtor_list_price_yoy":0.0607,"realtor_list_price_base":0.3696,"realtor_active_listings":69.667,"realtor_active_listings_yoy":-0.0752,"realtor_active_listings_base":0.2145,"realtor_new_listings":18,"realtor_new_listings_yoy":0.5882,"realtor_new_listings_base":0.5864,"realtor_days_on_market":81.037,"realtor_days_on_market_yoy":-0.0103,"realtor_days_on_market_base":-0.0329,"zhvi":123826.37,"zhvi_yoy":0.0577,"zhvi_base":-0.0329,"zori":1525,"zori_yoy":"NA","zori_base":"NA"}},{"type":"MultiPolygon","arcs":[[[5,-3]]],"properties":{"postal_code":"79561","realtor_list_price":"NA","realtor_list_price_yoy":"NA","realtor_list_price_base":"NA","realtor_active_listings":1,"realtor_active_listings_yoy":-0.4,"realtor_active_listings_base":-0.5067,"realtor_new_listings":0,"realtor_new_listings_yoy":"NaN","realtor_new_listings_base":-1,"realtor_days_on_market":"NA","realtor_days_on_market_yoy":"NA","realtor_days_on_market_base":"NA","zhvi":174198.165,"zhvi_yoy":0.1307,"zhvi_base":"NA","zori":"NA","zori_yoy":"NA","zori_base":"NA"}}]}},"arcs":[[[411179,374132],[-263,907],[34780,7245],[626,-981],[2547,10],[14013,2624],[3917,-11124],[5657,-3630],[2233,-10246],[911,-997],[4509,-15354],[-4110,-6775],[-2694,-2233],[1915,-3788],[-1463,-5422],[-6565,-11996],[712,-4908],[62111,12268],[3902,2957],[-37,1490],[-4883,2511],[-13553,2825],[-2419,1752],[-2285,6697],[-686,4067],[10583,1560],[-1011,15868],[15263,679],[5566,-20764],[4477,-16760],[31050,-116983],[459,-3450],[-580,-69992]],[[575861,132189],[-16733,-83],[-41432,931],[-25,-5768],[-3230,950],[-7780,-576],[-11316,-2598],[-4720,2301],[-13196,-1337],[634,-5303],[-1233,-4386],[3507,-3230],[2551,-80],[955,-3192],[-4788,-6456],[-2689,-1633],[-6517,-7812],[-4147,-1514],[-1232,-2712],[-9061,-1307],[-387,-3710],[-2975,-4203],[-18847,-152],[-2006,994],[-4749,6373],[-7340,2942],[-4290,4458],[-8292,1186],[-3750,6491],[-1826,2071],[-6204,4137],[-1701,3780],[-1871,-439],[1631,-2836],[-63,-5070],[2884,-3811],[4011,-1462],[4577,-6031],[6714,-5435],[2905,-1001],[946,-2514],[4179,-644],[2041,-1918],[-3027,-7245],[313,-4849],[-2458,-5242],[-2027,-2302],[-726,-4602],[-12867,395],[-1907,-1042],[-6764,953],[-13335,439],[-3326,1295],[-1788,2285],[-602,-2917],[-2388,-2638],[-1121,-6153],[-998,-1651],[-3185,-755],[-6004,2311],[-9469,2553],[-3233,158],[-1276,-1436],[-4417,-478],[-5649,-2553],[-4371,-959],[-4919,1993],[-5225,-10284],[-1673,-1826],[-4022,-9186],[-6146,-5264],[-7419,-5028],[-2138,-5303],[-2000,-2513],[-6605,1871],[-5871,-2195],[-4508,-720],[-2367,1554],[-5334,-870],[-640,-1714],[-3233,-1675],[-6653,-2354],[-2415,-3149],[-2862,-494],[57,26540],[1051,2708],[3917,2113],[4921,4861],[2914,1394],[7636,-190],[6702,4934],[2341,2228],[-9033,3615],[-3949,1968],[-2850,3246],[-2144,929],[-5223,-2012],[-6137,357],[-2774,-278],[-2959,1716],[-5693,1157],[-2596,-517],[-5830,959],[1780,4983],[4512,7934],[-9869,6412],[-2316,2788],[-4776,396],[-3591,3664],[-2821,357],[-6550,2429],[-10332,-5],[-9849,-1787],[-2464,-1393],[-1779,-2589],[-3703,-9640],[-2738,-4543],[-2599,-1712],[-9028,-2064],[-4514,-2190],[-1867,5021],[-3233,3469],[-7107,4784],[-6766,5782],[-8920,-4504],[-9924,-2694],[-9508,-60],[-2682,-388],[-18027,-7642],[-5456,-1082],[-92565,1039],[27,86492],[146,38393],[243,53458],[57772,-424],[8055,-216],[-8447,-5051],[-680,-4105],[2548,-2818],[5128,-20212],[-749,-8345],[5322,-3272],[5744,-1420],[4378,-4304],[2464,-5422],[4331,-2908],[6292,-2509],[3600,82],[1778,1834],[3167,10921],[-1811,4103],[-3773,2905],[-950,3150],[1013,4622],[2971,3347],[4889,1436],[8462,-1089],[6117,369],[1574,1430],[-362,1925],[-7517,8865],[289,12186],[1542,3349],[114604,-2339],[64,-9952],[6616,839],[5380,-360],[1301,1754],[1444,-1992],[9107,-2994],[4697,38],[732,5858],[1779,1436],[2329,4863],[38962,-312],[-2127,5002],[-4437,16714],[14810,-5534],[8484,-2029],[4561,-2073],[4241,-5021],[6613,-1114],[5693,2251],[7632,-771],[3026,2111],[3259,-1875],[-3618,4920],[-1329,3544],[4504,10021],[7908,9854],[3127,9175],[7316,12334],[1360,3909],[-188,1834],[-3320,7038],[-524,3284],[1175,6420],[11125,-40073],[-3513,-2672],[-2917,-7537],[-4363,-6293],[-2762,-7926],[-2951,-4121],[9207,3353],[7450,519],[5988,2901],[4671,684],[11719,-2393],[23531,4821],[4458,3239],[3406,4808],[2733,2007],[3973,1412],[-7096,26439],[-22,1276],[-1899,4674],[-5510,20034],[-5275,-615],[-1549,4308],[-2328,2273],[-1961,-1795],[-12091,-3228],[-2508,278],[-2601,2075],[-3421,-120],[-1917,7297],[-1733,1754],[594,2950],[-2282,1316],[-1505,3190],[-5294,6977],[-1243,3516],[5686,6074],[3707,-12719],[11362,2884],[16266,3267],[-6700,23200]],[[660159,873879],[8629,-32422],[34166,6671],[6355,-24617],[-8214,6176],[-3651,1440],[-6956,638],[-6959,-1033],[-8149,-476],[-4074,-3188],[-2111,-10404],[-6179,-2748],[3384,-8853],[3110,-2675],[5535,-8691],[3704,-3351],[5399,-3670],[-95,-3667],[2652,-4586],[548,-2593],[42,-4864],[-1191,-2033],[-5217,-4862],[-5037,-7214],[-6680,-2430],[5437,-14078],[-275,-1155],[-7596,-2031],[1827,-8133],[-550,-3388],[4901,-7759],[-6326,-696],[-6324,566],[-2711,7826],[-19997,-4459],[-3101,2071],[-17931,-4024],[536,-5436],[-1556,-2670],[-4025,-3909],[2576,-8690],[32610,-83],[-10934,-3792],[-4750,-2627],[-17262,-11509],[-4678,-1376],[-1558,-1455],[-4395,-648],[9137,-30038],[2,-324],[18605,665],[36271,3099],[2914,13],[2865,-486],[22170,-6479],[13918,-2783],[-10741,-2256],[26337,-99571],[5008,-689],[1,-3429],[6858,-11999],[3611,-2472],[7308,-1033],[5344,1756],[11833,1876],[1736,1476],[8679,2274],[4979,1875],[959,-2830],[5437,398],[5801,-5421],[2970,-5223],[3746,-2113],[4202,-7377],[1152,-3425],[2731,-5665],[3288,-3588],[3472,-41],[-639,-1994],[2696,-1834],[-1051,-1554],[1462,-2392],[8356,-7019],[2694,-3270],[959,-5423],[44,-11044],[1141,-3669],[-686,-5223],[-1926,-4039]],[[826731,445701],[-24107,-647],[-19545,348],[-3479,771],[-12415,5198],[-4240,1352],[-2979,143],[2233,-3447],[-2368,-6494],[-4759,-8479],[-1678,-27722],[-73716,-8935],[2022,-3044],[-5628,-7572],[-1417,-4626],[-4702,-3547],[-9083,-3905],[-6574,-4903],[2051,-3308],[-2144,-719],[-504,-6617],[-1142,-1434],[4699,-3989],[-3515,-1833],[-2099,-2312],[134,-6421],[1688,-3110],[6841,-8454],[-7986,-2231],[-6023,758],[-8303,-156],[-4294,-8777],[1535,-7240],[-14027,-2817],[12931,-49529],[3449,525],[45054,9062],[2739,-792],[5270,-3587],[3905,-1258],[7947,-36],[8128,-3606],[-747,-1812],[83,-21057],[-1795,-2334],[15967,-3],[1001,-12383],[5865,-17],[-906,-6255],[-6078,-872],[-1221,-9598],[-12796,837],[-810,3126],[-28396,-37],[247,25190],[-8290,-2483],[-2999,-1413],[-5488,45],[-1040,-26635],[14937,-16361],[2408,-3158],[-15,-4835],[-4431,-3796],[-5711,-11309],[-6036,-9911],[-592,-2193],[-10210,-5898],[-8752,-5778],[-10710,2273],[-1232,-3785],[-1777,-2075],[-912,-4306],[-1914,-1754],[-6290,-995],[824,-1166],[-46948,349],[-5,277]],[[411179,374132],[-2032,-618],[-25779,-4601],[-27244,-5813],[-6384,22674],[3377,1086],[-91,4225],[7803,1476],[4382,1874],[912,3351],[7850,3230],[731,2910],[-4554,13778],[-27506,-5531],[-14271,-2946],[-6689,24958],[12981,2720],[-1775,5554],[-4172,16605],[-13421,52562],[-5886,24052],[-6124,24553],[-2442,9680],[-2009,7857],[-5413,19216],[-856,3158],[-196,1614],[-27251,97662],[-27675,177],[-29552,260],[-3406,14354],[3842,4186],[2424,158],[7498,-2194],[2015,5541],[5809,2191],[1328,2830],[2653,799],[-731,3747],[413,6140],[4162,-246],[2260,1384],[258,3324],[2104,677],[4484,-1596],[3477,557],[2,5221],[5582,2670],[-774,8487],[-27560,-5705],[-675,6172],[2564,259],[695,4071],[43023,8047],[7644,3961],[-467,1772],[-9905,10822],[-24322,-4752],[3114,4903],[-2928,3310],[-4067,8850],[-5261,2113],[-9595,-133],[-3259,14068],[-6482,-1309],[-2134,9918],[-137948,-28084],[-7852,24788],[-78,740],[-3479,11956],[-3572,12292],[-28475,-6068],[-6020,22581],[-18015,-3904],[1456,98649],[4074,-2057],[16716,-5707],[1236,-158],[4399,3787],[322,2856],[2766,1561],[3506,491],[829,1825],[-1047,4273],[1074,727],[2906,-1173],[7375,2028],[6687,-1396],[10411,2266],[17538,-2771],[1500,-1234],[4824,1353],[-1416,-5006],[2258,-955],[22156,4680],[1220,4051],[2121,-4453],[-136,-3557],[2344,-8250],[2792,-3531],[3479,-7846],[92642,20625],[-5827,22770],[1529,2179],[5370,1458],[1811,5183],[34060,2769],[27529,5809],[2295,-5799],[25473,5533],[4720,-16750],[276,-382],[1458,-1401],[16259,-59089],[1774,-3582],[-316,-1496],[9862,-33605],[7255,-24993],[14022,2941],[7105,-23925],[1716,-557],[3271,-10543],[8424,1810],[-1515,-8587],[3135,-4354],[873,-10267],[2582,-4076],[1908,-6434],[-162,-4272],[2624,-2919],[22201,4147],[4069,1154],[23576,4882],[-1451,4723],[1185,2085],[-5251,18968],[1710,1198],[33611,7168],[644,5134],[9080,43445],[14907,7268],[8948,5428],[10761,4173],[7288,3545],[-2018,7514],[3602,1681],[9030,10329],[2914,3874],[5591,-1161],[6942,-83],[1127,-2296],[9193,7052],[17163,2156],[12075,-42559],[30761,6172],[432,-2210],[2337,-1993],[1554,-5305],[-915,-2551],[548,-4903],[-4997,-6705],[-2197,-5622],[3066,757],[4669,-3628],[10073,8371],[6868,3070],[7286,-300],[5995,1649]],[[660159,873879],[11798,2365],[-2855,10672],[28858,5193],[1745,-1932],[4010,3321],[14585,3099],[41567,7588],[4062,-3825],[4218,-16433],[605,-3720],[3645,-14278],[1387,-2254],[3851,-696],[33152,6486],[3197,-235],[2366,-1262],[1725,-2701],[2285,-7964],[18375,3592],[2699,-11044],[3937,599],[1602,-4946],[3707,-2113],[1052,-3030],[9751,2149],[2886,2073],[-1098,3152],[5447,1232],[915,-1636],[6581,249],[59,8862],[11179,2271],[6009,7073],[24830,5472],[1587,-1715],[2584,-2925],[1869,-3824],[3563,-11824],[2207,-4095],[3956,-3394],[8206,-4979],[2817,-3623],[1000,-2525],[16472,-64213],[-28148,-5529],[6152,-24647],[-2611,-553],[3156,-1072],[10010,-39742],[29493,-281],[19275,-73679],[120,-395],[-10034,1758],[-1745,-1082],[-18846,3637],[-31246,4135],[16629,-65617],[-1858,-5494],[-2529,-99],[-13612,-2670],[-2676,-70],[-4674,1511],[-3528,3909],[-4348,17322],[-28168,-5543],[3586,-14743],[64707,-20508],[721,-2837],[-28010,-5512],[6437,-25213],[-68982,-13644],[-536,-45928],[-5853,1169],[-38703,-1023]]],"bbox":[-100.66411,32.122538,-100.07282,32.697131],"transform":{"scale":[5.91290591290592e-7,5.745935745935747e-7],"translate":[-100.66411,32.122538]}}
