{"type":"Topology","objects":{"foo":{"type":"GeometryCollection","geometries":[{"type":"MultiPolygon","arcs":[[[0]]],"properties":{"postal_code":"08353","realtor_list_price":"NA","realtor_list_price_yoy":"NA","realtor_list_price_base":"NA","realtor_active_listings":1,"realtor_active_listings_yoy":0,"realtor_active_listings_base":-0.7271,"realtor_new_listings":0,"realtor_new_listings_yoy":"NaN","realtor_new_listings_base":"NA","realtor_days_on_market":"NA","realtor_days_on_market_yoy":"NA","realtor_days_on_market_base":"NA","zhvi":269197.687,"zhvi_yoy":-0.1144,"zhvi_base":"NA","zori":"NA","zori_yoy":"NA","zori_base":"NA"}},{"type":"MultiPolygon","arcs":[[[1,2,3,4,5,6,7,8],[-1],[9]]],"properties":{"postal_code":"08302","realtor_list_price":280779.63,"realtor_list_price_yoy":-0.105,"realtor_list_price_base":1.1386,"realtor_active_listings":97.333,"realtor_active_listings_yoy":0.2373,"realtor_active_listings_base":-0.5137,"realtor_new_listings":36,"realtor_new_listings_yoy":0.08,"realtor_new_listings_base":-0.3418,"realtor_days_on_market":65.519,"realtor_days_on_market_yoy":0.3177,"realtor_days_on_market_base":-0.1846,"zhvi":257663.811,"zhvi_yoy":0.0026,"zhvi_base":0.7906,"zori":"NA","zori_yoy":"NA","zori_base":"NA"}},{"type":"MultiPolygon","arcs":[[[10,11,12,13,14]]],"properties":{"postal_code":"08316","realtor_list_price":240000,"realtor_list_price_yoy":"NA","realtor_list_price_base":"NA","realtor_active_listings":3,"realtor_active_listings_yoy":0.8,"realtor_active_listings_base":-0.5011,"realtor_new_listings":0.667,"realtor_new_listings_yoy":"Inf","realtor_new_listings_base":1.475,"realtor_days_on_market":18,"realtor_days_on_market_yoy":"NA","realtor_days_on_market_base":"NA","zhvi":"NA","zhvi_yoy":"NA","zhvi_base":"NA","zori":"NA","zori_yoy":"NA","zori_base":"NA"}},{"type":"MultiPolygon","arcs":[[[-10]]],"properties":{"postal_code":"08320","realtor_list_price":"NA","realtor_list_price_yoy":"NA","realtor_list_price_base":"NA","realtor_active_listings":1.667,"realtor_active_listings_yoy":0.6667,"realtor_active_listings_base":"NA","realtor_new_listings":0,"realtor_new_listings_yoy":"NaN","realtor_new_listings_base":"NA","realtor_days_on_market":"NA","realtor_days_on_market_yoy":"NA","realtor_days_on_market_base":"NA","zhvi":"NA","zhvi_yoy":"NA","zhvi_base":"NA","zori":"NA","zori_yoy":"NA","zori_base":"NA"}},{"type":"MultiPolygon","arcs":[[[15,-2,16]]],"properties":{"postal_code":"08318","realtor_list_price":415200,"realtor_list_price_yoy":0.1389,"realtor_list_price_base":0.8671,"realtor_active_listings":33,"realtor_active_listings_yoy":0.3944,"realtor_active_listings_base":-0.5672,"realtor_new_listings":12.667,"realtor_new_listings_yoy":0.1176,"realtor_new_listings_base":-0.3207,"realtor_days_on_market":43.737,"realtor_days_on_market_yoy":0.0854,"realtor_days_on_market_base":-0.3912,"zhvi":356247.322,"zhvi_yoy":0.0191,"zhvi_base":0.6667,"zori":"NA","zori_yoy":"NA","zori_base":"NA"}},{"type":"MultiPolygon","arcs":[[[17,18,19,-6]]],"properties":{"postal_code":"08311","realtor_list_price":235000,"realtor_list_price_yoy":-0.2029,"realtor_list_price_base":"NA","realtor_active_listings":6.667,"realtor_active_listings_yoy":-0.1304,"realtor_active_listings_base":-0.6076,"realtor_new_listings":1.333,"realtor_new_listings_yoy":-0.3333,"realtor_new_listings_base":-0.5822,"realtor_days_on_market":24,"realtor_days_on_market_yoy":-0.6757,"realtor_days_on_market_base":"NA","zhvi":263257.81,"zhvi_yoy":-0.0135,"zhvi_base":0.5215,"zori":"NA","zori_yoy":"NA","zori_base":"NA"}},{"type":"MultiPolygon","arcs":[[[20,21,22]]],"properties":{"postal_code":"08324","realtor_list_price":"NA","realtor_list_price_yoy":"NA","realtor_list_price_base":"NA","realtor_active_listings":1,"realtor_active_listings_yoy":-0.625,"realtor_active_listings_base":-0.7742,"realtor_new_listings":0,"realtor_new_listings_yoy":"NaN","realtor_new_listings_base":"NA","realtor_days_on_market":"NA","realtor_days_on_market_yoy":"NA","realtor_days_on_market_base":"NA","zhvi":"NA","zhvi_yoy":"NA","zhvi_base":"NA","zori":"NA","zori_yoy":"NA","zori_base":"NA"}},{"type":"MultiPolygon","arcs":[[[23,24,-14,25,-23,26,27,28]]],"properties":{"postal_code":"08349","realtor_list_price":128689.8,"realtor_list_price_yoy":-0.3517,"realtor_list_price_base":0.3819,"realtor_active_listings":11,"realtor_active_listings_yoy":-0.3125,"realtor_active_listings_base":-0.3083,"realtor_new_listings":3.333,"realtor_new_listings_yoy":-0.5455,"realtor_new_listings_base":0.2497,"realtor_days_on_market":78.8,"realtor_days_on_market_yoy":0.2599,"realtor_days_on_market_base":-0.0908,"zhvi":201641.195,"zhvi_yoy":-0.0662,"zhvi_base":0.7746,"zori":"NA","zori_yoy":"NA","zori_base":"NA"}},{"type":"MultiPolygon","arcs":[[[-8,29]]],"properties":{"postal_code":"08323","realtor_list_price":"NA","realtor_list_price_yoy":"NA","realtor_list_price_base":"NA","realtor_active_listings":2.333,"realtor_active_listings_yoy":-0.2222,"realtor_active_listings_base":-0.6964,"realtor_new_listings":0,"realtor_new_listings_yoy":"NaN","realtor_new_listings_base":-1,"realtor_days_on_market":"NA","realtor_days_on_market_yoy":"NA","realtor_days_on_market_base":"NA","zhvi":293598.449,"zhvi_yoy":-0.0216,"zhvi_base":0.3543,"zori":"NA","zori_yoy":"NA","zori_base":"NA"}},{"type":"MultiPolygon","arcs":[[[-19,30,-29,31,32]]],"properties":{"postal_code":"08345","realtor_list_price":316243.75,"realtor_list_price_yoy":0.0162,"realtor_list_price_base":"NA","realtor_active_listings":11,"realtor_active_listings_yoy":1.2,"realtor_active_listings_base":-0.2025,"realtor_new_listings":2.667,"realtor_new_listings_yoy":3,"realtor_new_listings_base":2.642,"realtor_days_on_market":54.5,"realtor_days_on_market_yoy":-0.476,"realtor_days_on_market_base":"NA","zhvi":242139.799,"zhvi_yoy":-0.0212,"zhvi_base":0.4423,"zori":"NA","zori_yoy":"NA","zori_base":"NA"}},{"type":"MultiPolygon","arcs":[[[-26,-13,33,-21]]],"properties":{"postal_code":"08327","realtor_list_price":"NA","realtor_list_price_yoy":"NA","realtor_list_price_base":"NA","realtor_active_listings":3,"realtor_active_listings_yoy":-0.1818,"realtor_active_listings_base":-0.618,"realtor_new_listings":0,"realtor_new_listings_yoy":-1,"realtor_new_listings_base":-1,"realtor_days_on_market":"NA","realtor_days_on_market_yoy":"NA","realtor_days_on_market_base":"NA","zhvi":245282.734,"zhvi_yoy":-0.0593,"zhvi_base":"NA","zori":"NA","zori_yoy":"NA","zori_base":"NA"}},{"type":"MultiPolygon","arcs":[[[-5,34,-3,-16,35,-11,36,-24,-31,-18],[37]]],"properties":{"postal_code":"08332","realtor_list_price":263951.613,"realtor_list_price_yoy":-0.018,"realtor_list_price_base":1.1648,"realtor_active_listings":116.667,"realtor_active_listings_yoy":0.1041,"realtor_active_listings_base":-0.5269,"realtor_new_listings":41.333,"realtor_new_listings_yoy":-0.1622,"realtor_new_listings_base":-0.3462,"realtor_days_on_market":49.806,"realtor_days_on_market_yoy":-0.0786,"realtor_days_on_market_base":-0.38,"zhvi":262972.209,"zhvi_yoy":0.0179,"zhvi_base":0.92,"zori":1670.194,"zori_yoy":0.0326,"zori_base":"NA"}},{"type":"MultiPolygon","arcs":[[[-28,38,-32]]],"properties":{"postal_code":"08321","realtor_list_price":249900,"realtor_list_price_yoy":"NA","realtor_list_price_base":"NA","realtor_active_listings":7.667,"realtor_active_listings_yoy":0.5333,"realtor_active_listings_base":-0.4975,"realtor_new_listings":0.667,"realtor_new_listings_yoy":"Inf","realtor_new_listings_base":-0.4444,"realtor_days_on_market":117,"realtor_days_on_market_yoy":"NA","realtor_days_on_market_base":"NA","zhvi":169464.6,"zhvi_yoy":-0.0298,"zhvi_base":0.7451,"zori":"NA","zori_yoy":"NA","zori_base":"NA"}}]}},"arcs":[[[195335,633637],[1490,2090],[17887,1496],[29951,-4041],[2018,-9432],[4784,-12153],[-19559,-1201],[-33650,-2071],[-1728,11595],[-1193,13717]],[[168682,844643],[8837,-1923],[5920,-2844],[6818,-1808],[3597,-5350],[6362,-7033],[-3445,-2924],[4115,-4737],[2667,-36],[1553,-6696],[2047,119],[59,-5069],[3159,-837],[-528,-4937],[19907,-3166],[843,8251],[1375,2890],[1978,-1065],[611,-6053],[2876,-3256],[9955,-4218],[4203,-5152],[5328,-3059],[6366,-175],[564,3943],[5508,-3021],[1944,6322],[117,-7089],[-2041,-2233],[4591,-5071],[-553,-1784],[4859,3072],[5573,379],[4438,5112],[4505,-11997],[36296,11557],[1810,-17970],[12968,5412],[-825,3966],[-1770,17361],[41394,8460],[5039,-3942],[-3692,-16168],[5218,-793],[17469,-9534],[8323,-887],[846,-96],[-169,-2103],[6937,-22114],[8078,7764],[3272,5040],[1283,1602],[7819,-6416],[73,-74],[44867,-38047],[1681,-47],[1227,319],[12061,-12968],[20705,-17573],[9003,-7645],[20116,-17070],[17795,-14905]],[[570614,646327],[-3397,-21374],[-2086,-653],[-5835,17418],[-12576,-3866],[-2683,8284],[-16829,-5161]],[[527208,640975],[-1494,4497],[3067,1095],[-2424,7334],[6044,1833],[-1022,3038],[7692,2381],[-2897,8732],[-16831,-5168],[-63,190],[-3117,-960],[5796,-17386],[688,-1567],[1640,-4925]],[[524287,640069],[-13942,-4300],[-7561,-2329],[5537,-34430],[-5694,-2520],[-19189,-3402],[-3339,-588],[-15074,-20371],[1413,-14839],[-1514,321],[701,-4091],[-6583,-3954],[-1673,-4784],[440,-9604],[-7737,-294],[330,-5512],[4616,-1036],[3775,-853],[-1870,-8307],[18054,-3716],[1576,-8691],[31966,3260],[20710,-38253],[101,-182],[-17018,-9216],[-60117,-34161],[-19485,-10322]],[[432710,417895],[-31964,-16543],[-19134,-10055],[-4796,8453],[-23352,-1699],[-3331,4715],[-9456,-9055],[-566,-2598],[-1798,-8478],[-4463,-1050],[-6078,-5576],[-13869,-6688],[-1036,-170],[-8288,1144],[-3914,1683],[-1641,-821],[-4784,6768],[-3575,-2002],[-158,2276],[-1658,-4580],[-3955,-2058],[-3564,-5938],[-6746,775],[-1850,-1006],[-908,-4055],[-4656,220],[-1045,-1131],[66,-4447],[-3187,-5321],[-2539,-559],[-30,-3886],[5286,-3640],[1241,-4089],[-1544,-2439],[-7374,-2614],[-4332,-3166],[-1360,-4093],[160,-8487],[-744,-3451],[227,-8247],[-2636,-9533],[1207,-2553],[6859,-5357],[1159,-3372],[-187,-5855],[-3368,-2973]],[[255029,276344],[-2890,673],[-6103,-155],[-5139,-3456],[-1284,-7378],[4818,-4643],[-2575,-14267],[-5357,-1369],[-16398,11662],[-12982,13417],[-19080,17537],[-2451,6152],[-4785,12010],[-12387,31094],[-1339,15883],[-925,572],[-8336,5154],[-910,563],[-2276,6533],[-14822,7544],[-14656,2675],[-11982,-4791],[-67,-573],[-771,-6508],[-144,-1212]],[[112188,363461],[-3308,-1038],[-4459,229],[-3696,2906],[1031,6472],[8317,3494],[3103,3171],[-1808,3204],[-8769,328],[-4944,2082],[-1485,5433],[1020,3278],[2625,3128],[12570,3120],[3072,2533],[1432,4708],[-3295,8610],[812,2641],[9653,137],[4171,3178],[1340,6586],[-2171,5872],[-8665,3030],[-1692,2693],[9289,10874],[3755,581],[2344,-1268],[5189,-5017],[5006,-3629],[3533,-1315],[7559,-615],[3528,1576],[2682,3366],[-1479,5688],[-4488,5339],[1692,4360],[5784,473],[-1292,1926],[6293,14004],[2608,1589],[3464,4962],[447,2899],[3881,9088],[2127,469],[1762,3801],[2474,2433],[2510,7109],[2472,2731],[1429,2251],[2173,1876],[1549,2199],[2420,1151],[1149,1221],[1328,3870],[-8692,9059],[-7304,7619],[-8669,6705],[-22270,15838],[-5733,-92],[-8119,-6160],[-9873,164],[-2255,-3512],[-6355,-5219],[-2379,-231],[-2591,-3613],[-6151,989],[-4265,-1297],[-8571,-1102],[-7264,178],[-5185,-2834],[-3135,-355],[-1236,1708],[-4725,-840],[-7805,-6853],[-3845,-4827],[-1602,-188],[-7224,882],[-7738,-79],[-3691,-2161],[-6960,-1086],[-3022,2958],[-4603,734],[-4633,-3734],[-2128,294],[-1778,1952],[-324,5051],[-3018,1627]],[[15087,534823],[-2071,3927],[1092,3355],[5368,262],[859,2940],[-3787,5096],[490,6292],[-1342,1791],[-2222,153],[-2892,-4504],[-2418,-694],[-4769,2184],[-2060,5852],[3004,4003],[2102,627],[5525,-2363],[2459,803],[3453,6837],[-139,3820],[-1398,415],[-6611,-3669],[-4389,3379],[1805,3820],[4209,-1571],[2328,823],[4966,7213],[-4247,5343],[167,4467],[2168,5803],[-2638,1443],[-4151,-40],[-1171,3633],[1499,3150],[3002,2244],[3535,4630],[4600,4611],[8832,6059],[5308,1773],[7309,-4230],[8016,-2305],[8580,-3415],[8233,78],[4457,1513],[772,-2976],[6084,-2131],[2438,-2550],[2279,1448],[8991,2295],[3305,3272],[1123,3759],[4367,4948],[339,5311],[3191,1650],[2858,5363],[2600,1108],[2555,4953],[6908,-50],[2816,2882],[1476,7394],[-748,2529],[2002,8635],[2147,1258],[4249,7769],[4353,4125],[577,8152],[2312,2807],[16,2976],[2317,2282],[-4218,3781],[-9919,2619],[-1541,4331],[-3284,2504],[-3460,-3871],[-2798,-6218],[-870,7437],[-2436,9911],[-5202,17340],[14488,-2830],[5150,184],[-24833,24190],[-2045,465],[-4598,-1593],[-6211,-570],[-4742,2695],[2081,3601],[6953,3750],[-4398,4309],[6501,2921],[-35,6126],[8665,3514],[13678,1457],[4427,7856],[3223,-58],[7037,-6912],[-12474,17526],[-3673,7609],[7698,-3038],[4847,-6099],[3079,3303],[4962,-4484],[3604,-677],[8504,4714],[11712,15349],[-6348,7580],[-7726,2155],[-3420,8105],[-3376,3501],[-112,1346],[1251,440],[3299,3157],[3093,-467],[3824,-1566],[7364,-170],[5510,2098],[3976,-258]],[[449926,449006],[12074,-2013],[11328,-202],[9198,3326],[-7070,16661],[-11832,-1066],[-4811,-2699],[-1422,-5666],[-6759,713],[-706,-9054]],[[771572,232819],[1214,-280],[39975,9801],[3020,1679],[9550,-5114],[8519,-5599],[8476,-3487],[6456,-9517],[38787,16725],[80756,46394]],[[968325,283421],[-4,-27],[-9575,-61404]],[[958746,221990],[-863,-842],[-77305,-48246],[-2886,4405],[-18800,7809],[-13406,4740],[-2877,-4895],[-9399,-215],[-3344,1739],[-10252,-2316],[-2229,-3040],[-6535,4717],[317,3033],[-4195,6212],[-4407,2661],[-1173,4919],[-1121,11],[-2284,-9952],[-3119,3914],[-2211,-3721],[-6840,4692]],[[785817,197615],[3465,2695],[2798,8029],[1989,6026],[-553,9085],[-3144,1977],[-9427,-6590],[-5436,-1086],[-4288,6276]],[[771221,224027],[-375,1266],[726,7526]],[[604940,617696],[-34326,28631]],[[168682,844643],[7492,1725],[154,6483],[1099,2368],[7283,7288],[6874,3700],[-1901,1241],[-3597,2395],[1115,4191],[11118,16164],[7357,27],[5243,-6434],[10167,-27],[6907,1194],[5301,-1072],[-355,2971],[-11562,35035],[2491,2965],[15408,-12217],[27166,66151],[6456,7760],[8803,484],[3420,4067],[8027,3051],[8278,5846],[18153,-10666],[-4985,-4427],[-1125,-4315],[7283,325],[6175,-1562],[13460,-2185],[2664,-1273],[90,512],[26885,8359],[5946,-7132],[5874,-1144],[3827,1023],[6847,-294],[-562,-17155],[14298,5908],[9630,2105],[7602,-1407],[6078,-7506],[7484,-4055],[6910,-1308],[6499,-2478],[4107,48],[6566,3758],[3495,5904],[2571,-137],[5107,4201],[3531,85],[7424,3436],[3504,-1232],[16132,-2139],[942,1473],[11773,-8878],[-4546,-15259],[-3717,-11929],[45330,-8366],[35013,-10589],[11379,-3449],[1647,-1501],[16419,-15219],[23366,-20367],[1748,-1523],[2274,-1982],[-2652,-7515],[-5334,-11045],[665,-4407],[-1340,-5128],[-2308,-1586],[-3476,-5386],[-3079,-10075],[-1741,-56],[-2777,-5642],[-666,-3424],[2135,-2195],[4050,-7842],[-2007,-5655],[1276,-2664],[-2182,-693],[699,-7731],[2144,-415],[-2456,-4145],[782,-3258],[-2807,-3813],[2256,-6996],[182,-1059],[-1251,-4028],[-3281,-4275],[-1704,-2839],[1048,-3391],[-675,-5067],[-3045,-1936],[767,-2199],[-2342,-2908],[1557,-1975],[-1177,-2659],[2094,-4699],[-2438,-2350],[1564,-1788],[-1193,-3936],[-3483,-7349],[2424,-8927],[2677,-424],[1106,-2576],[3336,-4807],[574,-3112],[-232,-121],[353,-770],[618,-539],[-248,-224],[-559,5],[-369,53],[-858,-87],[-492,-456],[-99,-372],[9,-364],[157,-222],[420,-197],[318,-409],[4,-554],[-324,-655],[-341,-83],[-472,65],[-252,-400],[157,-334],[346,-61],[457,-365],[717,-3],[267,-471],[-506,-419],[-1020,-63],[-141,-256],[249,-864],[3303,-7497],[-2566,-6883],[-2312,-1613],[481,-3525],[-2868,-2734],[524,-4373],[-3108,-5763],[1411,-1290],[-1276,-2372],[-3000,-855],[-704,-5473],[2016,-2690],[-2879,-1798],[-1327,-6644],[2718,-5144],[254,-3776],[-4278,-3281],[-2054,-4111]],[[432710,417895],[15240,1097],[637,-35666],[11809,-1528],[4564,1427],[1534,2650],[1034,2835],[43438,-1953],[7180,-6812],[-9504,-5599],[1762,-2745],[-3160,-1882],[-289,-5494],[-4165,-6772],[-6231,319],[5906,-3250],[-3012,-4586],[7423,-36],[44856,621],[548,-2706],[791,-1308]],[[553071,346507],[-3128,-3959],[-51040,-14947],[-2674,-5168],[-11207,-11947],[-2726,-5309],[-4029,-4484],[-3856,-8619],[-4668,2897],[-4467,1436],[-6719,-10661],[-3744,-3979],[-11128,-10724],[-4217,-1389],[498,-4620],[3135,-624],[95,1127],[818,639],[-243,-1779],[-182,-220],[-476,-68],[-439,59],[-665,-92],[-766,-458],[-103,-166],[-787,-563],[-3328,-225],[-5002,-1126],[-13378,747],[-4544,-1853],[-6397,-1367],[-4807,915],[-9112,-4427],[-1940,-3025],[2254,-3909],[5313,-1133],[-686,-4160],[-8298,-1443],[454,-2745],[-1888,-3132],[-3771,1220],[-1710,2193],[-2798,-1338],[-3406,1138],[-6137,-2017],[-2281,1831],[-3490,-1234],[-5182,2930],[-818,-2769],[1481,-3615],[4627,-3332],[-1047,-1600],[-4661,1252],[-5868,-34],[-2543,-3148],[-3348,-577],[-1843,3707],[5359,2390],[133,1506],[-1328,1221],[-5903,-1479],[-7248,-4042],[-1153,2029],[-76,8108],[-1481,2901],[-4051,684],[-3196,-3155],[3148,-7710],[-3745,-3282]],[[326658,229784],[-1877,2088],[-7279,1084],[-8667,15834],[-8197,7798],[1820,8771],[-29394,6713],[-7097,1621],[-552,126],[-6638,-3094],[-2515,1339],[1518,3640],[-2751,640]],[[759729,160396],[1124,-2271],[-9370,382],[4,-11480],[1960,-799],[-634,-7264],[3528,-3299],[7642,-10526],[3980,4324],[1395,-1178],[7387,12476],[-2951,5112],[1704,3122],[4137,-714],[2679,281],[13820,-6640],[3150,5392],[2975,-7136],[5715,-2558],[2000,-3162],[3339,-5053]],[[813313,129405],[-10107,-21536],[-7814,-11193],[-3396,-889],[1007,-4683],[-4923,-2024],[2825,-2785],[3988,-8231],[-748,-5608],[2993,-9234],[-1231,-5497],[955,-2823],[-1194,-3268],[1210,-3278],[5802,-3216],[1579,606],[7848,-3682],[-1499,-4773],[917,-4140],[-4883,-3541],[-3320,5300],[-570,-2980],[-3409,-460],[-2989,-8759],[-14713,-858],[-22067,-1287],[-1376,-103],[-8801,-662],[-6532,3409],[-34061,2670],[-4876,2107],[1912,11045],[7636,6983],[268,4930],[-1025,7291],[-4283,11570],[9108,12452],[-4014,7852],[-11241,7230],[-1718,-5072]],[[700571,92268],[-7187,4509],[-1146,3440],[1261,5493],[7171,9153],[7415,6674],[4079,1555],[3415,-778],[12306,-7289],[4496,474],[3938,4685],[-473,5482],[-1233,1421],[-8160,4716],[-2808,3826],[222,3844],[4351,5859],[4710,775],[10660,-3436],[3355,1833],[1863,4015],[-793,7104],[2625,4834],[9091,-61]],[[631167,308121],[58685,-6447],[1620,-17606],[-1984,-6993],[10364,-1822],[4662,-2291],[3247,-5006],[2131,-23802],[10152,-2159],[5099,7580],[5665,6133],[23667,6629],[10344,-21837]],[[764819,240500],[-3894,-617],[-11514,2168],[-3955,-382],[-7005,-4822],[-9278,-1131],[-3893,-1835],[-1453,-2289],[-612,-5646],[-1526,-3140],[1410,-592],[25655,7255],[7344,1530],[5014,-6126],[1276,-2948],[3333,-162],[5500,2264]],[[785817,197615],[-2398,-130],[-8474,5276],[-4126,-287],[-2474,-1075],[-5088,-7524],[-6602,-3485],[-2501,-2702],[-2298,-5505],[1121,-2827],[15399,-2814],[1845,-3413],[-474,-4600],[-3869,-5821],[-6149,-2312]],[[700571,92268],[-2117,-6249],[-10146,2796],[-10706,-1654],[-8993,-12808],[-2461,0],[-4820,0],[-20128,-828],[-17986,-1652],[-15890,-3871],[-20838,-698],[-7481,3642],[-3373,3409],[-107,4030],[-4924,2635],[-8191,361],[-1554,-2281],[-1410,-2071]],[[559446,77029],[-3587,2839],[-907,6564],[-4585,-1041],[-3312,2228],[-1928,3117],[2831,3312],[5216,-727],[-4734,2291],[-7261,-3487],[6959,3900],[-1770,2118],[1449,2922],[2966,-206],[3908,-2695],[3256,2910],[-512,1860],[-4849,-1012],[-2151,2920],[1333,2699],[-2481,2242],[328,2258],[1043,480],[5271,-258],[-1249,2120],[189,2774],[3346,778],[1798,-5190],[1757,310],[-167,3056],[1704,2578],[-2025,2069]],[[561282,120758],[1146,2036],[4099,-1403],[3153,2428],[-102,1616],[-4146,-1838],[-2928,1416],[1893,3797],[-2178,3155],[277,4674],[3044,961],[-615,3256],[1146,2044],[3337,-673],[1070,-2774],[4519,-960],[1065,4919],[-857,5089],[-3640,-1912],[-3638,1748],[1042,3934],[-1287,3689],[532,2385],[4043,-2046],[3312,810],[344,2318],[-4570,2161],[3818,3276],[2622,-2132],[663,2368],[-2214,2933],[4454,-454],[1973,1775],[-4712,961],[459,2587],[-5297,920],[-5281,-5199],[-4378,-1925],[138,2944],[-3311,2475],[749,2293],[-4176,4928],[-1091,4210],[-3574,-1542],[-8276,-1479],[-4766,1125],[-5490,-1565],[-571,16669],[684,9764],[-1337,3083],[-8828,8839],[-6647,8018],[-14606,4257],[-454,199],[14782,27162],[-465,2044],[1274,-559],[4591,9100],[-1247,2995],[2959,-511],[5171,9503],[102329,-13332],[566,-211],[2838,-2134],[-3525,43148]],[[112188,363461],[-623,-5268],[-4780,-4079],[-7373,3772],[-7013,20622],[-14512,8263],[-11405,85],[-13271,8471],[-4856,7725],[-2893,4604],[-1532,17155],[-2266,5540],[-5163,12618],[-5103,3968],[-4068,-525],[-4778,186],[-887,3772],[-1265,8949],[-2153,2000],[-3368,-1118],[-2558,-6280],[9,1505],[-1932,2188],[-4205,3610],[-1292,-554],[-804,2902],[4489,4746],[-5408,5473],[94,4470],[1587,1447],[6047,-2224],[7474,95],[3433,2329],[151,4670],[-6740,4948],[-89,1921],[8072,5695],[2858,4293],[-465,4694],[-7951,2392],[-3523,-1876],[85,-5415],[-2402,-2250],[-3798,2632],[-905,6943],[-5933,3815],[-894,1784],[-279,4584],[2267,4914],[5193,-330],[2073,1477],[-1144,7165],[6698,2859]],[[553071,346507],[3166,2935],[5845,2210],[6705,7340],[5852,2897],[8407,6003],[5719,5359],[4180,-151],[1712,2314],[7058,-2291],[8760,1454],[6270,862],[8633,-1104],[7351,-2305],[10582,-453],[-37582,-62944],[8770,1350],[16668,-1862]],[[561282,120758],[-4278,1183],[1373,4376],[-3971,-137],[-3146,1784],[-180,3882],[-3155,909],[-5205,-738],[-2076,2340],[913,3981],[-3973,3153],[-1645,3366],[-3576,231],[-5658,2814],[-4897,5199],[-2926,-197],[-3836,-2675],[-5206,27],[-2011,2293],[1161,3346],[-5791,1701],[-4341,-2845],[2213,-1838],[1362,-4129],[-1294,-2139],[-5814,1367],[-200,-1475],[3270,-5271],[-1137,-1977],[4935,-3563],[-1414,-2946],[546,-1959],[4567,-5265],[-1771,-8754],[-1517,-938],[-281,-1207],[1387,-2590],[-4519,828],[-2201,-1959],[-764,-1786],[711,-949],[-1284,123],[-3500,1591],[-2917,-3253],[-3816,1676],[-2686,-3546],[-736,3218],[-6003,3860],[3957,2244],[2317,3290],[3039,-1405],[1732,4225],[-3600,1926],[5551,1229],[-4389,3467],[-4559,842],[-7877,-209],[-3310,2996],[-2038,-702],[-661,4225],[-4733,2569],[-7635,2410],[-10656,-2098],[-2366,2072],[-4994,-831],[-828,-1417]],[[434945,136703],[-6911,7092],[-10094,2094],[-5695,-1851],[-9155,12939],[-3845,4030],[-2089,6402],[-12099,13302],[-11755,300],[-232,5],[-20622,10001],[-4840,2347],[-839,406],[-17422,8449],[-4894,2373],[-3868,1876],[-4355,8063],[1849,5652],[268,819],[5097,3956],[4121,3817],[-907,1009]],[[958746,221990],[-4180,-26821],[-6297,-40403],[-1634,-10591],[-4150,-6409],[-8004,-3503],[-5149,3076],[-6894,2220],[-15112,9198],[-14337,6409],[148,-2112],[-7054,141],[-11602,1968],[-7416,3369],[-5536,4441],[-1160,-5460],[-8330,-651],[-5465,1398],[2031,-6099],[4391,-11936],[3256,-2013],[13679,-668],[8027,-8160],[-51532,-27327],[-3037,-570],[-7959,24731],[-2117,3187]],[[524287,640069],[2921,906]],[[604940,617696],[4141,-5545],[-2682,-9389],[1274,-3283],[-7760,-3206],[2288,-4926],[1573,-3384],[15299,6400],[8629,-521],[6831,-410],[9523,-7520],[39452,-31169],[4768,-3768],[9697,-2560],[7061,-3467],[5615,-4304],[6241,-7533],[3579,-7585],[13360,-10569],[23608,20384],[8787,7901],[4033,3263],[23439,20353],[11765,10123],[1888,-7102],[2261,-4497],[-277,-8074],[958,-5276],[3562,-5569],[2134,-1208],[-382,-7607],[2236,-6074],[-1146,-5758],[-4528,-5868],[-1366,-483],[-1823,-4943],[-2080,-1084],[56067,-41135],[-2205,-7266],[6148,-7284],[-6750,-12409],[651,-2330],[-4132,-2046],[-1492,-6719],[-791,-4510],[7871,-4053],[6439,-1651],[422,-1333],[2077,-110],[11273,4239],[5994,-1739],[4679,-308],[5855,4252],[9641,3820],[5930,-1039],[4780,-2457],[-2692,-1618],[11058,-8510],[-6890,-41944],[76451,-56782],[2717,-1214],[-2822,-3373],[-3801,-10789],[-10390,-12737],[-14661,-8972]],[[771572,232819],[676,1757],[2643,2163],[-847,1452],[-5267,2861],[-3958,-552]],[[786374,287925],[5029,-13605],[4719,-6288],[3603,-2893],[2049,-3168],[17591,6918],[310,4277],[2908,7374],[5081,6144],[4175,1872],[2029,4488],[-1378,6489],[-1346,420],[5832,4091],[3415,-593],[5160,617],[2944,-2834],[2204,678],[1236,4167],[2982,1764],[1393,2574],[-16640,17702],[-32276,-17756],[-10227,-11178],[-600,810],[-4867,-4537],[-5259,-229],[-67,-7304]],[[559446,77029],[-3193,-4687],[-14025,-4856],[-1235,-3055],[-685,-1695],[-1399,-3463],[-2680,-4925],[-2353,-4323],[-3210,-6613],[-4177,-2015],[-4281,-258],[-1499,-4701],[3800,-6097],[1124,-11781],[-10921,-6252],[-5432,-12308],[-1472,5745],[-2195,4755],[-6335,-155],[-5443,2015],[-10665,5386],[-6626,9081],[-2792,7849],[-7485,2175],[-4544,4234],[-7287,6512],[597,9814],[28,464],[5462,7722],[1536,5961],[202,786],[-6486,10327],[798,7802],[-211,493],[-2807,6554],[-1724,13307],[-5588,14280],[-11298,11596]]],"bbox":[-75.419562,39.182088,-74.864567,39.627721],"transform":{"scale":[5.549955549955602e-7,4.456334456334465e-7],"translate":[-75.419562,39.182088]}}
