{"type":"Topology","objects":{"foo":{"type":"GeometryCollection","geometries":[{"type":"MultiPolygon","arcs":[[[0,1,2,3,4,5]]],"properties":{"postal_code":"58061","realtor_list_price":"NA","realtor_list_price_yoy":"NA","realtor_list_price_base":"NA","realtor_active_listings":1,"realtor_active_listings_yoy":0,"realtor_active_listings_base":"NA","realtor_new_listings":0,"realtor_new_listings_yoy":"NaN","realtor_new_listings_base":"NA","realtor_days_on_market":"NA","realtor_days_on_market_yoy":"NA","realtor_days_on_market_base":"NA","zhvi":229425.987,"zhvi_yoy":0.0586,"zhvi_base":"NA","zori":"NA","zori_yoy":"NA","zori_base":"NA"}},{"type":"MultiPolygon","arcs":[[[6,7,8,9,10,11,12,13,-2,14],[15]]],"properties":{"postal_code":"58075","realtor_list_price":327900,"realtor_list_price_yoy":0.1093,"realtor_list_price_base":1.0537,"realtor_active_listings":28.667,"realtor_active_listings_yoy":0.6863,"realtor_active_listings_base":-0.0469,"realtor_new_listings":7.333,"realtor_new_listings_yoy":-0.0833,"realtor_new_listings_base":-0.3237,"realtor_days_on_market":104.364,"realtor_days_on_market_yoy":1.4224,"realtor_days_on_market_base":0.8362,"zhvi":236926.401,"zhvi_yoy":0.0371,"zhvi_base":0.5538,"zori":"NA","zori_yoy":"NA","zori_base":"NA"}},{"type":"MultiPolygon","arcs":[[[16,-9]]],"properties":{"postal_code":"58001","realtor_list_price":"NA","realtor_list_price_yoy":"NA","realtor_list_price_base":"NA","realtor_active_listings":2.333,"realtor_active_listings_yoy":0.4,"realtor_active_listings_base":0.2081,"realtor_new_listings":0,"realtor_new_listings_yoy":"NaN","realtor_new_listings_base":"NA","realtor_days_on_market":"NA","realtor_days_on_market_yoy":"NA","realtor_days_on_market_base":"NA","zhvi":"NA","zhvi_yoy":"NA","zhvi_base":"NA","zori":"NA","zori_yoy":"NA","zori_base":"NA"}},{"type":"MultiPolygon","arcs":[[[-15,-1,17,18]]],"properties":{"postal_code":"58018","realtor_list_price":479500,"realtor_list_price_yoy":"NA","realtor_list_price_base":"NA","realtor_active_listings":10,"realtor_active_listings_yoy":-0.3182,"realtor_active_listings_base":2.7841,"realtor_new_listings":0.667,"realtor_new_listings_yoy":"Inf","realtor_new_listings_base":-0.2593,"realtor_days_on_market":108,"realtor_days_on_market_yoy":"NA","realtor_days_on_market_base":"NA","zhvi":403760.583,"zhvi_yoy":0.0253,"zhvi_base":"NA","zori":"NA","zori_yoy":"NA","zori_base":"NA"}},{"type":"MultiPolygon","arcs":[[[19,20,21,22,23,-7,-19,24,25,26]]],"properties":{"postal_code":"58077","realtor_list_price":"NA","realtor_list_price_yoy":"NA","realtor_list_price_base":"NA","realtor_active_listings":1.667,"realtor_active_listings_yoy":0,"realtor_active_listings_base":-0.4293,"realtor_new_listings":0,"realtor_new_listings_yoy":-1,"realtor_new_listings_base":"NA","realtor_days_on_market":"NA","realtor_days_on_market_yoy":"NA","realtor_days_on_market_base":"NA","zhvi":354568.587,"zhvi_yoy":0.0527,"zhvi_base":"NA","zori":"NA","zori_yoy":"NA","zori_base":"NA"}},{"type":"MultiPolygon","arcs":[[[-26,27]]],"properties":{"postal_code":"58081","realtor_list_price":330000,"realtor_list_price_yoy":0.2458,"realtor_list_price_base":"NA","realtor_active_listings":6,"realtor_active_listings_yoy":2,"realtor_active_listings_base":0.9709,"realtor_new_listings":0.667,"realtor_new_listings_yoy":0,"realtor_new_listings_base":"NA","realtor_days_on_market":66,"realtor_days_on_market_yoy":-0.3529,"realtor_days_on_market_base":"NA","zhvi":196958.16,"zhvi_yoy":0.0128,"zhvi_base":"NA","zori":"NA","zori_yoy":"NA","zori_base":"NA"}},{"type":"MultiPolygon","arcs":[[[28,-22]]],"properties":{"postal_code":"58015","realtor_list_price":475000,"realtor_list_price_yoy":-0.2239,"realtor_list_price_base":"NA","realtor_active_listings":1.667,"realtor_active_listings_yoy":0.25,"realtor_active_listings_base":-0.2095,"realtor_new_listings":0.667,"realtor_new_listings_yoy":0,"realtor_new_listings_base":1,"realtor_days_on_market":9,"realtor_days_on_market_yoy":-0.8163,"realtor_days_on_market_base":"NA","zhvi":352339.621,"zhvi_yoy":0.0483,"zhvi_base":"NA","zori":"NA","zori_yoy":"NA","zori_base":"NA"}},{"type":"MultiPolygon","arcs":[[[-13,29,30]]],"properties":{"postal_code":"58030","realtor_list_price":176975,"realtor_list_price_yoy":"NA","realtor_list_price_base":"NA","realtor_active_listings":1.333,"realtor_active_listings_yoy":-0.6923,"realtor_active_listings_base":-0.6075,"realtor_new_listings":0.667,"realtor_new_listings_yoy":"Inf","realtor_new_listings_base":"NA","realtor_days_on_market":20,"realtor_days_on_market_yoy":"NA","realtor_days_on_market_base":"NA","zhvi":147548.817,"zhvi_yoy":0.1257,"zhvi_base":"NA","zori":"NA","zori_yoy":"NA","zori_base":"NA"}},{"type":"MultiPolygon","arcs":[[[31,32]]],"properties":{"postal_code":"56543","realtor_list_price":59900,"realtor_list_price_yoy":-0.1178,"realtor_list_price_base":"NA","realtor_active_listings":0.667,"realtor_active_listings_yoy":1,"realtor_active_listings_base":"NA","realtor_new_listings":1.333,"realtor_new_listings_yoy":1,"realtor_new_listings_base":"NA","realtor_days_on_market":3,"realtor_days_on_market_yoy":-0.5714,"realtor_days_on_market_base":"NA","zhvi":"NA","zhvi_yoy":"NA","zhvi_base":"NA","zori":"NA","zori_yoy":"NA","zori_base":"NA"}},{"type":"MultiPolygon","arcs":[[[33,34,-33,35,-11]]],"properties":{"postal_code":"56520","realtor_list_price":259496.875,"realtor_list_price_yoy":-0.1725,"realtor_list_price_base":0.5265,"realtor_active_listings":26,"realtor_active_listings_yoy":0.5294,"realtor_active_listings_base":0.7286,"realtor_new_listings":10.667,"realtor_new_listings_yoy":1,"realtor_new_listings_base":0.9007,"realtor_days_on_market":64.25,"realtor_days_on_market_yoy":-0.2165,"realtor_days_on_market_base":-0.0762,"zhvi":198367.846,"zhvi_yoy":0.0269,"zhvi_base":0.4326,"zori":"NA","zori_yoy":"NA","zori_base":"NA"}},{"type":"MultiPolygon","arcs":[[[-24,36,-34,-10,-17,-8]]],"properties":{"postal_code":"56553","realtor_list_price":"NA","realtor_list_price_yoy":"NA","realtor_list_price_base":"NA","realtor_active_listings":0.667,"realtor_active_listings_yoy":-0.3333,"realtor_active_listings_base":"NA","realtor_new_listings":0,"realtor_new_listings_yoy":"NaN","realtor_new_listings_base":"NA","realtor_days_on_market":"NA","realtor_days_on_market_yoy":"NA","realtor_days_on_market_base":"NA","zhvi":"NA","zhvi_yoy":"NA","zhvi_base":"NA","zori":"NA","zori_yoy":"NA","zori_base":"NA"}},{"type":"MultiPolygon","arcs":[[[-20,37]]],"properties":{"postal_code":"58051","realtor_list_price":664091.667,"realtor_list_price_yoy":0.0975,"realtor_list_price_base":"NA","realtor_active_listings":13.333,"realtor_active_listings_yoy":0.2903,"realtor_active_listings_base":0.494,"realtor_new_listings":4,"realtor_new_listings_yoy":0.2,"realtor_new_listings_base":0.6735,"realtor_days_on_market":33.333,"realtor_days_on_market_yoy":-0.3827,"realtor_days_on_market_base":"NA","zhvi":423481.12,"zhvi_yoy":0.0795,"zhvi_base":0.5552,"zori":"NA","zori_yoy":"NA","zori_base":"NA"}},{"type":"MultiPolygon","arcs":[[[-5,38,-3,-14,-31,39]]],"properties":{"postal_code":"58041","realtor_list_price":415000,"realtor_list_price_yoy":0.0594,"realtor_list_price_base":"NA","realtor_active_listings":7.333,"realtor_active_listings_yoy":-0.1538,"realtor_active_listings_base":0.28,"realtor_new_listings":1.333,"realtor_new_listings_yoy":1,"realtor_new_listings_base":3,"realtor_days_on_market":117,"realtor_days_on_market_yoy":1.1273,"realtor_days_on_market_base":"NA","zhvi":170413.097,"zhvi_yoy":0.0088,"zhvi_base":0.365,"zori":"NA","zori_yoy":"NA","zori_base":"NA"}}]}},"arcs":[[[349858,544630],[20555,53],[21561,-117]],[[391974,544566],[20459,196],[-118,-18228],[20630,32],[-594,-36317],[20733,-40],[209,18207],[20621,6],[-458,-54656],[-3053,6],[-97,-17063],[-20608,91],[-154,-9182],[-9915,12],[-471,-63534]],[[439158,364096],[-1194,103],[-29987,-202]],[[407977,363997],[53,18196],[-19367,-303],[-222,-18214]],[[388441,363676],[-239,-17876],[-11045,-45]],[[377157,345755],[-50609,-73],[477,18201],[165,18232],[-2156,-7],[-18412,-3],[-63,45496],[89,26070],[-18208,-20],[-127,54585],[41068,135],[40,-18324],[20555,-25],[-118,54608]],[[514138,726870],[10587,-36],[6058,-1577],[3122,148]],[[533905,725405],[-372,-749],[2712,-396],[2195,-689],[-1149,-2188],[1579,-3336],[-3401,-913],[2442,-4407],[-4243,-610],[-1196,-1570],[1577,-1970],[2528,-468],[2142,-1122],[634,-1864],[-3529,-1453],[-2418,-2351],[625,-2131],[2503,-102],[2861,766],[2300,308],[1126,-2127],[2211,-579],[193,-2903],[-214,-2620],[4125,-1051],[2471,2516],[2752,-514],[1948,-276],[1221,-1986],[-2720,-354],[-3346,-675],[-2632,-2395],[1562,-3818],[2768,3187],[2026,-1532],[3522,-245],[-518,-1547],[-3712,-2188],[-1390,-1633],[1619,-1066],[2534,-240],[2747,-1319],[-573,-2173],[-74,-2062],[-13,-356],[-46,-1307],[-1866,-321],[-2263,1168],[-941,-1963],[419,-1593],[3178,-853],[955,-2398],[-1235,-1207],[-6606,-108],[-299,-650]],[[550624,662972],[-4041,237],[-6746,1285],[-1480,3117],[-2160,-8],[-61,2920],[-330,1751],[-20142,-7],[-19,-18129],[20571,-34],[5074,-8],[5245,16],[73,4558],[4873,-2],[371,-476],[195,-194],[524,-415],[484,-259],[749,-251],[583,-85],[463,-25],[823,156]],[[555673,657119],[3787,-3543],[-5622,654],[-3868,-2442],[3199,-129],[1178,-1748],[1794,-1577],[2619,614],[1177,-2089],[2633,-1079],[4421,3623],[1294,-2143],[-1169,-3357],[-2696,-2458],[-302,-2876],[1785,-929],[3169,1829],[1646,-433],[-816,-1656],[596,-1728],[2150,-1065],[-3132,-1604],[-69,-35],[-203,-3006],[-2343,-4122],[15,-1512],[1500,-896],[3547,2255],[2640,916],[3350,2630],[760,-1016],[-248,-2888],[972,-3051],[-1647,-1360],[-3187,1726],[-2985,283],[-1920,-1497],[1003,-1815],[3123,-2311],[4443,1527],[5962,940],[1924,-809],[-67,-2207],[-3067,-1536],[-1564,-1827],[2085,-4890],[2934,1088],[2755,1725],[1300,-574],[2146,-3216],[2136,-5984],[3692,-5747],[-404,-2444],[-2168,-2134],[1376,-1637],[3738,1100],[2376,-460],[-1519,-1267],[-1763,-249],[1563,-1824],[1187,-1506],[-1639,-3195],[2858,-5755],[-573,-4415],[1422,-2489],[7928,-81],[279,-1094],[-2616,-2331],[2301,-1587],[1249,-1219],[57,-56]],[[614155,563131],[140,-137],[1313,-4301],[4417,-2900],[4120,-1438],[2732,-205],[61,-2075],[-3923,-2079],[-534,-2722],[2806,-7569],[2663,-1037],[2361,1964],[4748,1512],[2161,-50],[1635,1260],[2263,622],[74,-2001],[-164,-2670],[843,-1206],[7609,-2464],[3612,30],[904,-2181],[-1914,-2009],[-2271,-3705],[456,-1521],[3462,-918],[1769,-2495],[3659,-785],[2147,-2153],[691,-3144],[2699,-1954],[4217,149],[1266,-946],[-130,-1408],[-5096,-2011],[-911,-954],[287,-786],[169,-464],[4833,1374],[705,-2191],[-1115,-7166],[721,-1078],[3256,-1389],[-135,-2120],[-1243,-1784],[163,-2410],[-1990,-4636],[280,-3476],[-1367,-2481],[-2060,-1579],[821,-1991],[1219,-584],[1092,-524],[2848,-2349],[-419,-1923],[-7225,-2942],[-337,-1776],[3391,-943],[4992,-829],[877,-1636],[-3,-662],[0,-247],[-3,-622],[-3,-661],[-5382,-1825],[-207,-1657],[5112,686],[1341,-288],[354,-76],[-56,-106],[-772,-1462],[-3357,-2536],[-260,-594],[-990,-2259],[1644,-1427],[754,-878],[1430,-1665],[957,-1114],[487,-1952],[-403,-2057],[-1862,-963],[1377,-1510],[-1386,-1589],[-283,-324],[778,-2629],[-1091,-2589],[-908,-2156],[-194,-461],[-6,-12],[-30,-73],[-632,-1982],[-675,-340],[2215,-930],[3573,-2256],[1110,-1752],[232,-366],[312,-2317],[-168,-207],[-677,-831],[-1434,-1328],[912,-2040],[1744,-1910],[1392,-1378],[2296,-119],[3020,1100],[546,-112],[1223,-251],[-1180,-3080],[-416,-301],[-1450,-1048],[-3580,-1886],[-840,205],[-1253,304],[-1494,-252],[-984,-1588],[-2840,-1197],[-517,-1867],[421,-2667],[247,-1562],[-1049,-2924],[413,-985],[1173,-2797],[345,-822],[138,-329],[-611,-5365],[2824,-5804],[-973,-4098],[3954,-2094],[-1122,-5362],[4208,-1274],[-2469,-5399],[4214,1646],[2856,-1931],[-416,-1247],[-1549,-231],[-1603,-214],[-1535,-2841],[1700,-758],[2363,277],[518,-287],[-2923,-3088],[3701,-816],[-679,-3760],[-647,-1033],[-4632,-442],[-1228,-1193]],[[678915,345110],[-175,-170],[-154,-150],[3468,-518],[2597,-936],[-2611,-1034],[-16,-2331],[-2759,-2069],[1918,-631],[1257,-1692],[-1245,-924],[-1002,-1038],[2123,-1229],[-4079,-1406],[1989,-1267],[2297,-1161],[904,-1382],[-1092,-537],[-1544,385],[467,-2824],[-3206,-1099],[-86,-1830],[-821,-2182],[1597,-838],[2925,2353],[1811,-1194],[236,1739],[1488,342],[4497,133],[239,-1090],[-3583,-2772],[1680,-279],[1738,-559],[-291,-2221],[-3277,-716],[292,-1647],[2227,-113],[2260,-2026],[-2004,-1331],[2922,-792],[-27,-4582],[-2190,-1891],[1908,-776],[1709,-1372],[-1820,-3562],[-231,-4472],[-816,-988],[-1210,-1464],[940,-4563],[2039,-3329],[2556,-2267],[3638,-7950],[-499,-2596],[2298,-1337],[618,-1737],[-2377,-1133],[1846,-1325],[-515,-5267],[-1717,-544],[-551,-1449],[1945,-1018],[1571,-571]],[[701017,253881],[-6547,-222],[90,18184],[-40642,307],[-294,-18216],[-61379,273],[-177,-18288],[-30398,188],[-51748,39],[-20487,88]],[[489435,236234],[-20603,66],[-29182,101],[-1433,-109],[610,36819],[438,7],[300,18070],[9427,16],[249,18215],[20472,-222],[33,18161],[20472,-281],[76,18409],[43,18194],[-50112,280],[-1067,136]],[[391974,544566],[-577,18349],[7504,263],[13175,-228],[30020,129],[768,88],[472,54598],[10357,-40],[181,18147],[-341,36392],[20755,80],[-242,18154],[11852,-19],[3885,518],[4912,-583],[-354,18294],[20647,0],[-324,15797],[-526,2365]],[[660435,440064],[4254,433],[114,6153],[-4243,-181],[-109,-5805],[-16,-600]],[[550624,662972],[-422,-915],[1700,-1899],[164,-184],[2383,-531],[1952,723],[1615,-160],[-32,-1125],[-2641,-1453],[330,-309]],[[349858,544630],[-70,18256],[-20577,-44],[-126,18242],[-61795,-298],[-85,18311]],[[267205,599097],[-270,54549],[20598,35],[-55,18372],[61935,108],[-627,36327],[62980,162],[-333,18230],[-320,18195],[41331,67],[-103,5471],[6799,-124],[647,-1005],[-3431,-1379],[647,-1176],[2307,-289],[289,-1034],[-2113,-2754],[723,-2068],[7769,-85],[915,-775],[-2500,-2898],[3722,-260],[-1097,-4220],[461,-2038],[2773,-230],[3068,1047],[-285,13739],[33851,-20],[7252,-18174]],[[101914,854492],[20792,169],[80321,-65],[197,-25572],[-3255,-1162],[-4264,-431],[-1952,2036],[-944,-172],[-1945,-4968],[-2503,-2871],[-1070,-2356],[-2605,200],[-4292,-3619],[-1625,3156],[-1757,1548],[-2083,-489],[-1204,-1321],[-4229,-2070],[-5013,169],[-2930,1777],[-1495,-1006],[-874,-2499],[-4522,-1697],[-745,3299],[-2698,-39],[486,-1993],[4921,-2819],[5216,-387],[236,-11161],[82949,-341],[-320,18196],[20167,-73],[-189,18145],[40856,57],[2657,-5854],[2426,-2136],[6463,-10263],[51419,31],[-413,36402],[20113,113],[-468,18189]],[[387738,872615],[31366,200],[3007,118]],[[422111,872933],[-450,-1753],[-2488,-2732],[22,-1589],[-10600,107],[602,-30624],[-20633,-132],[335,-18285],[20624,223],[20177,48],[3216,-293],[18282,304],[1262,-36306],[19895,-188],[-341,16869],[18536,-15704],[2486,-1328],[-334,18268],[-20717,122],[-367,15249],[-1031,2928],[2252,-21],[46818,-162]],[[519657,817934],[-183,-503],[246,-955],[1594,-355],[3571,693],[2153,-993],[-695,-2031],[-1523,-1734],[1596,-687],[1958,53],[602,-2109],[48,-169],[1272,-1405],[-588,-992],[-2699,2276],[-135,-95],[-781,-548],[-655,-2754],[-3732,356],[-1743,-671],[1515,-1461],[3264,-1431],[783,-1128],[-1309,-879],[-3486,-166],[-1954,-502],[-766,-1449],[2225,-1433],[4746,928],[1378,-517],[-695,-2093],[-2596,-5748],[761,-346],[2156,1478],[1357,-85],[3954,-3724],[347,-1850],[-1182,-928],[-1265,2129],[-1463,1573],[-1654,-859],[-1638,-2274],[-2141,-1010],[-214,-1269],[4591,-1163],[2708,732],[1335,-497],[263,-478],[175,-318],[182,-2236],[-1257,-62],[-1037,-608],[610,-939],[629,-984],[154,-1130],[1751,-1018],[783,-493],[760,-901],[337,-1677],[-3830,996],[-3146,79],[-947,-1006],[2691,-1127],[648,-2022],[679,-3884],[-1560,-3393],[-1801,-1443],[2944,-512],[3906,1275],[1707,-2089],[-684,-2741],[-7044,-1606],[789,-1715],[3903,752],[2379,-2848],[-596,-2483],[1837,-2740],[1635,-2875],[-4974,479],[-64,-1834],[2239,-2509],[2448,-993],[1521,-4326],[-2550,1375],[-6353,-6013],[897,-1166],[2707,2577],[1935,-311],[-1343,-2707]],[[534043,725685],[-138,-280]],[[267205,599097],[-20150,-39],[-20619,49]],[[226436,599107],[-339,54685],[-20603,12],[171,18219],[-472,54616],[-10938,305],[-50570,686],[-185,17179],[-20395,-4]],[[123105,744805],[-210,37230],[-20552,26],[-542,36210],[20623,27],[-92,8072],[362,10143],[-20779,-236],[-1,18215]],[[226436,599107],[-127,-36364],[158,-35913],[-20555,-162],[27,-18303],[20625,-43],[93,-54688],[-1807,8],[-17,-54080],[27,-18153],[20660,79],[-19,-18383],[-561,-17743],[-10328,-152],[-29,-17424],[10354,-227],[-282,-36312],[-20571,-276],[26,32523],[-1202,4052],[-79846,-1401],[-20740,-306],[64,7963],[136,10607],[-10443,28],[-10097,-3],[-41079,39],[-20605,-90],[-10534,258],[-8795,-118],[66,18075],[-9909,-221],[40,18402],[5148,-16],[4760,63],[-3,18199],[-46,18140],[19615,62],[63,17566],[-19692,-13],[-69,18888],[-20257,-32],[-561,82],[70,54650],[-105,16508],[-88,38388],[-1,421],[17785,71],[19810,-19156],[24123,0],[-221,19068],[41414,-190],[-170,72264],[20642,16],[20394,113],[99,17875],[38,18322],[-106,18135],[-20451,71],[15,35932],[-267,18599]],[[422111,872933],[817,1693],[-1400,3959],[6046,317],[837,3068],[629,8637],[20386,-25],[24177,-3],[1428,186],[96,-1525],[1346,-563],[878,1060],[-111,2419],[1403,-444],[5070,-2329],[3924,2386],[201,-991],[230,-1140],[-913,-2523],[-3718,-881],[-1566,-1540],[791,-1373],[2598,-647],[3680,3050],[5404,920],[-267,-3272],[-4436,-1172],[-3966,-2800],[199,-2606],[1974,-45],[2207,1204],[1815,-461],[3256,708],[2056,1101],[725,-3928],[-1425,-1535],[-3066,601],[-2090,-765],[1332,-2805],[3059,-683],[1734,1538],[2314,1573],[1648,-917],[109,-1741],[-2333,-196],[-592,-1081],[-417,-2724],[2041,-2125],[-2706,-1318],[-3236,-623],[-87,-1483],[2092,-1602],[4288,1116],[3311,461],[211,-1658],[-3904,-2068],[2336,-1769],[-2072,-1494],[-235,-1243],[588,-4008],[1321,-1825],[1129,3106],[1913,1147],[2082,-1491],[1316,-3772],[2129,-759],[4232,1745],[2069,-833],[-416,-2565],[-1628,-1555],[-2505,362],[-2507,-70],[-132,-2779],[2955,-2482],[2782,-892],[3777,1929],[1127,-1008],[84,-1319],[230,-2418],[-2066,-496],[-1220,-1329],[2129,-493],[1505,344],[-135,-1136],[-732,-1629],[-603,-1822],[-1118,-1415],[-1819,-315],[-1755,-54],[980,-1728],[-27,-1936],[760,-947],[1553,1759],[1821,801],[3105,-133],[2255,-630],[733,-1645],[-881,-1241],[-3468,246],[-1844,-845],[-281,-767]],[[701017,253881],[27,-10],[1074,-4380],[1567,-502],[2630,132],[2732,-3640],[-2503,-458],[-4044,-1884],[1178,-3501],[2553,-2396],[-23,-1313],[-9,-523],[-13,-752],[3944,-3732],[1196,-3243],[-787,-2128],[2047,-4417],[178,-7187],[-704,-2486],[848,-3330],[1809,-3645],[-1277,-5408],[-157,-664],[-1307,-1906],[424,-1832],[439,-1427],[-1647,-3688],[33,-1177],[1421,-2813],[-291,-5137],[-1555,-2048],[510,-1648],[-1282,-4542],[-1648,-3589],[-5265,-5023],[-135,-316],[10936,-269],[-118,-36327],[-20795,-232],[2269,-6658],[-1580,-10735],[1777,-4478],[451,-2669],[1105,-15993],[97,-11740],[2002,-20896],[2025,-6174],[2912,-1701],[-96,-4798],[618,-3966],[2626,-3305],[788,-2591],[-1172,-10762],[-1129,-2322],[-13016,25],[-10213,-31],[-9997,-31],[-9557,115],[-10977,133],[-20443,-112],[-69,1],[-20431,303],[-20423,196],[-20341,115],[-20564,14],[-40908,29],[-20358,15]],[[488399,18424],[142,18044],[20408,-3],[254,72596],[-20223,-124],[-40,18398],[344,36218],[-20486,122],[-114,18051],[20617,-44],[-7,18213],[141,36339]],[[863634,562570],[29445,515],[50040,201],[167,-18201],[41226,32],[63,-11937],[241,-42996],[191,-18431],[-119,-18252],[3240,-30],[1121,83],[10750,-83],[-180,-40563],[-557,-6568],[3,-7673],[17,-18183],[33,-17877],[-2470,-216],[-1889,1839],[-145,1736],[-1103,-1178],[599,-3755],[-1866,-2321],[-2730,-39],[-3546,1093],[-4614,-1069],[-1151,-1314],[-2776,1433],[-5150,-1742],[-987,616],[1691,4454],[-1368,418],[-4694,-1656],[-1757,3001],[-3867,856],[-3112,2322],[151,-13847],[-20158,24],[131,4878],[-801,-2410],[-6957,-4096],[-642,-1725],[-7496,-5515],[-5276,-51],[-3024,3530],[-4784,1835],[-3647,-968],[-3642,2028],[-4045,1185],[-1055,1318],[-2609,-495],[-3715,947],[-975,2631],[-5202,6036],[-5925,-1554]],[[878709,360836],[36,11391],[313,26774],[17311,198],[69,18277],[-17406,-298],[-252,36298],[-14929,0],[-40,36528],[-20629,126],[-88,18264],[20591,-210],[-179,54122],[128,264]],[[614155,563131],[2065,82],[152,23],[40972,37],[-138,18252],[61986,-88],[157,-18289],[20669,12],[40923,-151],[-30,18177],[-115,9246],[-111,8955]],[[780685,599387],[20521,150],[344,-18314],[89,-18251],[61995,-402]],[[878709,360836],[-1402,59],[-1184,1727],[-1274,-172],[-2520,4471],[-2002,1510],[-3266,-196],[-1307,2125],[-7878,884],[178,-4201],[-72,-13548],[-20484,262],[-47,-8935],[-61569,-113],[-197,-18063],[-60942,364],[30,17768],[-235,304],[-35623,28]],[[534043,725685],[8100,1386],[-10,17824],[51602,465],[246,-36377],[20708,75],[20845,-125],[-88,-36428],[83103,172],[-36,-18260],[20688,-38],[49,-18389],[20782,55],[18195,50],[2246,1265],[157,-9398],[55,-10374],[0,-18201]],[[101914,854492],[78,35281],[-1101,2],[-62078,-194],[41,18185],[41353,161],[8,18168],[20472,141],[20907,-78],[-141,36431],[82933,360],[13,-18041],[21056,-41],[-521,53844],[-11,1087],[103427,201],[-118,-18142],[10354,36],[10389,10],[21192,-27],[-35,-4544],[-266,-31958],[20825,-60],[-18,-18161],[-20658,-25],[38,-18774],[-623,-17670],[17961,-46],[347,-18023]],[[388441,363676],[19536,321]],[[488399,18424],[-6938,5],[-6526,-261],[-861,-34],[-6047,-241],[-38009,68],[-194,0],[-8175,15],[-41139,73],[-71446,126],[73,-18151],[-10835,-24],[-20666,14],[121,18217],[-171,0],[-1682,-586],[-18762,185],[63,33744],[-1490,2668],[-2225,549],[-23512,64],[-3867,2208],[-3842,-2117],[-20034,-35],[-39,9017],[-17164,3125],[-2272,2571],[73,20641],[20124,278],[92,18051],[435,18401],[-59,18245],[20440,769],[483,7197],[1313,529],[355,373],[1002,3013],[807,891],[-355,717],[-1130,576],[-1857,380],[-371,5045],[-84,17574],[11605,293],[-93,9148],[9014,248],[154,6632],[19872,-1368],[928,39269],[383,36363],[30398,4],[-351,18141],[476,5120],[-434,7715],[-53,1938],[-2,600],[5624,-4009],[48,-34],[15066,-10696],[1061,-507],[50242,6],[-197,18255],[9882,-24],[-494,36357]]],"bbox":[-97.280692,45.921186,-96.264647,46.717289],"transform":{"scale":[0.0000010160460160460216,7.961037961037984e-7],"translate":[-97.280692,45.921186]}}
