{"type":"Topology","objects":{"foo":{"type":"GeometryCollection","geometries":[{"type":"MultiPolygon","arcs":[[[0,1,2,3]]],"properties":{"postal_code":"67202","realtor_list_price":280000,"realtor_list_price_yoy":"NA","realtor_list_price_base":"NA","realtor_active_listings":1,"realtor_active_listings_yoy":-0.625,"realtor_active_listings_base":-0.7867,"realtor_new_listings":0.667,"realtor_new_listings_yoy":"Inf","realtor_new_listings_base":0.8,"realtor_days_on_market":4,"realtor_days_on_market_yoy":"NA","realtor_days_on_market_base":"NA","zhvi":301148.618,"zhvi_yoy":0.1306,"zhvi_base":0.6765,"zori":1276.667,"zori_yoy":"NA","zori_base":"NA"}},{"type":"MultiPolygon","arcs":[[[4,5,6,7,8]]],"properties":{"postal_code":"67232","realtor_list_price":"NA","realtor_list_price_yoy":"NA","realtor_list_price_base":"NA","realtor_active_listings":0.667,"realtor_active_listings_yoy":0,"realtor_active_listings_base":-0.6883,"realtor_new_listings":0,"realtor_new_listings_yoy":"NaN","realtor_new_listings_base":-1,"realtor_days_on_market":"NA","realtor_days_on_market_yoy":"NA","realtor_days_on_market_base":"NA","zhvi":451363.296,"zhvi_yoy":0.0562,"zhvi_base":0.6899,"zori":"NA","zori_yoy":"NA","zori_base":"NA"}},{"type":"MultiPolygon","arcs":[[[9,10,11,12]]],"properties":{"postal_code":"67001","realtor_list_price":531250,"realtor_list_price_yoy":"NA","realtor_list_price_base":"NA","realtor_active_listings":1.333,"realtor_active_listings_yoy":-0.4286,"realtor_active_listings_base":-0.698,"realtor_new_listings":0.667,"realtor_new_listings_yoy":"Inf","realtor_new_listings_base":-0.5123,"realtor_days_on_market":71,"realtor_days_on_market_yoy":"NA","realtor_days_on_market_base":"NA","zhvi":366026.766,"zhvi_yoy":0.0283,"zhvi_base":0.5861,"zori":"NA","zori_yoy":"NA","zori_base":"NA"}},{"type":"MultiPolygon","arcs":[[[13]]],"properties":{"postal_code":"67016","realtor_list_price":"NA","realtor_list_price_yoy":"NA","realtor_list_price_base":"NA","realtor_active_listings":"NA","realtor_active_listings_yoy":"NA","realtor_active_listings_base":"NA","realtor_new_listings":"NA","realtor_new_listings_yoy":"NA","realtor_new_listings_base":"NA","realtor_days_on_market":"NA","realtor_days_on_market_yoy":"NA","realtor_days_on_market_base":"NA","zhvi":189944.736,"zhvi_yoy":0.0369,"zhvi_base":0.9662,"zori":"NA","zori_yoy":"NA","zori_base":"NA"}},{"type":"MultiPolygon","arcs":[[[14,15,16,17]]],"properties":{"postal_code":"67227","realtor_list_price":"NA","realtor_list_price_yoy":"NA","realtor_list_price_base":"NA","realtor_active_listings":1,"realtor_active_listings_yoy":-0.625,"realtor_active_listings_base":"NA","realtor_new_listings":0,"realtor_new_listings_yoy":"NaN","realtor_new_listings_base":"NA","realtor_days_on_market":"NA","realtor_days_on_market_yoy":"NA","realtor_days_on_market_base":"NA","zhvi":485125.071,"zhvi_yoy":0.021,"zhvi_base":0.5664,"zori":"NA","zori_yoy":"NA","zori_base":"NA"}},{"type":"MultiPolygon","arcs":[[[18,-13,19,20,21]]],"properties":{"postal_code":"67050","realtor_list_price":639333.333,"realtor_list_price_yoy":1.3334,"realtor_list_price_base":"NA","realtor_active_listings":4.667,"realtor_active_listings_yoy":-0.0667,"realtor_active_listings_base":-0.1508,"realtor_new_listings":4,"realtor_new_listings_yoy":5,"realtor_new_listings_base":1.1925,"realtor_days_on_market":48.5,"realtor_days_on_market_yoy":-0.6655,"realtor_days_on_market_base":"NA","zhvi":333033.869,"zhvi_yoy":0.0473,"zhvi_base":0.7204,"zori":"NA","zori_yoy":"NA","zori_base":"NA"}},{"type":"MultiPolygon","arcs":[[[22]]],"properties":{"postal_code":"67055","realtor_list_price":"NA","realtor_list_price_yoy":"NA","realtor_list_price_base":"NA","realtor_active_listings":1,"realtor_active_listings_yoy":-0.25,"realtor_active_listings_base":"NA","realtor_new_listings":0,"realtor_new_listings_yoy":"NaN","realtor_new_listings_base":"NA","realtor_days_on_market":"NA","realtor_days_on_market_yoy":"NA","realtor_days_on_market_base":"NA","zhvi":"NA","zhvi_yoy":"NA","zhvi_base":"NA","zori":"NA","zori_yoy":"NA","zori_base":"NA"}},{"type":"MultiPolygon","arcs":[[[23,24,25,26]]],"properties":{"postal_code":"67132","realtor_list_price":"NA","realtor_list_price_yoy":"NA","realtor_list_price_base":"NA","realtor_active_listings":0.667,"realtor_active_listings_yoy":-0.5,"realtor_active_listings_base":"NA","realtor_new_listings":0,"realtor_new_listings_yoy":"NaN","realtor_new_listings_base":"NA","realtor_days_on_market":"NA","realtor_days_on_market_yoy":"NA","realtor_days_on_market_base":"NA","zhvi":"NA","zhvi_yoy":"NA","zhvi_base":"NA","zori":"NA","zori_yoy":"NA","zori_base":"NA"}},{"type":"MultiPolygon","arcs":[[[27,-21,28,29,30,31]]],"properties":{"postal_code":"67149","realtor_list_price":"NA","realtor_list_price_yoy":"NA","realtor_list_price_base":"NA","realtor_active_listings":3,"realtor_active_listings_yoy":0.8,"realtor_active_listings_base":0.0509,"realtor_new_listings":0,"realtor_new_listings_yoy":"NaN","realtor_new_listings_base":-1,"realtor_days_on_market":"NA","realtor_days_on_market_yoy":"NA","realtor_days_on_market_base":"NA","zhvi":387936.162,"zhvi_yoy":0.0423,"zhvi_base":0.7129,"zori":"NA","zori_yoy":"NA","zori_base":"NA"}},{"type":"MultiPolygon","arcs":[[[32,33,34,35,36,37,38,39,40,41],[42],[43],[44]]],"properties":{"postal_code":"67114","realtor_list_price":208359.091,"realtor_list_price_yoy":0.0636,"realtor_list_price_base":0.6693,"realtor_active_listings":49,"realtor_active_listings_yoy":-0.2462,"realtor_active_listings_base":-0.4446,"realtor_new_listings":29.333,"realtor_new_listings_yoy":-0.12,"realtor_new_listings_base":0.0174,"realtor_days_on_market":44.114,"realtor_days_on_market_yoy":-0.2072,"realtor_days_on_market_base":-0.1756,"zhvi":174225.534,"zhvi_yoy":0.0485,"zhvi_base":0.6778,"zori":1041.667,"zori_yoy":0.0744,"zori_base":"NA"}},{"type":"MultiPolygon","arcs":[[[45,46]]],"properties":{"postal_code":"67051","realtor_list_price":"NA","realtor_list_price_yoy":"NA","realtor_list_price_base":"NA","realtor_active_listings":1.333,"realtor_active_listings_yoy":0.3333,"realtor_active_listings_base":"NA","realtor_new_listings":0,"realtor_new_listings_yoy":"NaN","realtor_new_listings_base":"NA","realtor_days_on_market":"NA","realtor_days_on_market_yoy":"NA","realtor_days_on_market_base":"NA","zhvi":"NA","zhvi_yoy":"NA","zhvi_base":"NA","zori":"NA","zori_yoy":"NA","zori_base":"NA"}},{"type":"MultiPolygon","arcs":[[[47,48,-47,49,50]]],"properties":{"postal_code":"67140","realtor_list_price":"NA","realtor_list_price_yoy":"NA","realtor_list_price_base":"NA","realtor_active_listings":1,"realtor_active_listings_yoy":-0.25,"realtor_active_listings_base":-0.5984,"realtor_new_listings":0,"realtor_new_listings_yoy":"NaN","realtor_new_listings_base":"NA","realtor_days_on_market":"NA","realtor_days_on_market_yoy":"NA","realtor_days_on_market_base":"NA","zhvi":149402.239,"zhvi_yoy":0.0795,"zhvi_base":0.5709,"zori":"NA","zori_yoy":"NA","zori_base":"NA"}},{"type":"MultiPolygon","arcs":[[[51,52,53,54]]],"properties":{"postal_code":"67101","realtor_list_price":413695.588,"realtor_list_price_yoy":-0.0082,"realtor_list_price_base":0.5495,"realtor_active_listings":59.333,"realtor_active_listings_yoy":-0.2489,"realtor_active_listings_base":0.7007,"realtor_new_listings":11.333,"realtor_new_listings_yoy":-0.2917,"realtor_new_listings_base":-0.0477,"realtor_days_on_market":123.412,"realtor_days_on_market_yoy":0.3866,"realtor_days_on_market_base":1.3301,"zhvi":312009.218,"zhvi_yoy":0.0098,"zhvi_base":0.5203,"zori":1338,"zori_yoy":"NA","zori_base":"NA"}},{"type":"MultiPolygon","arcs":[[[55,56,57,58,59,60,-1,61]]],"properties":{"postal_code":"67214","realtor_list_price":133976.087,"realtor_list_price_yoy":0.1348,"realtor_list_price_base":1.95,"realtor_active_listings":22,"realtor_active_listings_yoy":-0.4634,"realtor_active_listings_base":-0.2239,"realtor_new_listings":15.333,"realtor_new_listings_yoy":-0.08,"realtor_new_listings_base":0.2868,"realtor_days_on_market":42.174,"realtor_days_on_market_yoy":0.0682,"realtor_days_on_market_base":-0.1435,"zhvi":91496.109,"zhvi_yoy":0.044,"zhvi_base":1.2176,"zori":869.833,"zori_yoy":0.0568,"zori_base":"NA"}},{"type":"MultiPolygon","arcs":[[[-2,-61,62,63,64]]],"properties":{"postal_code":"67211","realtor_list_price":136325.893,"realtor_list_price_yoy":0.0012,"realtor_list_price_base":1.0927,"realtor_active_listings":34.333,"realtor_active_listings_yoy":-0.1825,"realtor_active_listings_base":-0.4104,"realtor_new_listings":18.667,"realtor_new_listings_yoy":-0.3,"realtor_new_listings_base":-0.463,"realtor_days_on_market":43.857,"realtor_days_on_market_yoy":0.0736,"realtor_days_on_market_base":0.0641,"zhvi":121128.187,"zhvi_yoy":0.0277,"zhvi_base":0.9758,"zori":968.111,"zori_yoy":0.0541,"zori_base":"NA"}},{"type":"MultiPolygon","arcs":[[[65,-35]]],"properties":{"postal_code":"67151","realtor_list_price":170000,"realtor_list_price_yoy":"NA","realtor_list_price_base":"NA","realtor_active_listings":1.667,"realtor_active_listings_yoy":1.5,"realtor_active_listings_base":0.1906,"realtor_new_listings":0.667,"realtor_new_listings_yoy":"Inf","realtor_new_listings_base":0.4762,"realtor_days_on_market":53,"realtor_days_on_market_yoy":"NA","realtor_days_on_market_base":"NA","zhvi":192967.191,"zhvi_yoy":0.1153,"zhvi_base":0.9192,"zori":"NA","zori_yoy":"NA","zori_base":"NA"}},{"type":"MultiPolygon","arcs":[[[66,-42,67,68]]],"properties":{"postal_code":"67056","realtor_list_price":243312.5,"realtor_list_price_yoy":0.0823,"realtor_list_price_base":0.5158,"realtor_active_listings":6.333,"realtor_active_listings_yoy":-0.2692,"realtor_active_listings_base":-0.3151,"realtor_new_listings":1.333,"realtor_new_listings_yoy":-0.3333,"realtor_new_listings_base":-0.6638,"realtor_days_on_market":44.5,"realtor_days_on_market_yoy":0.0595,"realtor_days_on_market_base":0.2589,"zhvi":213850.683,"zhvi_yoy":0.061,"zhvi_base":0.7291,"zori":"NA","zori_yoy":"NA","zori_base":"NA"}},{"type":"MultiPolygon","arcs":[[[69,70,71,72,73,74]]],"properties":{"postal_code":"67207","realtor_list_price":267243.59,"realtor_list_price_yoy":-0.0542,"realtor_list_price_base":0.6438,"realtor_active_listings":52.333,"realtor_active_listings_yoy":-0.2071,"realtor_active_listings_base":-0.3365,"realtor_new_listings":26,"realtor_new_listings_yoy":-0.4348,"realtor_new_listings_base":-0.4796,"realtor_days_on_market":47.846,"realtor_days_on_market_yoy":0.3977,"realtor_days_on_market_base":0.1899,"zhvi":238725.551,"zhvi_yoy":0.025,"zhvi_base":0.6499,"zori":1109.217,"zori_yoy":0.0637,"zori_base":0.5306}},{"type":"MultiPolygon","arcs":[[[75,76]],[[77,78,79,80,81,-60]]],"properties":{"postal_code":"67208","realtor_list_price":209420.455,"realtor_list_price_yoy":-0.0743,"realtor_list_price_base":0.7092,"realtor_active_listings":34,"realtor_active_listings_yoy":-0.2093,"realtor_active_listings_base":-0.3718,"realtor_new_listings":22,"realtor_new_listings_yoy":-0.2143,"realtor_new_listings_base":-0.3079,"realtor_days_on_market":35.848,"realtor_days_on_market_yoy":-0.1236,"realtor_days_on_market_base":-0.1986,"zhvi":182873.445,"zhvi_yoy":0.045,"zhvi_base":0.8134,"zori":1135.82,"zori_yoy":0.0584,"zori_base":0.5648}},{"type":"MultiPolygon","arcs":[[[82,83,84,85,86]]],"properties":{"postal_code":"67144","realtor_list_price":501000,"realtor_list_price_yoy":0.1202,"realtor_list_price_base":2.0657,"realtor_active_listings":1.667,"realtor_active_listings_yoy":-0.6429,"realtor_active_listings_base":-0.8081,"realtor_new_listings":1.333,"realtor_new_listings_yoy":-0.6667,"realtor_new_listings_base":-0.6416,"realtor_days_on_market":48,"realtor_days_on_market_yoy":0.3981,"realtor_days_on_market_base":-0.1401,"zhvi":242071.772,"zhvi_yoy":0.061,"zhvi_base":0.6476,"zori":"NA","zori_yoy":"NA","zori_base":"NA"}},{"type":"MultiPolygon","arcs":[[[87,88]]],"properties":{"postal_code":"67522","realtor_list_price":479725,"realtor_list_price_yoy":0.5475,"realtor_list_price_base":"NA","realtor_active_listings":3.333,"realtor_active_listings_yoy":-0.375,"realtor_active_listings_base":-0.6369,"realtor_new_listings":0.667,"realtor_new_listings_yoy":0,"realtor_new_listings_base":-0.6,"realtor_days_on_market":29,"realtor_days_on_market_yoy":-0.3696,"realtor_days_on_market_base":"NA","zhvi":205567.244,"zhvi_yoy":0.0898,"zhvi_base":0.716,"zori":"NA","zori_yoy":"NA","zori_base":"NA"}},{"type":"MultiPolygon","arcs":[[[89,90,-27,91,92,-84,93]]],"properties":{"postal_code":"67042","realtor_list_price":172122.917,"realtor_list_price_yoy":0.0538,"realtor_list_price_base":0.6401,"realtor_active_listings":43.333,"realtor_active_listings_yoy":-0.1391,"realtor_active_listings_base":-0.2792,"realtor_new_listings":24,"realtor_new_listings_yoy":0,"realtor_new_listings_base":-0.0087,"realtor_days_on_market":48.306,"realtor_days_on_market_yoy":-0.0962,"realtor_days_on_market_base":-0.1157,"zhvi":174402.492,"zhvi_yoy":0.0428,"zhvi_base":0.6638,"zori":837.5,"zori_yoy":0.0659,"zori_base":"NA"}},{"type":"MultiPolygon","arcs":[[[94,95,96,97,98]]],"properties":{"postal_code":"67120","realtor_list_price":545916.667,"realtor_list_price_yoy":-0.0731,"realtor_list_price_base":"NA","realtor_active_listings":4.333,"realtor_active_listings_yoy":0.4444,"realtor_active_listings_base":0.1259,"realtor_new_listings":2,"realtor_new_listings_yoy":2,"realtor_new_listings_base":-0.442,"realtor_days_on_market":65.333,"realtor_days_on_market_yoy":7.1667,"realtor_days_on_market_base":"NA","zhvi":315282.51,"zhvi_yoy":0.0524,"zhvi_base":0.6632,"zori":"NA","zori_yoy":"NA","zori_base":"NA"}},{"type":"MultiPolygon","arcs":[[[99,100,-56,101,102]]],"properties":{"postal_code":"67204","realtor_list_price":372533.333,"realtor_list_price_yoy":-0.0658,"realtor_list_price_base":1.0348,"realtor_active_listings":35,"realtor_active_listings_yoy":-0.2446,"realtor_active_listings_base":-0.3277,"realtor_new_listings":20,"realtor_new_listings_yoy":-0.0909,"realtor_new_listings_base":-0.3418,"realtor_days_on_market":40.667,"realtor_days_on_market_yoy":-0.3043,"realtor_days_on_market_base":-0.1002,"zhvi":201903.642,"zhvi_yoy":0.0431,"zhvi_base":0.826,"zori":1358.833,"zori_yoy":"NA","zori_base":"NA"}},{"type":"MultiPolygon","arcs":[[[103,-85,-93,104,105,106]]],"properties":{"postal_code":"67010","realtor_list_price":269029.31,"realtor_list_price_yoy":0.1757,"realtor_list_price_base":0.6019,"realtor_active_listings":20,"realtor_active_listings_yoy":-0.3939,"realtor_active_listings_base":-0.4997,"realtor_new_listings":19.333,"realtor_new_listings_yoy":-0.1212,"realtor_new_listings_base":-0.0812,"realtor_days_on_market":36.724,"realtor_days_on_market_yoy":-0.1023,"realtor_days_on_market_base":-0.2099,"zhvi":227011.86,"zhvi_yoy":0.0611,"zhvi_base":0.7264,"zori":"NA","zori_yoy":"NA","zori_base":"NA"}},{"type":"MultiPolygon","arcs":[[[-34,107,108,-36,-66]]],"properties":{"postal_code":"66866","realtor_list_price":495000,"realtor_list_price_yoy":0.8995,"realtor_list_price_base":"NA","realtor_active_listings":1.667,"realtor_active_listings_yoy":-0.5455,"realtor_active_listings_base":-0.7178,"realtor_new_listings":0.667,"realtor_new_listings_yoy":-0.8,"realtor_new_listings_base":2.2143,"realtor_days_on_market":74,"realtor_days_on_market_yoy":0.1455,"realtor_days_on_market_base":"NA","zhvi":117109.272,"zhvi_yoy":0.0678,"zhvi_base":0.8954,"zori":"NA","zori_yoy":"NA","zori_base":"NA"}},{"type":"MultiPolygon","arcs":[[[109,110,-79,111,-77,112,-58,113]]],"properties":{"postal_code":"67220","realtor_list_price":243960,"realtor_list_price_yoy":-0.0242,"realtor_list_price_base":0.3482,"realtor_active_listings":32.333,"realtor_active_listings_yoy":-0.0762,"realtor_active_listings_base":-0.0406,"realtor_new_listings":16.667,"realtor_new_listings_yoy":-0.0385,"realtor_new_listings_base":-0.2404,"realtor_days_on_market":53.24,"realtor_days_on_market_yoy":0.0917,"realtor_days_on_market_base":0.1938,"zhvi":248661.949,"zhvi_yoy":0.0217,"zhvi_base":0.6548,"zori":1622.5,"zori_yoy":"NA","zori_base":"NA"}},{"type":"MultiPolygon","arcs":[[[114,-17,115,116,-99,117,118,-30]]],"properties":{"postal_code":"67026","realtor_list_price":321062.5,"realtor_list_price_yoy":0.2847,"realtor_list_price_base":0.8284,"realtor_active_listings":10.667,"realtor_active_listings_yoy":-0.2558,"realtor_active_listings_base":-0.2081,"realtor_new_listings":2.667,"realtor_new_listings_yoy":-0.4286,"realtor_new_listings_base":-0.558,"realtor_days_on_market":54,"realtor_days_on_market_yoy":-0.3026,"realtor_days_on_market_base":-0.0062,"zhvi":266828.247,"zhvi_yoy":0.0283,"zhvi_base":0.5589,"zori":"NA","zori_yoy":"NA","zori_base":"NA"}},{"type":"MultiPolygon","arcs":[[[119,120,-97]]],"properties":{"postal_code":"67013","realtor_list_price":200830,"realtor_list_price_yoy":-0.0926,"realtor_list_price_base":0.5962,"realtor_active_listings":10,"realtor_active_listings_yoy":0.0345,"realtor_active_listings_base":0.1889,"realtor_new_listings":3.333,"realtor_new_listings_yoy":-0.1667,"realtor_new_listings_base":-0.1933,"realtor_days_on_market":40.8,"realtor_days_on_market_yoy":-0.1785,"realtor_days_on_market_base":-0.1665,"zhvi":191579.568,"zhvi_yoy":0.0574,"zhvi_base":0.8202,"zori":"NA","zori_yoy":"NA","zori_base":"NA"}},{"type":"MultiPolygon","arcs":[[[121,122,-86,-104,123,-6,124]]],"properties":{"postal_code":"67002","realtor_list_price":411748.542,"realtor_list_price_yoy":0.0208,"realtor_list_price_base":0.4138,"realtor_active_listings":61.333,"realtor_active_listings_yoy":-0.5294,"realtor_active_listings_base":-0.3958,"realtor_new_listings":32,"realtor_new_listings_yoy":0.2308,"realtor_new_listings_base":-0.1114,"realtor_days_on_market":47.833,"realtor_days_on_market_yoy":-0.1217,"realtor_days_on_market_base":-0.2464,"zhvi":331359.917,"zhvi_yoy":0.029,"zhvi_base":0.5581,"zori":1761.95,"zori_yoy":"NA","zori_base":"NA"}},{"type":"MultiPolygon","arcs":[[[-12,125,126,-18,-115,-29,-20]]],"properties":{"postal_code":"67052","realtor_list_price":234625,"realtor_list_price_yoy":-0.0334,"realtor_list_price_base":0.053,"realtor_active_listings":165.333,"realtor_active_listings_yoy":0.1726,"realtor_active_listings_base":6.4017,"realtor_new_listings":16,"realtor_new_listings_yoy":-0.3333,"realtor_new_listings_base":0.3712,"realtor_days_on_market":97.5,"realtor_days_on_market_yoy":0.2608,"realtor_days_on_market_base":0.8815,"zhvi":308573.744,"zhvi_yoy":0.0162,"zhvi_base":0.618,"zori":1668.75,"zori_yoy":"NA","zori_base":"NA"}},{"type":"MultiPolygon","arcs":[[[127,128,-110,129]]],"properties":{"postal_code":"67067","realtor_list_price":262235,"realtor_list_price_yoy":-0.1022,"realtor_list_price_base":0.2124,"realtor_active_listings":2.667,"realtor_active_listings_yoy":-0.1111,"realtor_active_listings_base":-0.6188,"realtor_new_listings":3.333,"realtor_new_listings_yoy":0.6667,"realtor_new_listings_base":0.0252,"realtor_days_on_market":38.4,"realtor_days_on_market_yoy":1.0571,"realtor_days_on_market_base":0.0596,"zhvi":284407.846,"zhvi_yoy":0.0048,"zhvi_base":0.6523,"zori":"NA","zori_yoy":"NA","zori_base":"NA"}},{"type":"MultiPolygon","arcs":[[[130,-130,-114,-57,-101]]],"properties":{"postal_code":"67219","realtor_list_price":276156.667,"realtor_list_price_yoy":-0.1408,"realtor_list_price_base":0.6263,"realtor_active_listings":39,"realtor_active_listings_yoy":-0.3641,"realtor_active_listings_base":-0.0228,"realtor_new_listings":24,"realtor_new_listings_yoy":-0.0769,"realtor_new_listings_base":0.0286,"realtor_days_on_market":54.333,"realtor_days_on_market_yoy":0.0511,"realtor_days_on_market_base":0.3553,"zhvi":182493.89,"zhvi_yoy":0.0235,"zhvi_base":0.7513,"zori":1308.333,"zori_yoy":0.0357,"zori_base":"NA"}},{"type":"MultiPolygon","arcs":[[[-54,131,132,133]]],"properties":{"postal_code":"67223","realtor_list_price":211033.333,"realtor_list_price_yoy":-0.102,"realtor_list_price_base":"NA","realtor_active_listings":27.667,"realtor_active_listings_yoy":-0.2243,"realtor_active_listings_base":16.2267,"realtor_new_listings":6,"realtor_new_listings_yoy":8,"realtor_new_listings_base":20.6562,"realtor_days_on_market":52.444,"realtor_days_on_market_yoy":-0.5804,"realtor_days_on_market_base":"NA","zhvi":321953.175,"zhvi_yoy":0.003,"zhvi_base":0.4912,"zori":"NA","zori_yoy":"NA","zori_base":"NA"}},{"type":"MultiPolygon","arcs":[[[-88,134,-69,135,136,137]]],"properties":{"postal_code":"67020","realtor_list_price":593750,"realtor_list_price_yoy":2.1582,"realtor_list_price_base":"NA","realtor_active_listings":6.333,"realtor_active_listings_yoy":-0.24,"realtor_active_listings_base":0.1162,"realtor_new_listings":0.667,"realtor_new_listings_yoy":-0.6667,"realtor_new_listings_base":0.0338,"realtor_days_on_market":75,"realtor_days_on_market_yoy":0.087,"realtor_days_on_market_base":"NA","zhvi":180900.109,"zhvi_yoy":0.0582,"zhvi_base":0.7302,"zori":"NA","zori_yoy":"NA","zori_base":"NA"}},{"type":"MultiPolygon","arcs":[[[138,139,-51,140]]],"properties":{"postal_code":"67022","realtor_list_price":133600,"realtor_list_price_yoy":"NA","realtor_list_price_base":"NA","realtor_active_listings":5.333,"realtor_active_listings_yoy":-0.0588,"realtor_active_listings_base":0.8104,"realtor_new_listings":2,"realtor_new_listings_yoy":"Inf","realtor_new_listings_base":"NA","realtor_days_on_market":47,"realtor_days_on_market_yoy":"NA","realtor_days_on_market_base":"NA","zhvi":88479.685,"zhvi_yoy":-0.0302,"zhvi_base":0.6012,"zori":"NA","zori_yoy":"NA","zori_base":"NA"}},{"type":"MultiPolygon","arcs":[[[-129,141,142,143,-80,-111],[-23]]],"properties":{"postal_code":"67226","realtor_list_price":338785.448,"realtor_list_price_yoy":-0.1519,"realtor_list_price_base":0.2788,"realtor_active_listings":101.333,"realtor_active_listings_yoy":0.1095,"realtor_active_listings_base":-0.0275,"realtor_new_listings":44.667,"realtor_new_listings_yoy":0.0469,"realtor_new_listings_base":0.0624,"realtor_days_on_market":45.388,"realtor_days_on_market_yoy":-0.0705,"realtor_days_on_market_base":-0.1821,"zhvi":327619.586,"zhvi_yoy":0.0178,"zhvi_base":0.5144,"zori":1229.844,"zori_yoy":0.0369,"zori_base":"NA"}},{"type":"MultiPolygon","arcs":[[[144,-122,145,-143]]],"properties":{"postal_code":"67228","realtor_list_price":595475,"realtor_list_price_yoy":1.2063,"realtor_list_price_base":0.6349,"realtor_active_listings":4.667,"realtor_active_listings_yoy":-0.5758,"realtor_active_listings_base":-0.7428,"realtor_new_listings":2,"realtor_new_listings_yoy":0.5,"realtor_new_listings_base":-0.579,"realtor_days_on_market":28,"realtor_days_on_market_yoy":-0.853,"realtor_days_on_market_base":-0.5728,"zhvi":479449.773,"zhvi_yoy":0.0105,"zhvi_base":0.3546,"zori":"NA","zori_yoy":"NA","zori_base":"NA"}},{"type":"MultiPolygon","arcs":[[[-133,146,147,148,-15,-127,149]]],"properties":{"postal_code":"67235","realtor_list_price":320926.483,"realtor_list_price_yoy":-0.1901,"realtor_list_price_base":0.1379,"realtor_active_listings":83.333,"realtor_active_listings_yoy":0.046,"realtor_active_listings_base":-0.1354,"realtor_new_listings":40,"realtor_new_listings_yoy":0.0714,"realtor_new_listings_base":0.0794,"realtor_days_on_market":48.267,"realtor_days_on_market_yoy":0.0305,"realtor_days_on_market_base":-0.095,"zhvi":360364.962,"zhvi_yoy":0.0279,"zhvi_base":0.5012,"zori":1633.333,"zori_yoy":"NA","zori_base":"NA"}},{"type":"MultiPolygon","arcs":[[[150,-8,151,152,153,154]]],"properties":{"postal_code":"67037","realtor_list_price":335270,"realtor_list_price_yoy":0.0198,"realtor_list_price_base":0.5526,"realtor_active_listings":85,"realtor_active_listings_yoy":0.0805,"realtor_active_listings_base":-0.2527,"realtor_new_listings":56.667,"realtor_new_listings_yoy":0.4167,"realtor_new_listings_base":-0.0435,"realtor_days_on_market":40.565,"realtor_days_on_market_yoy":-0.1308,"realtor_days_on_market_base":-0.0837,"zhvi":286691.712,"zhvi_yoy":0.0293,"zhvi_base":0.5531,"zori":1536.111,"zori_yoy":0.019,"zori_base":"NA"}},{"type":"MultiPolygon","arcs":[[[155,156,157,158,159]]],"properties":{"postal_code":"67217","realtor_list_price":174250,"realtor_list_price_yoy":0.0289,"realtor_list_price_base":0.9286,"realtor_active_listings":46.333,"realtor_active_listings_yoy":-0.0544,"realtor_active_listings_base":-0.1045,"realtor_new_listings":37.333,"realtor_new_listings_yoy":-0.125,"realtor_new_listings_base":-0.0432,"realtor_days_on_market":34.036,"realtor_days_on_market_yoy":0.0805,"realtor_days_on_market_base":0.1368,"zhvi":163653.632,"zhvi_yoy":0.0118,"zhvi_base":0.8201,"zori":1193.542,"zori_yoy":0.0563,"zori_base":"NA"}},{"type":"MultiPolygon","arcs":[[[-105,-92,-26,160,161,162]]],"properties":{"postal_code":"67074","realtor_list_price":156000,"realtor_list_price_yoy":"NA","realtor_list_price_base":"NA","realtor_active_listings":2,"realtor_active_listings_yoy":0.5,"realtor_active_listings_base":-0.3592,"realtor_new_listings":0.667,"realtor_new_listings_yoy":"Inf","realtor_new_listings_base":0.5396,"realtor_days_on_market":12,"realtor_days_on_market_yoy":"NA","realtor_days_on_market_base":"NA","zhvi":214757.794,"zhvi_yoy":0.0894,"zhvi_base":0.7998,"zori":"NA","zori_yoy":"NA","zori_base":"NA"}},{"type":"MultiPolygon","arcs":[[[163,164,-139,165]]],"properties":{"postal_code":"67103","realtor_list_price":"NA","realtor_list_price_yoy":"NA","realtor_list_price_base":"NA","realtor_active_listings":0.333,"realtor_active_listings_yoy":-0.6667,"realtor_active_listings_base":"NA","realtor_new_listings":0,"realtor_new_listings_yoy":"NaN","realtor_new_listings_base":"NA","realtor_days_on_market":"NA","realtor_days_on_market_yoy":"NA","realtor_days_on_market_base":"NA","zhvi":"NA","zhvi_yoy":"NA","zhvi_base":"NA","zori":"NA","zori_yoy":"NA","zori_base":"NA"}},{"type":"MultiPolygon","arcs":[[[-53,166,-103,167,168,-132]]],"properties":{"postal_code":"67205","realtor_list_price":350248.077,"realtor_list_price_yoy":-0.1181,"realtor_list_price_base":0.115,"realtor_active_listings":82.333,"realtor_active_listings_yoy":-0.2281,"realtor_active_listings_base":-0.3295,"realtor_new_listings":26,"realtor_new_listings_yoy":-0.1702,"realtor_new_listings_base":-0.4212,"realtor_days_on_market":76.897,"realtor_days_on_market_yoy":0.319,"realtor_days_on_market_base":0.2921,"zhvi":365974.486,"zhvi_yoy":0.0191,"zhvi_base":0.4695,"zori":1501.45,"zori_yoy":0.0084,"zori_base":"NA"}},{"type":"MultiPolygon","arcs":[[[-144,169,-71,-81]]],"properties":{"postal_code":"67206","realtor_list_price":400775.862,"realtor_list_price_yoy":-0.0529,"realtor_list_price_base":-0.0007,"realtor_active_listings":42.333,"realtor_active_listings_yoy":-0.1699,"realtor_active_listings_base":-0.5831,"realtor_new_listings":19.333,"realtor_new_listings_yoy":-0.2564,"realtor_new_listings_base":-0.3426,"realtor_days_on_market":55.759,"realtor_days_on_market_yoy":0.507,"realtor_days_on_market_base":-0.1361,"zhvi":363791.082,"zhvi_yoy":0.0135,"zhvi_base":0.4864,"zori":1103.216,"zori_yoy":0.0347,"zori_base":"NA"}},{"type":"MultiPolygon","arcs":[[[-169,170,171,172,-147]]],"properties":{"postal_code":"67212","realtor_list_price":267861.607,"realtor_list_price_yoy":0.0369,"realtor_list_price_base":0.6918,"realtor_active_listings":61.333,"realtor_active_listings_yoy":0.2105,"realtor_active_listings_base":-0.2207,"realtor_new_listings":56,"realtor_new_listings_yoy":0.012,"realtor_new_listings_base":-0.1499,"realtor_days_on_market":30.702,"realtor_days_on_market_yoy":0.1187,"realtor_days_on_market_base":0.0995,"zhvi":240887.805,"zhvi_yoy":0.0396,"zhvi_base":0.673,"zori":1064.795,"zori_yoy":0.0485,"zori_base":"NA"}},{"type":"MultiPolygon","arcs":[[[-172,173,-3,-65,174,-156,175]]],"properties":{"postal_code":"67213","realtor_list_price":139560.811,"realtor_list_price_yoy":-0.0552,"realtor_list_price_base":1.126,"realtor_active_listings":37,"realtor_active_listings_yoy":0.3214,"realtor_active_listings_base":-0.2335,"realtor_new_listings":24.667,"realtor_new_listings_yoy":0.0882,"realtor_new_listings_base":-0.2552,"realtor_days_on_market":38.27,"realtor_days_on_market_yoy":0.1515,"realtor_days_on_market_base":0.1758,"zhvi":120062.542,"zhvi_yoy":0.0208,"zhvi_base":0.9715,"zori":972.593,"zori_yoy":0.0374,"zori_base":0.5886}},{"type":"MultiPolygon","arcs":[[[-173,-176,-160,176,-148]]],"properties":{"postal_code":"67209","realtor_list_price":284678.947,"realtor_list_price_yoy":0.0541,"realtor_list_price_base":0.6427,"realtor_active_listings":18.667,"realtor_active_listings_yoy":0.3333,"realtor_active_listings_base":-0.3489,"realtor_new_listings":12.667,"realtor_new_listings_yoy":0.0556,"realtor_new_listings_base":-0.5362,"realtor_days_on_market":34.263,"realtor_days_on_market_yoy":0.1193,"realtor_days_on_market_base":0.2034,"zhvi":258036.396,"zhvi_yoy":0.0319,"zhvi_base":0.6711,"zori":1262,"zori_yoy":"NA","zori_base":"NA"}},{"type":"MultiPolygon","arcs":[[[-149,-177,-159,177,-116,-16]]],"properties":{"postal_code":"67215","realtor_list_price":224810.818,"realtor_list_price_yoy":-0.1888,"realtor_list_price_base":0.2129,"realtor_active_listings":66.333,"realtor_active_listings_yoy":0.3356,"realtor_active_listings_base":3.2949,"realtor_new_listings":22,"realtor_new_listings_yoy":0.7368,"realtor_new_listings_base":0.5166,"realtor_days_on_market":68.545,"realtor_days_on_market_yoy":-0.3653,"realtor_days_on_market_base":1.2364,"zhvi":262533.073,"zhvi_yoy":0.0193,"zhvi_base":0.7148,"zori":"NA","zori_yoy":"NA","zori_base":"NA"}},{"type":"MultiPolygon","arcs":[[[-109,178,179,-90,180,-37]]],"properties":{"postal_code":"66840","realtor_list_price":"NA","realtor_list_price_yoy":"NA","realtor_list_price_base":"NA","realtor_active_listings":"NA","realtor_active_listings_yoy":"NA","realtor_active_listings_base":"NA","realtor_new_listings":"NA","realtor_new_listings_yoy":"NA","realtor_new_listings_base":"NA","realtor_days_on_market":"NA","realtor_days_on_market_yoy":"NA","realtor_days_on_market_base":"NA","zhvi":208301.983,"zhvi_yoy":0.0996,"zhvi_base":0.7541,"zori":"NA","zori_yoy":"NA","zori_base":"NA"}},{"type":"MultiPolygon","arcs":[[[181,-24,-91,-180]]],"properties":{"postal_code":"66842","realtor_list_price":800000,"realtor_list_price_yoy":-0.1111,"realtor_list_price_base":"NA","realtor_active_listings":1,"realtor_active_listings_yoy":0.5,"realtor_active_listings_base":"NA","realtor_new_listings":1.333,"realtor_new_listings_yoy":0,"realtor_new_listings_base":"NA","realtor_days_on_market":2,"realtor_days_on_market_yoy":1,"realtor_days_on_market_base":"NA","zhvi":"NA","zhvi_yoy":"NA","zhvi_base":"NA","zori":"NA","zori_yoy":"NA","zori_base":"NA"}},{"type":"MultiPolygon","arcs":[[[-31,-119,182,-164,183]]],"properties":{"postal_code":"67031","realtor_list_price":360625,"realtor_list_price_yoy":3.0922,"realtor_list_price_base":"NA","realtor_active_listings":3.333,"realtor_active_listings_yoy":0.25,"realtor_active_listings_base":0.028,"realtor_new_listings":2,"realtor_new_listings_yoy":0.5,"realtor_new_listings_base":0.6558,"realtor_days_on_market":20.333,"realtor_days_on_market_yoy":0.0167,"realtor_days_on_market_base":"NA","zhvi":204016.612,"zhvi_yoy":0.058,"zhvi_base":0.6459,"zori":"NA","zori_yoy":"NA","zori_base":"NA"}},{"type":"MultiPolygon","arcs":[[[-168,-102,-62,-4,-174,-171]]],"properties":{"postal_code":"67203","realtor_list_price":209543.269,"realtor_list_price_yoy":0.0797,"realtor_list_price_base":0.9592,"realtor_active_listings":38,"realtor_active_listings_yoy":0.0556,"realtor_active_listings_base":-0.315,"realtor_new_listings":34.667,"realtor_new_listings_yoy":0.1064,"realtor_new_listings_base":0.0657,"realtor_days_on_market":29.423,"realtor_days_on_market_yoy":-0.0938,"realtor_days_on_market_base":-0.1968,"zhvi":165756.871,"zhvi_yoy":0.0251,"zhvi_base":0.7482,"zori":1257.027,"zori_yoy":0.0551,"zori_base":0.5742}},{"type":"MultiPolygon","arcs":[[[-146,-125,-5,184,-72,-170]]],"properties":{"postal_code":"67230","realtor_list_price":508022.727,"realtor_list_price_yoy":0.2379,"realtor_list_price_base":0.3882,"realtor_active_listings":52.333,"realtor_active_listings_yoy":-0.3144,"realtor_active_listings_base":-0.5859,"realtor_new_listings":22,"realtor_new_listings_yoy":-0.1951,"realtor_new_listings_base":-0.17,"realtor_days_on_market":63.061,"realtor_days_on_market_yoy":0.24,"realtor_days_on_market_base":-0.07,"zhvi":435982.691,"zhvi_yoy":0.0089,"zhvi_base":0.4024,"zori":"NA","zori_yoy":"NA","zori_base":"NA"}},{"type":"MultiPolygon","arcs":[[[185,-162,186]]],"properties":{"postal_code":"67008","realtor_list_price":"NA","realtor_list_price_yoy":"NA","realtor_list_price_base":"NA","realtor_active_listings":0.667,"realtor_active_listings_yoy":-0.6667,"realtor_active_listings_base":-0.5196,"realtor_new_listings":0,"realtor_new_listings_yoy":"NaN","realtor_new_listings_base":"NA","realtor_days_on_market":"NA","realtor_days_on_market_yoy":"NA","realtor_days_on_market_base":"NA","zhvi":"NA","zhvi_yoy":"NA","zhvi_base":"NA","zori":"NA","zori_yoy":"NA","zori_base":"NA"}},{"type":"MultiPolygon","arcs":[[[187,188,-87,-123,-145,189]]],"properties":{"postal_code":"67017","realtor_list_price":"NA","realtor_list_price_yoy":"NA","realtor_list_price_base":"NA","realtor_active_listings":1.333,"realtor_active_listings_yoy":-0.4286,"realtor_active_listings_base":-0.7665,"realtor_new_listings":0,"realtor_new_listings_yoy":-1,"realtor_new_listings_base":-1,"realtor_days_on_market":"NA","realtor_days_on_market_yoy":"NA","realtor_days_on_market_base":"NA","zhvi":338218.842,"zhvi_yoy":0.0351,"zhvi_base":0.7098,"zori":"NA","zori_yoy":"NA","zori_base":"NA"}},{"type":"MultiPolygon","arcs":[[[190,191,192,-55,-134,-150,-126,-11]]],"properties":{"postal_code":"67030","realtor_list_price":730000,"realtor_list_price_yoy":1.4966,"realtor_list_price_base":"NA","realtor_active_listings":1.333,"realtor_active_listings_yoy":-0.6364,"realtor_active_listings_base":-0.7814,"realtor_new_listings":0.667,"realtor_new_listings_yoy":-0.6667,"realtor_new_listings_base":-0.6362,"realtor_days_on_market":91,"realtor_days_on_market_yoy":3.3333,"realtor_days_on_market_base":"NA","zhvi":314959.23,"zhvi_yoy":0.038,"zhvi_base":0.6629,"zori":"NA","zori_yoy":"NA","zori_base":"NA"}},{"type":"MultiPolygon","arcs":[[[-43]]],"properties":{"postal_code":"67117","realtor_list_price":379550,"realtor_list_price_yoy":"NA","realtor_list_price_base":0.9299,"realtor_active_listings":3,"realtor_active_listings_yoy":1.25,"realtor_active_listings_base":-0.5705,"realtor_new_listings":2,"realtor_new_listings_yoy":"Inf","realtor_new_listings_base":0.0937,"realtor_days_on_market":52.667,"realtor_days_on_market_yoy":"NA","realtor_days_on_market_base":0.0699,"zhvi":246920.414,"zhvi_yoy":0.0407,"zhvi_base":0.5316,"zori":"NA","zori_yoy":"NA","zori_base":"NA"}},{"type":"MultiPolygon","arcs":[[[-165,-183,-118,-98,-121,193,-48,-140]]],"properties":{"postal_code":"67152","realtor_list_price":147627.941,"realtor_list_price_yoy":0.0191,"realtor_list_price_base":0.8435,"realtor_active_listings":31.333,"realtor_active_listings_yoy":0.1899,"realtor_active_listings_base":-0.2458,"realtor_new_listings":11.333,"realtor_new_listings_yoy":0.0625,"realtor_new_listings_base":-0.2728,"realtor_days_on_market":54.941,"realtor_days_on_market_yoy":0.274,"realtor_days_on_market_base":-0.0151,"zhvi":116720.375,"zhvi_yoy":0.0198,"zhvi_base":0.7133,"zori":"NA","zori_yoy":"NA","zori_base":"NA"}},{"type":"MultiPolygon","arcs":[[[-40,194,-190,-142,-128,-131,-100,-167,-52,-193,195]]],"properties":{"postal_code":"67147","realtor_list_price":280028.03,"realtor_list_price_yoy":-0.1273,"realtor_list_price_base":0.4325,"realtor_active_listings":48.667,"realtor_active_listings_yoy":0.0815,"realtor_active_listings_base":0.4895,"realtor_new_listings":22,"realtor_new_listings_yoy":0.2222,"realtor_new_listings_base":0.3709,"realtor_days_on_market":58.364,"realtor_days_on_market_yoy":0.086,"realtor_days_on_market_base":0.0987,"zhvi":277468.573,"zhvi_yoy":0.0263,"zhvi_base":0.6218,"zori":"NA","zori_yoy":"NA","zori_base":"NA"}},{"type":"MultiPolygon","arcs":[[[-178,-158,196,-154,197,-95,-117]]],"properties":{"postal_code":"67060","realtor_list_price":235697.692,"realtor_list_price_yoy":-0.0862,"realtor_list_price_base":0.8178,"realtor_active_listings":31,"realtor_active_listings_yoy":0.24,"realtor_active_listings_base":-0.0678,"realtor_new_listings":17.333,"realtor_new_listings_yoy":0.3,"realtor_new_listings_base":-0.2273,"realtor_days_on_market":43.577,"realtor_days_on_market_yoy":-0.0273,"realtor_days_on_market_base":0.2006,"zhvi":210885.718,"zhvi_yoy":0.0388,"zhvi_base":0.7765,"zori":1575,"zori_yoy":"NA","zori_base":"NA"}},{"type":"MultiPolygon","arcs":[[[198,-188,-195,-39]]],"properties":{"postal_code":"67154","realtor_list_price":285000,"realtor_list_price_yoy":-0.1163,"realtor_list_price_base":"NA","realtor_active_listings":1,"realtor_active_listings_yoy":0.5,"realtor_active_listings_base":-0.6526,"realtor_new_listings":1.333,"realtor_new_listings_yoy":1,"realtor_new_listings_base":2.0877,"realtor_days_on_market":7,"realtor_days_on_market_yoy":1.3333,"realtor_days_on_market_base":"NA","zhvi":248046.003,"zhvi_yoy":0.0658,"zhvi_base":0.7345,"zori":"NA","zori_yoy":"NA","zori_base":"NA"}},{"type":"MultiPolygon","arcs":[[[-82,-70,199,200,-63]]],"properties":{"postal_code":"67218","realtor_list_price":156908.108,"realtor_list_price_yoy":0.0721,"realtor_list_price_base":0.9466,"realtor_active_listings":35.333,"realtor_active_listings_yoy":-0.1846,"realtor_active_listings_base":-0.4256,"realtor_new_listings":24.667,"realtor_new_listings_yoy":-0.1591,"realtor_new_listings_base":-0.3546,"realtor_days_on_market":44.054,"realtor_days_on_market_yoy":0.0878,"realtor_days_on_market_base":0.1282,"zhvi":153711.547,"zhvi_yoy":0.0307,"zhvi_base":0.8513,"zori":1151.397,"zori_yoy":0.0617,"zori_base":"NA"}},{"type":"MultiPolygon","arcs":[[[-200,-75,201,-73,-185,-9,-151,202]]],"properties":{"postal_code":"67210","realtor_list_price":346830.333,"realtor_list_price_yoy":0.2874,"realtor_list_price_base":1.3689,"realtor_active_listings":20.667,"realtor_active_listings_yoy":-0.2874,"realtor_active_listings_base":0.832,"realtor_new_listings":8,"realtor_new_listings_yoy":-0.0769,"realtor_new_listings_base":0.1174,"realtor_days_on_market":74.333,"realtor_days_on_market_yoy":0.1559,"realtor_days_on_market_base":0.6877,"zhvi":222781.895,"zhvi_yoy":0.0338,"zhvi_base":0.6974,"zori":1406.667,"zori_yoy":"NA","zori_base":"NA"}},{"type":"MultiPolygon","arcs":[[[-137,203,-191,-10,-19,204,205]]],"properties":{"postal_code":"67108","realtor_list_price":343700,"realtor_list_price_yoy":-0.0249,"realtor_list_price_base":"NA","realtor_active_listings":4.333,"realtor_active_listings_yoy":0.4444,"realtor_active_listings_base":0.6646,"realtor_new_listings":0.667,"realtor_new_listings_yoy":0,"realtor_new_listings_base":1.0139,"realtor_days_on_market":37,"realtor_days_on_market_yoy":-0.2745,"realtor_days_on_market_base":"NA","zhvi":244895.77,"zhvi_yoy":0.0563,"zhvi_base":0.7719,"zori":"NA","zori_yoy":"NA","zori_base":"NA"}},{"type":"MultiPolygon","arcs":[[[-68,-41,-196,-192,-204,-136],[-14]]],"properties":{"postal_code":"67135","realtor_list_price":310000,"realtor_list_price_yoy":"NA","realtor_list_price_base":0.9679,"realtor_active_listings":5,"realtor_active_listings_yoy":-0.3182,"realtor_active_listings_base":-0.5155,"realtor_new_listings":2.667,"realtor_new_listings_yoy":"Inf","realtor_new_listings_base":-0.2989,"realtor_days_on_market":34,"realtor_days_on_market_yoy":"NA","realtor_days_on_market_base":-0.4724,"zhvi":251575.923,"zhvi_yoy":0.0416,"zhvi_base":0.7611,"zori":"NA","zori_yoy":"NA","zori_base":"NA"}},{"type":"MultiPolygon","arcs":[[[-205,-22,-28,206]]],"properties":{"postal_code":"67025","realtor_list_price":553357.143,"realtor_list_price_yoy":0.8729,"realtor_list_price_base":2.3952,"realtor_active_listings":8.667,"realtor_active_listings_yoy":0.0833,"realtor_active_listings_base":0.1033,"realtor_new_listings":4.667,"realtor_new_listings_yoy":1.3333,"realtor_new_listings_base":0.3154,"realtor_days_on_market":41.429,"realtor_days_on_market_yoy":-0.3459,"realtor_days_on_market_base":0.0204,"zhvi":274015.251,"zhvi_yoy":0.0386,"zhvi_base":0.7398,"zori":"NA","zori_yoy":"NA","zori_base":"NA"}},{"type":"MultiPolygon","arcs":[[[207,-106,-163,-186,208]]],"properties":{"postal_code":"67039","realtor_list_price":425990,"realtor_list_price_yoy":-0.1506,"realtor_list_price_base":2.0805,"realtor_active_listings":6.333,"realtor_active_listings_yoy":-0.3448,"realtor_active_listings_base":-0.2147,"realtor_new_listings":3.333,"realtor_new_listings_yoy":-0.1667,"realtor_new_listings_base":0.2804,"realtor_days_on_market":55.4,"realtor_days_on_market_yoy":0.4085,"realtor_days_on_market_base":-0.0629,"zhvi":248245.946,"zhvi_yoy":0.059,"zhvi_base":0.7051,"zori":"NA","zori_yoy":"NA","zori_base":"NA"}},{"type":"MultiPolygon","arcs":[[[-38,-181,-94,-83,-189,-199]]],"properties":{"postal_code":"67123","realtor_list_price":"NA","realtor_list_price_yoy":"NA","realtor_list_price_base":"NA","realtor_active_listings":3,"realtor_active_listings_yoy":2,"realtor_active_listings_base":1.3055,"realtor_new_listings":0,"realtor_new_listings_yoy":"NaN","realtor_new_listings_base":-1,"realtor_days_on_market":"NA","realtor_days_on_market_yoy":"NA","realtor_days_on_market_base":"NA","zhvi":123599.382,"zhvi_yoy":-0.0006,"zhvi_base":0.6728,"zori":"NA","zori_yoy":"NA","zori_base":"NA"}},{"type":"MultiPolygon","arcs":[[[-7,-124,-107,-208,209,-152]]],"properties":{"postal_code":"67133","realtor_list_price":344361.538,"realtor_list_price_yoy":0.2409,"realtor_list_price_base":0.4261,"realtor_active_listings":18,"realtor_active_listings_yoy":-0.0526,"realtor_active_listings_base":-0.3269,"realtor_new_listings":8.667,"realtor_new_listings_yoy":-0.2778,"realtor_new_listings_base":-0.0865,"realtor_days_on_market":51,"realtor_days_on_market_yoy":0.0503,"realtor_days_on_market_base":0.0552,"zhvi":273388.582,"zhvi_yoy":0.0086,"zhvi_base":0.5625,"zori":"NA","zori_yoy":"NA","zori_base":"NA"}},{"type":"MultiPolygon","arcs":[[[-64,-201,-203,-155,-197,-157,-175]]],"properties":{"postal_code":"67216","realtor_list_price":158665.625,"realtor_list_price_yoy":0.0534,"realtor_list_price_base":0.9395,"realtor_active_listings":31,"realtor_active_listings_yoy":0.2917,"realtor_active_listings_base":-0.2761,"realtor_new_listings":21.333,"realtor_new_listings_yoy":0.4545,"realtor_new_listings_base":-0.0537,"realtor_days_on_market":38.969,"realtor_days_on_market_yoy":0.9222,"realtor_days_on_market_base":-0.1163,"zhvi":136886.848,"zhvi_yoy":0.0186,"zhvi_base":0.9195,"zori":1072.917,"zori_yoy":0.0279,"zori_base":"NA"}}]}},"arcs":[[[408999,544218],[2844,10],[949,1071],[1065,-1060],[2709,18],[21,-1439],[813,-1],[21,-1453],[-812,5],[15,-1445],[802,4],[24,-1498]],[[417450,538430],[-817,11],[57,-544],[5,-2192],[-76,-2895],[-859,9],[-4018,173],[-2687,38]],[[409055,533030],[-953,-3],[-1120,22],[-2208,-256],[-71,1478],[-650,3672]],[[404053,537943],[508,109],[-807,2478],[-546,680],[-3154,1270],[-605,751],[-1177,902],[1349,-54],[3404,-1418],[873,-1184],[522,-129],[17,1401],[833,-2],[-60,1487],[727,1281],[-448,1872],[773,5],[0,-3166],[2737,-8]],[[524322,509379],[115,370],[866,505],[393,5],[-3,86],[135,2],[2583,37],[841,10],[13269,26]],[[542521,510420],[-61,-11393]],[[542460,499027],[-10,-5896],[14,-5503]],[[542464,487628],[-13300,47],[-15,6631],[-3313,-264],[-27,-685],[-6574,-97],[-62,5771],[-3274,-17]],[[515899,499014],[15,4782],[2967,-438],[1921,1275],[-377,1811],[3154,2834],[743,101]],[[159248,588215],[13251,38],[-366,22521],[13424,123],[-8,11415],[-13533,-56],[519,3311],[82,4197],[920,860],[-334,665],[1046,861],[-42,787],[1088,557],[979,224],[35810,69],[42,-5784]],[[212126,628003],[49,-5590],[13319,80],[158,-45159],[-738,-4],[-236,-1532],[-876,13],[305,-3905],[37,-5691]],[[224144,566215],[-24725,-133]],[[199419,566082],[-13237,-67],[-278,11156],[-1281,-7],[-11698,-10546],[16,-649],[-13242,-71],[-272,10950],[-179,11367]],[[272792,695913],[4,8467],[4252,12],[-86,-5688],[527,371],[2820,-10],[3353,-423],[-61,-6387],[-2078,696],[-1265,-808],[-3393,15],[3,829],[-4074,-8],[-2,2905],[0,29]],[[278463,509994],[13187,65],[-15,-1814],[1468,476],[2105,-404],[-107,-3561]],[[295101,504756],[-1678,-517],[-1377,-1759],[-507,-1357],[-17,-1934],[13287,-363],[31,-3669],[5,-514],[14,-1483],[63,-10400]],[[304922,482760],[-6194,-3736],[-4350,151],[-2637,-1994],[11,-971],[-12853,-274]],[[278899,475936],[-795,23243],[359,10815]],[[119655,576074],[13249,138],[-166,11771],[13472,154],[13038,78]],[[199419,566082],[214,-42523],[-353,-8260],[12,-5846],[551,-11548],[-94,-8689],[-1565,-1742],[-169,-741],[-5877,-336],[-5529,-79],[74,-5574],[1711,142],[1253,-1507],[188,-2170],[-1274,-1901],[2257,-2509],[1545,-1308],[376,-3156],[-1252,-1687],[1107,-2849]],[[192594,463799],[-25320,-293]],[[167274,463506],[-167,22603],[-20141,69],[10,11297],[-13881,-332],[-1080,183],[-5830,15],[-271,2410],[-1320,3101],[1189,1131],[2529,-428],[1647,3140],[-1284,1703],[-2247,-38],[752,1342],[35,2620],[-1590,2150],[395,1041],[1169,771],[458,1884],[-188,825],[-1130,680],[-379,2240],[313,468],[1400,0],[1025,719],[-1537,26],[-60,13999],[-6649,-8],[-32,5504],[-755,33453]],[[502342,615975],[6744,28],[-38,-2837],[-6494,-120],[-193,96],[-19,2833]],[[928890,749680],[-16,11335],[70348,318]],[[999222,761333],[71,-11548],[-683,-34229],[-6772,-72],[-15,-5907],[-6486,1],[-75,-16862],[-6856,88],[-409,-2923],[-2767,-349],[-1993,-1226],[713,-825],[1344,366],[2317,-536],[-79,-1219],[-1330,-2290],[-1544,-1337],[-391,-1062],[23892,34],[-87,-10528],[-200,-23587],[-24,-10580],[4,-46501]],[[997852,590241],[-24223,3572],[-1339,-1397],[-1026,269],[-9477,-2421],[-35780,-159],[31,-5685],[-26437,-53],[-51,5675]],[[899550,590042],[-216,22836],[-13206,38],[-89,11427],[13277,-9],[-77,11592],[19858,34],[-18,11299],[9957,9],[85,34145],[-231,68267]],[[133301,429613],[13371,126],[-10,1412],[1188,-646],[2193,-2071],[1461,-564],[791,2010],[163,5683],[-523,1239],[-884,4370],[9002,148],[443,22114],[6778,72]],[[192594,463799],[7469,103],[6454,78],[19900,398],[-22,11385],[12982,-14],[47,-5662],[13082,78],[-2,-2850],[6674,25],[0,-1428],[3356,-689],[3216,10]],[[265750,465233],[41,-9555],[-13093,-12035],[4,-1856],[147,-11652],[13203,69],[109,-11402],[-13089,-50],[200,-7271],[-7418,-4147],[-6691,64],[-124,934],[-1857,1256],[210,1076],[-813,861],[-269,3640],[251,1290],[-625,717],[-65,1513],[-9264,65],[-955,4],[-2525,-2396],[-6002,-6178],[-1231,-1079],[-3543,-2128],[2674,-2505],[855,-1525],[-84,-2887],[-2296,-5163],[186,-1148],[2095,-1566],[1795,36],[4129,-1275],[3545,-38],[1567,-310],[-55,-5967]],[[226762,384625],[-6732,-59],[-6698,-55],[-26153,-120],[-348,-1501],[973,-557],[32,-3299],[854,14],[2,-666],[-1296,-10],[328,-986],[-37,-1919],[-799,-6],[-83,-2472],[-13149,-69],[-93,11345],[-19820,-215],[-6755,76],[-13188,47]],[[133800,384173],[-3,1160],[-21,10269],[-475,34011]],[[356779,874892],[5,3251],[3446,-3264],[12077,-12],[-2123,2436],[-14,8948],[12677,-20],[716,1848],[132,32288],[11825,73],[330,11418],[-12149,-118],[-5996,6],[601,710],[283,2264],[-1616,1],[52,14147],[-6657,8],[-47,28472],[13437,-88],[26,11379],[13441,1],[-39,11359],[13388,-4],[-130,-11345],[13480,-21],[-30,11330],[13340,23],[42,-11363],[110,0],[-601,-22145],[13297,197],[-270,-11375],[13306,92],[291,11355],[13337,-14]],[[476746,966729],[-479,-22728]],[[476267,944001],[-13448,24],[-233,-11344],[-26682,-353],[-181,-5908],[3823,-4],[-2512,-3479],[-849,-1795],[-469,-37],[-118,-91],[-996,-763],[315,-1308],[-1336,-2294],[-2921,-2776],[-400,126],[-521,-320],[-454,-699],[-24,-1132],[-425,-523],[203,-815],[-34,-991],[-1150,-705],[-243,-407],[-74,-1223],[-309,-514],[-1068,-888],[69,-2817],[-552,-1032],[-647,-509],[-548,-818],[-881,-550],[-66,-2630],[5541,19],[2232,-385],[5787,366],[-370,-11384],[-125,-11324],[6705,-31],[6963,18],[11039,1153],[-77,-5324],[3403,3013],[3418,-575],[7,2003],[1702,-5],[530,-90],[341,965],[4177,-47],[-333,-17096],[888,-6421],[13339,9],[-815,12066],[20363,5],[6381,31],[6848,50]],[[521480,864442],[6480,20],[201,-3221],[7301,42],[13,-5832],[7064,23],[19,-2447],[13457,-188],[-120,5776],[6793,-134],[42,5546],[6401,-12],[115,-5668],[111,-5670],[7061,-73],[6343,-79],[6787,-58],[6595,-49],[26782,-315],[13232,-127]],[[636157,851976],[148,-11270],[-2856,-744],[1677,-1234],[-1160,-937],[1629,-699],[-556,-1317],[1022,-442],[380,-2607],[568,-790],[-150,-1890],[804,205],[-200,-948],[-1128,20],[41,-11375],[35,-5978],[-45,-5369]],[[636366,806601],[-50,-11343]],[[636316,795258],[-9933,-90],[-3478,64],[-17424,181],[839,2532],[9,3207],[-5500,61],[-1931,1015],[675,4603],[-30181,335],[58,-11374],[-6854,49],[-25,11424],[-19922,145],[2,11419],[-13867,-456],[-45,-11370],[-13290,20],[-26,-14052],[1025,-359],[371,-992],[-1393,-702],[73,-3597],[-1692,-283],[-5,-2683],[1658,-4],[118,-2312],[-506,-366],[577,-1459],[409,-7778],[-13330,-171],[-585,12041],[-13347,-42],[643,-12045],[-47,-20806],[-340,-1890],[1557,-1495],[51,-1768],[-720,-512],[-93,-2324],[1084,-830],[1902,-35],[1216,-938],[-549,-3388],[-74,-3887],[1117,-1833]],[[494543,732513],[-5077,-11],[1,-5436],[-26986,-9]],[[462481,727057],[-15,5290],[-26548,64],[-3872,41],[-9384,-5347],[-73,11206],[-7399,-29],[26,986],[-1930,760],[-2638,-412],[-690,-363],[626,-2070],[-843,-1657],[-3215,-276],[-1075,-1208],[-1780,-178],[-382,-1702],[-7226,416],[-92,17010],[-12453,105],[-2,5576],[12427,81],[-44,5604],[-12364,107],[9,11375],[-3152,11],[-813,-2160],[-620,-1007],[-6062,-8119],[-9188,51],[-63,8517],[-13230,-68],[-59,3006],[-6854,4],[80,11196],[-11336,-16]],[[332247,783851],[211,3120],[-583,1452],[139,1106],[-595,1498],[435,2271],[-769,912],[-935,-172],[-12,1184],[-9253,27],[-1037,2628],[-28,1892],[-888,2960],[362,1301],[-160,1117],[172,1478],[-2545,6],[-32,17476],[-1454,1997],[-943,464],[-3337,2852],[5691,-7],[150,22844],[13338,-53],[13385,-53],[19892,-31],[1071,-4],[1010,498],[535,1368],[-233,1330],[726,1307],[47,1643],[2735,1163],[780,1352],[82,2690],[-13406,46],[-19,11379]],[[394668,844183],[7,-1451],[1060,-1103],[2235,-2040],[-204,-234],[5191,-4969],[-4,537],[1028,-1018],[1118,-946],[721,-740],[2243,-2260],[607,-819],[325,-1061],[109,1894],[-7,1022],[-5,1187],[-12,2523],[-8,1699],[-19,4185],[29,0],[-501,1385],[502,1],[-1,1459],[184,702],[-184,2175],[-14,1013],[-2164,975],[-4520,2096],[-3472,1572],[-525,1],[-1074,5],[-1607,35],[36,-6908],[-1078,12],[4,-929]],[[396966,973462],[1415,1074],[1945,42],[24,1255],[6731,85],[-51,1633],[3202,62],[57,2376],[-6534,-21],[-18,825],[-4781,-104],[-575,-1158],[-1266,-142],[-149,-5927]],[[559282,824311],[20,5],[702,-1026],[2608,-30],[27,6619],[-3395,66],[38,-5634]],[[466959,125945],[12334,-226],[-169,27199],[202,919],[1398,-1952],[-161,-2790],[991,86],[-133,-1304],[1962,368],[238,-1920],[805,-316],[166,1631],[-749,1130],[1101,753],[-209,735],[1787,861],[156,-895],[2703,-624],[2411,433],[2287,-1635],[1624,-37],[1994,-1003],[540,-1560],[-331,-1112],[1221,-556],[42,-6996],[5727,-48],[1151,-830],[406,-1063],[1823,1408],[975,-1040],[1399,1265],[1176,-173],[-72,-1211],[2207,459],[537,-3673],[1661,-1005],[1288,-125],[1827,-1380],[726,-1327],[893,538],[-1328,1524],[872,466],[1224,-824],[727,-2134],[2014,-520],[996,-700],[748,878],[2295,90],[1094,1616],[-396,897],[2875,-156],[-44,6329],[6570,-10],[6581,-430],[21,-4508],[-138,-1057],[19708,12],[47,-5905],[-12857,-33],[-142,-3019],[-72,-8049],[-18,-405],[-1475,-27],[-1645,-5348],[13,-651],[841,-1295],[521,-2638],[940,-1221],[1047,-2641],[148,-730],[1948,-3049],[5509,-7207],[1249,-483],[-92,-304],[4636,-2272],[507,-460],[2127,-1398],[6393,-2367],[4548,-3022],[1297,-1495],[2620,-1552],[1742,-1962],[1837,-3107],[480,-2084],[681,-307],[-812,126],[-902,1286],[-3010,1119],[-4386,3482],[-3620,1693],[-2666,944],[-90,-7865],[-13574,-425],[-3053,23],[771,-32194],[-135,-1716],[-9868,65],[131,-33573],[-6184,-7],[-32832,-40],[-13370,-16],[-6197,-7],[-6714,-8]],[[481031,258],[-145,22624],[-13069,15],[-459,49544],[41,376],[81,30073],[12221,-148],[-319,5961],[-12017,-66],[-137,5735],[-269,11573]],[[296012,101348],[13204,30],[26352,604],[-46,11311],[32948,758],[13166,269],[6786,138],[-83,34101],[15765,151],[1604,189],[1226,-4031],[96,-1090],[53,-17886],[20420,359],[6296,-136],[6938,-133],[-75,22812],[25920,-185]],[[466582,148609],[377,-22664]],[[481031,258],[-13142,-16],[-32681,-39],[-30452,-37],[-14,0],[-16050,-19],[-5484,-7],[-9078,-14],[-11599,-25],[-9860,-22],[-34696,-77],[-48,1],[-2100,7]],[[315827,10],[88,1036],[-4183,2924],[-1572,145],[-175,16438],[-238,12710],[6480,136],[3370,77],[3303,65],[-208,22641],[-13139,-245],[-35,5780],[-35,5580],[-32,3026],[-6560,13],[-46,2559],[-13075,-56],[106,-5572],[-6733,46],[-72,11383],[13153,-14],[-212,22666]],[[297577,647270],[2437,535],[3679,2197],[4214,320],[2745,-554],[545,-267],[3256,-2363],[620,-6],[2054,-554],[1276,-997],[1082,-3466],[87,-1283],[2600,-2820],[1687,-1006],[2821,-759],[5039,-2635],[3734,-191],[4096,2237],[3198,200],[881,-351]],[[343628,635507],[30,-2266],[39,-2975],[66,-5713],[26,-3941],[5,-1078],[-2,-6426],[8,-885],[-1459,1],[51,-1484],[377,-250],[-709,-3407],[-1089,-1309],[236,-4294],[-1758,-3434],[-481,-717],[-155,-1185],[-2818,-29],[25,-179],[-167,-2],[-1517,1],[-792,83],[-1580,402],[-1265,594],[10,-1296],[6,-526],[8,-965],[12,-2334],[20,-1729],[2,-106],[-7441,-121],[0,103],[-4866,-186],[-923,-16],[-2350,-38],[-1587,-28],[-2689,-44],[-21,2847],[-27,2839],[-4317,-64],[-911,-776],[-1113,-27],[-4,-4925]],[[304508,589622],[-6910,-139],[109,4153],[-2766,-2403],[-209,574],[-3615,2071],[33,1095]],[[291150,594973],[3,105],[66,5474],[-168,5739],[-481,17126],[6686,146],[6260,361],[596,-278],[357,754],[-505,1564],[-107,3381],[-1097,138],[-2099,3585],[-986,1057],[-4776,675],[8803,573],[49,11939],[-6174,-42]],[[408017,567036],[435,504]],[[408452,567540],[580,-507],[917,6],[-202,1417],[-5,2850],[-6,1430],[209,-930],[2059,-748],[584,-4002],[2714,21],[3804,5312],[2577,315],[975,-650],[-1152,-4957],[623,-1],[399,-2],[187,-1],[5543,30],[1597,6],[-5,781],[1976,280],[5,-1047],[2962,15],[8,1425],[1671,11]],[[436472,568594],[0,-1422],[3889,39]],[[440361,567211],[723,-1178],[-4609,-810],[-1,-3732],[408,3]],[[436882,561494],[56,-1394],[-10,-2657],[-448,-206],[446,11],[12,-1426],[-470,-6],[24,-2850],[4,-2398],[-54,-453],[33,-5710],[48,-2847],[193,1],[-2,-233],[225,7],[8,-232],[318,4],[8,-368],[-313,-8],[-5,-282],[-156,-11],[-34,-307],[-226,-1],[1,-1519]],[[436540,538609],[-5797,-39],[-595,-4],[-3832,-50],[-796,15],[-2260,-44],[-5810,-57]],[[408999,544218],[2,3189],[4,1064],[-922,-7],[10,4345],[9,1424],[-12,960],[-304,450],[261,0],[247,2560],[-148,281],[269,2],[-186,2847],[-92,-1],[482,392],[-133,1038],[14,1427],[-61,1241],[124,1603],[-546,3]],[[436540,538609],[37,-2836],[36,-2649],[-4,-2976],[414,8],[8,-1418],[-418,-9],[6,-1443],[826,7],[7,-1424],[-830,-3],[4,-1420],[3324,14],[12,-1427],[-3331,-23],[13,-1418],[-1,-2377],[1397,-1873],[-1392,-7],[8,-1445],[20,-2849],[8,-1613],[8,-1245]],[[436692,510183],[-1841,-12],[0,-387],[-2760,54],[-7,311],[-397,-5],[-1656,-1166],[-488,1149],[-1007,-10],[-193,-2],[-3870,-27],[-1118,-22],[-1593,0],[5,-405],[-759,405],[-903,-6],[-2480,-19],[-49,0],[-918,-9],[-2069,-13],[-1724,-46],[-4271,-22]],[[408594,509951],[30,2870],[457,5],[3,1415],[-462,-9],[-11,4301],[-494,2849],[502,5],[-153,5735],[151,-1],[-498,1380],[953,927],[-19,3342],[2,260]],[[476267,944001],[-290,-11333],[13129,12],[-81,-5798],[-1,-5579],[-286,-1],[-175,-4126],[149,-1362],[13517,-29],[-419,-17459],[13443,200],[-286,-5927],[-77,-11269],[6803,97],[58,-5708],[-6956,-118],[-41,-2800],[-41,-2849],[6714,42],[53,-5552]],[[266452,875118],[23832,-5],[31,-11390],[13410,-98],[39820,-100],[6,11393],[13228,-26]],[[332247,783851],[-3091,21],[468,-3570],[-293,-2467],[-771,-2533],[851,-1521],[22,-1106],[-12627,-5],[16,-11389],[-9998,174],[50,2360],[-1925,235],[-1263,3575],[-139,-6437],[1514,-136],[388,-1813],[1218,4],[1871,-4000],[1886,-1269],[768,-1620],[2337,-1752],[-51,-1968],[349,-867],[2788,-1892],[2775,1041],[1421,-1404],[-731,-1314],[-3312,-33],[69,-5660],[-13202,-85],[-20185,37],[-12654,-29],[983,-1065],[-3809,-2465],[-4365,-2588],[11,6087],[-33242,93],[-6615,1],[13,11377],[-13409,-11]],[[210363,749857],[-13302,2],[86,22824],[13332,65],[-32,11247],[-9,22848],[-44,11394],[13338,15],[33723,-18],[-418,1174],[15,10106],[-6628,17],[-53,22823],[-55,5613],[6654,-16],[55,5781],[6376,-2],[-501,1983],[1723,110],[1911,1591],[-1236,-1],[113,2610],[-421,1616],[876,592],[-328,1730],[1470,577],[1185,-161],[-1741,741]],[[456589,510439],[6682,4348],[0,472],[3099,2004],[1056,1068],[-1707,-674],[-2448,-589],[0,1709],[-1,2863],[1,2862],[2685,-327],[903,806],[-527,953],[-3062,-7],[4,1422],[-6,1426],[-2,1414],[220,26],[67,241],[239,205],[6,298],[154,124],[-233,216],[-8,133],[-171,-8],[-290,203],[6,1297],[5,214],[0,134],[-3,173],[-7,5314]],[[463251,538759],[2033,-463],[3401,38],[732,427],[0,32],[6667,15],[6692,6],[6608,18],[4,-3645],[19,-2060],[2902,4],[7044,18],[-2,2852],[3335,-11],[-12,2769],[-1,86],[6580,12],[60,0],[6581,7],[82,0],[-2,-1255],[2,-3535]],[[515976,534074],[0,-845],[3,-285],[13,-11213],[-1,-7155],[1,-1425],[-5,-2866]],[[515987,510285],[-6692,-6],[-2590,-3],[-2609,-7],[-1407,-7],[-3375,-6],[-1316,-2],[-1955,-7],[-3333,-7],[-3153,-4],[-186,0],[-186,-1],[-6024,17],[-1508,2],[-1526,-43],[-4040,16],[5,-5672]],[[476092,504555],[-12813,71],[-8586,-292],[6,-666],[-3091,-57]],[[451608,503611],[-745,663],[-564,465],[6289,5501],[1,199]],[[443789,567249],[-1603,-16]],[[442186,567233],[-15,810],[194,209],[776,-157],[634,-4],[14,-842]],[[436882,561494],[1397,8],[121,903],[3220,-257],[1875,944],[-348,2520],[2279,629],[471,1026]],[[445897,567267],[3923,40],[3307,23],[14,1459],[4849,294],[103,-1733],[360,0],[1752,4],[176,1135],[2767,401]],[[463148,568890],[12,-1531],[2229,0]],[[465389,567359],[638,-1623],[9,-1190],[-282,-490],[-2601,-186],[-2,-2349],[14,-3969],[1552,94],[95,-1718],[807,-1],[409,-1430],[-1385,-770],[-1460,627],[38,-4145],[16,-5710],[2,-2870],[12,-2870]],[[463251,538759],[-3794,4],[-2884,12],[-6639,3],[-3368,-19],[-1673,-8],[-3430,-22],[-1582,-8],[-3341,-112]],[[622933,681536],[13348,86],[-78,5655],[13365,23],[-177,17687],[-6,903],[275,4221],[5497,4]],[[655157,710115],[1623,-103],[19270,74],[159,-17069],[13215,-263],[26,-11404],[61,-12578],[-1872,-181],[-1008,-1943],[653,-798],[-915,-1335],[-1595,-91],[155,-1023],[-2031,570],[-886,-680],[-482,-1414],[-1272,-77],[-19,-1760],[-3017,-694],[-1060,-615],[-7320,0],[-543,-863],[-1280,-276],[598,-713],[-1929,-704],[-300,-669],[778,-1373],[-2287,-2115],[-1070,-532],[-20,-4307],[22665,-314],[3954,179],[10942,-35],[43,-2710],[108,-3724],[3,-200],[-16793,-4098],[-5349,-1952],[-3896,-1627],[-3453,-1351],[-3699,-176],[-5917,-5159],[42,-1460],[-14,-2849],[3,-676],[1862,-49],[2147,-1378],[987,50],[568,-3022],[1023,-748],[111,-2911],[3883,-63],[150,-5676],[-3890,97],[51,-4557],[3585,1517],[2935,1516],[23,-4400],[-363,-11381],[-1616,47],[-122,-5705]],[[672762,584364],[-7524,171],[-20,-1670],[-7387,170],[-69,-1745],[-1636,-76],[-70,-1764],[-1623,77],[-12,-790],[10,-11340],[-7760,66],[-5400,823],[-129,10533],[-1006,-14],[-5598,165],[132,10985],[-4581,-1584],[-8327,-2441],[-3572,-1197],[-3212,-1506]],[[614978,583227],[-1159,7134],[-5256,47]],[[608563,590408],[-33,5664],[22,5721],[6546,54],[6668,-176],[-131,20822],[-13197,537],[-33,1593],[1666,220],[-56,2604],[4970,-63],[-8,2883],[6637,-26],[-39,5742],[-13332,-17],[-21,11444],[1371,-2],[65,11392],[13310,-19],[-167,16830],[132,5925]],[[196992,886465],[-53,-7911],[-866,-32],[-474,1164],[-763,200],[-1777,-1305],[-1874,1277],[-1489,-497],[12,-1532],[-996,-683],[-462,649],[345,1389],[-958,309],[-4429,-1427],[-1412,2180],[-2989,27],[-838,-565],[-703,-1725],[-2572,1600],[-1632,-1611],[-1012,661],[-831,-254],[-919,-1221],[13,-19258],[1,-5878],[-6608,67],[-6660,81],[-12892,69],[-322,-10273],[115,-1066],[74,-5871],[-13418,10]],[[130603,835039],[34,5877],[-53391,-75],[61,11264],[-12988,-62],[-825,6],[5,1405],[-1638,86],[-34,1345],[-808,14],[-39,1427],[-3320,41],[-51,4296],[6725,-56],[-37,14249],[-30066,55],[-1648,-185],[-6237,149],[1734,9909],[445,1534],[22400,-147],[6,7648],[543,1054],[275,2608],[317,359],[-422,442],[-887,1826],[146,1759],[-17,4281],[6701,2],[20,14170],[6666,-5],[12977,35],[40115,89],[-138,-11178],[26830,-153],[12808,71],[13411,64],[26,-18384],[23290,4698],[3358,1055],[42,-10147]],[[702721,710062],[13,-6269],[6441,-90],[7230,-132],[12452,242],[457,2],[8691,9197],[2540,3322],[8411,8438],[-385,30868],[11216,16308],[15402,214],[7095,-293]],[[782284,771869],[26607,187],[19889,145],[17,-11494],[13143,9],[-322,-642],[1702,-1172],[-1089,-805],[1108,-365],[-1256,-1367],[-804,-329],[633,-648],[-408,-1685],[-2268,-70],[598,-1625],[-1274,160],[715,-1029],[-901,-1649],[5909,41],[10856,11452],[20646,150],[36,-11389],[8517,-28],[375,1779],[1652,772],[1068,1547],[-549,1601],[1149,318],[467,929],[487,-16],[49,-6928],[39854,-38]],[[899550,590042],[-9969,34],[27,-5736],[-3254,-1],[-31,-2490],[-4527,-185],[-4806,-1156],[-4127,-1911],[-6868,37],[-6171,7],[-1,11401],[-39773,-24],[-348,16061],[-1931,114],[620,778],[-1017,367],[-1123,-111],[215,-1149],[-1146,-10],[-1260,-833],[-529,613],[-2743,-1093],[-97,-689],[-2230,-144],[19,691],[-1877,355],[181,-15016],[-13324,87],[32,-11305],[-13080,99],[93,8764],[-152,2480],[-3352,-62],[-1321,-1928],[-1634,66],[-142,-1062],[-3571,-385],[-2814,-2221],[-726,395],[-81,-6185],[-13047,90],[-78,-11339],[12807,-25],[205,-19754],[-301,-3031]],[[766298,544636],[-12725,-43],[-3,11403],[-13210,5],[-13195,-104],[25,11431],[-2930,513],[-1053,-523],[-12273,5],[-10047,-11170],[-190,-209],[-9917,-49],[117,5911],[-3224,94],[31,5382],[3,5891],[-21,5592],[-5010,15],[75,5567],[-7725,68],[-581,-81],[-1683,30]],[[655157,710115],[1447,24],[1034,990],[-719,1412],[2697,1376],[976,1462],[115,970],[-1176,-25],[1416,3054],[2350,1259],[246,1543],[1610,131],[-291,1860],[3462,-2074],[11491,-4707],[3981,-2069],[5588,-136],[-13,-5112],[6127,-13],[7223,2]],[[358674,408563],[26460,403],[13265,79],[-114,-5691],[9517,-63],[-59,4838],[2333,-9],[998,712],[1184,-2],[1694,-1314],[3191,-718],[898,465],[456,-9654]],[[418497,397609],[143,-13830],[291,-2856],[2230,-1598],[581,-2312],[1459,-1402],[2135,-1362],[9,-149],[8,-324],[99,-3066],[472,-17071]],[[425924,353639],[-6183,-102],[316,-6226],[-2882,134],[-227,-2232],[-1885,-2550],[-1681,-582],[-13523,-193],[-249,11409],[-7573,-327],[-3481,-49],[-1030,-3104],[238,-4138],[366,-1032],[600,260],[1738,-776],[207,-837],[-920,-512],[983,-1952],[1362,-1199],[-912,-1210],[-519,-2037],[-1512,-3247],[327,-793],[3404,-2284],[2209,173],[1022,1749],[2880,1005],[1075,79],[3,-174],[502,-290],[462,-547],[36,-493],[-178,-738],[-23,-1621],[-122,-316],[-588,-686],[-393,-1016],[-1151,-1140],[-300,-1029],[-73,-906],[170,-528],[462,-506],[477,-232],[907,74],[-83,-507],[68,-3307],[-1664,-5],[-725,987],[208,1292],[-1889,-16],[-1377,-1027],[-1132,-178],[-1150,1115],[-1995,-268],[352,970],[-3016,-1504],[-1144,577],[-286,9200],[-6700,-61],[501,-17125],[-6424,-38],[96,-2708],[-2081,-1053],[-1625,-2],[-2749,-1289],[-100,-840]],[[367350,307131],[-6606,-151],[-344,11365],[-4941,-204],[807,1744],[-1155,1675],[708,1908],[744,-320],[562,2273],[1276,-879],[787,1782],[936,938],[-462,13767],[-6631,-146],[-6595,-112],[-17216,-360]],[[329220,340411],[2633,3046],[190,1953],[1439,1532],[-291,844],[918,572],[-51,1507],[-665,286],[-38,2076],[999,310],[362,1805],[692,80],[188,1246],[1982,651],[-596,1313],[919,1291],[1409,-502],[308,1039],[902,-1644],[1405,811],[281,768],[1567,-409],[2168,440],[-1908,693],[-401,1424],[353,1824],[-2027,5344],[-243,5408],[4388,85],[-210,11350],[13596,229],[451,1246],[-3025,3854],[-1271,-54],[-1085,913],[-1481,395],[-2473,1700],[-355,1775],[458,1992],[833,1217],[-168,2333],[-1169,1935],[1710,1578],[729,1309],[1001,395],[1395,2137],[3635,55]],[[348683,630429],[4998,-36],[0,2898],[3022,-1],[225,2846],[321,-11326],[19708,-235],[-9,11404],[3291,-60],[6,-2469],[1713,984],[1424,1445],[152,109],[0,-110],[791,-5],[425,3483],[1578,55],[-13,1396],[-1862,795],[2222,-34],[96,1124],[3789,-6825],[325,-3],[168,-1],[5284,-6],[-2,1584],[1321,-1508],[-187,503],[-1057,2622],[-95,8208],[477,2],[2856,8],[13,-1406],[4993,6],[1054,1345],[619,1],[14,-2765],[3143,5],[17,-3666],[-2098,-1257],[-2053,-627],[-133,-3027]],[[405219,635885],[6,-379],[505,-2475],[100,-2186],[-165,-654],[-2684,-26],[6,-5689],[6718,8],[17,-3619],[-2502,4],[-8,-636],[1774,6],[0,-1257],[-1578,-226],[2337,-3445],[12,-2235],[-2227,0],[59,-2855],[-1990,42],[-1571,2808],[-410,-3],[5274,-9477],[538,-1442],[-38,-308],[-299,-3270],[-293,9],[-355,-3213],[-591,51],[-1118,-1124],[-24,-651],[584,110],[2088,570],[22,-188],[-2691,-675],[-58,-1198],[-1407,-2098],[-528,-78],[-1547,263],[3,-407],[1747,-177],[3226,480],[-33,-2986],[785,-7],[7,-2794],[-782,-1522],[806,-2837],[-15,-1420],[-786,7],[756,-2682],[1,-403],[-910,-358],[36,-2478],[-510,-37],[464,-1430],[501,2],[-497,-1424],[478,-2336]],[[408017,567036],[-1426,-4],[-813,384],[0,-219],[-828,-172],[-2537,-18],[-2448,11],[-1356,605],[-1968,79],[-8,560],[-1582,41],[-4,-1270],[-1654,33],[-3383,88],[-16,580],[-2603,258],[-313,-755],[-3266,87],[-1963,52],[-2466,65],[-1746,767],[-2475,-675],[-2166,1907]],[[372996,569440],[2478,2841],[1037,1073],[819,685],[3378,3034],[675,1707],[-236,30],[-145,-13],[-4936,109],[3236,5695],[176,3096],[-1605,3801],[-111,307],[435,1056],[-460,-79],[-63,552],[451,820],[-321,2782],[-562,1207],[-2816,3593],[-2745,3895],[-961,3242],[-1302,4356],[826,13],[-579,1023],[-2215,2111],[-4294,2637],[-4712,1578],[-1947,-521],[-2114,70],[-1277,753],[-1153,2545],[-2977,5504],[-293,1487]],[[595216,499207],[12921,90],[266,1749],[-491,3183],[-1289,198],[939,1237],[-1941,-318],[-456,1316],[-1630,-1191],[-824,905],[-207,-1139],[-1111,492],[1425,1392],[-623,517],[-2997,592],[-1124,1207],[-1207,-89],[-389,1192],[-1671,-19],[325,129],[157,11223],[33,11421],[1547,12],[0,142],[4966,27],[6693,50],[23,5564],[-2338,1161],[17,4467],[2318,24],[108,9519],[2024,-9],[15,-1329],[2273,-1320],[2158,120],[231,-3513],[1055,458],[602,1989],[1705,1208],[885,515],[2076,93],[16,3682],[-4905,-21],[-1635,1395],[-7,1261],[-4,3033],[-3116,-45],[-178,5722],[-3,11505],[-3706,78],[-620,664],[7456,3481]],[[766298,544636],[69,-6459],[550,-3676],[96,-2187],[-922,-1688],[-641,-627],[-2792,-1517],[-2670,-514],[-6471,14],[-25,-11711],[364,-3085],[-349,-2103],[596,-599],[23778,158],[-270,-1166],[-1650,913],[-1295,-636],[611,-1368],[-1318,-737],[-988,1028],[-2840,-90],[-553,-1936],[-1300,192],[-314,-1963],[-1926,377],[-639,-1687],[-2756,-884],[-849,-608],[-2762,-367],[-1023,476],[-2566,-290],[-498,-672],[-3258,-1015],[-641,813],[802,1070],[-3191,351],[-53,-1604],[-1139,680],[-1541,-91],[-2200,473],[-797,-907],[-2157,-285],[860,1424],[-1363,330],[-191,-21784],[-796,-1273],[-2660,-1336],[-2504,637],[-860,-261],[62,-989],[-1435,-1460],[-1231,357],[694,1807],[-853,1049],[-3243,107],[-1986,-1526],[-1923,-424],[-403,-819],[-1367,-278],[-975,652],[87,-6139],[-8266,-47]],[[712417,470736],[-5447,5],[-8,-3038],[-6435,7],[-5647,-6],[-7537,64],[-7,8415],[-13289,89],[-19,-11388],[-22,-11357],[-6784,12],[-10977,-17],[-3622,168],[-488,-1016],[-2570,-62],[-3790,-666],[-677,-482],[-401,-2233],[-1027,-1728],[442,-2338],[-71,-2956],[-9730,0]],[[634311,442209],[-258,8167],[226,3260],[-14,24669],[-1411,-1634],[-1126,-300],[-9941,-36],[11,-11404],[-6027,3],[-7297,11],[22,9560],[-9847,-2714],[-3448,-1517],[-6,1188],[-3291,-42],[13,2149],[1627,42],[-13,1278],[847,-14],[25,1469],[789,9],[102,11325],[3638,96],[-4,2614],[-3641,98],[-71,8721]],[[476746,966729],[-166,5040],[99,6391],[13370,0],[-239,-11403],[6791,23],[20,5688],[6643,97],[117,5582],[13332,6],[-51,5693],[7600,-15],[61,4780],[18782,47],[1058,7],[32733,145],[21,-3648],[-305,-7438],[19761,-51],[-116,2425],[122,528],[1414,-518],[885,1345],[-481,581],[1702,574],[1150,-453],[1880,-133],[570,625],[-264,1009],[2604,1111],[-197,526],[1398,432],[933,-328],[906,1197],[-376,1186],[1243,1048],[148,103],[-195,-11324],[7025,-52],[3298,-255],[2910,-186],[24602,-102],[1545,-17],[213,-22733],[6745,-243],[82,-4066],[-317,-1547],[365,-1048],[64,-15833],[6462,-136],[282,-11408],[89,-11206],[13003,-217],[91,-34187]],[[676158,874371],[-13215,203],[-74,-11382],[-26678,162],[-34,-11378]],[[444496,612621],[1308,6],[1979,401],[1865,11],[91,0],[2976,17],[1134,5],[2509,15],[2079,4],[4550,-16]],[[462987,613064],[28,-7482],[4,-2328],[11,-4699],[1035,-68],[-15,-528],[-1018,-27],[8,-1590],[20,-2439],[128,56],[33,-2318],[1351,729],[421,-2115],[1589,6],[162,-927],[-2334,-2906],[-1316,44],[-11,101],[-58,-1676],[128,-1],[-49,-1447],[47,-4684],[-13,-6871],[10,-3004]],[[445897,567267],[-2108,-18]],[[442186,567233],[-1825,-22]],[[436472,568594],[0,1421],[-5,2862],[899,20],[37,2818],[-907,1],[27,2389],[1923,465],[2164,1541],[1967,-253],[1382,1773],[3183,1486],[69,1842],[1764,1603],[728,1330],[-9650,-4334],[-1633,-8],[1779,3768],[1473,1171],[1103,1773],[-6603,9],[11,1704],[211,7886],[43,1595],[43,184],[-5,96],[13,1254],[3147,2620],[4861,7011]],[[265750,465233],[-1638,703],[-57,4315],[1618,13],[-38,5620],[13264,52]],[[304922,482760],[4263,2686],[4404,-2380],[2590,701],[-542,-1041],[2658,-341],[7209,20],[21,555],[953,-387],[960,1274],[418,-1255],[2068,646],[-646,-1864],[1527,-2260],[1253,-15],[523,-1131],[3446,-355],[2255,1130],[2903,664],[1776,-662],[1436,291],[-42,-1924],[147,-11597],[144,-11350]],[[344646,454165],[-3194,-66],[-499,-2301],[-6076,-344],[-915,-3765],[-1225,-491],[573,-1757],[-286,-1555],[1463,-411],[-114,-973],[-887,-1286],[1176,-1368],[-2911,-2905],[143,-5885],[18943,127],[126,-987],[1065,-1004],[355,-1560],[-271,-1506],[-1334,-3335],[-1418,-1130],[-691,-1725],[9815,30],[190,-11405]],[[329220,340411],[-396,-1231],[-1248,-215],[440,-842],[-889,-224],[-290,-1722],[-875,-202],[56,-1720],[-1355,-170],[-1579,-3594],[-2417,98],[376,-13074],[-797,-169],[-5347,-134],[33,-6109],[30,-5130],[34,-6246],[-6604,-23]],[[308392,299704],[3,6109],[-437,-7],[-188,5254],[-13202,-86],[-62,6006],[-13510,-306],[-106,5647],[-6979,-8],[-123,17075],[-6429,-69],[-796,22318],[-5454,-37],[-5139,144],[-15794,0],[-60,11574],[-25,11337],[-13329,-30]],[[425924,353639],[371,-6598],[17112,965],[6182,-39],[2596,349],[562,-354],[-61,6044],[1554,-1323],[943,-406],[1924,-1416],[800,-2386],[1012,7],[158,-516],[6996,-23],[12255,-14],[-1751,-6065],[619,-1907],[1498,-1949],[1111,-3345],[-42,1124],[1274,-1580],[1338,-744],[1103,-100],[1858,892],[1050,1150],[3059,1294],[1319,152],[1626,-1148],[-106,-1249],[-801,-1587],[-105,-1238],[982,-1613],[2367,-1519],[604,-2035],[1052,-1303],[1572,-1181],[2523,-443],[1056,439],[1851,1510],[1029,451],[2239,304],[1125,-581],[940,-1149],[596,-946],[434,-1935],[-173,-2742],[398,-7068],[1271,-1975],[1159,-2663],[1328,-1527],[3161,-1875],[2861,-1265],[2391,-1639],[1221,-1675],[152,-2125],[-1324,-2268],[-136,-1041],[-2839,-1916],[-654,-953],[263,-2145],[1106,-1135],[2617,-3321],[3337,-2333],[820,-1078],[643,-4340],[2040,-3640],[1457,-1546],[3545,-5933],[1109,-3023],[116,-2238],[-335,-1519],[-1540,-4305],[-249,-2417],[1055,-1815],[-501,19],[-1200,1356],[-189,1144],[-526,982],[-1306,929],[-998,233],[-500,-161],[-812,-1112],[-1020,-699],[-187,-1219],[192,-1411],[-2091,-1163],[-1762,-1622],[-2706,-2283],[-3151,-811],[-3462,-238],[-314,286],[0,2976],[-833,1416],[167,1574],[-8747,97],[-13834,135],[-4377,193],[-7815,-10],[111,-11325]],[[478687,239394],[-12467,466],[-22,8667],[-30,8506],[50,5664],[-13279,-60],[9,-11431],[-6874,106],[-6175,-207],[-13397,-7],[-194,11441],[-13659,-142],[-85,0],[5007,5396],[1310,1878],[620,1508],[355,3650],[-155,7326],[-553,3139],[-6446,-53],[-6359,765],[-6659,-831],[142,-11463],[-4229,4],[-2011,783],[-4768,366],[-1592,-1313],[-20,22650],[-6669,-180],[-6452,-106],[-4910,-98],[312,11355],[-2137,-42]],[[542538,567585],[16,3590],[4,686],[0,1436],[25,5730],[-43,3111]],[[542540,582138],[2862,1703],[340,646],[2867,4],[1285,1047],[1603,-796],[2184,91],[162,563],[2881,1106],[1949,-897],[834,-2365],[1886,-289],[1824,741],[1707,1439],[-253,417],[1259,1044],[1716,-869],[-215,-611],[1407,-1072],[-138,6398],[13520,1],[472,-1100],[1616,99],[1269,1007],[22986,-37]],[[595216,499207],[-13274,-38],[-13330,20],[-13387,42],[-1871,-46],[-3088,-65],[-1684,-29],[-6122,-64]],[[542521,510420],[14,5732],[4,2289],[1857,138],[577,735],[-33,1216],[-1396,1344],[-1010,-29],[-124,1032],[-24,4633],[87,57],[1008,2],[693,1552],[-1511,603],[-182,1085],[-22,2384],[0,114],[0,91],[3,5461],[15,5756],[0,72],[-18,5678],[0,29],[-2,398],[27,5346],[19,5574],[-1,162],[36,5711]],[[224144,566215],[1658,11],[39103,65],[13290,220]],[[278195,566511],[-14,-5757],[92,-5264],[-54,-332],[753,18],[15,-659],[-43,-330],[-217,-641],[-171,-160],[-271,-96],[-38,-3340],[2,-66],[118,-5945],[78,-11288],[54,-6156],[-2,-1103],[-20,-3785],[-10,-286],[-2,-118],[21,-1138],[0,-21],[0,-345],[2697,-371],[26,743],[480,497],[1278,-1173],[-3,-1216],[1723,-7],[350,-2487],[-6556,-26],[-18,-5665]],[[439566,635871],[3236,4],[5334,-30],[28,-1164],[1333,-10],[-22,1168],[13398,13],[57,-8175],[2746,-25],[-17,2537],[10031,529],[-10,-1295],[-9,-4809]],[[475671,624614],[0,-152],[-6,-5628],[-3,-5707],[-6664,-21],[-1384,-9],[-4627,-33]],[[444496,612621],[-1471,133],[-497,141],[503,383],[0,1446],[0,3946],[-74,5814],[-3288,-7],[-1333,346],[-349,1529],[1679,13],[-71,3805],[-29,5636],[0,65]],[[405219,635885],[3631,-5],[635,3],[215,2],[1899,-24],[24,1178],[1404,7],[-2,-1181],[431,1],[2757,28],[265,5],[1220,-16],[0,248],[-7,2611],[2063,-8],[4,2859],[3358,-7],[7,-5624],[0,-97],[6647,2],[6494,4],[3302,0]],[[304508,589622],[-12,-2837],[-29,-2844],[-51,-5703],[-1,-155],[-38,-3016],[-22,-2498],[-24,-4248],[-21,-1448]],[[304310,566873],[-5678,-84],[-684,-8],[-5361,-100],[-67,-2],[-1223,-22],[-12,2837],[0,2963],[-49,5551],[-13190,-213]],[[278046,577795],[-293,11302],[109,7203],[2453,956],[961,-933],[-586,-735],[960,-1202],[2783,-702],[16,1373],[6701,-84]],[[196992,886465],[6501,-1],[1,-130],[13371,-18],[-4,-5231],[-1573,-1494],[-876,199],[111,1908],[-3026,-1307],[-647,-711],[947,-651],[-196,-1618],[-1625,-1338],[1572,-981],[5652,20],[1779,-39],[1191,-615],[2549,563],[180,-1940],[856,-1009],[44,348],[689,-98],[1812,1056],[-1423,163],[864,751],[-776,343],[1309,2556],[1849,223],[-534,1489],[609,280],[2388,1008],[185,-638],[3150,231],[1134,1213],[1795,1207],[49,-7031],[29553,-55]],[[210363,749857],[64,-34138],[15,0],[-22,-9121],[3553,-25],[25,-2249],[-16833,-14],[45,-4854],[1733,-768],[4193,-1074],[2285,-1579],[3040,-1077],[2016,-223],[-12,-6172]],[[210465,688563],[-3037,1390],[-2617,937],[-3263,-267],[-4776,1578],[-628,30],[-5085,-1108],[-3330,-166],[-2741,690],[-2241,881],[-1125,802],[-1380,1884],[-2292,926],[-1917,1426],[-1438,1561],[-1129,2125],[-1621,1085],[-2337,935],[-4252,-91],[-3607,269],[-3649,-221],[-3731,629],[-1611,1021],[-3359,3083],[-2416,1319],[-2561,2620],[-500,175]],[[143822,712076],[-4895,2210],[-2717,1927],[-2294,3745],[-3373,2124],[-4419,3019],[-1984,578],[-5714,-318],[-699,324],[-864,1561],[-3060,2246],[-1382,1777],[-4206,2245],[-1467,4166],[-830,1740],[-2787,1552],[-3734,226],[-4143,706],[-999,354],[-3420,226],[-4612,309],[-2890,-716],[-932,202],[-3361,2585],[-1924,571],[-1596,941],[-2790,3495],[-430,2343],[-636,1339],[-1732,2277],[-5861,3142],[240,2384],[18,11075],[26313,316],[-8,11122],[13311,2],[50,11278],[29,5739],[30,5739],[8,4695],[-6933,816],[-6416,749],[-1,2165],[1,2929],[-8,2829],[8270,1],[0,2875],[4995,-127],[-7,5687],[13302,119],[13318,130],[20,5544]],[[201419,156804],[2953,-2866],[958,-3807],[-953,-2986],[159,-1690],[5816,219],[12,-5755],[19607,171]],[[229971,140090],[-63,-28391],[13573,62],[52670,1058],[-139,-11471]],[[315827,10],[-5533,21],[-39514,22],[-13509,-32],[-414,29],[-20,1],[-13094,-28],[-12952,-10],[-17547,-13],[-1627,23],[-4356,63],[-16010,231],[-213,3],[-9676,-68],[-30282,-124],[-3574,-15],[-51978,-60],[-10692,166],[-41,-90],[-13655,-105],[-10,0],[135,53282],[20,17374],[45,16923],[26738,429],[-209,11037],[13094,168],[26425,271],[-57,5613],[6732,-25],[54,5832],[3874,161],[2895,-71],[-44,5676],[-59,5655],[12763,44],[146,11375],[13514,227],[6861,21],[20,5712],[6047,4],[583,5606],[-242,5776],[-140,5553],[11094,137]],[[475671,624614],[3287,109],[3355,-22],[6658,-2],[17,22596],[7283,18],[478,1],[32,-2466],[1613,90],[775,-610],[2137,-15],[966,-1118],[-3,3301],[473,834],[445,785],[-141,11043],[13288,-58]],[[516334,659100],[-46,-5673],[198,-6082],[-909,5],[201,-34146],[17,-2844],[14,-2835],[7,-8453],[604,-375],[648,1076],[1799,1293],[5378,584],[-314,-815],[294,-1936],[-896,-4248],[-1129,-2583],[121,-1723],[-3736,29],[478,-944],[-1799,-162],[-1410,-758],[80,-9586],[13348,51],[-53,-5707],[-13246,-96],[-66,0],[-7,-1151],[-2,-456],[-24,-4128]],[[515884,567437],[-90,-1],[-13184,6],[-1884,-5],[61,1851],[-2097,1],[18,-1859],[-913,-1],[-4,1519],[-1139,75],[-685,-1618],[-6655,-28],[-7283,-3],[-2510,-3],[-26,1424],[-792,-33],[-543,-471],[-58,-199],[0,-724],[-2102,5],[-3305,-12],[-26,1512],[-3217,-1034],[10,-474],[-233,0],[-3838,-6]],[[516334,659100],[13305,-58],[35,-6605],[574,-1546],[1886,-1971],[818,-1539],[399,-1759],[-42,-1972],[1530,-1578],[2135,-123],[630,-1758],[754,-519],[839,-2134],[1486,-214],[-2450,-56],[-1235,-376],[-1696,699],[-356,-1882],[-1131,160],[-2219,-681],[-669,-1972],[-1236,-665],[-669,-1283],[74,-6758],[13296,10],[23,-11292],[-6391,-12],[7,-5945],[6408,11],[101,-25144]],[[542538,567585],[-2022,-5],[-4667,-18],[-6482,-11],[-181,-1],[-13302,-113]],[[304310,566873],[-90,-5704],[-202,-5054],[519,-5018],[59,-596],[40,-634],[-18,-5624],[10,-7429]],[[304628,536814],[8,-3928],[16,-5697],[19,-5463],[0,-130],[-1,-116],[-87,-5619],[127,-1],[673,10],[-12,-575],[-677,-6],[-130,-741],[111,-5],[732,-10],[-19,-1065],[-731,4],[-114,2],[-34,-1874],[-9,-659],[-8,-598],[-1,-50]],[[304491,510293],[2,-110],[-1673,-12],[-2354,-37],[892,-2049],[688,-914],[-3520,-43],[8,-2487],[-3433,115]],[[278195,566511],[-149,11284]],[[443688,469955],[676,-1695],[2140,-3890],[316,4],[143,0],[3118,16],[297,2],[-311,2644],[-20,3660],[-1,73],[1678,11],[7382,-1366],[1165,4506],[518,1912],[-720,-22],[745,2904],[2686,17],[6160,54],[-2,2808],[3264,64],[-78,5774],[3338,-16],[-18,2816],[9831,-9],[14,-1360],[1671,0],[0,-1455],[28206,195],[13,11412]],[[542464,487628],[9,-5708],[61,-5672],[-13,-1927],[-5076,56],[38,-3838],[4230,42],[39,-5715],[814,-2],[58,-11382],[8,-2871],[-1656,1],[0,-2135],[-1608,-726],[3275,39],[33,-5728],[-35,-5685],[-27,-3597],[-11,-1568],[0,-605],[0,-243],[-3880,-2936],[-91,-575],[1420,306],[223,-556],[996,201],[1295,-866],[-80,-15150],[-7,-3022]],[[542479,407766],[-22270,-159],[-800,-1844],[-1502,-809],[-1626,-1811],[-424,-996],[56,5473],[-9994,-76],[-1875,-2969],[-3592,-8363],[-11097,77],[156,11415],[-13303,-149],[10,-1188],[-831,-297],[-1260,669],[-1516,-2342],[-1674,-332],[164,-1361],[-919,-1112],[360,-2214],[-781,-546],[-882,-2604],[-1202,-15],[329,-1248],[-172,-1653],[-1794,-761],[-1879,3417],[-2376,2977],[-1607,1191],[-120,795],[-980,-167],[-302,-642],[-1661,531],[-3159,-850],[-2937,961],[-910,1658],[751,2749],[1917,2895],[-184,681],[-8311,90]],[[444282,408837],[111,398],[-51,11127],[24,5692],[-6695,-23],[-7,1215],[2275,-113],[-42,1120],[1102,-22],[21,2538],[-2522,1442],[-997,4254],[-1590,1692],[-7841,4967]],[[428070,443124],[4795,-12],[4755,-2920],[3475,-2219],[3809,22],[-1397,3137],[-190,2040],[1149,-7],[665,2787],[-732,1013],[-4186,1360],[-7082,4645],[-553,1640],[265,1],[55,1099],[819,1348],[312,992],[219,1323],[2251,1631],[3546,397],[75,13],[15,2905],[0,2820],[-17,1824],[178,108],[-7,891],[3121,-10],[278,3]],[[371081,510847],[-33,-3896],[2134,4233],[6166,29],[3,-645],[4982,30],[-5,654],[3896,29],[2685,25],[405,3],[6242,81],[2867,29],[733,9],[461,5]],[[401617,511433],[719,-839],[5226,-3260],[1602,-1168],[-733,-1001],[830,-2705],[-767,-2388],[2331,-11],[19,-2191],[-213,-1803],[317,-1134],[-1500,-6225],[-750,-3095],[-927,-3685],[489,-1382],[1205,-2],[39,-3223],[-1733,-12],[-4,-2686],[-1437,1384],[-1020,-4266],[5722,-20],[0,-96],[1,-5679],[-1204,-5],[1115,-1744],[-1224,-2975],[540,-1081],[809,15],[28,-5628],[-25,-4280]],[[411072,450248],[-97,0],[-1736,-114],[-3967,2],[-396,196],[-2297,72],[-2475,-95],[-2144,74],[-116,5],[-100,3],[-5185,196],[-3277,1147],[-1483,897],[-1724,1684],[-139,127],[-1335,1218]],[[384601,455660],[-8966,10076],[-5139,5782],[-3802,5601],[4519,8],[6,1610],[-42,4083],[-11,1424],[-22,1427],[-44,2807],[-1,179],[-2683,11],[-5,8572],[-735,855],[-740,1880],[-1480,4524],[-1439,2971]],[[364017,507470],[185,105],[63,-140],[6816,3412]],[[997852,590241],[313,-11410],[-384,-17408],[-19708,110],[-54,-5521],[-6634,57],[-54,-11356],[-13297,-23],[90,-34094],[-18546,98],[-13324,99],[-28,2685],[-13233,-89],[3,-2853],[-31,-6725],[-2695,-2845],[-272,-1306],[-755,-327],[-9585,-28],[3,-11401],[-13207,-74],[-20,-22901],[13276,134],[-23,-11440],[-39986,-211]],[[859701,453412],[-52850,66],[71,11489],[-26933,-43],[4,-7707],[-362,-15082],[-12914,107]],[[766717,442242],[-13266,-40],[-9,5660],[-6328,-154],[-1230,986],[-1297,331],[-1875,-929],[-846,694],[-1638,-292],[-96,5065],[-13305,-35],[9,11467],[-13301,-38],[-175,1994],[-2843,29],[-1423,1119],[3323,2637]],[[228776,258959],[22,11423],[26378,191],[-12,1661],[-2758,1134],[-3907,-732],[-1683,137],[-1478,985],[-2125,141],[125,894],[2185,823],[-106,1433],[-1541,858],[-438,1110],[-2103,1629],[-560,1266],[997,3],[29,4096],[668,1181],[-647,990],[71,5098],[13209,109]],[[255102,293389],[85,-11387],[13427,380],[-167,-12121],[1204,736],[788,-1920],[1975,-1222],[562,-1973],[1020,-789],[-146,-2422],[457,-1022],[-1186,484],[-749,-647],[1248,-914],[-937,-1524],[352,-2384],[1121,-2831],[1205,-155],[6444,23],[39,-5142],[13193,169],[-125,-11303],[-159,-11062],[-6480,-367],[-19779,-85],[118,-11400],[8200,191],[2257,-151],[2374,-699],[5859,-3555],[2235,-854],[1987,-306],[3280,9],[84,-5531],[-5957,-319],[-7089,-46],[-27,-5072],[207,-5708],[21,-547],[69,-1695],[117,-3942],[-2006,-74],[82,-7641],[1950,-227],[13,-1440],[17,-3362],[39,-4304],[191,-11271],[-6491,-95],[-132,-2],[-3893,-62],[-1431,579],[3,-597],[-3180,-85],[-26,1491],[-2011,892],[-8,1730],[1233,1522],[43,2647],[-1642,-6],[-9,2931],[-7174,-110],[-1525,-1256],[17,-9950],[-26312,-394],[22,-11356],[26306,380],[22,-5401],[-26356,-735]],[[201419,156804],[-5048,3613],[135,2463],[-1200,723],[734,1669],[-763,1575],[225,1252],[8082,50],[-1710,5299],[85,17104],[14074,-64],[-408,34221],[-135,11321],[6728,118],[6478,97],[13195,178],[-89,11361],[-13092,-259],[66,11434]],[[343628,635507],[-8,891],[1876,-196],[2703,-1596],[329,-992],[50,-2773],[105,-412]],[[372996,569440],[-241,-279],[-2068,-2078]],[[370687,567083],[-7139,-6711],[-440,452],[-21,21],[-649,669],[-1355,1398],[-3058,3162],[-434,803],[-179,772],[-775,15],[-8932,-75],[330,-5603],[-3817,99],[-5,486],[-51,4964],[-13275,-150],[-7,-577],[-1713,338],[-55,-1123],[-1521,154],[-21,1141],[-2381,-48],[-3315,-67],[18,-1203],[-1934,-697],[-2264,367],[1,1458],[-7804,-136],[-2731,-58],[-2850,-61]],[[515884,567437],[15,-5802],[-2,-78],[53,-5527],[120,0],[23,-10327],[1242,-1340],[896,-1590],[507,-1828],[60,-2034],[-543,-9],[3343,-33],[-2640,-1644],[-163,-608],[-1502,-1216],[-1229,-1236],[-88,-91]],[[370687,567083],[241,-304],[-276,-4894],[19,-2823],[8,-1094],[-1450,39],[68,-1730],[-1845,51],[3235,-3342],[-3,-2416],[-573,4],[78,-2371],[556,-7],[74,-2948],[-1645,-14],[19,-1988],[1670,-829],[20,-1417],[-1659,-15],[991,-1413],[-162,-2],[19,-2257],[824,3],[0,-581]],[[370896,536735],[-868,-17]],[[370028,536718],[-10205,-101],[-2166,-32],[2250,-2823],[-302,-1],[-1037,-52],[-57,91],[-1407,-13],[-2533,1788],[-3640,3801],[22,-2305],[-2386,-550],[-1294,-49],[-756,1000],[-2242,261],[19,-1278],[-4753,142],[-1372,-723],[-96,731],[-7020,-427],[-5672,-103],[-287,-95],[-125,-2748],[-446,-7],[-1655,-28],[-433,-6],[-1153,-25],[-825,745],[1899,1263],[-1763,955],[-2238,2548],[-653,-43],[73,-3124],[-2587,705],[-2130,-1168],[-13,414],[-1572,647],[-837,78],[-1423,613],[-1082,13],[-2976,-669],[-527,671]],[[370896,536735],[5698,47],[862,-105],[6643,24],[3265,45],[1906,12],[4708,20],[3310,11],[4470,83],[2151,1041],[144,30]],[[408594,509951],[-1419,-15],[-1385,11],[-1400,488],[-1925,951],[-598,50],[-250,-3]],[[371081,510847],[0,155],[-7,455],[-14,651],[-1160,-947],[-5473,103],[-23,2546],[6642,-27],[-39,5893],[-866,11],[10,1368],[851,31],[-3,1445],[-29,2857],[-5388,-78],[-26,2046],[3260,349],[2151,73],[-35,922],[-2,136],[-1663,-78],[-23,2269],[-1673,-11],[-3,2833],[2788,48],[-328,2821]],[[364017,507470],[-51,113],[-3332,-1887],[-177,2680],[-2582,-153],[-6678,-16],[-1490,-659],[-20,-6083],[975,-1],[-24,-872],[-6536,-1712],[-6985,-1571],[-1202,3376],[-1159,1220],[-4789,1785],[1068,2192],[366,4785],[-6224,-92],[-6934,-140],[-1191,-20],[-5423,-85],[-3557,-77],[209,122],[-3695,-73],[-95,-9]],[[384601,455660],[0,-1266],[-194,-201],[-1075,193],[-12081,-64],[106,-11373],[-6465,-57],[-60,5621],[-6749,-4],[-13,5748],[-6674,-59],[-6750,-33]],[[676158,874371],[26745,-131],[69,34093],[-13294,200],[14,11254],[106,11254],[79462,-16],[-145,-11364],[41,-2951],[6996,3],[-25,-1334],[1663,3325],[-1245,1313],[1809,1291],[396,-614],[3017,1041],[-706,675],[1255,471],[-214,1139],[698,931],[191,1771],[-2181,638],[-346,1549],[1696,-463],[195,976],[-860,282],[126,1253],[1156,-299],[729,1971],[1745,485],[-580,-746],[1292,-644],[1290,-2217],[727,-427],[245,-3129],[1485,773],[1284,-536],[-789,-1373],[1334,-1935],[-1133,-944],[1412,-961],[903,-1884],[1581,-813],[705,-1362],[-1905,-774],[-1014,523],[-1137,-2052],[2267,-195],[3767,-1310],[1336,-2305],[1040,-173],[964,-1050],[-1133,-433],[-2277,1902],[-934,-155],[685,-1468],[2391,-3418],[1695,-901],[258,-1926],[1390,295],[1107,-534],[332,671],[2456,705],[463,-2086],[1090,-1715],[946,-47],[15,2240],[4531,32],[43,-5070],[-130,-1577],[2121,-188],[3539,3796],[2080,-243],[969,1712],[1852,-315],[1229,1050],[2639,84],[-174,-838],[1834,-91],[1213,-791],[2260,368],[797,-548],[-593,-1053],[556,-1075],[-1788,-517],[17080,-36],[13412,149],[13013,-321],[-79,-45389]],[[875213,851849],[-26056,-93],[26,-7865],[-7887,-3302],[-5830,-39],[8,-2389],[-13262,-5598],[78,-8832],[-6120,-172],[-87,-1780],[-192,-205],[2142,-2893],[-1613,-1084],[-7372,-15],[-17901,-25],[-8602,-12611],[994,-3814],[42,-1138],[-566,-3681],[-657,-1695],[-74,-22749]],[[702721,710062],[9,5044],[-36,346],[9,5551],[12969,-113],[-202,51237],[-910,13],[-11853,-206],[-36,-11332],[-13514,184],[227,22654],[-13318,108],[215,11333],[6713,-108],[67,5922],[-20076,11],[27,5799],[-13486,120],[-14,1049],[-1382,-1055],[-11764,-18]],[[875213,851849],[40109,116],[9802,-49],[2787,-140],[26323,89],[45765,118],[-237,-33934],[-221,-41988],[83,-574],[-402,-14154]],[[308392,299704],[-13104,-51],[-12,5953],[-26746,-484],[-6,-11378],[-13422,-355]],[[228776,258959],[-13418,-115],[-64791,3],[-12983,-244],[116,-5283],[-13106,-9],[-105,16652],[-12766,-4],[-595,-1365],[-312,-4069],[90,-5936],[-13371,-240],[-382,28752],[-141,16623],[4956,24],[6673,61],[-60,11360],[-732,-4],[18103,6561],[6097,2505],[15947,7677],[-153,6555],[13104,-45],[-197,11390],[-13175,43],[-13276,-49],[-6411,-37],[-6779,-31],[-117,5797],[-116,5645],[3423,11],[15,5644],[2901,-32],[-7,5838],[6583,14],[9,11522]],[[524322,509379],[-934,118],[-782,-486],[14,1210],[0,89],[-6633,-25]],[[727590,362670],[9040,291],[368,1261],[1993,3320],[458,2031],[797,1320],[-1,3036],[26522,103],[-8,22731],[13137,-103],[-62,22761],[-13034,177],[-26,5821],[-24,5561],[-33,11262]],[[859701,453412],[32,-6573],[230,-4879],[408,-68568],[39283,497],[230,-11289],[6538,-159],[-1618,-2216],[-1785,-561],[-1374,-1551],[-874,-2639],[-1169,-894],[796,-1312],[-1798,-2154],[1817,29],[13213,-294],[356,-11442],[848,-22535],[174,-2128],[-802,-875],[-2395,-20],[-1103,-364],[-1807,-2514],[-2810,-2238],[-2358,-3095],[-14866,20],[-993,22497],[-13504,-80],[-775,11228],[-6819,-77],[-2027,-675],[-1026,-1263],[-1039,572],[-1749,-1160],[790,-19881],[-13067,-125],[-276,5656],[-5276,94],[-113,-820],[-1266,-136],[-433,-1192],[-833,166],[280,-1438],[-1177,124],[-429,850],[-1542,-908],[632,-707],[-713,-916],[-1125,231],[-511,-704],[1262,-500],[-1633,-1609],[178,-4737],[595,-1403],[-539,-1041],[104,-2129],[-5791,8],[-546,-229],[-743,244],[-32599,266],[-565,17621],[-429,280],[-1252,615],[-2511,923],[-2374,-1],[-788,665],[-2740,330],[-3371,-262],[-1059,561],[-3451,-1742],[-128,-963],[-1172,34],[334,-885],[-2236,-1811],[-114,-3323],[-1408,-1157],[-1415,-1721],[-1278,-733],[-935,272],[-418,12073],[-3427,2139],[-9053,-21],[-929,408],[-1218,-379],[-6659,224],[537,2143],[662,483],[-704,1114],[177,1698],[-668,323],[-1771,5493],[-4095,77],[-13209,-323],[-423,11282],[2904,95],[-1057,2696],[-1312,2039],[-723,-73],[-296,6612]],[[542647,732836],[13402,78],[197,-13688],[253,-3247],[-57,-11480],[39999,-30]],[[596441,704469],[7,-11399],[13202,-351],[100,-5113],[-148,-6020],[368,-3],[4893,-29],[2290,-398],[2425,391],[3355,-11]],[[516334,659100],[180,12006],[5091,-374],[1425,342],[650,-700],[4442,289],[1559,-1182],[35,23704],[13284,-76],[-124,22864],[-229,16863]],[[212126,628003],[762,2552],[4147,3244],[8344,87],[-313,13557],[-1349,-15],[1,5563],[2123,26],[923,824],[1277,-178],[776,1899],[1446,788],[1048,-214],[1214,-1220],[2976,465],[1622,588],[30,2532],[1568,211],[-1581,1583],[-72,9817],[13228,-166],[141,-6554],[868,-221],[1758,-2047],[1423,-2223],[17990,-120],[-169,3041]],[[272307,661822],[2137,-803],[2476,15],[2695,-8],[1064,-505],[310,-862],[-357,-2582],[-718,-1407],[-51,-1952],[485,-2023],[978,-2250],[1411,-1562],[2618,-572],[2551,67],[8975,-99]],[[296881,647279],[696,-9]],[[478687,239394],[257,-22402],[-12820,85],[95,-45626],[-16,-5799],[254,-5534],[-164,-3572],[289,-7937]],[[494543,732513],[48104,323]],[[296881,647279],[-11,5552],[3321,46],[0,2865],[-3351,0],[-80,2988],[-6558,121],[-41,19717],[737,-455],[9336,-7486],[328,-528],[2836,-5],[6854,-13],[-6,5179],[6628,49],[-11,6152],[6624,-3],[6698,16],[6727,-7],[6680,-26],[-32,14061],[13302,6],[-5,1071],[2089,-3785],[17339,-59],[597,193],[598,-132],[6003,-15],[7,2659],[2624,2099],[1782,379],[587,517],[1552,2564],[205,1888],[1564,991],[4511,-148],[13296,113],[131,-11375],[13219,54],[-120,11368],[26596,158],[-239,11567],[13308,29],[-25,11413]],[[411072,450248],[5886,-10],[112,-506],[2313,-122],[2254,-772],[2707,-1701],[7,-1398],[93,-286],[3289,-2112],[337,-217]],[[444282,408837],[-85,-11352],[-6587,-94],[62,11476],[-5466,-105],[-481,-1184],[270,-1309],[-772,-2835],[-797,-2702],[499,-1454],[145,-1900],[-6668,-47],[-5905,278]],[[636316,795258],[-251,-11450],[3096,-30],[-1626,-620],[1830,-1531],[-889,-473],[277,-1145],[-1299,-74],[95,-1283],[-1792,-1517],[1079,-1073],[-1097,-650],[-569,1122],[-1623,-1108],[1498,-370],[-788,-1906],[-1702,793],[791,-1571],[2001,-829],[-533,-1243],[610,-709],[1201,-33],[-1133,-1932],[999,-879],[-1483,-1280],[-1385,-275],[-311,-957],[1707,173],[81,-740],[-2901,-1905],[78,-610],[-9092,-5],[-529,-6794],[128,-2977],[70,-947],[13,-167],[200,-12100],[87,-22506],[-26818,109],[105,-11297]],[[456589,510439],[-298,-192],[-1503,6],[-2298,-1498],[-108,1505],[-2377,6],[-2537,-19],[-3523,-6],[-877,-17],[-21,-364],[-1980,-6],[41,355],[-295,-2],[-1202,-4],[-248,-416],[-2669,-223]],[[436694,509564],[-2,619]],[[451608,503611],[2352,-2161],[2642,53],[149,-2779],[6608,11],[171,-11998],[978,1246],[888,3751],[2630,1575],[462,-1869],[1938,-528],[4359,1178],[782,543],[309,3128],[-4852,205],[2996,6803],[2073,1564],[-1,222]],[[443688,469955],[236,1],[-1430,5696],[-3273,15131],[1956,654],[1499,1348],[120,171],[3012,5547],[-5155,-25],[-700,0],[-1113,-4],[-1473,607],[-319,3677],[-390,18],[3,1409],[33,5379]],[[210465,688563],[1289,-474],[1800,-1782],[2589,-1330],[2179,-159],[777,-353],[1369,-1035],[1973,-2535],[1260,-853],[5492,-2152],[2239,-723],[3302,-118],[1217,699],[4124,1251],[2281,170],[2748,-107],[1448,-307],[1951,-1614],[2506,-3899],[4033,-2040],[2564,-3694],[2733,-1415],[4122,-3292],[3467,-1472],[2329,800],[2050,-307]],[[119655,576074],[-124,11738],[-21089,-244],[-864,-252],[-4557,-6822],[-1111,-802],[-6534,-3882],[-2358,265],[-9867,-134],[-6021,-82]],[[67130,575859],[-297,34380],[-114,2],[268,6762],[-156,4617],[12558,110],[4483,55],[28623,326],[-46,6018],[6690,92],[-81,5455],[-47,13394],[953,322],[11470,18],[-820,1084],[110,10375],[256,22851],[12931,-101],[18,6047],[0,16728],[-107,7682]],[[133301,429613],[-39684,13],[38,-11288],[-13242,-20],[-131,22752],[-13079,35],[-69,10956],[-193,7872],[-4113,-6884],[-6254,-3961],[-2644,663],[-42,588],[-4658,1139],[-2025,712],[-19753,-45],[-92,11142],[-13161,65],[-290,11179],[13451,120],[-117,22403],[-16,5905],[-353,4613],[-13218,80],[-13656,64],[363,1692],[-14,4041],[13369,-20],[98,5576],[-13457,6],[13,11355],[66,34083],[13777,-364],[26526,63],[-193,11386],[26582,325]],[[542417,396376],[12907,0],[-68,11447],[23115,87],[3451,6],[17,1373],[1210,-28],[-39,1497],[2231,84],[-39,2771],[3346,56],[26,-2925],[6605,83],[71,11591],[-643,836],[651,622],[-58,6727],[13295,53],[29,5752],[6573,13],[65,2861],[3340,-14],[-13,-743],[3323,-57],[17,3642],[1661,-110],[700,65],[601,133],[2746,652],[207,25],[3316,-713],[3251,47]],[[727590,362670],[-13224,77],[-667,10941],[-6146,-37],[-6908,-42],[-1076,40],[-731,25],[-37990,-34],[-19422,90],[-446,-1027],[-606,-428],[-973,351],[-1151,29],[-405,-350],[-307,-583],[-514,-1736],[-165,-1651],[-2158,-15],[204,-5009],[-9663,101],[-3375,57],[-13151,65],[-13286,-351],[-174,5223],[-165,5163],[-19776,-90],[-470,1],[-19411,16],[-13179,28],[162,22852]],[[542417,396376],[62,11390]]],"bbox":[-97.900295,36.998682,-96.522782,38.275336],"transform":{"scale":[0.0000013775143775143708,0.0000012766552766552774],"translate":[-97.900295,36.998682]}}
