{"type":"Topology","objects":{"foo":{"type":"GeometryCollection","geometries":[{"type":"MultiPolygon","arcs":[[[0,1,2,3]]],"properties":{"postal_code":"58801","realtor_list_price":439465.686,"realtor_list_price_yoy":0.123,"realtor_list_price_base":0.5185,"realtor_active_listings":82.667,"realtor_active_listings_yoy":0.2917,"realtor_active_listings_base":-0.4873,"realtor_new_listings":34,"realtor_new_listings_yoy":-0.0377,"realtor_new_listings_base":-0.3462,"realtor_days_on_market":47.706,"realtor_days_on_market_yoy":0.0805,"realtor_days_on_market_base":-0.1795,"zhvi":374118.496,"zhvi_yoy":0.0569,"zhvi_base":0.3426,"zori":1258.786,"zori_yoy":-0.0473,"zori_base":"NA"}},{"type":"MultiPolygon","arcs":[[[4,5,6,7,8]]],"properties":{"postal_code":"58849","realtor_list_price":"NA","realtor_list_price_yoy":"NA","realtor_list_price_base":"NA","realtor_active_listings":1.333,"realtor_active_listings_yoy":-0.4286,"realtor_active_listings_base":-0.8252,"realtor_new_listings":0,"realtor_new_listings_yoy":-1,"realtor_new_listings_base":-1,"realtor_days_on_market":"NA","realtor_days_on_market_yoy":"NA","realtor_days_on_market_base":"NA","zhvi":273150.051,"zhvi_yoy":0.1099,"zhvi_base":"NA","zori":"NA","zori_yoy":"NA","zori_base":"NA"}},{"type":"MultiPolygon","arcs":[[[9,10,-6]]],"properties":{"postal_code":"58852","realtor_list_price":197500,"realtor_list_price_yoy":"NA","realtor_list_price_base":"NA","realtor_active_listings":2,"realtor_active_listings_yoy":0,"realtor_active_listings_base":-0.8622,"realtor_new_listings":1.333,"realtor_new_listings_yoy":"Inf","realtor_new_listings_base":-0.2373,"realtor_days_on_market":80,"realtor_days_on_market_yoy":"NA","realtor_days_on_market_base":"NA","zhvi":260551.59,"zhvi_yoy":0.0403,"zhvi_base":0.0696,"zori":"NA","zori_yoy":"NA","zori_base":"NA"}},{"type":"MultiPolygon","arcs":[[[11,-9,12,-3]]],"properties":{"postal_code":"58843","realtor_list_price":"NA","realtor_list_price_yoy":"NA","realtor_list_price_base":"NA","realtor_active_listings":1,"realtor_active_listings_yoy":-0.5,"realtor_active_listings_base":-0.8301,"realtor_new_listings":0,"realtor_new_listings_yoy":"NaN","realtor_new_listings_base":"NA","realtor_days_on_market":"NA","realtor_days_on_market_yoy":"NA","realtor_days_on_market_base":"NA","zhvi":348168.736,"zhvi_yoy":0.0559,"zhvi_base":"NA","zori":"NA","zori_yoy":"NA","zori_base":"NA"}},{"type":"MultiPolygon","arcs":[[[-11,13,-7]]],"properties":{"postal_code":"58794","realtor_list_price":"NA","realtor_list_price_yoy":"NA","realtor_list_price_base":"NA","realtor_active_listings":1,"realtor_active_listings_yoy":"NA","realtor_active_listings_base":"NA","realtor_new_listings":0.667,"realtor_new_listings_yoy":"NA","realtor_new_listings_base":"NA","realtor_days_on_market":"NA","realtor_days_on_market_yoy":"NA","realtor_days_on_market_base":"NA","zhvi":"NA","zhvi_yoy":"NA","zhvi_base":"NA","zori":"NA","zori_yoy":"NA","zori_base":"NA"}},{"type":"MultiPolygon","arcs":[[[-1,14]]],"properties":{"postal_code":"58845","realtor_list_price":"NA","realtor_list_price_yoy":"NA","realtor_list_price_base":"NA","realtor_active_listings":1.333,"realtor_active_listings_yoy":-0.5556,"realtor_active_listings_base":-0.7466,"realtor_new_listings":0,"realtor_new_listings_yoy":"NaN","realtor_new_listings_base":-1,"realtor_days_on_market":"NA","realtor_days_on_market_yoy":"NA","realtor_days_on_market_base":"NA","zhvi":"NA","zhvi_yoy":"NA","zhvi_base":"NA","zori":"NA","zori_yoy":"NA","zori_base":"NA"}}]}},"arcs":[[[832,506173],[7229,-302],[16216,35],[-109,3805],[16244,-10],[-11,-3811],[32250,-57],[-46,-29892],[16093,-43],[15958,-21],[-185,9823],[188,5150],[32234,-34],[4,14989],[15771,-51],[378,14954]],[[153046,520708],[32278,30],[-44,-29943],[36623,-2],[-140,1284],[-2865,2063],[266,2140],[1570,757],[941,-1835],[738,423],[4582,812],[3791,1566],[2901,185],[1334,-2304],[1694,-127],[813,-981],[-1470,-2290],[-144,-2190],[2871,-368],[-1275,-1374],[2617,-735],[4421,-135],[2137,-1416],[1399,-212],[-127,-1346],[-2416,-945],[434,-2763],[1456,786],[2207,100],[6,-6097],[16120,4],[28,14986],[16292,-79],[15805,107],[-8,15784],[1850,-896],[14083,-10],[-1,1739],[-1417,289],[-1206,1916],[-1636,-115],[-2455,523],[-1816,-563],[-3606,1990],[502,1418],[-667,1064],[500,1914],[-1537,1325],[-225,3332],[-1034,-87],[-689,3559],[-1374,-165],[-1323,1347],[-1348,2621],[-865,0],[230,2078],[993,755],[-457,2196],[942,708],[-533,2731],[-944,-575],[-637,1267],[661,1173],[-1503,1453],[-52,1523],[1196,886],[-1478,559],[-180,2276],[-1376,559],[-868,2394],[-2497,1212],[-618,1642],[27571,19],[-263,-29949],[35039,-48],[13587,96],[16134,-136],[-39,-29915],[80499,-189]],[[459024,490509],[-21,-12478],[-1364,-1692],[586,-3476],[1364,-685],[308,-2874],[-967,-1742],[19,-6942],[-2238,521],[-1182,-525],[-9202,-90],[-379,-6827],[-2972,-9],[-191,-8953],[-475,-559],[573,-2011],[-60,-11386],[-13927,-146],[69,-31190],[6,-251],[-3985,-5],[3,-14707],[-13299,-3],[-1956,498],[-1757,-476],[-47329,-85],[48,-44878],[32,-14928],[16013,-300],[8,-14595],[14915,151],[2333,-57],[14884,6543],[16082,7058],[-3,-13715],[-17,-10317],[-4477,-4588],[-5272,-5716],[-580,-1729],[-2660,-11736],[-1705,-5885],[-261,-2979],[-900,-3445],[-4087,-5743],[-6996,-7632],[23791,208],[1922,154],[1445,-175],[3412,12],[9562,-100],[4763,-221],[45786,170],[16060,-13],[-23,-14961],[-11996,21],[-20,-10765],[-3662,-442],[-342,-18689],[-32040,-6],[-23,-44831],[-15935,-7],[-5,-37195],[-12259,-130],[-1653,-323],[-1323,-1096],[-543,-1310],[-439,-62055]],[[424483,58171],[-7196,-5705],[-1705,-724],[-6743,-826],[-1909,384],[-1574,339],[-5409,4650],[-1111,1240],[-4891,8163],[-1482,3513],[-383,1351],[-1173,2679],[-1334,1963],[-2223,4753],[-1852,1860],[-2891,724],[-2890,-827],[-8447,-931],[-7336,103],[-6151,724],[-2964,826],[-4817,2893],[-4594,3100],[-815,930],[-1112,1860],[-666,4753],[0,1964],[592,3513],[1779,3823],[889,1240],[3631,3720],[2446,2170],[10819,7956],[3186,3203],[1926,2377],[2224,4236],[963,4030],[-1037,1964],[-963,103],[-6225,-620],[-2594,103],[-4742,620],[-2668,827],[-5631,2170],[-3928,1756],[-3335,2274],[-2964,3099],[-4224,4960],[-4001,4030],[-2520,3100],[-741,1860],[371,2997],[1260,1343],[2371,1653],[8078,3617],[3482,2583],[1453,1580],[54,2183],[-1012,4530],[-792,1490],[-1583,1669],[-2218,9],[-3268,285],[-881,-232],[-259,-67],[-1322,-660],[-2174,-1447],[-54,-52],[-1806,-1766],[-3182,-5559],[-1556,-2170],[-6076,-6200],[-3335,-2644],[-3409,-2109],[-2741,-1136],[-4595,-105],[-4816,1034],[-2082,1139],[-8367,6300],[-6524,2502],[-4294,805],[-1779,0],[-4001,-723],[-3187,-1034],[-6076,-2376],[-5187,-2790],[-6151,-4030],[-2283,-1217],[-696,-353],[-1687,-1259],[-1438,1509],[-3270,-2462],[-1373,-1532],[-1359,-2599],[-5115,-4692],[-2776,-1727],[-3830,-3108],[-26556,-11483],[-5159,-837],[-4559,-965],[-4827,-1624],[-557,1015],[-1969,-1267],[-13141,-4627],[-2827,-1297],[-2127,2340],[-307,3286],[-2658,2360],[-418,23],[-6,-4455],[-7032,-1968],[-1130,-1059],[-4231,0],[363,-7436],[-11863,3],[22,-10926],[2195,-34],[1032,24],[1175,-3740],[3686,13],[8,-1715],[437,-2101],[1352,-3146],[799,-7166],[-773,-1094],[18059,-2],[4002,-1253],[3,-2724],[3071,-751],[3815,-1962],[2497,-1973],[4408,-6376],[2490,64],[4097,-49],[799,-6132],[-229,-5312],[-828,-3270],[-3115,-10468],[-385,-832],[-2505,-5112],[-2549,-3118],[-5013,-5510],[-4618,-4351],[-3015,-1917],[-2019,-890],[-3544,1167],[68,1286],[2017,5715],[403,2952],[25,3140],[-783,4439],[-2272,3031],[-19818,15552],[-1536,706],[-1028,-714],[-2855,-4134],[-558,-2484],[2508,-4456],[2624,-2699],[1643,-4053],[-100,-1417],[-429,-1346],[-2671,-3757],[-2169,-1819],[-1335,-1819],[-1333,-6801],[-2429,-8897],[-1230,-2010],[-3312,-3951],[-4372,-2997],[-2777,-1495],[-2165,-670],[-5728,-728],[-6077,-2170],[-11712,-3380],[-2589,1726],[-4372,5166],[-2965,4133],[-2075,3720],[-2371,2997],[-2594,2686],[-4742,3100],[-4001,3100],[-6448,3100],[-3112,827],[-4298,-104],[-6209,-409],[-1771,-369],[-1127,-653],[-882,-1604],[637,-3919],[-393,-2792],[-787,-1738],[-1870,-2516],[-1548,-1162],[-5455,-3141],[-4581,-640],[-2729,1616],[-1727,2854],[-567,1927],[-1293,6501],[-637,2154],[-1615,3311],[-3321,4475],[-4544,2756],[-2191,253],[-3756,2098],[-3330,690],[-2866,1326],[0,25],[-161,29636],[-487,89290],[-123,22562],[0,4],[-24,4450],[-17,3035],[0,3],[-136,24906],[-73,12254],[55,16764],[-101,1488],[-9,4374],[-89,44710],[-27,3276],[62,1646],[-160,9215],[-64,837],[-68,883],[-16,6514],[-55,22517],[-37,14977],[-37,14984],[0,1],[-18,7444],[0,2],[-54,21938],[-9,10687],[-19,21204],[-1,1033],[-210,640],[-74,5857],[-5,392],[-89,7082],[-22,1678],[-1,139],[-42,1284],[-122,21060],[129,10341],[-96,25572]],[[539391,520384],[52,29888],[1290,-21],[1287,-1523],[4672,967],[1238,642],[7683,-30],[-16,10909],[-368,2074],[367,1915],[-28,15033],[14282,-92],[1922,56],[24103,27],[1246,-297],[1183,280],[5422,9],[-25,14964],[48458,92],[-17,-14932],[16252,-91],[48211,-10]],[[716605,580244],[-90,-44877],[16100,-53],[-27,-14999],[46,-44938],[-16116,-13],[-16087,50],[-7,-14999],[15545,-7],[584,0],[8,-11265],[43,-2457],[-3872,-3033],[-7183,-6622],[-5086,-2159],[14,-4377],[841,-44],[10631,-39],[45,-30921],[32087,-64],[15,-15384],[-16051,23],[-25,-14971],[-15993,56],[45,-29884],[15,-29913],[4707,100],[3841,-1138],[7488,-1639],[63,-1639],[5075,-388],[850,-3708],[6493,415],[1447,-592],[143,-1265],[-1198,1008],[-703,-3305],[882,-758],[1862,1581],[1107,-3431],[-183,-3515],[587,-1540],[-2725,-1519],[-786,-1058],[1344,-986],[1978,1471],[1013,-1880],[1774,-1621],[278,-1506],[-811,-2328],[-861,-632],[-2228,1756],[-1393,-1386],[-2407,-1343],[616,-2616],[5990,-2613],[1467,-1734],[-665,-3244],[903,-7640],[92,-11121],[11710,-52],[12768,-1450],[6754,-2008],[2980,-404],[30039,-118],[2907,-545],[1031,-3034],[3670,-113],[500,-1414],[1857,-1256],[1145,-2326],[633,-239],[4894,-5400],[847,-2990],[1048,-762],[4509,571],[3469,-325],[1054,-677],[246,-6058],[838,-1179],[661,-299],[11917,-394],[265,-4302],[4423,-937],[4469,-1461],[1053,-1102],[3214,-2295],[1352,-383],[576,-1283],[3109,-868],[1364,163],[1131,1211],[1467,-2143],[3763,45],[-1931,2012],[-1016,2197],[-564,2956],[2035,1709],[-373,2016],[-1869,2560],[-244,2451],[-1353,536],[-341,1348],[-1302,1243],[-293,3007],[-864,2236],[-3,3508],[-396,2056],[253,8549],[596,4883],[31383,256],[529,-43]],[[904037,249193],[-37,-26717],[57,-47777],[-234,-1401]],[[903823,173298],[-2528,1401],[-1314,1447],[-4742,3513],[-5706,2893],[-5335,2170],[-3335,827],[-4001,1447],[-1408,103],[-5780,-1033],[-2031,-1071],[-4948,-3632],[-6310,-5377],[-3307,-2181],[-2031,-906],[-5324,-1537],[-4928,-186],[-4708,162],[-3046,719],[-3457,1205],[-2075,1438],[-338,1054],[-3319,4906],[-1526,1775],[-6647,3574],[-4858,1347],[-2601,323],[-7478,559],[-3925,-115],[-8290,-1208],[-2629,-147],[-4588,-850],[-3584,-1370],[-3805,-2326],[-2228,-450],[-1574,98],[-13741,3647],[-5367,110],[-3697,-446],[-3304,-34],[-12288,-2151],[-6186,-652],[-1740,-481],[-2436,-1609],[-4581,-3766],[-3046,-1787],[-1614,-389],[-1208,3],[-2482,1805],[-714,1396],[115,4250],[1261,6331],[-58,3017],[-522,2306],[-955,1359],[-2557,1359],[-3562,751],[-4061,-1],[-6978,-1292],[-3621,-1690],[-3020,-746],[-4740,10],[-4997,-1585],[-4988,-3025],[-8726,-2316],[-10978,-1306],[-9572,-777],[-5131,221],[-4374,947],[-3127,-102],[-3983,-2052],[-4838,-4789],[-2163,-3099]],[[616140,175287],[58,9263],[-4121,-3213],[-657,-850],[-1212,-3802],[-2301,-543],[-1214,1038],[-1036,-1039],[-1570,1864],[2,-2054],[2584,-1818],[-379,-1038],[-5887,-6709],[-2222,-4604],[-1618,-1134],[-2448,-5786],[-984,-1276],[-2005,1143],[-2505,745],[-2452,72],[1060,-1275],[1416,-190],[1616,-1135],[-1233,650],[-1026,47],[-1033,510],[-2351,-708],[-370,-169],[-184,-700],[-1200,1795],[399,2952],[1631,1160],[1762,-91],[2192,-1502],[1465,-379],[1367,449],[2458,4021],[1925,1751],[856,-1082],[1093,1569],[-164,1860],[2741,4984],[2203,1975],[1166,2293],[-1938,581],[-1669,7004],[-5638,8916],[-3382,6401],[-9043,9663],[-895,1287],[-1113,4302],[12,14785],[-322,4078],[-835,3699],[-27320,32],[383,576],[42,6514],[-54,346],[-10,7387],[-9,14958],[19946,-49],[-55,14967],[-3869,7],[-35,29892],[-32154,57],[77,2632],[-65,27275],[-20,14957],[-15013,31],[17,11475],[47038,20826],[58,12204],[-16049,255],[-19,14985],[-23203,45],[-1200,-312],[-3630,290],[-2903,-1460],[70,17560],[1035,79],[1048,1779],[70,13123],[32249,-31],[43,74889],[-16216,48]],[[716605,580244],[-87,29989],[4463,-239],[44034,102],[-9,-7479],[11391,-6],[3199,-260],[1012,-816],[51,-21387],[16156,209],[-58,29767],[-24,14964],[32343,-7],[-18,-14957],[32316,-25],[7757,18],[7978,-9],[16165,6],[16159,25],[48608,-58],[-263,-89653],[57,-33269]],[[957835,487159],[-1887,1922],[122,1266],[-1932,-1409],[-1020,-2617],[-1002,-367],[-1288,3102],[-1069,1329],[-3259,305],[-1503,1451],[-3265,-1799],[-8004,10],[23,-18527],[1722,-5780],[-448,-4079],[-9354,-170],[1676,-2795],[899,-3283],[168,-2937],[1412,-1027],[23,-1962],[-2037,-857],[-554,-2148],[5929,-1377],[669,-1061],[-287,-10641],[-1183,-1119],[-1200,-1947],[-24763,202],[-2367,-279],[-87,-46506],[88,-532],[-22,-29379],[-5,-14871],[3,-162],[4,-89922]],[[459024,490509],[7499,28],[2725,2134],[2650,32],[3189,-1488],[159,14552],[-407,14141],[286,475],[64266,1]],[[616140,175287],[-7818,-9265],[-7410,-7957],[-3039,-4030],[-8740,-13356],[-576,-1973],[882,-2170],[1691,-1297],[5632,-2076],[5261,-1343],[3853,-2687],[2520,-3100],[889,-2892],[-148,-2687],[-1112,-4546],[-1037,-1447],[-2890,-3513],[-2890,-2583],[-1630,-620],[-4965,-103],[-7040,1549],[-3630,1034],[-2594,0],[-3039,-517],[-4446,-1550],[-2593,-2686],[-519,-2170],[-519,-4443],[-963,-3617],[-1186,-2790],[-1556,-2376],[-3260,-2894],[-2371,-930],[-4002,207],[-6595,2067],[-2668,516],[-2816,-103],[-2445,-517],[-4817,-1652],[-2445,-1343],[-5039,-1860],[-6299,-2997],[-3557,-2066],[-1852,-620],[-5854,-2687],[-8299,-2067],[-3854,-1239],[-3631,-517],[-1408,103],[-4150,1240],[-8151,1550],[-6002,2790],[-4594,2583],[-3335,1550],[-3557,1137],[-6224,310],[-2075,-414],[-2075,-1033],[-2297,-1756],[-2668,-2584],[-2223,-1652],[-4224,-2170],[-2594,-930],[-2371,-206],[-3927,-1550],[-2594,-2067],[-7772,-10104]],[[957835,487159],[83,-11330],[413,-893],[182,-599],[32,-919],[-666,-2287],[-31,-298],[57,-2622],[4042,-1064],[2070,-1324],[785,-1100],[3060,-2167],[22165,398],[33,-31552],[-525,-852],[-26856,0],[19762,-19552],[4994,-2655],[2860,-2691],[3730,-4649],[1347,-947],[4491,-1045],[44,-60220],[-58,-10902],[-8003,136],[-2332,-470],[-1581,2013],[-971,247],[121,-6222],[4468,34],[70,-3795],[-8096,-104],[-148,-7454],[-16055,-102],[-126,-3277],[-4652,-159],[-563,287],[1008,-1691],[-1302,-1232],[981,-852],[76,-1725],[2271,-73],[794,-899],[-2087,-1375],[1421,-1846],[-1932,-232],[-1085,-1374],[-72,-1826],[-1876,-677],[-1259,2732],[-1416,288],[-3768,-2321],[-50,-1998],[-2050,-1929],[-85,-1988],[74,-10420],[3811,-120],[106,-4331],[15844,-48],[-11,-4118],[-4034,2],[-6,-6988],[32582,208],[-16,-15307],[11,-40897],[-184,-32140],[187,-4347],[41,-11870],[44,0],[-2,-1620],[-6507,207],[-2281,1381],[-20177,-75],[161,6485],[-1648,3387],[-1866,2488],[-1863,1622],[-2702,1193],[-1482,1228],[-5430,2748],[-3352,1133],[-2941,405],[-2382,-848],[-5817,-4665],[-5878,-3358],[-3893,-1711],[-3154,-1016],[-6240,-400],[-2416,201],[-13062,3603],[-3244,1281]],[[832,506173],[-1,93],[-75,1393],[-76,5454],[26,426],[-49,7342],[-49,7274],[-121,27955],[-370,6080],[281,18421],[120,8329],[-269,5048],[169,714],[-99,8394],[-1,129],[-7,7597],[-14,16203],[-85,21012],[-36,8784],[-142,6209],[-34,1488],[209,21838],[38,849],[217,4787],[-25,1417],[28,7125],[0,76],[-5,391],[-171,14743],[-50,1323],[16,7790],[3,1453],[9,4450],[-25,1063],[-24,6138],[-29,7245],[-179,45306],[705,-177],[74044,-126],[-18,15031],[16272,-26],[-82,42737],[-451,2177],[-23779,45],[11,2856],[978,1799],[-866,1290],[465,3343],[-39,4275],[-570,1400],[-68,15064],[1124,30],[8860,-51],[-1460,14356],[-390,30577],[16310,30],[19,14478],[2248,447],[-2227,3845],[465,1950],[-505,1406],[-27,22786],[-36,14870],[397,15075],[41773,-51],[1942,-420],[-516,-4911],[679,-1727],[3420,-2306],[1171,-1199],[44,-19383],[32414,60],[-115,-15023],[-16046,56],[-164,-15066],[-16141,-1],[-129,-14965],[40,-7980],[99,-7040],[8673,-22],[1130,-3290],[2067,-2190],[3057,55],[697,-860],[1357,-2852],[-646,-692],[-227,-20057],[16317,-14],[99,-52426],[-13119,6],[-3109,-2055],[-202,-3658],[-481,-1707],[32927,-57],[-305,-3389],[109,-11575],[430,-5420],[-270,-3791],[166,-5802],[-2735,3],[-102,-45185],[-16216,72],[-38,-29982],[-32384,60],[-18,-15056],[-16179,56],[-1,-14109],[2026,229],[2912,-914],[11198,-76],[37,-15253],[9338,-991],[6855,478],[711,-2449],[-727,-2854],[-36,-23872],[32347,-22],[-67,-29926],[-16128,9],[-94,-1428],[9,-50873],[-16119,6],[-76,-37462]]],"bbox":[-104.048212,47.95595,-102.698685,48.923726],"transform":{"scale":[0.0000013495283495283586,9.677769677769684e-7],"translate":[-104.048212,47.95595]}}
