{"type":"Topology","objects":{"foo":{"type":"GeometryCollection","geometries":[{"type":"MultiPolygon","arcs":[[[0]]],"properties":{"postal_code":"89421","realtor_list_price":"NA","realtor_list_price_yoy":"NA","realtor_list_price_base":"NA","realtor_active_listings":1,"realtor_active_listings_yoy":-0.25,"realtor_active_listings_base":"NA","realtor_new_listings":0,"realtor_new_listings_yoy":"NaN","realtor_new_listings_base":"NA","realtor_days_on_market":"NA","realtor_days_on_market_yoy":"NA","realtor_days_on_market_base":"NA","zhvi":"NA","zhvi_yoy":"NA","zhvi_base":"NA","zori":"NA","zori_yoy":"NA","zori_base":"NA"}},{"type":"MultiPolygon","arcs":[[[1]],[[2,3,4,5,6,7]]],"properties":{"postal_code":"89445","realtor_list_price":381000,"realtor_list_price_yoy":-0.1867,"realtor_list_price_base":0.6487,"realtor_active_listings":48.667,"realtor_active_listings_yoy":-0.1043,"realtor_active_listings_base":0.6936,"realtor_new_listings":13.333,"realtor_new_listings_yoy":-0.2308,"realtor_new_listings_base":0.6262,"realtor_days_on_market":156.15,"realtor_days_on_market_yoy":1.994,"realtor_days_on_market_base":0.9683,"zhvi":357295.128,"zhvi_yoy":0.0427,"zhvi_base":0.7207,"zori":"NA","zori_yoy":"NA","zori_base":"NA"}},{"type":"MultiPolygon","arcs":[[[-8,8]]],"properties":{"postal_code":"89404","realtor_list_price":"NA","realtor_list_price_yoy":"NA","realtor_list_price_base":"NA","realtor_active_listings":"NA","realtor_active_listings_yoy":"NA","realtor_active_listings_base":"NA","realtor_new_listings":"NA","realtor_new_listings_yoy":"NA","realtor_new_listings_base":"NA","realtor_days_on_market":"NA","realtor_days_on_market_yoy":"NA","realtor_days_on_market_base":"NA","zhvi":"NA","zhvi_yoy":"NA","zhvi_base":"NA","zori":"NA","zori_yoy":"NA","zori_base":"NA"}},{"type":"MultiPolygon","arcs":[[[-6,9]]],"properties":{"postal_code":"89414","realtor_list_price":"NA","realtor_list_price_yoy":"NA","realtor_list_price_base":"NA","realtor_active_listings":1.667,"realtor_active_listings_yoy":0.25,"realtor_active_listings_base":0.646,"realtor_new_listings":0,"realtor_new_listings_yoy":"NaN","realtor_new_listings_base":"NA","realtor_days_on_market":"NA","realtor_days_on_market_yoy":"NA","realtor_days_on_market_base":"NA","zhvi":"NA","zhvi_yoy":"NA","zhvi_base":"NA","zori":"NA","zori_yoy":"NA","zori_base":"NA"}},{"type":"MultiPolygon","arcs":[[[-4,10]]],"properties":{"postal_code":"89426","realtor_list_price":"NA","realtor_list_price_yoy":"NA","realtor_list_price_base":"NA","realtor_active_listings":1.667,"realtor_active_listings_yoy":-0.2857,"realtor_active_listings_base":"NA","realtor_new_listings":0,"realtor_new_listings_yoy":"NaN","realtor_new_listings_base":"NA","realtor_days_on_market":"NA","realtor_days_on_market_yoy":"NA","realtor_days_on_market_base":"NA","zhvi":"NA","zhvi_yoy":"NA","zhvi_base":"NA","zori":"NA","zori_yoy":"NA","zori_base":"NA"}}]}},"arcs":[[[396988,988118],[25027,4224],[-157,816],[-486,602],[8364,4796],[839,259],[3223,465],[1378,-74],[3188,495],[2163,41],[3902,257],[3348,-489],[1966,-569],[1975,-238],[2829,-826],[3197,495],[20561,-7146],[1346,-334],[1905,423],[2987,-2320],[1981,-2973],[9382,-12354],[340,-257],[242,-947],[534,-928],[21,-895],[814,-2492],[595,-790],[653,-1394],[2069,-7925],[500,-1394],[2197,-2369],[1297,-1595],[2416,-5156],[-1725,-4481],[1889,-4244],[10317,-2568],[1456,572],[929,190],[860,-89],[1631,-648],[4772,-2282],[7257,-2696],[3514,-1447],[2395,-711],[1725,-649],[9802,-2826],[635,-147],[6142,-989],[10739,1427],[11412,-776],[341,-1021],[2160,1930],[4262,3199],[1379,399],[3592,1799],[876,799],[2355,-112],[1802,-188],[1110,-268],[3839,-1197],[3572,-3177],[570,-845],[224,-1683],[2530,-1236],[689,-1780],[714,-102],[1100,-1096],[527,340],[2243,-84],[836,-169],[1977,-1472],[823,-846],[1150,-635],[136,-566],[1062,-819],[564,-834],[-1514,-703],[-1248,-19],[-460,-407],[-556,-1021],[1380,-510],[132,-258],[3150,-1134],[617,-951],[1595,-510],[-62,-988],[-845,-465],[-744,-674],[221,-603],[-54,-1381],[878,-1315],[681,-511],[1,-1222],[-565,-749],[-1001,-716],[-250,-816],[242,-792],[-158,-1229],[477,-1107],[-256,-358],[956,-484],[1056,-890],[1443,-718],[390,-443],[605,-1642],[28,-1152],[293,-1382],[762,-660],[373,-949],[64,-1411],[453,-664],[-637,-896],[-127,-1633],[-908,-1393],[-169,-1492],[606,-870],[-234,-723],[347,-890],[-254,-688],[268,-1046],[431,-345],[1241,-97],[-327,-664],[765,-17],[2422,-414],[946,-384],[1736,-459],[871,-373],[940,-4121],[364,-594],[-1269,-2658],[2401,-870],[1472,32],[832,-441],[-348,-233],[-434,-1339],[-306,-2024],[-91,-2071],[-323,-2088],[-175,-6105],[-290,-1313],[-696,-2028],[-770,-1586],[7,-1441],[-349,-2538],[3311,2164],[2370,1761],[2311,1542],[1679,750],[49,-239],[62,-4282],[-122,-1141],[-20,-8256],[-1657,-11],[-2723,-18],[-933,-153],[-13424,13],[-1604,2],[-1028,-1017],[-3080,-1783],[-1002,-839],[-787,-250],[-2365,243],[820,-1156],[857,17],[-169,-347],[1249,-3053],[2010,-686],[-1739,-1297],[-2197,1584],[-588,-722],[-1844,-1348],[-1966,-700],[-1493,-1009],[-1398,-207],[-4418,-242],[-1740,-180],[580,-2390],[5889,135],[382,-658],[1457,-1536],[877,-328],[547,-15],[5606,355],[699,131],[5185,1098],[20,611],[2793,65],[1205,457],[-37,1065],[334,6],[1784,628],[2736,955],[1358,472],[3932,803],[22,2691],[2250,0],[12,-1622],[3754,67],[436,-75],[489,152],[2901,593],[1545,114],[1987,-589],[881,291],[1453,822],[14,929],[1237,173],[354,770],[794,-758],[309,-620],[701,256],[461,-1082],[957,-322],[897,408],[1236,145],[536,569],[-151,456],[1094,-165],[1881,308],[511,-603],[1375,122],[194,831],[1214,995],[1287,-512],[1470,188],[581,248],[1256,1067],[112,446],[476,-210],[8,-3518],[-6083,-1],[25,-2934],[-20125,-49],[15,-2978],[-1938,-31],[8,1455],[-2275,-36],[-23,-1454],[-1857,-27],[-39,1551],[-2179,-167],[-5,-1352],[-1794,-39],[-24,693],[-288,-144],[-2,-567],[-1123,-11],[-854,-562],[-2095,-1613],[-2275,-1353],[-755,-445],[-2126,-1253],[-278,-118],[-330,-75],[-4246,-86],[-71,-3213],[-2384,-27],[1759,-1040],[-1574,-1228],[-1529,903],[-1350,-2314],[-356,-808],[-1810,-3238],[-2087,-3208],[-914,-1281],[-7191,-154],[-360,-11062],[-2195,981],[-4483,527],[-1383,-5580],[-2125,-6616],[-2993,-1798],[-800,-718],[-1093,-480],[-595,-525],[-1473,-232],[-538,-735],[-2427,-856],[-1214,-975],[-1552,-1816],[-371,-919],[-804,-1310],[162,-1456],[-628,-242],[-401,-519],[201,-114],[54,-3775],[1007,-773],[155,-1011],[-1056,33],[-2398,306],[-759,-240],[-102,-1365],[-1084,-1278],[-1396,-730],[-2058,511],[-4081,-31],[6,-4487],[-578,-283],[561,-399],[-2038,-2919],[-51,-2961],[-748,-1363],[-500,-122],[-1722,211],[-563,259],[-1495,124],[-1575,-819],[-821,-210],[-1690,-95],[-21,-480],[-924,-589],[-1105,126],[-2152,-1201],[-2918,-1224],[-947,-944],[-1299,-604],[-1389,-1328],[-3733,-1529],[2864,-5947],[1478,-2744],[-2464,-943],[-2872,-1516],[-1516,-1160],[-38,-594],[-8124,26],[-2168,-1960],[-3315,-1719],[-616,-100],[-1077,-570],[-1117,-809],[-1367,-729],[-1525,-1071],[-1536,-676],[-1645,-271],[-2815,-1359],[-1315,-449],[-1628,-768],[-1811,-2128],[-617,-1419],[-123,-788],[-468,-405],[-1690,354],[-1590,624],[-776,932],[-1211,-23],[358,-728],[182,-1873],[-1096,-1179],[-511,-1174],[-1185,-1868],[-629,-1498],[-352,-330],[-3797,3850],[-1732,1071],[-2233,522],[-5238,418],[-72,1260],[-344,971],[80,1177],[-6513,8755],[-1534,1392],[-2213,256],[-760,307],[-955,1046],[-1433,1243],[-1022,1034],[-1762,919],[-970,679],[-1519,226],[-438,627],[-872,539],[-1259,448],[-1300,184],[-1131,-1374],[-27,-529],[-801,169],[-253,1157],[-1497,710],[-828,559],[-3183,978],[-1515,-979],[-1083,669],[-573,-7],[-2117,903],[-2451,371],[-1634,-169],[-876,-317],[-1314,54],[-676,260],[-1163,998],[-2041,766],[-1382,1616],[-37,1348],[1137,927],[-216,1371],[-809,854],[-1423,1927],[2,847],[-347,848],[111,1070],[656,942],[569,1294],[-229,2073],[154,873],[555,277],[817,1409],[130,1500],[477,1097],[-223,262],[-422,1825],[-657,846],[-234,1057],[-982,1780],[-59,743],[-958,580],[-420,884],[-703,662],[-340,-315],[-866,430],[-1194,1673],[660,2798],[822,1056],[276,643],[1013,830],[-421,619],[218,226],[-939,1120],[979,1077],[491,1903],[686,604],[1097,1308],[154,1174],[-363,1658],[-326,819],[-1140,712],[-939,2718],[-1041,1991],[-673,947],[-614,1138],[-405,1303],[168,1223],[-360,1017],[162,1445],[-807,1895],[-994,432],[-1094,1330],[-202,1202],[-384,836],[-866,1210],[-623,1778],[276,1032],[973,1624],[608,1676],[-219,847],[-786,1607],[-142,1345],[829,1629],[814,456],[806,876],[603,327],[657,824],[-37,1038],[319,1291],[-396,426],[-1185,54],[-136,419],[122,1659],[409,832],[-77,639],[206,1905],[786,2338],[-141,437],[306,859],[1159,1965],[964,759],[212,744],[-134,1139],[-1437,881],[-185,507],[369,745],[-349,657],[-914,419],[192,453],[1323,-12],[1260,-300],[1424,379],[1311,26],[611,-202],[903,179],[3969,-1129],[1884,54],[533,419],[1144,336],[660,881],[515,4],[1088,798],[1332,75],[1300,1237],[-20557,-86],[-30482,-127],[-75,0],[213,57849],[656,58790],[-8081,32],[-123,36931]],[[560282,825],[946,612],[1183,1150],[1020,785],[661,737],[1193,881],[1461,1388],[3741,2939],[756,746],[1115,632],[1686,1292],[855,1149],[4784,3550],[867,1005],[2195,1521],[2877,2220],[2207,1923],[8393,6683],[1252,164],[1425,-9],[347,-249],[1451,-296],[706,622],[1822,-9],[1191,278],[892,-67],[732,441],[2689,1091],[794,1322],[1227,392],[756,1006],[310,95],[2145,326],[6893,-29],[1861,3772],[844,1312],[793,1859],[1178,1821],[2521,5185],[-12,1198],[-284,1594],[-682,844],[-148,700],[37,3480],[-951,1342],[-1956,1367],[-427,624],[-2911,2574],[-111,1248],[-293,819],[418,780],[256,1280],[924,1036],[-275,808],[-2148,2564],[-1015,1686],[-570,1369],[-706,2854],[137,732],[-315,1706],[-378,227],[-284,1282],[-117,1390],[114,2004],[316,865],[-308,1025],[312,1285],[-260,552],[-864,365],[100,585],[1165,493],[334,964],[1379,2611],[880,899],[303,934],[-145,1349],[508,1248],[1376,2155],[414,1244],[899,2717],[12,2469],[780,6389],[768,3142],[413,3051],[1866,1409],[1216,1803],[10133,13531],[2569,9257],[7407,-1440],[-50,239],[-3627,7350],[-275,477],[-1488,607],[10960,39904],[-2940,19535],[-276,734],[-8103,-59],[-2755,50],[-1022,201],[-537,211],[-1209,929],[1348,1473],[63,728],[1012,1206],[126,1235],[8562,449],[-4060,10327],[4854,47],[5106,-1012],[200,282],[2773,492],[964,321],[5563,1325],[1722,530],[3156,1501],[1271,226],[1936,681],[641,72],[1662,871],[954,356],[1711,906],[1509,351],[458,454],[890,377],[4272,732],[1337,933],[1725,80],[394,420],[1154,47],[1043,502],[640,981],[-585,1987],[309,2464],[220,877],[-2,1525],[-883,2867],[-491,2110],[-531,3171],[-140,1532],[-667,837],[-266,3003],[330,1793],[-423,2444],[286,3759],[15755,7577],[-1398,1070],[12303,1212],[-413,-392],[1013,-1005],[1051,-287],[1926,-58],[3714,-468],[1838,-115],[1776,-268],[963,-958],[252,-850],[3641,-793],[3329,-1750],[-111,-304],[2377,-1522],[3162,-2470],[462,-268],[775,-1523],[1011,-1302],[724,-1848],[999,-1292],[860,-1989],[62,-1723],[598,-1206],[224,-957],[-150,-881],[1311,-1159],[1371,-441],[1534,-200],[687,-431],[1339,-1406],[1411,-191],[413,-708],[2350,-1349],[2150,-2009],[-2036,-566],[-461,-708],[-162,-1101],[213,-450],[-123,-3169],[-849,-488],[513,-354],[0,-642],[614,-3053],[27,-3523],[313,-689],[26,-1608],[488,-2651],[754,76],[-688,-1670],[154,-1721],[-143,-4480],[288,-2526],[57,-2297],[-177,-3187],[-1215,-2280],[-1460,-2341],[-1628,-2108],[-1628,-1767],[-2201,-3111],[-3101,-5118],[-2829,-3719],[-392,-745],[-127,-2364],[378,-1858],[-382,-2536],[1720,-423],[1545,-211],[1047,95],[2415,1177],[1359,278],[4062,1122],[1583,604],[5210,1332],[4066,675],[-17109,-37680],[-525,-890],[-4477,-10096],[-1021,1354],[-3050,4521],[-1407,1169],[-584,996],[-2090,2700],[-1120,1273],[-260,-1287],[-140,-2752],[945,-1906],[510,-660],[1344,-881],[1517,-2624],[3808,-1649],[1368,-364],[-5681,-12484],[-1072,807],[-2795,1582],[-1581,776],[-1527,1335],[-409,834],[-2244,2178],[-2554,-15044],[-101,-334],[-206,-300],[-2823,-1812],[-386,-1481],[-2363,-2611],[-1703,-1218],[-2734,-2607],[-2187,-814],[-1827,-1436],[-621,-297],[-1405,105],[-1516,-288],[-957,-1283],[-4583,-4782],[-436,-1313],[-1252,367],[-710,645],[-467,36],[-1459,-1125],[-894,-288],[-639,-890],[-959,-2537],[-957,-956],[372,-1015],[-88,-1149],[658,-748],[-70,-523],[1202,-1920],[501,-1415],[-8359,-9478],[-810,-326],[-181,-659],[-21197,-23694],[324,-324],[2551,-1306],[-1278,-1592],[-384,-842],[-577,-306],[-1952,-157],[-2377,-803],[-1104,-110],[-1038,-373],[-1649,-2203],[-977,-961],[-1613,794],[-397,500],[-162,1028],[-313,21],[-111,-423],[-5142,-9737],[584,-362],[-675,-2204],[852,-1590],[2382,-347],[4953,-1848],[634,-543],[2215,-1033],[1245,-455],[-10799,-12555],[-882,381],[-748,-1232],[-1498,-716],[-4810,-1986],[-3966,-1273],[-2878,-1124],[-1941,-912],[-1896,-393],[-588,-463],[-3115,-563],[-1220,-376],[-2819,-629],[-8641,-2780],[-2037,-440],[-6623,-2119],[-1139,-1201],[-3381,-51],[-3282,142],[-867,-124],[-607,123],[-829,-86],[-5294,-40],[-30521,103],[696,707]],[[245742,775001],[207,-724],[64,-1252],[-372,-13753],[52,-1199],[423,-1789],[576,-1285],[58432,-87423],[656,-867],[864,-907],[41654,-38624],[12628,-11732],[2367,-1818],[2244,-1105],[1341,-451],[955,-246],[2765,-601],[3452,-770],[-949,-5799],[16343,-2570],[2158,-456],[65664,-9650],[368,-9],[9393,-2096],[1104,-192],[3738,-290],[-39,-1103],[345,-1824],[561,-1005],[3213,-1248],[-381,-1203],[-817,-3296],[-1060,-3005],[-950,-2208],[-463,-2081],[12,-499],[1558,-4174],[143,-1458],[-244,-1873],[-841,-1979],[-704,-1043],[-2459,-2726],[-1247,-2407],[-1984,-2358],[-731,-1591],[-1479,-259],[-491,-825],[-342,-1579],[257,-548],[-452,-1123],[-443,-1818],[-602,-1157],[-343,-1310],[521,-89],[-218,-1009],[-498,-900],[13,-793],[674,-699],[-2120,-3359],[-502,-1269],[392,-373],[-736,-651],[-403,-3445],[-456,-1379],[-373,-1832],[-173,-1668],[1245,-367],[1268,44],[2935,-520],[1719,-520],[308,-268],[3491,-1004],[1935,-144],[2317,-1081],[3498,-2615],[1476,-761],[1397,283],[1980,-770],[1711,-406],[993,181],[1543,-36],[1330,674],[94,784],[2157,823],[2904,-250],[1249,609],[1613,-438],[1905,-46],[623,263],[938,-303],[888,-31],[999,-327],[1772,-214],[756,91],[1405,515],[324,396],[1469,893],[260,535],[1360,755],[1837,1342],[1164,569],[1572,1295],[3082,1957],[997,1820],[595,710],[523,1039],[904,1067],[1731,1729],[1130,937],[5070,4559],[391,271],[-110,1066],[32903,37900],[1648,994],[1437,86],[-970,546],[-2564,3222],[-26599,1631],[-13,26664],[3378,929],[3421,-28],[2797,-438],[2902,-60],[1093,790],[14991,-159],[13,3075],[1986,-46],[4,3034],[10006,-294],[-747,-9656],[-55,-2088],[2663,-21268],[190,-693],[801,-1427],[1042,-1074],[21872,-22323],[775,-732],[912,-733],[1139,-752],[5441,-3195],[840,-618],[636,-807],[254,-616]],[[608951,553197],[63,-269],[14,-895],[-278,-2651],[261,-1366],[574,-837],[804,-656],[2700,-1651],[1321,402],[670,1070],[1818,497],[6049,-118],[1688,49],[765,-1337],[1079,-95],[1205,-664],[30,-958],[988,3],[-3,-1075],[8002,3449],[7,739],[1712,1],[1707,847],[6833,5310],[2588,2015],[15757,12282],[872,920],[402,696],[7279,18573],[498,332],[7587,-17],[60,1557],[4164,2],[-223,2344],[-328,473],[-865,566],[-155,473],[918,1126],[-493,197],[-1347,83],[-344,-320],[-1370,-4],[-227,1788],[-1952,5600],[310,549],[-180,6869],[6900,7],[1463,-66],[1226,-700],[310,-819],[5,-850],[416,-1226],[-66,-1417],[93,-1671],[676,-446],[-505,-1034],[-91,-1073],[-508,-1676],[142,-1163],[-460,-1371],[54,-352],[821,133],[2452,54],[1212,359],[2028,1134],[579,-689],[134,-899],[1699,-6012],[9187,4],[468,412],[481,2321],[711,392],[5722,-231],[1080,125]],[[716140,592342],[1222,-142],[856,271],[1928,-43],[1624,301],[1916,121],[328,545],[1517,-496],[301,321],[-568,-1785],[-531,-654],[-1457,-687],[-1011,430],[-1269,-83],[-1056,-1364],[-680,-53],[-1221,-905],[-1836,-180],[-871,-1222],[-543,14],[-595,-1679],[-1046,-464],[-826,52],[-2567,-685],[-992,-1654],[-340,-73],[-1486,-1400],[-537,-735],[-1234,-657],[91,-460],[-1547,-627],[-797,-662],[382,-365],[-2508,-2114],[-1431,-844],[-1185,-1740],[-1198,-616],[-211,-1112],[-622,52],[-485,-884],[-1234,-17],[-616,-680],[-163,-544],[369,-462],[4,-1729],[-549,-487],[221,-694],[-911,-1357],[-189,-1153],[83,-2150],[-640,-501],[-320,-1679],[-577,-737],[360,-1178],[-380,-1631],[-2333,-1972],[-1771,-3329],[277,-153],[-17,-1001],[-759,-1902],[-2518,-5469],[-145,-632],[-618,-1262],[-699,-2297],[-80,-1158],[133,-1322],[-307,-2049],[110,-737],[1143,-2067],[1144,-1285],[-162,-24257],[-5389,18],[-238,-1712],[-519,-2551],[-382,-1270],[-115,-1222],[-772,-3041],[-495,-2754],[-219,-424],[-1439,-6767],[-1492,-551],[1290,-426],[-681,-3336],[-860,-3298],[-759,-1294],[-546,-2672],[-343,-1040],[-765,-1129],[-557,-1167],[-308,-1812],[-31,-194],[19,-912],[-1039,-314],[-423,-884],[-3560,-3453],[-243,-1855],[-708,-1852],[-645,-766],[-1161,-1813],[-517,-1163],[-243,-1205],[-904,-2498],[268,-2005],[-250,-740],[27,-1177],[-174,-567],[181,-1137],[-198,-1237],[104,-612],[-306,-849],[-188,-1416],[-426,-1155],[-199,-1976],[93,-2458]],[[659399,435487],[131,-1121],[-400,-49],[-2668,-322],[-497,-3087],[-239,-766],[-628,9],[-617,546],[-741,-632],[-174,-637],[1235,-424],[503,-809],[636,39],[-755,-564],[-220,-1674],[-561,-508],[-1322,-2213],[-1514,-1964],[-506,-2206],[-791,-1522],[-593,-1954],[-125,-1536],[-283,-941],[-44,-1908],[856,-1808],[779,-325],[75,-527],[-465,-163],[-49,-1694],[-288,-871],[-854,-987],[441,-1703],[-62,-1177],[472,-1553],[2667,-481],[-262,-1758],[-708,-1863],[-255,-1784],[738,-2288],[-373,-908],[-27,-2521],[722,-1226],[-301,-5541],[-627,-2419],[-931,-1249],[-3588,-2707],[-1144,-1632],[-1332,-1167],[-1740,-2147],[-551,-920],[-106,-648],[350,-2744],[83,-1946],[1948,-1135],[927,-2122],[899,-1188],[2944,-684],[480,-554],[-364,-811],[206,-1386],[-549,-2149],[-1126,-2677],[-788,-3021],[-1105,-345],[-619,-578],[-1717,631],[-916,-398],[-1739,227],[-806,-211],[-631,-429],[-442,-1370],[-759,-900],[-1322,-896],[-747,-287],[-584,122],[-755,1410],[-625,305],[-68,-39598]],[[634488,306443],[-1418,-250],[-1189,-480],[-1091,-74],[-1046,-364],[-2423,42],[-1391,-249],[-1358,39],[-716,107],[-1160,783],[-871,150],[653,-1274],[741,-508],[-1666,-1616],[-810,-1273],[-661,-1434],[-467,-2399],[-23,-1368],[530,-2413],[1261,-2585],[-7547,-2],[-3500,7520],[-264,806],[-2145,-1173],[-2197,-1448],[-7366,-3476],[-1488,-1345],[643,-1236],[-1958,118],[-176,362],[51,3213],[-144,2385],[-12054,39],[-3486,-121],[-71,-1346],[-1240,-1337],[-1013,-1587],[-1374,-1312],[-178,-398],[-89,-1891],[-883,-338],[-1238,-860],[-1124,-1055],[-1141,-655],[-2279,-1545],[-2685,-911],[-29,-580],[-1041,-564],[-101,-742],[-616,-795],[-1954,-809],[884,-759],[813,-191],[113,-938],[-426,-670],[125,-1264],[989,-928],[2788,-833],[1288,-737],[299,-1130],[613,-210],[1212,-1456],[275,-947],[901,-1541],[699,-2451],[436,-3493],[723,-2469],[212,-1905],[574,-3044],[111,-1446],[862,-3637],[511,-3437],[210,-3580],[362,-1369],[224,-1991],[1647,-1962],[-450,-1618],[-1362,-861],[275,-632],[-189,-972],[-2054,-3033],[-1043,-1210],[-200,-789],[-916,-571],[-1389,-372],[-119,-818],[-931,-772],[-1104,-3062],[-791,-580],[-984,-423],[-2252,-39],[-2173,522],[-1455,-105],[-1661,-837],[-2299,-186],[-2187,-189],[-203,-205],[-2329,-436],[-2686,152],[483,513],[416,954],[197,1554],[-2128,901],[440,229],[-1336,1115],[-738,390],[-889,832],[-2454,1312],[-536,516],[-1519,799],[-1594,433],[-1043,627],[-1317,444],[-514,-34],[-149,-514],[-624,284],[-582,977],[209,588],[-724,712],[-762,21],[-466,386],[-358,1130],[-1540,1560],[206,772],[-323,531],[5,1217],[253,625],[-256,826],[-678,707],[185,789],[-840,1785],[22,809],[-838,1128],[-538,455],[-618,1699],[-539,889],[-703,89],[-2022,745],[-696,98],[-3579,989],[-1351,-178],[-1022,-297],[-1070,-61],[-731,286],[-1457,-166],[-1595,394],[-634,-203],[-1601,422],[-1031,-245],[-1006,317],[-1143,-345],[-1141,72],[-1343,-339],[-1002,-31],[-869,615],[-958,-12],[-218,586],[-434,-145],[-1121,1033],[-290,3628],[50,1282],[337,1599],[-326,1015],[-1812,2929],[-663,1483],[-1426,2087],[3762,1771],[2887,1178],[775,747],[-3713,-183],[-1688,-307],[-4262,-451],[-3151,-20],[-14,2546],[508,1588],[46,837],[-1762,-1400],[-351,-89],[-6306,-47],[-606,208],[-3201,3038],[-1596,429],[-1896,-388],[230,693],[814,630],[418,1176],[-1387,2248],[-877,2003],[-2232,3537],[-101,481],[-1916,1022],[-1029,1021],[-414,711],[-862,-80],[-1233,1298],[-3958,1319],[31498,54799],[366,502],[9040,10767],[254,0],[4879,5786],[894,908],[1461,1158],[2216,1259],[9973,4435],[-638,-17],[174,76],[6565,2912],[-548,571],[-402,10],[-438,-980],[-3524,-1571],[-332,482],[-896,410],[-996,144],[-862,401],[-1484,395],[-1321,610],[-2109,1486],[-1676,-106],[-2359,-829],[-1212,-251],[-1559,-893],[-2599,-852],[-1729,-238],[-4378,-887],[-928,-601],[-1387,-329],[-1475,-51],[-1557,-674],[-1210,-269],[-892,-398],[-183,-415],[-759,-503],[-1937,-2161],[-872,-687],[-1486,-2307],[-396,-1040],[-1229,-1592],[-184,-1292],[2119,134],[259,-330],[-509,-417],[-948,74],[-926,-1204],[-1085,-326],[-1795,56],[-22451,-116],[-3337,3231],[-5216,3632],[935,83],[1412,408],[1513,255],[-94,1260],[665,3053],[4845,-2396],[3050,-863],[4197,-717],[2649,243],[1245,880],[3545,898],[2487,977],[-2052,1313],[-493,114],[-4847,3503],[-2103,1683],[-170,291],[-2083,1594],[-1162,488],[-1412,1482],[-2161,1812],[-3113,3025],[115,-3042],[-968,-4439],[-203,-225],[-2795,407],[-1121,340],[-3925,79],[-54,12082],[-19305,7124],[-1516,279],[-791,-18],[-16303,-2125],[-3926,-664],[-87,-455],[1019,-1228],[172,-1457],[-629,-625],[-3331,-1577],[-2450,-301],[-999,23],[-4639,-654],[-674,-215],[-1671,271],[-2522,33],[-305,208],[-2429,693],[-3433,1310],[-2135,483],[-2684,-294],[-4414,-640],[-1034,-514],[-2655,-51],[-1452,-173],[303,-1856],[-59,-842],[795,-4152],[904,-2241],[396,-1862],[331,-2759],[265,-933],[278,-1992],[411,-1740],[229,-380],[1048,-3309],[-3357,-1476],[-15990,-7664],[-100865,-438],[-887,242],[-1329,842],[-1010,413],[-931,1028],[-729,519],[-785,220],[-176,1688],[276,1447],[-122,425],[154,690],[1502,2022],[1199,130],[2316,1021],[3937,1201],[1524,268],[3758,819],[2447,809],[3003,582],[1266,35],[3339,-289],[2847,-538],[4061,993],[2697,1067],[1000,-21],[2290,-430],[1009,-66],[2082,401],[322,655],[2537,106],[539,-67],[2492,-819],[1425,125],[4739,983],[5333,379],[1519,-304],[527,49],[689,374],[387,747],[-358,2241],[221,407],[2023,2377],[632,534],[545,233],[1815,343],[-1620,261],[-2077,1847],[177,1206],[-126,630],[941,1001],[1188,401],[1212,656],[1050,786],[-284,751],[924,897],[1714,414],[1451,746],[958,123],[2208,-36],[1673,-226],[458,147],[-213,1449],[397,1544],[177,1323],[-396,1190],[444,1327],[-7219,25334],[7300,-4189],[1339,666],[5764,2537],[1800,423],[850,385],[1527,2155],[4639,698],[2473,214],[2519,347],[2480,679],[1386,119],[1054,252],[4283,217],[695,260],[442,1513],[-6,525],[-430,839],[923,984],[2255,1984],[673,947],[977,447],[624,1257],[-56,2180],[177,935],[-69,1241],[-350,956],[-200,1358],[247,3099],[-290,1427],[-735,568],[-549,870],[-4939,4568],[-790,483],[-6527,3569],[-2458,1102],[-1848,561],[-401,752],[-17024,8959],[-492,-929],[-428,-1294],[-1990,-4381],[-1219,-3333],[-805,-1156],[-866,-2198],[-2640,-1927],[-414,-936],[-1446,-1432],[-1067,-712],[-1008,-1964],[-1208,-594],[-876,-1441],[-247,-1130],[-1868,4751],[-421,2507],[683,22488],[-193,512],[-1848,2744],[-1,4362],[-1849,-1203],[-4866,8338],[-906,1260],[-6843,7486],[-1492,2077],[-1058,1311],[-1097,1137],[-835,1892],[-424,497],[-2269,3360],[-188,414],[-166,938],[-471,1117],[-507,2392],[206,870],[-50,2416],[-369,889],[-82,1820],[-215,658],[264,1375],[-164,504],[-46,2273],[-415,838],[242,1354],[449,1180],[811,1547],[1239,539],[1156,902],[3371,1481],[1822,73],[-582,291],[-3668,47],[-88,-1204],[-795,-316],[-1361,97],[373,1223],[787,1499],[19,806],[890,1542],[538,213],[1771,1515],[-4,353],[637,55],[125,637],[-265,803],[297,93],[-145,712],[362,738],[1152,1094],[529,78],[489,646],[-1532,379],[-909,38],[-3219,-613],[-959,-268],[-1515,-192],[-1805,9],[-846,163],[-732,497],[-772,1103],[-516,230],[-1306,1399],[-1062,84],[-1226,370],[-1405,1043],[-2556,1287],[-1276,345],[-897,-29],[-3622,954],[-826,347],[-980,78],[-1628,371],[-1540,-32],[-3873,1381],[-763,123],[-1099,-96],[-1878,-395],[-1489,-20],[-659,-182],[-608,-618],[-1874,413],[519,2190],[738,1564],[1907,2877],[819,737],[1293,1678],[540,503],[50,732],[550,1457],[1055,1637],[471,2155],[285,374],[1931,810],[287,288],[2723,1865],[607,180],[988,706],[359,352],[612,1230],[38,1597],[667,728],[1455,637],[838,534],[1389,1532],[1131,1757],[935,2614],[331,3081],[-862,273],[-890,934],[-656,-132],[-2376,1097],[-575,49],[-1154,834],[-717,259],[-2888,1562],[-2144,986],[-2166,1519],[-952,480],[-747,817],[-1250,374],[-1836,1070],[-976,417],[1097,540],[948,-57],[304,478],[-468,632],[557,641],[278,1215],[-227,833],[-1341,1244],[1822,2057],[-328,679],[329,727],[-253,785],[203,660],[1113,909],[1873,-19],[1430,679],[241,785],[760,727],[620,0],[418,851],[-392,938],[532,1091],[228,995],[583,287],[999,-10],[-189,566],[1519,459],[115,700],[1215,651],[381,814],[46,1162],[-31572,1380],[-1687,-71],[-777,-352],[-3761,-5237],[-943,-785],[-509,-143],[-8421,-868],[-641,18],[-3912,1035],[-6456,2789],[-14075,7129],[-786,1621],[-869,1163],[-2018,1068],[-266,862],[-1818,2111],[-648,1035],[-1067,1069],[-4392,1365],[-1104,-1332],[-724,-1401],[40,-1954],[239,-1514],[-110,-763],[-749,-1372],[-2537,-2080],[-388,440],[1619,1967],[581,1076],[-209,2396],[-2887,46],[1434,3309],[980,396],[1759,1055],[673,110],[579,1516],[1194,1],[740,1675],[1239,2425],[987,2633],[-1082,1092],[-379,873],[-1041,1603],[-324,2049],[-585,980],[-3773,1449],[-859,684],[-1784,394],[-910,523],[-1277,310],[-2075,239],[-1338,549],[-1096,245],[-1275,793],[55,-1658],[-1074,-836],[-1814,-1680],[-1119,-1640],[-336,-804],[-30,-1574],[-316,-132],[-549,-1994],[193,-611],[-225,-897],[-583,-612],[-288,-814],[-1737,-790],[-2138,-1736],[-1395,-845],[-1183,-1345],[-271,-1041],[-781,-1857],[-881,-716],[-929,-158],[-395,-628],[-768,740],[-1692,651],[-934,596],[-863,846],[-573,922],[-1705,479],[-1500,-18],[-1210,596],[-1526,1306],[-1775,674],[-1188,151],[-1284,998],[-945,518],[-608,585],[-574,1754],[174,504],[-402,679],[456,1649],[20,2034],[933,1685],[596,1878],[-283,1086],[824,3175],[-243,2238],[-772,1349],[-2,400],[891,1710],[646,811],[1575,761],[296,1299],[-803,865],[-962,2137],[-799,979],[-182,891],[-830,920],[645,2692],[857,904],[-222,683],[599,1168],[-545,775],[913,960],[721,1290],[1786,335],[655,490],[-401,510],[803,524],[162,574],[1083,912],[988,425],[722,989],[1978,1540],[714,184],[1401,1414],[-188,732],[86,1343],[396,1149],[718,1229],[2518,-75],[-23,366],[-1571,-199],[-1028,670],[-215,1396],[863,1436],[-139,1272],[470,861],[228,-115],[927,909],[178,507],[762,421],[-621,1894],[-712,-640],[-2082,-593],[-520,574],[-1701,297],[-2565,1110],[-876,708],[-813,28],[-1181,1024],[-964,297],[-1168,861],[-877,201],[-1994,114],[-748,-297],[-1931,727],[-2463,134],[-1498,-517],[-2255,-395],[-1556,262],[-2726,1016],[-3609,1188],[-2479,536]],[[122328,705729],[-354,1183],[105,4045],[182,1130],[938,4473],[944,2511],[947,1207],[646,1174],[1778,2358],[194,644],[2386,2861],[1331,752],[896,1037],[2081,1599],[2359,1572],[1189,1059],[995,1208],[232,739],[1192,951],[1203,518],[1295,138],[1703,708],[1975,443],[3493,1224],[889,463],[2043,729],[2064,289],[1324,471],[-640,1113],[-1223,1747],[-2681,2843],[-562,713],[-1345,2771],[-691,1934],[5741,6680],[1065,1331],[1339,1969],[3272,3971],[1157,1252],[1285,1585],[3595,13892],[3191,-384],[1077,-32],[1978,151],[770,-148],[502,-235],[11440,-7000],[1258,-416],[1653,-88],[1529,336],[2161,1125],[439,762],[181,1408],[1234,1677],[52,586],[2705,8],[3147,-677],[706,-312],[284,-529],[1282,-722],[1345,177],[1165,330],[2360,-1078],[1314,-1251],[3081,-1610],[1843,-1276],[2003,-700],[1681,923],[3179,-48],[791,-985],[1603,-387],[1818,83],[2114,379],[2161,119],[2238,1090],[987,0],[344,225],[-117,954],[943,1310],[680,1538],[572,518],[1614,213],[404,2218],[38,3433],[734,-740],[2120,-1242],[1397,-1294],[1400,-2123],[2637,-2579],[1034,-1722]],[[122328,705729],[-360,-539],[-92,-5080],[-743,-1885],[-457,-737],[-291,-1004],[495,-4743],[409,-2133],[-170,-292],[-282,-164],[-910,2097],[-1341,831],[-1220,290],[-3705,91],[-2830,-46],[-3024,225],[-592,-56],[-3817,-5192],[-1106,-381],[-405,-937],[-2180,-1778],[-441,-598],[-193,-1246],[-619,-497],[-1123,-122],[-2001,-2137],[-1188,-2621],[-633,-758],[-933,-2051],[8,-936],[-619,-1001],[-84,-853],[-1454,-1969],[-733,-484],[-1178,-1172],[-221,-1534],[-1304,-658],[-1038,1081],[-1200,-201],[-1765,331],[-863,664],[-2999,1491],[-1005,811],[-1783,1097],[-714,178],[-982,-280],[-974,-1148],[-181,-825],[-721,150],[-785,-309],[-2095,-1992],[-494,-30],[-464,-500],[-639,-195],[-997,-1158],[-408,-708],[743,-809],[680,59],[1269,-491],[249,-442],[-2184,-755],[-2020,-918],[-975,-2435],[-587,-667],[-727,-1350],[-13,-1007],[-907,-1915],[-25066,-10],[-751,1087],[-2258,2378],[-2660,2256],[-1590,1086],[-1683,819],[901,845],[220,1563],[-146,349],[-1019,409],[-120,741],[1089,545],[-1128,673],[-37,992],[-468,414],[-1149,1512],[-371,766],[-978,540],[-1837,2005],[-3684,1990],[-1807,736],[-2563,1709],[-888,781],[-1263,1454],[-628,352],[-621,847],[-2388,1667],[-446,714],[317,770],[-136,1292],[714,-24],[-74,1240],[-1023,698],[-1609,1540],[-877,1120],[-258,884],[-552,990],[-695,542],[-467,926],[-1134,968],[-416,1103],[54,857],[355,692],[-549,824],[-1043,840],[-335,591],[276,958],[-131,581],[1390,1005],[804,1230],[-104,3315],[-403,633],[-1810,1425],[-894,1155],[-473,145],[776,291],[123,475],[3069,2540],[1448,717],[2021,1686],[665,2144],[-1070,909],[951,1044],[719,475],[618,734],[197,1790],[292,424],[1300,666],[24,1048],[-1224,362],[469,623],[-212,2195],[-749,715],[345,1698],[590,1104],[192,1321],[1341,1510],[775,1440],[-556,226],[-99,719],[572,1348],[676,539],[614,975],[1835,1063],[1850,507],[733,-7],[1056,339],[1045,10],[266,727],[58,992],[1739,1129],[827,4],[481,1565],[457,903],[920,639],[171,634],[1267,247],[1065,17],[401,1447],[-213,893],[288,1035],[964,1796],[966,919],[106,1002],[1505,1793],[680,268],[1064,793],[1834,693],[706,584],[1993,222],[2677,1052],[1008,195],[2240,-233],[398,-1369],[446,-226],[1546,188],[797,130],[491,648],[998,581],[5484,1327],[691,480],[2480,329],[992,448],[636,511],[2226,716],[403,-80],[2299,-1451],[440,-795],[1578,374],[-183,1068],[267,5712],[546,1839],[1457,2421],[991,770],[377,540],[-405,400],[595,761],[39,632],[501,261],[109,769],[911,1358],[1330,2318],[142,903],[-544,100],[-1414,-336],[-1918,-251],[-1761,-806],[-1988,366],[-407,486],[-192,1285],[495,3028],[1353,1112],[711,990],[2067,2023],[1532,1061],[1279,199],[3136,-71],[932,71],[1631,400],[638,664],[-54,317],[-1110,1783],[-292,720],[31,1582],[-423,407],[626,746],[1476,283],[862,364],[371,580],[-58,1068],[505,396],[562,35],[2056,-556],[2113,83],[1497,-195],[2430,-1096],[1294,-399],[3722,-924],[1163,883],[2683,801],[1103,1224],[1490,-310],[2348,-242],[1340,163],[1859,-180],[1397,-464],[1555,-197],[972,752],[188,863],[1807,1606],[758,497],[1358,595],[1644,1758],[1349,2792],[974,1211],[1204,1234],[1179,2226],[727,2036],[360,1592],[1177,2379],[1746,2831],[1925,3838],[382,1320],[236,1506],[-791,1756],[-954,1402],[-181,1411],[-588,593],[17189,-118],[14158,-96],[7650,115],[566,9],[33069,-375],[21520,480],[6662,149],[11189,249],[24884,385],[-2077,-1174],[-302,-952],[-584,-631],[-417,-1018],[-515,-384],[-1705,-562],[-826,-693],[-1022,-1329],[-2184,-3280],[-573,-1313],[-1327,-1507],[-1047,-1432],[55,-381],[-868,-1237],[-1799,-2886],[843,182],[3355,319],[1232,242],[1704,-15],[2883,527],[1129,355],[1946,-1469],[1042,-1119],[977,44],[1091,-961],[1020,-1181],[1065,-1663],[1292,-793],[2230,-1921],[-2014,-742],[-899,-1545],[-420,-2187],[-235,-540],[-1306,-1625],[-2236,-1753],[-1444,-937],[-1483,-1205],[-753,-2138],[-3,-702],[-697,-1696],[184,-637],[-169,-634],[-584,-1159],[-1195,-1177],[-290,-931],[-3903,-3701],[-595,-1037],[-1431,-1915],[-222,-461],[-527,-2705],[-532,-1209],[-199,-992],[-816,-743]],[[659399,435487],[728,-466],[2215,-2342],[2063,555],[1300,-137],[588,-530],[1106,-511],[1462,-138],[1137,162],[1027,-47],[1016,-644],[1214,-241],[4826,-3],[988,-491],[1543,-330],[2428,-1110],[2002,-400],[987,-523],[702,-95],[5298,246],[47,2687],[-152,9045],[-3834,29],[-151,2991],[3977,29],[-74,10436],[17771,233],[810,-1603],[1155,1020],[3215,2579],[2451,629],[4024,2558],[1910,851],[2196,732],[3186,1811],[2029,1261],[418,384],[261,418],[480,3068],[-836,5778],[67,683],[2249,8670],[3624,8953],[227,761],[715,5531],[1360,-650],[793,-127],[1531,2146],[670,434],[855,2114],[5077,3587],[2201,1688],[1477,975],[3382,2724],[773,667],[1530,1610],[2078,411],[2805,837],[2244,534],[599,-107],[739,-461],[3672,-1755],[2862,-1482],[670,-274],[846,-37],[1550,-434],[336,-305],[620,-685],[312,-101],[-167,-818],[354,-556],[1807,-625],[947,-482],[898,-1041],[548,-195],[790,-602],[-58,-797],[209,-339],[-104,467],[693,563],[19,833],[-424,-43],[-215,643],[742,480],[-478,1145],[939,-877],[171,-582],[697,-323],[121,-358],[-673,-1433],[137,-982],[317,-363],[1279,-380],[-561,431],[604,740],[304,969],[524,304],[-235,-303],[172,-1041],[690,-695],[104,574],[411,370],[639,377],[248,-403],[1194,-19],[853,484],[-177,822],[142,273],[546,332],[610,52],[638,476],[-440,554],[638,462],[231,551],[1619,836],[-183,613],[571,27],[1099,-1025],[-149,-537],[675,-503],[347,18],[835,-1490],[-24,-1134],[139,-537],[487,-722],[-134,-404],[342,-654],[568,-305],[329,-653],[-431,19],[605,-459],[317,86],[569,-1758],[402,-866],[2236,-3856],[628,-985],[2172,1588],[9808,6077],[1948,648],[475,328],[989,1035],[7862,-1817],[892,-98],[10744,-2603],[957,-284],[762,-386],[1171,-1803],[-194,-588],[-847,-1346],[-196,-736],[-770,-1954],[-303,-2330],[-976,-2042],[-1068,-1731],[441,-964],[769,-3029],[-111,-1058],[943,-1196],[832,-670],[1369,-1747],[427,-1476],[1333,-6000],[223,-2523],[-403,-2023],[-1122,-365],[1009,-2042],[6142,-7416],[-319,-1228],[-206,-322],[1784,17],[3585,-4311],[2070,1099],[10025,5126],[1018,462],[3279,1670],[806,523],[974,392],[3150,1594],[45,1535],[381,327],[7700,11581],[2038,616],[-428,511],[617,343],[8224,3714],[1852,409],[19757,4621],[4026,1244],[6880,2956],[2101,807],[2314,453],[2612,209],[2564,617],[8180,1578],[1283,-614],[2871,2057],[4051,1385],[1350,1024],[-599,497],[14204,9451],[1493,184],[2052,-438],[2841,166],[1330,680],[1878,2128],[998,1398],[1028,1096],[1998,1622],[926,494],[1608,1657],[869,587],[715,1065],[-42,360],[700,214],[397,1067],[-903,610],[-344,572],[-618,193],[-712,1220],[-1308,502],[-91,324],[-1372,147],[-746,-313],[-106,-621],[-1046,112],[-236,1738],[-901,1047],[-528,1114],[-522,312],[-359,762],[-1032,127],[-949,-1000],[-926,146],[-483,961],[549,1684],[1844,1799],[859,415],[337,484],[331,773],[-968,586],[381,384],[548,1133],[859,575],[-77,684],[-864,942],[378,489],[593,-197],[1606,191],[1415,947],[3744,319],[1631,-107],[544,227],[3493,-1374],[901,-761],[764,-1203],[851,-439],[1671,-576],[2408,-1310],[3467,-487],[3,-504],[-525,-861],[52,-847],[-1012,-1710],[768,-1270],[410,265],[412,-483],[243,-1540],[-1460,-1453],[-1130,-262],[11,-1040],[-593,-306],[-473,-745],[543,-691],[-172,-1043],[-848,-573],[-1241,-179],[-212,-704],[84,-1249],[889,-1338],[123,-522],[633,81],[14,-582],[724,-202],[254,-474],[5,-1203],[642,-53],[1308,-765],[434,-1051],[364,-155],[-1550,-2437],[-687,-636],[-715,-307],[-2014,-354],[-1549,-90],[713,-866],[2198,-1167],[-329,-393],[-9293,573],[120,-15355],[-1213,609],[-2576,884],[-74,-1785],[-489,-1698],[-802,-1126],[-1703,-10134],[-3362,-5502],[7457,-5175],[-453,-2391],[-241,-740],[-597,-265],[763,-69],[-1079,-446],[-751,-24],[-1871,-403],[-2000,-1655],[-1385,-1260],[-1801,-2844],[-389,-1480],[1951,-286],[1634,59],[819,227],[1122,-487],[2068,-701],[1897,-2260],[676,-407],[622,-1031],[715,-531],[1354,-1712],[476,-1401],[-39,-866],[438,-1555],[860,-1946],[537,-1574],[135,-861],[-103,-1251],[-921,-2224],[-772,-1106],[198,-602],[117,-1861],[-79,-1749],[-328,-776],[-2489,-3225],[115,-1070],[-403,-1601],[137,-854],[-311,-1591],[-1472,-2014],[-80941,-37],[-5480,20],[-1794,-28],[27,15904],[-12182,-13269],[-725,-371],[-25399,-8155],[-11027,-4548],[-4874,-1813],[-6029,-2642],[-3323,-1689],[-5088,-2283],[-2681,-1483],[-1949,-920],[-1973,581],[-2997,651],[-2330,-1004],[-1971,-711],[-1496,-358],[15,248],[-1018,253],[-67,397],[768,377],[-207,266],[-959,-327],[-192,472],[579,296],[-1120,933],[-6,552],[506,323],[-662,232],[-478,-36],[-206,-611],[-714,138],[451,564],[-34,464],[-763,539],[287,230],[926,-96],[-854,431],[-1546,194],[491,447],[-285,572],[662,459],[728,-26],[-362,371],[-1688,25],[906,502],[-450,839],[511,387],[-859,-162],[-264,354],[534,541],[-937,-236],[-895,1012],[102,357],[-636,-57],[-120,597],[420,919],[21,681],[-509,811],[-39,711],[-1240,157],[-626,376],[1,1112],[-1020,907],[-232,620],[-671,-58],[-668,373],[-327,550],[-1121,576],[-111,341],[-1178,212],[-249,686],[-1091,-348],[-1730,-146],[-4650,-130],[-2227,115],[-2921,-177],[-624,-423],[-950,668],[-1513,-153],[-2174,-858],[-1442,515],[-828,-861],[-1169,142],[-291,501],[-901,-272],[211,-567],[-591,534],[-951,-333],[-329,604],[-418,72],[109,-770],[-560,-190],[-1927,2013],[-925,1334],[-626,-4],[-426,409],[330,800],[-1150,-422],[5,823],[-767,-443],[-149,566],[277,720],[-1152,881],[-962,70],[-256,411],[-1212,-188],[-172,-841],[-547,-243],[568,-264],[-1446,-909],[-969,-116],[-764,-374],[-567,-1134],[-793,-179],[271,-436],[-2246,-1270],[-320,-352],[-1667,-135],[79,-629],[783,-1528],[28,-863],[628,77],[-476,-654],[151,-369],[-962,-406],[285,-752],[-852,-244],[-57,-412],[-597,173],[-2211,-879],[-1088,-96],[-48,-495],[-635,-426],[-564,107],[-165,-545],[-1716,-205],[-1786,620],[125,381],[-667,100],[-55,389],[-1704,-766],[-2211,80],[-225,331],[-175,-549],[-1910,-1561],[-446,189],[-396,-967],[-559,-661],[-2156,-1788],[-644,-345],[-5503,-2072],[-1405,-726],[-10899,-7986],[-417,-105],[-12517,4000],[-3196,1023],[-770,-840],[-514,-552],[1623,-1011],[1147,-7805],[-60,-8736],[257,-484],[1584,-1145],[975,-1865],[1002,-1267],[1901,-2839],[386,-1172],[198,-2645],[588,-1105],[-121,-2281],[-640,-3757],[-708,-1463],[-1274,-9558],[-1727,-412],[-2786,-900],[-1902,84],[-2757,-938],[-1187,-719],[-382,-1143],[391,-1109],[-1035,-814],[-1296,-1454],[-1261,-355],[-233,-989],[-363,22],[-3494,1547],[-1939,120],[-902,-142],[-536,-783],[-868,-559],[-844,-991],[-871,-1567],[-2105,-1014],[-1561,-450],[-809,183],[-1298,-254],[-1659,-1321],[-815,-59],[-21,-423],[-2852,-420],[-677,322],[441,652],[168,917],[801,1012],[55,973],[-292,327],[-1232,449],[-1024,616],[-1016,1042],[-1194,514],[-652,626],[-1058,464],[-1636,1093],[-1616,323],[-1699,-732],[-1092,1783],[-1024,1886],[-146,836],[-645,962],[-382,67],[-174,-1644],[642,-1687],[-126,-1000],[1251,-1207],[263,-542],[150,-1417],[840,-593],[326,-680],[-162,-603],[-1516,-1168],[-589,-220],[-451,-1111],[-814,-1330],[-199,-1006],[-1178,-1761],[89,-1446],[-250,-1301],[-1916,-1925],[-1902,-3016],[-726,-766],[-216,-1931],[613,-481],[-313,-803],[135,-723],[-445,-210],[127,-1350],[-212,-1453],[343,-1580],[-343,-563],[284,-404],[-1127,-1517],[-1197,-855],[-357,11],[-611,-1062],[-811,-822],[-1494,-560],[-1985,-72],[-1350,-781],[-1776,122],[-420,-672],[-958,-229],[-1290,32],[-957,-560],[0,268]],[[608951,553197],[730,5638],[178,2535],[1696,-1366],[1252,-2429],[2180,28635],[-118,1327],[1427,16583],[239,649],[50,1620],[335,757],[1660,15916],[-1899,554],[-633,555],[-1405,-48],[-1279,287],[-899,517],[-2786,411],[-1356,679],[-1672,375],[-2279,-213],[-443,-392],[-1786,-125],[-557,-239],[-1976,736],[-823,-154],[-1077,1299],[-887,298],[124,383],[-828,236],[-1109,698],[-544,743],[18,2248],[1650,273],[1010,1737],[229,3421],[212,1467],[43,2425],[1631,398],[1736,-143],[366,1082],[913,306],[836,613],[1026,201],[1420,891],[2053,307],[1064,-125],[621,632],[1761,201],[1483,871],[1293,-38],[862,603],[1508,115],[1913,-277],[723,-259],[2230,285],[311,2981],[7594,112],[5741,1629],[866,129],[538,-702],[-178,-1039],[871,-1649],[551,-561],[720,-151],[858,136],[1668,550],[1567,-627],[1379,-43],[430,-237],[62,-305],[-588,-1248],[-98,-2479],[163,-954],[1091,75],[2997,653],[929,677],[1298,403],[1602,-600],[740,16],[2721,849],[1323,753],[291,412],[2121,-537],[1160,-127],[1813,-465],[1340,-60],[806,-328],[1357,-1477],[921,-1947],[973,-1224],[723,-599],[1036,-249],[2275,1757],[1119,1000],[1144,627],[2865,-885],[-124,1479],[-74,7487],[1476,127],[480,650],[282,1143],[849,-64],[760,645],[1405,595],[3350,1596],[1286,49],[660,-1652],[343,-514],[2143,-32],[1825,287],[2848,-1118],[2095,-665],[-1209,-1987],[-187,-1898],[368,-1599],[-98,-1395],[7814,6664],[418,417],[1081,222],[320,-514],[1770,-1697],[443,-222],[867,-1028],[1462,-1304],[546,-788],[5070,-6342],[1170,1703],[1128,553],[225,1079],[1346,1014],[498,1071],[1160,980],[-839,1347],[849,848],[1478,1888],[848,-785],[370,184],[381,834],[587,96],[1697,-1802],[82,-1463],[872,-1432],[476,-2104],[-253,-842],[555,-920],[-193,-997],[-449,-220],[-115,-1064],[-410,-1073],[-1306,-219],[-1910,-1136],[-2395,-1874],[-1514,-782],[-1482,-618],[317,-120],[1102,449],[1149,262],[-515,-1173],[583,-545],[-1211,-2262],[-994,-1318],[-1317,-2277],[-454,-292],[-1158,-1743],[-580,-2175],[-1313,-43],[355,-564],[486,-2030],[-39,-575],[568,-663],[596,-1241],[259,-1976],[-4039,-575],[-1413,-357],[-762,3],[-988,423],[-829,-856],[-154,-611],[-940,-268],[901,-744],[139,-662],[779,-43],[-91,-2093],[4455,-2196],[22,-309],[1037,11],[198,-3239],[69,-3599],[306,-995],[1073,-1299],[2998,-5175],[90,-527],[-1837,-231]]],"bbox":[-119.168904,40.002126,-116.766037,42.392573],"transform":{"scale":[0.000002402869402869403,0.0000023904493904493923],"translate":[-119.168904,40.002126]}}
