{"type":"Topology","objects":{"foo":{"type":"GeometryCollection","geometries":[{"type":"MultiPolygon","arcs":[[[0,1,2,3,4,5]]],"properties":{"postal_code":"78076","realtor_list_price":141250,"realtor_list_price_yoy":-0.1118,"realtor_list_price_base":0.153,"realtor_active_listings":34.333,"realtor_active_listings_yoy":-0.0283,"realtor_active_listings_base":-0.1361,"realtor_new_listings":7.333,"realtor_new_listings_yoy":0.8333,"realtor_new_listings_base":0.0807,"realtor_days_on_market":89.182,"realtor_days_on_market_yoy":-0.3235,"realtor_days_on_market_base":-0.2634,"zhvi":127874.981,"zhvi_yoy":-0.0517,"zhvi_base":-0.1311,"zori":"NA","zori_yoy":"NA","zori_base":"NA"}},{"type":"MultiPolygon","arcs":[[[-4,6]]],"properties":{"postal_code":"78564","realtor_list_price":"NA","realtor_list_price_yoy":"NA","realtor_list_price_base":"NA","realtor_active_listings":1,"realtor_active_listings_yoy":0,"realtor_active_listings_base":"NA","realtor_new_listings":0,"realtor_new_listings_yoy":"NaN","realtor_new_listings_base":"NA","realtor_days_on_market":"NA","realtor_days_on_market_yoy":"NA","realtor_days_on_market_base":"NA","zhvi":"NA","zhvi_yoy":"NA","zhvi_base":"NA","zori":"NA","zori_yoy":"NA","zori_base":"NA"}},{"type":"MultiPolygon","arcs":[[[-6,7]]],"properties":{"postal_code":"78067","realtor_list_price":"NA","realtor_list_price_yoy":"NA","realtor_list_price_base":"NA","realtor_active_listings":1,"realtor_active_listings_yoy":-0.4,"realtor_active_listings_base":-0.6088,"realtor_new_listings":0,"realtor_new_listings_yoy":-1,"realtor_new_listings_base":-1,"realtor_days_on_market":"NA","realtor_days_on_market_yoy":"NA","realtor_days_on_market_base":"NA","zhvi":"NA","zhvi_yoy":"NA","zhvi_base":"NA","zori":"NA","zori_yoy":"NA","zori_base":"NA"}},{"type":"MultiPolygon","arcs":[[[8,-2]]],"properties":{"postal_code":"78361","realtor_list_price":94975,"realtor_list_price_yoy":0.1062,"realtor_list_price_base":"NA","realtor_active_listings":18.333,"realtor_active_listings_yoy":0.1,"realtor_active_listings_base":0.0824,"realtor_new_listings":0.667,"realtor_new_listings_yoy":-0.6667,"realtor_new_listings_base":0.0311,"realtor_days_on_market":130,"realtor_days_on_market_yoy":0.6049,"realtor_days_on_market_base":"NA","zhvi":82376.914,"zhvi_yoy":-0.0313,"zhvi_base":-0.1654,"zori":"NA","zori_yoy":"NA","zori_base":"NA"}}]}},"arcs":[[[258672,744356],[1262,6166],[499,1165],[2600,2128],[1012,177],[21212,-1914],[1052,780],[27215,21997],[476,-406],[17897,-33462],[33341,-61585],[1037,-2131],[946,-3060],[1788,-795],[1555,-3787]],[[370564,669629],[9183,-16936],[5262,5981],[1365,564],[3007,4622],[3053,6985],[339,2564],[2254,1121],[1361,-2630],[3788,-1599],[2987,-4624],[4854,-4629],[2341,-1545],[-560,-410],[-771,-3024],[1943,-1405],[13190,-20354],[23606,19144],[11783,-18511],[1319,-2381],[6890,-10810],[-2744,-2489],[-536,-6161],[7128,-1370],[11,-2683],[-663,-4577],[-1837,2],[864,-2552],[-665,-3186],[772,-270],[-611,-4452],[-3092,120],[-1448,-620],[-2270,-2479],[-9939,-18371],[-813,-1230],[-4259,-4694],[-1450,-986],[-5831,-2050],[-2625,-203],[-4708,471],[-6094,0],[-6432,-1840],[-1743,-822],[-5499,-3677],[-5457,-2122],[-2303,-2286],[-5999,-9387],[3139,-4730],[953,-699],[3399,-5332],[2774,-629],[2100,1475],[2641,-3509],[-2644,-3362],[-3169,-5532],[-11742,-9145],[-5081,-2004],[-840,-40],[-1147,1852],[-1194,3498],[220,1588],[-6278,9621],[-33191,-26999],[6807,-10138],[1190,-7],[3486,-5368],[-725,-1307],[21935,-33362],[372,476],[14789,11831],[2616,2730],[2069,640],[468,-759],[2218,415],[3306,8147],[1308,1939],[1844,3891],[-1868,2412],[-1935,8281],[948,2141],[-1094,5569],[774,2380],[5764,1838],[2920,1452],[2703,-3190],[5451,-931],[6564,-858],[2306,512],[2085,-486],[9910,540],[17558,-11239],[15655,-2853],[2736,1905],[2570,1005],[-451,-83081],[553,-69389]],[[484287,335027],[-99,-51450],[-9064,-3101],[-10243,5818],[-2954,5136],[-258,3253],[-1271,1092],[-2492,6335],[-1202,2167],[-2525,-1818],[-13921,-11281],[2399,-3847],[-2031,-2392],[-732,-6125],[-944,-1647],[-3218,-196],[-852,-1392],[-9638,1929],[-9404,-7009],[151,-959],[17682,-27745],[2256,-1452],[4238,-5654],[2754,-10493],[652,-3616],[-682,-2481],[-10,-4460],[-484,-923],[2854,-4473],[799,-7789],[-272,-4679],[-310,-2075],[-4652,-2586],[-2446,-956],[-2823,-2859],[-404,-1599],[1403,-6828],[-1543,-7241],[648,-5667],[-719,-930],[-1289,-4116],[-2150,-1839],[-2236,-3676],[-2125,-6120],[-3669,-96],[-1175,-5691],[-873,-2350],[-2259,-3233],[-370,-3170],[1889,-5654],[2951,-4150],[-36,-1919],[1660,-683],[1942,-3512],[345,-1738],[5397,-4042],[353,-2491],[-329,-3297],[-1254,-1315],[2277,-5909],[-4861,-11680],[-5103,-4836],[-5766,-4798],[-10859,-8032],[-17760,-15124],[-6365,-4726],[-31965,-26027],[-3835,12702],[3011,1177],[1520,3788],[-3268,6089],[-1531,-623],[-3501,1990],[-1852,6089]],[[341844,56022],[-2950,10098],[-1574,14709],[-3035,29495],[-791,7596],[1061,392],[-434,4466],[2427,-1151],[2515,2092],[814,1456],[6808,6795],[1567,2539],[7592,6208],[-3337,5147],[-9209,-7572],[-868,1280],[-3711,-3973],[-3980,-1004],[-400,844],[-2444,-1869],[-1285,13220],[-752,22240],[-207,-1281],[-2586,601],[-4779,3787],[-1706,603],[-1683,2597],[-1069,-1907],[-1146,930],[-1302,-2175],[-1385,657],[-1927,-4534],[-1622,-1116],[-245,-1896],[-1290,-1466],[-1054,-7057],[-475,-851],[193,-5223],[-601,-1414],[-3290,2527],[-909,1260],[-3344,2358],[-433,1072],[-3346,135],[635,-1661],[2769,-886],[160,-1661],[1598,-1721],[-3869,-728],[-392,-1240],[-1931,-92],[-102,-3100],[-862,-1059],[921,-2639],[-405,-1445],[-1098,133],[-3322,-1023],[-1277,851],[-1182,-1541],[1971,-1158],[2169,-3229],[1924,-1133],[-2781,-1799],[-518,-2572],[1508,-2546],[-302,-1446],[-2109,-1767],[498,-1407],[-1456,-2893],[445,-1720],[2163,-309],[3130,656],[-60,-2425],[1990,-1634],[2667,1739],[267,-1399],[1591,-1802],[1985,850],[1586,-691],[1015,2270],[2746,1285],[-270,-4421],[3790,970],[2627,3220],[404,-1413],[2281,-55],[1705,-959],[1833,1648],[-132,3784],[648,-2391],[2276,-1438],[4205,-548],[3370,-2965],[1372,644],[1061,-1388]],[[332894,110383],[-3211,-946],[-3337,-484],[-4307,1209],[-16471,-3868],[-15073,-1934],[-7967,-2418],[-2583,-3142],[-2476,-3506],[-969,-3747],[-2153,-5923],[-8075,-7373],[-20760,-12504],[-9137,45620],[1009,37502],[-4241,3609],[-25921,22051],[-2347,51602],[-668,1162],[-18490,32183],[-6209,33514],[-6029,9471],[-5466,8585],[-14225,8987],[-14902,-854],[-6043,1330],[-3995,5751],[-2574,3704],[-583,839],[-1524,3502],[-2826,1730],[-273,1423],[2301,7005],[287,5417],[4276,20532],[-1115,6835],[-1662,4270],[-4796,3926],[-7430,4330],[-9162,2971],[-4751,-74],[-9204,4601],[-5728,137],[-5873,2592],[-5852,4046],[-5029,6265],[-3796,5570],[-2176,9156],[-2073,4381],[-1077,6555],[616,4013],[2834,2822],[8808,5436],[3674,3654],[697,4743],[-1786,2819],[-5720,1165],[-1054,614]],[[66277,461239],[-305,4493],[679,2106],[1983,2377],[812,2526],[-442,3598],[403,2830],[2418,4964],[-1640,-289],[-535,1814],[-1334,584],[326,-2692],[-1574,-2223],[-304,-2905],[708,-938],[-1573,-956],[1113,-2559],[-971,-455],[696,-3362],[-1423,1091],[12,-1968],[-1239,-528],[-6382,9063],[138,3006],[-1471,-582],[3290,4089],[653,-1411],[91,2817],[817,1922],[1606,-1263],[938,-1400],[5344,4729],[2991,-3696],[5449,-6796],[1310,-1897],[14956,-26759],[1367,-2000],[13829,-22378],[3886,1377],[3564,2878],[772,989],[212,1914],[2502,2304],[4401,2089],[4520,2849],[32857,26743],[300,1036],[1670,616],[31515,25635],[1361,10168],[-7461,2663],[-3158,1585],[-1592,2512],[-298,1605],[953,3084],[-1625,3126],[-4827,7277],[22541,19579],[4912,7511],[-323,6005],[2253,7400],[-498,2890],[4358,2762],[2789,1984],[-139,2024],[-1199,7771],[-915,3259],[-12552,19034],[-32,1227],[1411,2812],[-3416,4595],[-1222,2910],[1351,1255],[10756,8748],[2388,2106],[3053,7988],[-905,1545],[-10638,16664],[142,3398],[-2491,3513],[464,3238],[39642,31839],[997,546],[2899,109],[3561,-1110],[1883,1869],[1967,1263],[3708,8663],[2491,6734],[-269,21199],[1140,6385]],[[341844,56022],[-16629,-13568],[-3072,-1102],[-3635,-130],[-3408,-3085],[-1334,-5112],[-22210,-17921],[-2240,3324],[-1454,-961],[-766,-6299],[-1599,-8530],[-695,-1869],[-1804,168],[-890,-937],[-1039,998],[1057,2142],[-671,2184],[-2926,-1881],[-966,-45],[-1277,-1314],[-65,1506],[1323,1453],[-202,2230],[2197,1587],[107,1628],[-760,1185],[2624,1011],[1591,113],[196,2056],[-593,1527],[-979,-1118],[-719,1099],[-1305,-208],[-1520,783],[-54,2091],[1461,1961],[1644,-703],[338,1131],[1378,603],[-504,1232],[-2873,1293],[256,1319],[1513,543],[107,1549],[1763,-2019],[986,1696],[1674,-1281],[540,1368],[1116,-611],[1483,-2539],[-76,2069],[938,194],[-831,1409],[399,1693],[-1218,430],[-580,1748],[1579,1901],[1710,669],[-1318,141],[-2316,1528],[-1406,1675],[-273,-1809],[-1811,-374],[-1888,898],[-885,1393],[-2006,-2451],[-261,2049],[-1721,222],[813,1949],[1045,-636],[1448,1164],[-426,2525],[3330,-75],[2214,-1339],[1556,1057],[2476,-737],[-226,1815],[678,669],[-2554,235],[-665,925],[381,1372],[2060,1011],[-1573,1059],[-2672,-622],[-665,883],[-1145,-702],[2357,4345],[-195,2097],[-1217,-435],[-1378,944],[-587,2464],[-2726,-4218],[-1330,-769],[-1877,509],[-1020,1279],[-1936,-588],[-1277,1158],[1812,2324],[-713,2022],[2014,2196],[-576,6550],[1396,1553],[-154,3905],[736,-596],[1359,-3028],[1752,-489],[778,-999],[-101,-4044],[1567,-1942],[683,-2291],[505,1648],[1140,796],[35,2552],[950,-1447],[832,1118],[232,2852],[653,-2591],[1347,896],[1326,2833],[1419,-992],[884,-2377],[1526,-1514],[1698,870],[736,-3495],[1110,-75],[575,-2564],[2167,-1903],[516,-1166],[-167,-3549],[2737,2906],[998,-1735],[3093,-290],[701,428],[6147,6252],[1604,923],[720,2618],[1057,-114],[-1804,3088],[-202,1307],[-1383,40],[-1284,-1667],[-3146,-232],[-2660,1761],[-154,1286],[2489,2290],[-1924,1903],[352,2009],[-1224,2083],[-814,-1680],[-1609,-1044],[-2209,13],[-884,1206],[-1960,-394],[-2453,2485],[2520,2002],[-701,448],[-41,3315],[-1901,-963],[-593,972],[-2661,1125],[-242,2305],[-2804,790],[-2197,-267],[-1051,2077],[404,2303],[1730,2376],[1620,-1265],[1064,688],[1691,-3596],[1748,4694],[2756,803],[2042,-1802],[819,-1748],[1213,2979],[1278,1319],[2000,-1113],[-64,965],[1716,294],[660,1627],[-926,844],[838,1700],[4240,-102],[1045,-1233],[2079,435],[-623,1018],[1420,1298],[2304,-1173],[2544,4647],[1698,905],[1289,-146],[780,-2337],[1110,785],[1177,-1600],[314,1366],[2191,1554],[2589,2566],[1769,725],[-109,1015]],[[66277,461239],[-1884,1098],[-4664,6197],[-11163,12001],[-2173,6358],[-988,4845],[-1504,3597],[-2586,2527],[-858,1855],[-3312,5011],[-4818,-817],[-8659,-6978],[-2690,-163],[-2720,1425],[-3645,3358],[-4028,4313],[-1993,2730],[-1119,3552],[779,3853],[1183,5777],[83,6045],[4,288],[-1622,8496],[-2421,7669],[-541,1442],[-2156,5747],[-1050,5362],[-298,3175],[1972,6127],[4902,4786],[10425,8369],[5100,15166],[-29,2544],[-1004,2189],[-7145,6777],[-4037,6025],[-303,1758],[362,2386],[621,1511],[7502,11165],[2703,8996],[-750,13345],[-6698,8775],[-1707,5264],[53,2376],[481,1579],[1477,2131],[2968,2191],[2221,1093],[2534,2834],[2199,10512],[1326,10309],[-181,3162],[-1145,4193],[-3110,17254],[-1165,4089],[-943,4830],[372,4707],[-78,2441],[-470,1948],[-2035,1912],[-6348,6228],[-3209,6517],[164,3182],[1401,3697],[2149,9446],[330,6111],[-468,9903],[-1480,3323],[-3620,5997],[-2213,2640],[-3196,5227],[-1362,1228],[27504,22557],[318,212],[51623,42242],[1181,835],[9173,-14294],[6103,-9509],[-1073,-177],[-4909,-4041],[-735,-309],[-5150,120],[-2247,874],[-781,1688],[-1270,891],[-9048,-7377],[-3138,-1835],[-2582,-3510],[682,-566],[-922,-1461],[3708,-5861],[-8302,-7524],[-2135,-1722],[-751,-1596],[-3491,-3733],[-435,-1933],[2303,-1144],[-793,-3199],[-3395,317],[-2059,-1415],[-5075,-446],[-6838,1294],[10755,-169410],[250,-1613],[296,-7011],[509,-7046],[1471,-5761],[-684,-3145],[2788,2337],[2712,3245],[15997,7603],[2202,-236],[2527,863],[3112,-1442],[2416,1751],[1541,6342],[8727,2334],[8846,-3040],[2210,213],[-2420,9503],[556,864],[10963,8700],[3598,-264],[6568,-9989],[11455,9341],[556,2244],[-1254,2573],[-20,1246],[-1082,2409],[-459,3242],[2031,2752],[2068,-59],[1798,766],[727,1356],[-49,2845],[-1442,614],[-322,2456],[521,2734],[-298,3013],[447,1869],[-323,3823],[-1242,1954],[-16,3744],[3105,2504],[2941,19275],[-3523,10368],[-1070,1577],[3144,2547],[895,-360],[1572,-2241],[9375,7648],[1539,1485],[-1766,2518],[-340,2028],[-2998,4140],[-2471,1396],[-2282,2074],[929,862],[6137,12466],[1802,2199],[4597,2254],[2031,1359],[4229,1693],[3387,-137],[3101,1112],[3715,-1343],[2252,4060],[1037,4228],[2308,869],[32216,26204],[521,1238],[1839,655],[3853,3086],[-389,-848],[10255,-16540],[-228,-710],[7178,-11486],[522,-414],[5452,857],[1017,-74],[2257,-2375],[-1167,-3127],[2504,-6182],[323,-1366],[-143,-3363],[5792,-1982],[-2721,-5071],[-2841,-3178],[9190,-2240],[1170,684],[1595,-2705],[1329,-631]],[[370564,669629],[1350,3819],[817,796],[7969,5784],[2139,1957],[-6139,6793],[-1428,3183],[-1449,719],[-3364,750],[-4276,3321],[-4202,6995],[1052,2003],[25385,23879],[1457,-1735],[-591,-2905],[3415,-3987],[962,-747],[7097,8333],[1566,251],[1441,3395],[2462,2972],[-5314,9584],[1592,1282],[2721,8797],[6834,-1018],[14757,12045],[-6482,10427],[-1700,1586],[-2986,659],[-7859,11781],[42,597],[3395,3488],[15478,-6586],[2628,4882],[4840,313],[2156,-437],[-927,9891],[522,521],[-2858,6137],[-550,2910],[51315,-537],[147283,-1640],[4501,-45],[-28,10629],[-103,67096],[6858,-3561],[2863,3802],[8127,-5090],[2161,-4037],[2510,-2418],[-2606,-1691],[-6349,-484],[-5994,-6618],[-930,-470],[1050,-520],[1124,-2866],[46,-4014],[-721,-5380],[-856,-3500],[862,-1328],[4739,-1459],[2552,-446],[6400,398],[13610,90],[1139,-230],[-435,1700],[1416,1991],[365,1847],[-2499,1677],[212,2786],[1475,385],[1103,2356],[6,1986],[-1084,2330],[-3303,4968],[558,3345],[-242,1595],[-2830,2091],[2822,3441],[1236,1958],[46,1516],[2451,4493],[332,3948],[-13,9028],[-10433,13578],[-3639,4670],[-4206,4007],[-2813,3142],[-572,1170],[-6596,20134],[-1419,2506],[-6445,5750],[654,1450],[-269,5319],[4954,1708],[4465,-1673],[131,-2508],[2487,-485],[3010,-3424],[2046,597],[683,1429],[2807,1431],[-2156,2633],[-1491,365],[-47,3141],[-1561,127],[-1887,1500],[-2755,1119],[22503,25939],[-867,1324],[784,903],[1139,-1021],[3423,3982],[1494,-7999],[1667,105],[20326,3901],[-2557,-5202],[-1743,-2463],[-1941,-1729],[-6181,-3979],[73075,-27625],[-19,-31831],[-754,-4716],[21352,278],[22973,263],[182,8888],[-98,10533],[13427,-5527],[10049,-3715],[875,-1976],[1359,-1120],[-49,-71],[221,-231],[-8030,-12111],[-663,-1589],[114,-2818],[2085,-4592],[590,-2944],[-580,-2334],[-1700,-4212],[16743,101],[-58,24892],[35789,494],[164,-18660],[29179,-583],[52,-1],[-316,-48527],[-640,-46356],[-4005,1566],[-2967,2114],[-9991,8889],[-12845,9252],[-1799,-8943],[-6117,-4169],[-8679,-225],[1318,24354],[-2988,2089],[-3007,1335],[-2913,482],[-39449,-764],[3898,-7900],[2947,-4191],[1728,-990],[488,-2563],[1156,-828],[4442,-1276],[-100,-11668],[-975,-3810],[409,-7357],[-2043,-20],[-428,-1126],[1151,-2456],[219,-2518],[-1072,-4812],[5334,-467],[3978,-1874],[2570,-1785],[-13555,-2],[-51544,-292],[125,-2525],[1251,-2403],[15469,-15591],[-1588,-2644],[-7667,-11562],[-1010,-7011],[-1104,-10488],[593,-909],[7137,-2864],[1290,-260],[9205,4802],[1942,77],[-1412,7062],[14755,608],[215,-2426],[214,-25344],[282,-1701],[16755,164],[17839,988],[897,105],[2750,-23],[46572,1273],[184,-43109],[22306,-294],[0,-17224],[-4568,0],[7,-852],[-3143,-1055],[-1564,1144],[-2011,5917],[-2683,2260],[-1566,112],[-2212,-1338],[-472,-1340],[-2883,-780],[3895,-26611],[-28470,2877],[1242,3370],[1665,2873],[646,3292],[-248,4995],[572,3432],[-223,3405],[-3554,1115],[-2982,-1059],[-2187,56],[-2857,1199],[-3405,-224],[-24,-2734],[-621,-3544],[-1242,-2065],[-1565,-390],[-373,-2205],[-2708,-278],[-2799,4046],[-2270,612],[-249,2372],[1019,1758],[-1971,937],[-1533,1937],[-2236,-448],[-1292,-2315],[-2273,811],[693,-48178],[1340,-1231],[-149,-3989],[4000,251],[298,2204],[1763,29],[770,-1256],[194,-3745],[31393,503],[4566,1213],[4222,245],[851,-425],[2836,-4015],[421,-2454],[3501,-5833],[2283,-5135],[1414,-6724],[2405,-17217],[9512,-8047],[1189,4],[-229,7895],[2115,-1308],[222,-6028],[670,-1371],[-806,-691],[-13605,-16114],[-2238,-821],[-2538,367],[-238,-4410],[-10000,-35575],[15470,-20224],[-5502,1876],[-4268,2122],[-3349,2260],[-2606,950],[1166,-1256],[-149,-2567],[471,-2818],[-3377,-10044],[-919,-4576],[-1987,-15513],[49,-6529],[645,-2595],[2381,-1898],[421,-1450],[1712,-196],[1289,-2121],[-521,-4940],[371,-4017],[-818,-2009],[-51,-2595],[1165,-4323],[321,-2818],[-694,-2064],[-5135,-5633],[-2109,-3959],[347,-6945],[-100,-3906],[-1016,-3960],[-3746,-33],[-24499,438],[746,-8581],[708,-3021],[4992,-10149],[1698,-4864],[-480,-5386],[669,-587],[2554,-223],[2975,642],[3049,1758],[2976,3460],[-149,3795],[992,5970],[373,3515],[3074,111],[7315,2176],[1463,111],[2926,-754],[3893,307],[868,557],[198,1507],[-3091,9329],[33185,433],[613,568],[190,2991],[623,1532],[1067,143],[6039,-806],[4495,-1157],[9869,773],[39,-2376],[-2563,-4006],[-149,-1394],[2749,-6719],[-180,-3279],[649,-3832],[88,-2634],[-95,-11759],[1425,-682],[2051,825],[-25,-2170],[1436,-1150],[344,-2640],[-1428,-3483],[317,-2948],[-3559,-7042],[553,-681],[-1253,-3055],[-5143,-9050],[98,-2250],[-1003,-3240],[51762,-1642],[-1522,-18415],[4074,-7474],[-5304,-11524],[4535,-9961],[8313,-279],[-31,-8799],[1149,15],[-419,-35498],[-77199,361],[-6416,-167],[-118126,467],[-11823,62],[-27955,143],[-26818,124],[31,32158],[73,15373],[25,1675],[39,48151],[-3587,678],[-8873,-141],[-398,2373],[-2206,1953],[-3446,1673],[-12243,13041],[-6764,0],[286,3037],[1213,2652],[-11929,13415],[-1217,4882],[-6520,8736],[-871,1795],[-183,31689],[240,4458],[23,14918],[-1668,-123],[-4577,-1102],[-5281,2248],[-27677,-10623],[-941,-111],[-1041,252],[-18124,11524],[-5959,923],[-6577,3011],[-1563,-170],[496,-864],[-1240,-2959],[-2232,1814],[618,3779],[-43433,5645],[-2902,-28],[531,3928],[-15182,2630],[-2310,-14404],[-6848,1233],[-4116,-28211],[-126,-2645],[761,-3539],[3005,-5907],[957,-4459],[-199,-1716],[-4395,-13450],[294,-1810],[-570,-1550],[-538,-449],[-2939,-63],[-19573,-10919],[-4468,-1761],[-2376,-508],[-117,-966],[-2097,436],[27,-7418],[-2416,-292],[-1266,-4757],[-4587,-5478]]],"bbox":[-99.4537957,26.602406,-98.422184,27.424301],"transform":{"scale":[0.0000010316127316127306,8.218958218958232e-7],"translate":[-99.4537957,26.602406]}}
